"schoolId","schoolName","schoolAddress","province","school_level","lat","long"
"20100184","SMAS MUHAMMADIYAH 14 JAKARTA","JL. DANAU LIMBOTO NO. 2","Prop. D.K.I. Jakarta","SMA","-6.2080000","106.8082000"
"20103424","SMAS ARENA SISWA 2","JL. KRAMAT ASEM RAYA NO. 46","Prop. D.K.I. Jakarta","SMA","-6.2035000","106.8707000"
"20101625","SMAN 16 JAKARTA","JL. BELIBIS TERUSAN NO. 16","Prop. D.K.I. Jakarta","SMA","-6.1933000","106.7862000"
"20103284","SMAN 14 JAKARTA","JL. SMA BARAT CILILITAN","Prop. D.K.I. Jakarta","SMA","-6.2563000","106.8678000"
"20101622","SMAN 2 JAKARTA","JL. GAJAH MADA NO. 175","Prop. D.K.I. Jakarta","SMA","-6.1485000","106.8161000"
"20100795","SMAN 73 JAKARTA","JL. RAYA CAKUNG CILINCING","Prop. D.K.I. Jakarta","SMA","-6.1115000","106.9244000"
"20103181","SMAS MUHAMMADIYAH 12 JAKARTA","JL. KHA DAHLAN NO. 20","Prop. D.K.I. Jakarta","SMA","-6.2088000","106.8630000"
"20107400","SMAS YAPPENDA","JL. SWASEMBADA TIMUR V NO. 10","Prop. D.K.I. Jakarta","SMA","-6.1252000","106.8905000"
"20103425","SMAS ANGKASA 2 H PERDANAKUSUMA","AVIA KOMPLEK SKADRON","Prop. D.K.I. Jakarta","SMA","-6.2755000","106.8883000"
"20107275","SMAS 28 OKTOBER 1928","JL. Mampang Prapatan XI","Prop. D.K.I. Jakarta","SMA","-6.2629000","106.8176000"
"20107398","SMAS WIJAYA KUSUMA JAKARTA","JL. BANDENGAN UTARA NO. 80","Prop. D.K.I. Jakarta","SMA","-6.1359000","106.8017000"
"20103204","SMAS DIPONEGORO 2 JAKARTA","JL. KAYU TINGGI CAKUNG","Prop. D.K.I. Jakarta","SMA","-6.1798000","106.9479000"
"20107382","SMAS KRISTEN IPEKA PLUIT","JL. PLUIT TIMUR B UTARA NO. 1","Prop. D.K.I. Jakarta","SMA","-6.1211000","106.7743000"
"20107342","SMAS YMIK 2 JAKARTA","MANGGARAI UTARA VII","Prop. D.K.I. Jakarta","SMA","-6.2112000","106.8522000"
"20104438","SMAS SUMPAH PEMUDA","JL.RAYA JOGLO NO.36","Prop. D.K.I. Jakarta","SMA","-6.2204000","106.7369000"
"20177916","SMAS LENTERA INDONESIA","JL. SULTAN ISKANDAR MUDA NO. 98","Prop. D.K.I. Jakarta","SMA","-6.2510000","106.7763000"
"20100603","SMAS KRISTEN YUSUF","JL. ARWANA 2/16 JEMBATAN DUA","Prop. D.K.I. Jakarta","SMA","-6.1414000","106.7948000"
"69856892","SMA NORTH JAKARTA INTERCULTURAL SCHOOL","JL. BOULEVARD BUKIT GADING RAYA","Prop. D.K.I. Jakarta","SMA","-6.1585530","106.8960250"
"20107374","SMA DARMA SATRIA PERSADA","JL. KOMPLEK TELUK INDAH BLOK Q2 NO. 2-4","Prop. D.K.I. Jakarta","SMA","-6.1392000","106.7740000"
"20100183","SMAS MUHAMMADIYAH 16 JAKARTA","JL. KALIBARU BARAT NO. 52D","Prop. D.K.I. Jakarta","SMA","-6.1699000","106.8465000"
"20103238","SMAS IGN SLAMET RIYADI","JL. RAYA BOGOR KM.24","Prop. D.K.I. Jakarta","SMA","-6.3169000","106.8624000"
"20107307","SMAS ISLAM AL-KHOLIDIN JAKARTA","Jalan Wijaya I Blok O Komp Masjid Syarif Hidayatullah","Prop. D.K.I. Jakarta","SMA","-6.2471000","106.8063000"
"20100811","SMAN 41 JAKARTA","JL. LAKS. RE MARTADINATA","Prop. D.K.I. Jakarta","SMA","-6.1304000","106.8525000"
"20101327","SMAS 3 KALAM KUDUS","JL.GREEN GARDEN B4 / 1","Prop. D.K.I. Jakarta","SMA","-6.1894000","106.7614000"
"20107399","SMAS YANIIC JAKARTA","JL. TELUK SEMANGKA NO. 103","Prop. D.K.I. Jakarta","SMA","-6.1411000","106.9278000"
"20103218","SMAS BUDAYA JAKARTA","JL. DERMAGA BARU KLENDER","Prop. D.K.I. Jakarta","SMA","-6.2189000","106.9067000"
"20107191","SMAS IT AL HALIMIYAH JAKARTA","JL. ROBUSTA RAYA NO. 31","Prop. D.K.I. Jakarta","SMA","-6.2250000","106.9467000"
"20100191","SMAS KRISTEN KETAPANG 1 JAKARTA","JL. K.H. ZAINUL ARIFIN 35","Prop. D.K.I. Jakarta","SMA","-6.1606000","106.8141000"
"20108383","SMAS SANTA URSULA","JL. POS NO. 2","Prop. D.K.I. Jakarta","SMA","-6.1687000","106.8340000"
"69889105","SMA MAHATMA GADING INTERCULTURAL SCHOOL","Jl. Boulevard BGR Komplek Villa Gading Indah Blok Q","Prop. D.K.I. Jakarta","SMA","-6.1468670","106.9076740"
"20107389","SMAS PERMATA INDAH JAKARTA","JL. KAMPUNG GUSTI BLOK A /1","Prop. D.K.I. Jakarta","SMA","-6.1390000","106.7781000"
"20100198","SMAS SANTA THERESIA JAKARTA","JL. HAJI AGUS SALIM 75 JAKARTA","Prop. D.K.I. Jakarta","SMA","-6.1891000","106.8255000"
"20110265","SMAS PELITA KASIH","JL. TAMAN PALEM LESTARI BLOK E.9 NO.1","Prop. D.K.I. Jakarta","SMA","-6.1408000","106.7227000"
"20107331","SMAS SULUH JAKARTA","JL. PALAPA RAYA NO. 1","Prop. D.K.I. Jakarta","SMA","-6.2883000","106.8422000"
"20107283","SMAS BINA NUSANTARA","JL. SULTAN ISKANDAR MUDA G. 8","Prop. D.K.I. Jakarta","SMA","-6.2595000","106.7821000"
"20100490","SMAS PSKD 1 JAKARTA","JL. DIPONEGORO NO. 80","Prop. D.K.I. Jakarta","SMA","-6.1803000","106.8401000"
"20104413","SMAS DIAN HARAPAN","JL. BEDUGUL DAAN MOGOT BARU NO. 1","Prop. D.K.I. Jakarta","SMA","-6.1478000","106.7075000"
"20107250","SMAS PSKD MANDIRI","JL. GGSY RATULANGI NO.14","Prop. D.K.I. Jakarta","SMA","-6.1886000","106.8319000"
"20101617","SMAS TUNAS INDONESIA","JL. DURI SEMANAN RT.01/01","Prop. D.K.I. Jakarta","SMA","-6.1625000","106.7135000"
"69816348","SMA KATOLIK LIA STEPHANIE","Taman Surya V Blok EE2 No. 20-27","Prop. D.K.I. Jakarta","SMA","-6.1425940","106.7095300"
"20103229","SMAS JAKARTA RAYA","JL. RAYA PONDOK GEDE  NO. 36","Prop. D.K.I. Jakarta","SMA","-6.2883000","106.8993000"
"20102231","SMAK TIRTAMARTA - BPK PENABUR","Jl. Sekolah Kencana IV, Pondok Indah","Prop. D.K.I. Jakarta","SMA","-6.2838000","106.7882000"
"20100611","SMAS PUSAKA NUSANTARA","JL. EDAM 2 NO. 17","Prop. D.K.I. Jakarta","SMA","-6.1110000","106.8919000"
"20100802","SMAN 110 JAKARTA","JL. BENDUNGAN MELAYU NO 80","Prop. D.K.I. Jakarta","SMA","-6.1337000","106.9050000"
"20101301","SMAS REGINA PACIS","JL. PALMERAH UTARA I","Prop. D.K.I. Jakarta","SMA","-6.2014000","106.7969000"
"20103228","SMAS KRISTEN 7 BPK PENABUR JAKARTA","JL. RAYA CIPINANG INDAH II","Prop. D.K.I. Jakarta","SMA","-6.2368000","106.8934000"
"20100186","SMAS KRISTEN 2 BPK PENABUR","JL. PINTU AIR RAYA NO. 11","Prop. D.K.I. Jakarta","SMA","-6.1667000","106.8313000"
"20100781","SMAN 83 JAKARTA","JL. TIPAR CAKUNG","Prop. D.K.I. Jakarta","SMA","-6.1561000","106.9274000"
"20112503","SMAS K CALVIN","JL. INDUSTRI B14 KAV. 1","Prop. D.K.I. Jakarta","SMA","-6.1528000","106.8429000"
"20107370","SMA BINA TUNAS BANGSA","JL. PLUIT TIMUR BLOK MM","Prop. D.K.I. Jakarta","SMA","-6.1420000","106.7949000"
"20104407","SMAS BUKIT SION","TAMAN KEBON JERUK BLOK GA 1","Prop. D.K.I. Jakarta","SMA","-6.2001000","106.7445000"
"20109180","SMAS MARIE JOSEPH","JL PUSPA GADING I BLOK H2 No.10-12 Pegangsaan Dua Kelapa Gading Jakarta Utara","Prop. D.K.I. Jakarta","SMA","-6.1731000","106.9148000"
"20103212","SMAS CAHAYA SAKTI JAKARTA","JL. OTISTA NO. I/II","Prop. D.K.I. Jakarta","SMA","-6.2253000","106.8682000"
"20100199","SMAN 68 JAKARTA","JL. SALEMBA RAYA 18","Prop. D.K.I. Jakarta","SMA","-6.1979000","106.8509000"
"20103278","SMAN 91 JAKARTA","JL.LEMBAH LONTAR","Prop. D.K.I. Jakarta","SMA","-6.2389000","106.9328000"
"20107318","SMAS MUTTAQIEN JAKARTA","JL. ASEM BARIS RAYA NO. 5","Prop. D.K.I. Jakarta","SMA","-6.2334000","106.8620000"
"69755458","SMA PELANGI KASIH","TAMAN GRISENDA A1/28 JL. PANTAI INDAH TIMUR","Prop. D.K.I. Jakarta","SMA","-6.0995000","106.7197000"
"20100804","SMAN 114 JAKARTA","JL. PEDONGKELAN NO 25","Prop. D.K.I. Jakarta","SMA","-6.1095000","106.9349000"
"20101342","SMAS DAMAI","JL. DURI SELATAN V NO. 29","Prop. D.K.I. Jakarta","SMA","-6.1593000","106.8045000"
"20101329","SMAS CENGKARENG 1","JL. BAMBU LARANGAN RAYA NO. 67","Prop. D.K.I. Jakarta","SMA","-6.1426000","106.7182000"
"20108506","SMAS PGRI 15 JAKARTA","JL. MUTIARA","Prop. D.K.I. Jakarta","SMA","-6.2089000","106.8148000"
"20103214","SMAS BUDHI WARMAN 2","JL. RAYA BOGOR KM.28","Prop. D.K.I. Jakarta","SMA","-6.3407000","106.8650000"
"20107394","SMAS ST MARIA DELLA STRADA","JL. PADEMANGAN I GG. 7/18","Prop. D.K.I. Jakarta","SMA","-6.1321000","106.8342000"
"20102563","SMAN 90 JAKARTA","Jl. Sabar Petukangan`","Prop. D.K.I. Jakarta","SMA","-6.2435000","106.7481000"
"20103220","SMAS FRANSISKUS 2 JAKARTA","JL. BANGUNAN BARAT 29","Prop. D.K.I. Jakarta","SMA","-6.1849000","106.8808000"
"20107294","SMAS DEWI SARTIKA","JL. TEBET BARAT DALAM NO. 39","Prop. D.K.I. Jakarta","SMA","-6.2373000","106.8477000"
"20101332","SMAS BUNDA HATI KUDUS","JL. RAHAYU NO. 22","Prop. D.K.I. Jakarta","SMA","-6.1642000","106.7857000"
"20100210","SMAN 5 JAKARTA","JL. RAYA SUMUR BATU","Prop. D.K.I. Jakarta","SMA","-6.1594000","106.8669000"
"20101318","SMAS PROVIDENTIA","JL. KEDOYA RAYA NO. 35","Prop. D.K.I. Jakarta","SMA","-6.1662000","106.7636000"
"20107278","SMAS ASISI JAKARTA","JL. HAJI RAMLI RT. 005/03","Prop. D.K.I. Jakarta","SMA","-6.2314000","106.8423000"
"20100181","SMAS TAMAN MADYA I JAKARTA","JL. SUNTER BENDUNGAN JAGO 11","Prop. D.K.I. Jakarta","SMA","-6.1573000","106.8571000"
"20103194","SMAS ST ALEXIUS JAKARTA","JL. AMAL NO. 2 RT. 06/01","Prop. D.K.I. Jakarta","SMA","-6.2268000","106.8994000"
"69939320","SMA Raffles Christian School Kelapa Gading","Jalan Gading Pelangi 1, Kelurahan Pegangsaan Dua, Kecamatan Kelapa Gading, Kota","Prop. D.K.I. Jakarta","SMA","-6.1707000","106.9025000"
"20109467","SMAS KRISTEN IPEKA PURI INDAH","JL. PURI INDAH BLOK I","Prop. D.K.I. Jakarta","SMA","-6.1878000","106.7500000"
"20100173","SMAS PASKALIS","JL. RANJAU NO. 13 KODAM","Prop. D.K.I. Jakarta","SMA","-6.1616000","106.8727000"
"20104424","SMAS KRISTEN IPEKA TOMANG","GREEN VILLE BLOK D","Prop. D.K.I. Jakarta","SMA","-6.1695000","106.7790000"
"20109516","SMAS INTERNATIONAL ISLAMIC HIGH SCHOOL (IIHS)","JL. HR. RASUNA SAID KAV. X-2 NO. 4","Prop. D.K.I. Jakarta","SMA","-6.2279000","106.8336000"
"20102213","SMAN 37 JAKARTA","JL. H. KEBON BARU","Prop. D.K.I. Jakarta","SMA","-6.2346000","106.8587000"
"20103430","SMAS PSKD II JAKARTA","JL. TAMAN SLAMET RIYADI NO. 03","Prop. D.K.I. Jakarta","SMA","-6.2115000","106.8589000"
"20103187","SMAS VILLA MAS JAKARTA","JL. KAYU PUTIH UTARA 3C","Prop. D.K.I. Jakarta","SMA","-6.1813000","106.8975000"
"20101624","SMAN 17 JAKARTA","JL. Mangga Besar IV/I No.27","Prop. D.K.I. Jakarta","SMA","-6.1525000","106.8240000"
"20101353","SMAS FATAHILLAH","JL. DR. SEMERU RAYA NO. 1","Prop. D.K.I. Jakarta","SMA","-6.1585000","106.7962000"
"20103428","SMAS AL GHURABAA JAKARTA","JL. TENGGIRI RAYA NO. 47","Prop. D.K.I. Jakarta","SMA","-6.1992000","106.8921000"
"20101330","SMAS CANDRA NAYA","JL. JEMBATAN BESI II NO. 26","Prop. D.K.I. Jakarta","SMA","-6.1501000","106.7962000"
"20102565","SMAN 86 JAKARTA","Jl. Bintaro Permai IV No. 36","Prop. D.K.I. Jakarta","SMA","-6.2622000","106.7613000"
"20101606","SMAS TUNAS HARAPAN","JL. KOMPLEK BANK BNI PESING","Prop. D.K.I. Jakarta","SMA","-6.1554000","106.7719000"
"20103231","SMAS MALAHAYATI","JL. BIMA NO.3","Prop. D.K.I. Jakarta","SMA","-6.3249000","106.8594000"
"20101331","SMAS CAKRA BUANA","JL. KOMPLEK KEBERSIHAN 17","Prop. D.K.I. Jakarta","SMA","-6.1277000","106.7196000"
"20109933","SMAN UNGGULAN M.H. THAMRIN","JL BAMBU WULUNG","Prop. D.K.I. Jakarta","SMA","-6.3159000","106.9019000"
"20103216","SMAS BUDHAYA 2 ST AGUSTINUS","Jl. Radin Inten II, Buaran","Prop. D.K.I. Jakarta","SMA","-6.2207000","106.9230000"
"20103219","SMAS FONS VITAE 1 JAKARTA","JL. MATRAMAN RAYA NO. 129","Prop. D.K.I. Jakarta","SMA","-6.2074000","106.8594000"
"20100632","SMAS TUNAS GADING","JL. GADING PUTIH RAYA P2/23","Prop. D.K.I. Jakarta","SMA","-6.1680000","106.9121000"
"20107287","SMA BUNDA KANDUNG JAKARTA","JL.POL. TANGAN RAYA NO.41","Prop. D.K.I. Jakarta","SMA","-6.2955000","106.8429000"
"20103173","SMAS PEMBANGUNAN 3 JATINEGARA","RAYA BEKASI KM. 18","Prop. D.K.I. Jakarta","SMA","-6.1882000","106.9648000"
"20107288","SMA CENDERAWASIH 1","JL. RS. FATMAWATI KOMPLEK KEMLU","Prop. D.K.I. Jakarta","SMA","-6.3127000","106.7943000"
"20103183","SMAS PKP","JL. KELAPA DUA WETAN","Prop. D.K.I. Jakarta","SMA","-6.3390000","106.8834000"
"20108504","SMAS NASIONAL ANGLO","JL. RAJAWALI SELATAN NO. 10 X","Prop. D.K.I. Jakarta","SMA","-6.1927000","106.8673000"
"20107289","SMA CHARITAS","JL. MAWAR INDAH 75","Prop. D.K.I. Jakarta","SMA","-6.2967000","106.7716000"
"20107384","SMAS KRISTEN TUNAS BANGSA","JL SUNTER GARDEN BLOK. C-7","Prop. D.K.I. Jakarta","SMA","-6.1392000","106.8749000"
"20100607","SMAS PERMAI JAKARTA","JL. PLUIT KARANG BARAT BLOK O - VI","Prop. D.K.I. Jakarta","SMA","-6.1211000","106.7742000"
"","SMA HERITAGE SCHOOL JAKARTA","Jl. Letjen Soepono No 34","Prop. D.K.I. Jakarta","SMA","-6.2713475","106.7819156"
"20107319","SMAN 28 JAKARTA","Jl. Raya Ragunan","Prop. D.K.I. Jakarta","SMA","-6.2858000","106.8332000"
"20100200","SMAN 7 JAKARTA","JL. KARET PS. BARU BARAT V","Prop. D.K.I. Jakarta","SMA","-6.2109000","106.8147000"
"20107280","SMAS BAKTI IDHATA JAKARTA","JL. MELATI NO. 25","Prop. D.K.I. Jakarta","SMA","-6.2836000","106.7942000"
"20100505","SMAS ISLAM AL - JIHAD JAKARTA","JL. KRAMAT JAYA BARU","Prop. D.K.I. Jakarta","SMA","-6.1857000","106.8517000"
"20102562","SMAN 97 JAKARTA","JL. BRIGIF 2 CIGANJUR","Prop. D.K.I. Jakarta","SMA","-6.3422000","106.8010000"
"20103185","SMAS WIJAYA KUSUMA","JL. MUJAHIDIN NO. 17A RAMBUTAN. JAKTIM","Prop. D.K.I. Jakarta","SMA","-6.3084000","106.8803000"
"20104417","SMAS JOSUA","Jl. Kota Bambu Utara II No. 08","Prop. D.K.I. Jakarta","SMA","-6.1855000","106.8073000"
"20107326","SMAS PGRI 3 JAKARTA","JL. PONDOK LABU IB NO. 29A","Prop. D.K.I. Jakarta","SMA","-6.3046000","106.7920000"
"20101623","SMAN 19 JAKARTA","JL. PERNIAGAAN NO. 31","Prop. D.K.I. Jakarta","SMA","-6.1445000","106.8221000"
"20104430","SMAS PETRA","JL. TAMAN ALFA INDAH BLOK A- 11","Prop. D.K.I. Jakarta","SMA","-6.2197000","106.7503000"
"20100630","SMAS DHARMA BUDHI BHAKTI JAKARTA","JL. AGUNG TENGAH VII NO. 1","Prop. D.K.I. Jakarta","SMA","-6.1445000","106.8684000"
"69873573","SMA WESTIN","TELUK GONG JL. G NO 408","Prop. D.K.I. Jakarta","SMA","-6.1360750","106.7818620"
"20103298","SMAN 44 JAKARTA","JL. DELIMA IV PERUMNAS KLENDER","Prop. D.K.I. Jakarta","SMA","-6.2222000","106.9292000"
"20100608","SMAS PGRI 12 JAKARTA","JL. TABAH I NO. 5","Prop. D.K.I. Jakarta","SMA","-6.1633000","106.8852000"
"20103205","SMAS DIPONEGORO 1 JAKARTA","JL. SUNAN GIRI NO. 5","Prop. D.K.I. Jakarta","SMA","-6.1955000","106.8832000"
"20102211","SMAN 43 JAKARTA","JL. MINANGKABAU DALAM","Prop. D.K.I. Jakarta","SMA","-6.2171000","106.8410000"
"20103215","SMAS BUDHI WARMAN 1","JL. RAYA BOGOR KM. 19","Prop. D.K.I. Jakarta","SMA","-6.2854000","106.8728000"
"20101337","SMAS BHINEKA TUNGGAL IKA","JL. K.H. M. MANSYUR NO. 222 A","Prop. D.K.I. Jakarta","SMA","-6.1473000","106.8066000"
"20104423","SMAK IPEKA INTEGRATED CHRISTIAN SCHOOL","KOMPLEK TAMAN MERUYA ILIR  JL. BATU MULIA BLOK K JAKARTA BARAT","Prop. D.K.I. Jakarta","SMA","-6.1994000","106.7379000"
"20101325","SMAS MUHAMMADIYAH 24","JL. DR. SUSILO 1 GROGOL","Prop. D.K.I. Jakarta","SMA","-6.1633000","106.7936000"
"20102571","SMAN 66 JAKARTA","JL. BANGO III PONDOK LABU CILANDAK JAKARTA SELATAN","Prop. D.K.I. Jakarta","SMA","-6.3066000","106.8050000"
"20103295","SMAS YP IPPI JAKARTA","JL. RAYA PANGGILINGAN A.ELOK","Prop. D.K.I. Jakarta","SMA","-6.1996000","106.9402000"
"20107311","SMA KEMALA BHAYANGKARI 1","Jl. Ampera Raya Komplek Polri Ragunan","Prop. D.K.I. Jakarta","SMA","-6.2831000","106.8195000"
"20101305","SMAS 4 KRISTEN PENABUR","JL. SURYA SRANA SUNRISE","Prop. D.K.I. Jakarta","SMA","-6.1749000","106.7626000"
"20103210","SMAS CORPATARIN JAKARTA","JL. PONDOK KOPI RAYA NO. 87","Prop. D.K.I. Jakarta","SMA","-6.2273000","106.9439000"
"20107298","SMAS GITTA KIRTTI 3 JAKARTA","JL. BRI RADIO DALAM","Prop. D.K.I. Jakarta","SMA","-6.2588000","106.7918000"
"20100177","SMAS PGRI 14 DKI JAKARTA","JL. SETIA KAWAN 3 NO. 25","Prop. D.K.I. Jakarta","SMA","-6.1645000","106.8014000"
"20100778","SMAS TUNAS KARYA JAKARTA","JL. PALEPAH KUNING NO. 3","Prop. D.K.I. Jakarta","SMA","-6.1609000","106.9036000"
"20103258","SMAN 93 JAKARTA","JL. RAYA BOGOR KOMP. PASWALPRES","Prop. D.K.I. Jakarta","SMA","-6.2918000","106.8692000"
"20109326","SMAS KASIH KARUNIA","Taman Palem Lestari Blok F6 No. 21-23","Prop. D.K.I. Jakarta","SMA","-6.1394000","106.7194000"
"20107274","SMAS 17 AGUSTUS 45 JAKARTA","JL. TEBET DALAM 3A","Prop. D.K.I. Jakarta","SMA","-6.2247000","106.8502000"
"20104410","SMAS  GLOBAL SEVILLA PURI INDAH","JL.KEMBANGAN RAYA BLOK JJ NO.1","Prop. D.K.I. Jakarta","SMA","-6.1773000","106.7462000"
"20103294","SMAN 100 JAKARTA","JL. PERSATUAN 2","Prop. D.K.I. Jakarta","SMA","-6.2294000","106.8826000"
"20103227","SMA KAPIN","JL. RAYA KALIMALANG","Prop. D.K.I. Jakarta","SMA","-6.2504000","106.9291000"
"20102564","SMAN 87 JAKARTA","JL Mawar II","Prop. D.K.I. Jakarta","SMA","-6.2864000","106.7612000"
"20101338","SMAS BAPTIS ELIM","JL DR. SUSILO 1 / 388","Prop. D.K.I. Jakarta","SMA","-6.1659000","106.7917000"
"20100600","SMA ISLAM AL-AZHAR KELAPA GADING","Jl. Bulevar Timur","Prop. D.K.I. Jakarta","SMA","-6.1635000","106.9097000"
"20101307","SMAS 2 KEMURNIAN","PERUM GREEN VILLE BLOK Q/209","Prop. D.K.I. Jakarta","SMA","-6.1689000","106.7795000"
"20100803","SMAN 111 JAKARTA","JL. BANDENGAN UTARA 80","Prop. D.K.I. Jakarta","SMA","-6.1359000","106.8017000"
"69772648","SMAS LAKESIDE MONTESSORI","VILLA CIBUBUR INDAH U1-16 CIBUBUR","Prop. D.K.I. Jakarta","SMA","-6.3510000","106.8768000"
"20107277","SMAS AL IZHAR JAKARTA","JL. RS. FATMAWATI KAV. 49","Prop. D.K.I. Jakarta","SMA","-6.3103000","106.7935000"
"69759048","SMAS BINA KUSUMA MULIA","CITRA GARDEN I BLOK I-8","Prop. D.K.I. Jakarta","SMA","-6.1011000","106.6936000"
"20101340","SMAS AL HUDA CENGKARENG","JL. UTAMA RAYA NO. 2","Prop. D.K.I. Jakarta","SMA","-6.1497000","106.7273000"
"20100484","SMAS AT TAQWA JAKARTA","JL. RAJAWALI SELATAN VI NO. 18","Prop. D.K.I. Jakarta","SMA","-6.1454000","106.8396000"
"20101351","SMAS 2 GALATIA","JL. MERPATI RAYA NO. 1","Prop. D.K.I. Jakarta","SMA","-6.1559000","106.7760000"
"20103427","SMAS AL HIKMAH JAKARTA","JL. JATI BARANG V NO. 40","Prop. D.K.I. Jakarta","SMA","-6.1917000","106.9007000"
"20103291","SMAN 104 JAKARTA","JL. H. TAIMAN BARAT KEL.GEDONG,JAKARTA TIMUR","Prop. D.K.I. Jakarta","SMA","-6.2991000","106.8622000"
"20107387","SMAS NURUL FALAH JAKARTA","DEWA KEMBARN KOMP.TNI AL","Prop. D.K.I. Jakarta","SMA","-6.1083000","106.9259000"
"20107320","SMAN 79 JAKARTA","JL. MENTENG PULO UJUNG","Prop. D.K.I. Jakarta","SMA","-6.2222000","106.8381000"
"20103289","SMAN 106 JAKARTA","JL. GANDARIA I PEKAYON PASAR REBO JAKARTA TIMUR","Prop. D.K.I. Jakarta","SMA","-6.3148000","106.8748000"
"20107390","SMAS SAINT PETER","JL. BOULEVARD TIMUR RAYA NO. 8","Prop. D.K.I. Jakarta","SMA","-6.1652000","106.9148000"
"20103196","SMAS SANTO YOSEPH JAKARTA","PERUM. METLAND MENTENG KAV F-4","Prop. D.K.I. Jakarta","SMA","-6.1815000","106.9697000"
"20103241","SMAS YAKE JAKARTA","JL. RAYA JATINEGARA  TIMUR","Prop. D.K.I. Jakarta","SMA","-6.2220000","106.8683000"
"20101614","SMAS SANTO LEO","JL. MANGGA BESAR RAYA NO. 43","Prop. D.K.I. Jakarta","SMA","-6.1497000","106.8202000"
"20100215","SMAS YP IPPI PETOJO JAKARTA","JL. PETOJO BARAT III/2","Prop. D.K.I. Jakarta","SMA","-6.1638000","106.8113000"
"20104411","SMAS DUTA BANGSA","JL. KAPUK RAYA RT 02/011-71","Prop. D.K.I. Jakarta","SMA","-6.1364000","106.7448000"
"20101467","SMAS SAN MARINO","JL. CITRA GARDEN I BLOK  I NO. 1","Prop. D.K.I. Jakarta","SMA","-6.1503940","106.6937310"
"20107328","SMAS PURNAMA JAKARTA","JL. TIRTAYASA V","Prop. D.K.I. Jakarta","SMA","-6.2415000","106.8058000"
"20103190","SMAS TUNAS MARKATIN JAKARTA","JL. WARU NO. 20 B","Prop. D.K.I. Jakarta","SMA","-6.1959000","106.8883000"
"20100211","SMAN 4 JAKARTA","JL. BATU NO. 3 GAMBIR","Prop. D.K.I. Jakarta","SMA","-6.1788000","106.8356000"
"20101314","SMA LAMAHOLOT","JL. JAGUNG RAYA BOJONG INDAH","Prop. D.K.I. Jakarta","SMA","-6.1634000","106.7369000"
"20103312","SMAN 51 JAKARTA","JL. BATU AMPAR 3 CONDET","Prop. D.K.I. Jakarta","SMA","-6.2767000","106.8614000"
"20107232","SMA ACS JAKARTA","JL. BANTAR JATI SETU","Prop. D.K.I. Jakarta","SMA","-6.3115000","106.9209000"
"20101334","SMAS BUDI MURNI 2","JL. PURI KEMBANGAN NO. 2","Prop. D.K.I. Jakarta","SMA","-6.1842000","106.7561000"
"20101619","SMAS 1 YADIKA","JL. TANJUNG DUREN BARAT IV/8","Prop. D.K.I. Jakarta","SMA","-6.1780000","106.7817000"
"20101588","SMAN 78 JAKARTA","JL. BHAKTI IV/1 KOMP. PAJAK","Prop. D.K.I. Jakarta","SMA","-6.1914000","106.7828000"
"69874086","SMA PELITA HARAPAN INTERNASIONAL","JL. PANGERAN ANTASARI NO. 36","Prop. D.K.I. Jakarta","SMA","-6.2499110","106.8315450"
"20100599","SMAS GANDHI ANCOL","JL. PANGANDARAN IX BLOK B4 No. 1","Prop. D.K.I. Jakarta","SMA","-6.1272000","106.8368000"
"20100188","SMAS KRISTEN BETHEL JAKARTA","JL. PETAMBURAN IV NO.4","Prop. D.K.I. Jakarta","SMA","-6.1964000","106.8058000"
"20103182","SMAS PGRI 4 JAKARTA","JL. RAYA CIPAYUNG","Prop. D.K.I. Jakarta","SMA","-6.3324000","106.8921000"
"20107334","SMA TARAKANITA 1 JAKARTA","JL. PULO RAYA IV NO 17","Prop. D.K.I. Jakarta","SMA","-6.2461000","106.8121000"
"20103195","SMAS SAPTA KHARISMA JAKARTA","JL. RAYA PULO GEBANG NO. 99","Prop. D.K.I. Jakarta","SMA","-6.1942000","106.9561000"
"","Jakarta Taipei School","Jl. Raya Kelapa Hybrida Blok QH Kelapa Gading Permai","Prop. D.K.I. Jakarta","SMA","-6.1709910","106.9089096"
"20103191","SMAS TRISOKO JAKARTA","JL. RAYA PONDOK GEDE DUKUH II/IV","Prop. D.K.I. Jakarta","SMA","-6.2684000","106.8607000"
"20101627","SMAN 101 JAKARTA","JL. KOMPLEK JOGLO BARU","Prop. D.K.I. Jakarta","SMA","-6.2175000","106.7205000"
"20107315","SMAS MUHAMMADIYAH 18 JAKARTA","JL. PANJANG CIPULIR RT. 008/009","Prop. D.K.I. Jakarta","SMA","-6.2345000","106.7717000"
"20103310","SMAN 54 JAKARTA","KOMPLEK PENDIDIKAN RAWA BUNGA JLNJATI NEGARA TIMUR IV JAKARTA TIMUR","Prop. D.K.I. Jakarta","SMA","-6.2214000","106.8705000"
"20103279","SMAN 9 JAKARTA","JL. SMU 9  HALIM PERDANA KUSUMA,JAKARTA TIMUR","Prop. D.K.I. Jakarta","SMA","-6.2587000","106.8815000"
"20103429","SMAS ADI LUHUR JAKARTA","JL. RAYA CONDET  NO. 4","Prop. D.K.I. Jakarta","SMA","-6.2930000","106.8557000"
"20107385","SMAS LAPHAT PLUS","JL. BAYANGKARA NO. 47","Prop. D.K.I. Jakarta","SMA","-6.1319000","106.9132000"
"20112406","SMAS PLUS KHADIJAH","JL. BATAN I NO.12 PASAR JUMAT RT 005 RW 02","Prop. D.K.I. Jakarta","SMA","-6.3103000","106.7990000"
"20102212","SMAN 38 JAKARTA","JL. RAYA LENTENG AGUNG","Prop. D.K.I. Jakarta","SMA","-6.3360000","106.8360000"
"20107269","SMAS AL CHASANAH","JL. TANJUNG DUREN BARAT 3/1","Prop. D.K.I. Jakarta","SMA","-6.1742000","106.7799000"
"20103293","SMAN 102 JAKARTA","JL. KAYU TINGGI,CAKUNG JAKARTA TIMUR","Prop. D.K.I. Jakarta","SMA","-6.1671000","106.9506000"
"20103426","SMAS ANGKASA 1 H PERDANAKUSUMA","JL. TRIKORA RAYA","Prop. D.K.I. Jakarta","SMA","-6.2502000","106.8823000"
"69883506","SMA GARUDA CENDEKIA","JL. BANGKA VII DALAM NO 14","Prop. D.K.I. Jakarta","SMA","-6.2566500","106.8182190"
"20104434","SMAS NASIONAL NUSANTARA","JL. CENDRAWASIH 2 NO. 1","Prop. D.K.I. Jakarta","SMA","-6.1450000","106.7282000"
"20101608","SMAS TRI RATNA","JL. TALIB I NO. 35-37","Prop. D.K.I. Jakarta","SMA","-6.1585000","106.8152000"
"20100812","SMAN 45 JAKARTA","JL. PERINTIS KEMERDEKAAN","Prop. D.K.I. Jakarta","SMA","-6.1746000","106.9056000"
"20107297","SMAS FATAHILLAH JAKARTA","JL. RAYA BUNCIT NO.67","Prop. D.K.I. Jakarta","SMA","-6.2741000","106.8319000"
"20101631","SMAS SANTO ANDREAS","KOMP GREEN GARDEN J 5 N0 1","Prop. D.K.I. Jakarta","SMA","-6.1889000","106.7583000"
"20101348","SMAS ISLAM TAMBORA","JL. TAMBORA MESJID NO. 11","Prop. D.K.I. Jakarta","SMA","-6.1453000","106.8100000"
"20107325","SMAS PERG CIKINI JAKARTA","JL. DUREN TIGA RAYA","Prop. D.K.I. Jakarta","SMA","-6.2527000","106.8333000"
"20103192","SMA TELADAN 1 JAKARTA","JL. MADRASAH  NO.49","Prop. D.K.I. Jakarta","SMA","-6.3182000","106.8966000"
"69935208","SMA ISLAM AL JABR","JL. BANGO II NO. 30 - 38 RT 006/03","Prop. D.K.I. Jakarta","SMA","-6.3072880","106.7930350"
"69948476","SMA PERGURUAN ADVENT XV ","Jl. Pembaharuan Kelapa Dua Wetan","Prop. D.K.I. Jakarta","SMA","-6.3471551","106.8813849"
"20102574","SMAN 6 JAKARTA","Jl. Mahakam I Blok C No. 2","Prop. D.K.I. Jakarta","SMA","-6.2429000","106.7975000"
"20104419","SMAS KRISTEN TIARA KASIH","JL.DARMA RAYA BLOK C1 TSI","Prop. D.K.I. Jakarta","SMA","-6.1642000","106.7248000"
"20104416","SMAS IMPIAN BUNDA","JL. FLAMBOYAN UTAMA III B C7 NO.1 A","Prop. D.K.I. Jakarta","SMA","-6.1558000","106.7176000"
"20101587","SMAN 84 JAKARTA","JL. PETA BARAT NO. 42","Prop. D.K.I. Jakarta","SMA","-6.1449000","106.7044000"
"20101605","SMAN 56 JAKARTA","JL. RAYA KAMAL","Prop. D.K.I. Jakarta","SMA","-6.1199000","106.7200000"
"69774557","SMAS SPRINGFIELD","JL. PULAU SELAYAR BLOK B 1 NO 1","Prop. D.K.I. Jakarta","SMA","-6.1754000","106.7384000"
"20100224","SMAN 30 JAKARTA","JL. JEND. A. YANI","Prop. D.K.I. Jakarta","SMA","-6.1869000","106.8749000"
"20107322","SMAS PANGUDI LUHUR JAKARTA","JL. BRAWIJAYA IV NO. 47","Prop. D.K.I. Jakarta","SMA","-6.2536000","106.8064000"
"20107292","SMAS DARUNNAJAH","JL.ULUJAMI RAYA NO. 86","Prop. D.K.I. Jakarta","SMA","-6.2474000","106.7623000"
"69754377","SMAS NARADA","Perumahan Kosambi Baru Blok A Ext. 1","Prop. D.K.I. Jakarta","SMA","-6.1719580","106.7157410"
"20102217","SMAN 29 JAKARTA","Jl. Kramat No.6","Prop. D.K.I. Jakarta","SMA","-6.2372000","106.7840000"
"20103290","SMAN 105 JAKARTA","Jln. Usman Kelapa Dua Wetan","Prop. D.K.I. Jakarta","SMA","-6.3316000","106.8837000"
"20102230","SMAN 108 JAKARTA","Jl. Kesadaran, Ulujami Raya","Prop. D.K.I. Jakarta","SMA","-6.2527000","106.7619000"
"20107306","SMAS ISLAM AL-AZHAR 3 JAKARTA","JL. SISINGAMANGARAJA","Prop. D.K.I. Jakarta","SMA","-6.2339000","106.8001000"
"20100223","SMAN 27 JAKARTA","JL. MARDANI RAYA JAKARTA","Prop. D.K.I. Jakarta","SMA","-6.1820000","106.8612000"
"20103179","SMAS MUHAMMADIYAH 4 JAKARTA","JL. DEWI SARTIKA 316 A","Prop. D.K.I. Jakarta","SMA","-6.2494000","106.8662000"
"20107305","SMA ISLAM AL-AZHAR 2 JAKARTA","JALAN SIAGA RAYA","Prop. D.K.I. Jakarta","SMA","-6.2973000","106.8350000"
"20109971","SMAS CINTA KASIH TZU CHI","JL.KAMAL RAYA OUTER RING ROAD NO.20","Prop. D.K.I. Jakarta","SMA","-6.1317000","106.7379000"
"20103314","SMAN 48 JAKARTA","JL. PINANG RANTI II TMII","Prop. D.K.I. Jakarta","SMA","-6.2877000","106.8831000"
"20108498","SMAS ADVENT 1 JAKARTA","JL. KRAMAT PULO NO. 16","Prop. D.K.I. Jakarta","SMA","-6.1792000","106.8438000"
"69889003","SMA NEW ZEALAND INDEPENDENT SCHOOL","JL. KEMANG RAYA NO 70","Prop. D.K.I. Jakarta","SMA","-6.2638910","106.8182670"
"20107368","SMAS AL KHAIRIYAH JAKARTA","JL. MINDI NO. 2","Prop. D.K.I. Jakarta","SMA","-6.1154000","106.9142000"
"20102219","SMAN 109 JAKARTA","JL. GARDU NO. 31","Prop. D.K.I. Jakarta","SMA","-6.3450000","106.8356000"
"20100197","SMAS TARSISIUS 1 JAKARTA","JL. KH. HASYIM ASHARI 26","Prop. D.K.I. Jakarta","SMA","-6.1645000","106.8152000"
"20100810","SMAN 40 JAKARTA","JL. BUDIMULYA RAYA","Prop. D.K.I. Jakarta","SMA","-6.1312000","106.8311000"
"20101611","SMAS SENTOSA","JL. MADU NO. 276","Prop. D.K.I. Jakarta","SMA","-6.1439000","106.8203000"
"20103296","SMAN 39 JAKARTA","JL. RA FADILAH CIJANTUNG","Prop. D.K.I. Jakarta","SMA","-6.3209000","106.8501000"
"20100604","SMA MAHATMA GADING","Jl. Boulevard BGR Komplek Villa Gading Indah Blok D","Prop. D.K.I. Jakarta","SMA","-6.1613000","106.8943000"
"69762654","SMAS DJUWITA","Perum. Puri Gardena, Jl. Gardena Utama raya","Prop. D.K.I. Jakarta","SMA","-6.1383570","106.7017200"
"69829193","SMA KRISTEN KASIH KEMULIAAN","JL. PERUM TAMAN SURYA V BLOK RR NO 1","Prop. D.K.I. Jakarta","SMA","-6.1614390","106.7077480"
"20100605","SMAS METHODIST JAKARTA","JL. BANDENGAN UTARA NO. 91A","Prop. D.K.I. Jakarta","SMA","-6.1364000","106.7865000"
"20101354","SMAS FAJRUL ISLAM","JL. TANJUNG PURA V","Prop. D.K.I. Jakarta","SMA","-6.1293000","106.6952000"
"20107312","SMAS KHARISMAWITA JAKARTA","JL. SWADAYA 02 NO. 30","Prop. D.K.I. Jakarta","SMA","-6.2997000","106.8460000"
"20104433","SMAS MUHAMMADIYAH 15","JL. ANGGREK NELI MURNI BC","Prop. D.K.I. Jakarta","SMA","-6.1870000","106.7954000"
"20103202","SMAS MUHAMMADIYAH 11 JAKARTA","JL. BALAI PUSTAKA  BARAT NO. 2","Prop. D.K.I. Jakarta","SMA","-6.1974000","106.8827000"
"20100780","SMAN 80 JAKARTA","JL. SUNTER KARYA SELATAN V","Prop. D.K.I. Jakarta","SMA","-6.1423000","106.8715000"
"20101620","SMAN 33 JAKARTA","JL. UTAMA I NO.2 CENGKARENG","Prop. D.K.I. Jakarta","SMA","-6.1493000","106.7274000"
"20107304","SMAS ISLAM AL-AZHAR 1 JAKARTA","JL. SISINGAMANGARAJA","Prop. D.K.I. Jakarta","SMA","-6.2341280","106.8002730"
"20107187","SMAS AL FALAH","Jl Raya Malaka No. 1D Munjul Cipayung","Prop. D.K.I. Jakarta","SMA","-6.3469000","106.8845000"
"20101343","SMAS DHAMASAVANA","JL. JEMBATAN II PADAMULYA VI / 176B","Prop. D.K.I. Jakarta","SMA","-6.1448000","106.7914000"
"20103292","SMAN 103 JAKARTA","JL. MAWAR MERAH VI PERUMNAS KLENDER","Prop. D.K.I. Jakarta","SMA","-6.2209000","106.9373000"
"20101618","SMAS VIANNEY","JL. Bojong Raya  No. 98","Prop. D.K.I. Jakarta","SMA","-6.1711000","106.7301000"
"","SMA CIKAL AMRI","Jl. Raya Setu No. 3","Prop. D.K.I. Jakarta","SMA","-6.3116541","106.9196799"
"20101610","SMAS  TARSISIUS II","JL. BATUSARI RAYA NO. 12","Prop. D.K.I. Jakarta","SMA","-6.1994000","106.7824000"
"20107308","SMAS KARTIKA X-1","JL. RAYA KODAM BINTARO NO. 53","Prop. D.K.I. Jakarta","SMA","-6.2604000","106.7587000"
"20107281","SMAS BAKTI MULYA 400","JL.LINGKAR SELATAN","Prop. D.K.I. Jakarta","SMA","-6.2835000","106.7735000"
"20101585","SMAN 94 JAKARTA","JL. RAYA SEMANAN","Prop. D.K.I. Jakarta","SMA","-6.1639000","106.6898000"
"20107338","SMAS YAPERJASA","Jl. Belimbing, RT. 08/07","Prop. D.K.I. Jakarta","SMA","-6.3327000","106.8236000"
"20103186","SMAS WIDYA MANGGALA JAKARTA","JL. MUJAHIDIN NO. 17","Prop. D.K.I. Jakarta","SMA","-6.3032000","106.8725000"
"69853555","SMA JAKARTA INTERNATIONAL SCHOOL","JALAN TEROGONG RAYA NO 33","Prop. D.K.I. Jakarta","SMA","-6.2865210","106.7884620"
"20104409","SMAS CAHAYA FADILAH","JL. LINGKAR LUAR BARAT NO.7 RT.013/007","Prop. D.K.I. Jakarta","SMA","-6.1753000","106.7187000"
"20112284","SMAS SEVILLA","JL. PULO MAS RAYA PULOMAS","Prop. D.K.I. Jakarta","SMA","-6.2090000","106.8565000"
"20108499","SMAS DWISAKA JAKARTA","JL. TAMBAK NO. 32 JAKARTA","Prop. D.K.I. Jakarta","SMA","-6.2048000","106.8492000"
"20110335","SMAS KRISTEN 6 PENABUR","JL.MUARA KARANG BLOK Z 3 S","Prop. D.K.I. Jakarta","SMA","-6.1153000","106.7745000"
"20109561","SMA SIS PIK","JL. Mandara Indah No.4","Prop. D.K.I. Jakarta","SMA","-6.1194240","106.7590550"
"20177837","SMAS SAINT JOHNS SCHOOL","Jl.Taman Villa Meruya Blok D1 No.1","Prop. D.K.I. Jakarta","SMA","-6.2067000","106.7371000"
"20101173","SMAS 1 BARUNAWATI","JL. X -III AIPDA KS TUBUN II - III NO. 7","Prop. D.K.I. Jakarta","SMA","-6.1949000","106.8012000"
"20107330","SMAS SERUNI DON BOSCO","JL. TB. SIMATUPANG","Prop. D.K.I. Jakarta","SMA","-6.2908000","106.7849000"
"20100196","SMAS TAMAN MADYA 5 JAKARTA","JL. PERCETAKAN NEGARA VIII NO. 16","Prop. D.K.I. Jakarta","SMA","-6.1921000","106.8620000"
"69921926","SMA ACG SCHOOL JAKARTA","Jl. Taman Margasatwa No. 19. Warung Jati Barat","Prop. D.K.I. Jakarta","SMA","-6.2850630","106.8301680"
"20103299","SMAN 89 JAKARTA","JL. KAYU TINGGI","Prop. D.K.I. Jakarta","SMA","-6.1752000","106.9515000"
"69931693","SMA KAIROS GRACIA","CITRA GARDEN 7 BLOK B1","Prop. D.K.I. Jakarta","SMA","-6.1536000","106.6888000"
"20100797","SMAN 52 JAKARTA","JL. RAYA TUGU SEMPER","Prop. D.K.I. Jakarta","SMA","-6.1223000","106.9239000"
"20107249","SMAS BUDI MULIA JAKARTA","JL. MANGGA BESAR RAYA 135","Prop. D.K.I. Jakarta","SMA","-6.1482000","106.8282000"
"20108507","SMAS SANTO BELLARMINUS JAKARTA","LOMBOK NO. 58 JAKARTA","Prop. D.K.I. Jakarta","SMA","-6.1886000","106.8252000"
"20103282","SMAN 22 JAKARTA","JL. Kramat Asem, Kec. Matraman, Jakarta Timur 13120","Prop. D.K.I. Jakarta","SMA","-6.2026000","106.8694000"
"20107372","SMAS CHANDRA KUSUMA JAKARTA","JL. PERUM VILAMAS SELATAN I BLOK H 4 NO. 1","Prop. D.K.I. Jakarta","SMA","-6.1392000","106.7707000"
"20100179","SMAS SANTO PAULUS JAKARTA","JL. SETIA KAWAN RAYA 39-41","Prop. D.K.I. Jakarta","SMA","-6.1643000","106.8015000"
"20101604","SMAN 57 JAKARTA","JL. RAYA KEDOYA","Prop. D.K.I. Jakarta","SMA","-6.1747000","106.7561000"
"20100613","SMAS TARAKANITA 2","JL. PLUIT PERMAI DALAM I / 10","Prop. D.K.I. Jakarta","SMA","-6.1143000","106.7915000"
"20100217","SMAN 10 JAKARTA","JL. MANGGA BESAR XIII","Prop. D.K.I. Jakarta","SMA","-6.1467000","106.8265000"
"20107383","SMAS KRISTEN IPEKA SUNTER","JL. BARU SUNTER AGUNG RT.15, RW.07, SUNTER AGUNG-JAKARTA UTARA 14350","Prop. D.K.I. Jakarta","SMA","-6.1542000","106.8710000"
"20112435","SMAS SINAR DHARMA","JL. KH. MOH. MANSYUR NO.29","Prop. D.K.I. Jakarta","SMA","-6.1493000","106.8075000"
"20100195","SMAS MUHAMMADIYAH 1 JAKARTA","JL. KRAMAT RAYA NO. 49","Prop. D.K.I. Jakarta","SMA","-6.1880000","106.8461000"
"20107378","SMAS HARAPAN KASIH JAKARTA","JL. MUARA BARU RAYA 5-7","Prop. D.K.I. Jakarta","SMA","-6.1299000","106.7973000"
"20101586","SMAN 85 JAKARTA","JL. SRENGSENG RAYA","Prop. D.K.I. Jakarta","SMA","-6.2154000","106.7591000"
"20108501","SMAS HATI SUCI","JL. HATI SUCI NO. 2","Prop. D.K.I. Jakarta","SMA","-6.1835000","106.8174000"
"20107371","SMAS CAHAYA KUDUS JAKARTA","JL.  MUARA KARANG B IX NO. 129","Prop. D.K.I. Jakarta","SMA","-6.1172000","106.7815000"
"20107373","SMAS DHARMA PUTRA JAKARTA","JL. SWASEMBADA BARAT XI NO.92","Prop. D.K.I. Jakarta","SMA","-6.1226000","106.8873000"
"20104426","SMAS 2 KRISTEN KALAM KUDUS","JL. KOSAMBI BARU BLOK F6/1","Prop. D.K.I. Jakarta","SMA","-6.1714000","106.7160000"
"20101324","SMAS NOTRE DAME","JL. PURI KEMBANG BARAT RAYA, BLOK M","Prop. D.K.I. Jakarta","SMA","-6.1881000","106.7425000"
"20102575","SMAN 55 JAKARTA","JL. MINYAK  RAYA DUREN TIGA","Prop. D.K.I. Jakarta","SMA","-6.2554000","106.8391000"
"","SMA JAC","Jl. Pegangsaan Dua Rt 003 Rw 003","Prop. D.K.I. Jakarta","SMA","-6.1596702","106.8930039"
"20107199","SMAS PRATAMA","JL.USMAN NO. 71","Prop. D.K.I. Jakarta","SMA","-6.3324000","106.8836000"
"20103166","SMAS PERGURUAN RAKYAT 2 JAKARTA","JL. AD. LAMPIRI RAYA","Prop. D.K.I. Jakarta","SMA","-6.2530000","106.9407000"
"20100631","SMAS KATOLIK DIAKONIA JAKARTA","JL. RAYA PLUIT UTARA RAYA NO. 2","Prop. D.K.I. Jakarta","SMA","-6.1121000","106.7894000"
"20100189","SMAS KRISTEN KANAAN JAKARTA","JL. KRAN RAYA NO. 7","Prop. D.K.I. Jakarta","SMA","-6.1597000","106.8463000"
"20107185","SMAN 69 JAKARTA","PULAU PRAMUKA RT 003/05","Prop. D.K.I. Jakarta","SMA","-5.7476320","106.6134864"
"20109062","SMAS MUTIARA BANGSA 3","Jelambar Barat III No. 5B","Prop. D.K.I. Jakarta","SMA","-6.1498000","106.7873000"
"20104425","SMAS KRISTEN IMANUEL","JL. ALAMANAH RAYA N0 145  A JELAMBAR","Prop. D.K.I. Jakarta","SMA","-6.1605000","106.7797000"
"20103256","SMAN 99 JAKARTA","JL.Cibubur  II","Prop. D.K.I. Jakarta","SMA","-6.3425000","106.8729000"
"20107291","SMAS DARUL MAARIF JAKARTA","JL. RS. FATMAWATI NO.45","Prop. D.K.I. Jakarta","SMA","-6.2674000","106.7980000"
"20100799","SMAS SANTO YAKOBUS JAKARTA","JL. PEGANGSAAN DUA KM. 3.5","Prop. D.K.I. Jakarta","SMA","-6.1535000","106.9158000"
"20107293","SMAS DELIMA","JL. BANGKA XI / 9B","Prop. D.K.I. Jakarta","SMA","-6.2515000","106.8260000"
"20103286","SMAN 113 JAKARTA","JL. ALBAIDHO I/MONUMEN LUBANG BUAYA JAKARTA TIMUR","Prop. D.K.I. Jakarta","SMA","-6.2929000","106.9030000"
"20102570","SMAN 70 JAKARTA","JL. BULUNGAN BLOK C / 1","Prop. D.K.I. Jakarta","SMA","-6.2417000","106.7970000"
"20102573","SMAN 60 JAKARTA","JL. KEMANG TIMUR I NO. 6","Prop. D.K.I. Jakarta","SMA","-6.2589000","106.8250000"
"20103174","SMAS PELITA TIGA NO 3 JAKARTA","JL. RAWAJAYA I","Prop. D.K.I. Jakarta","SMA","-6.2043000","106.8742000"
"69888992","SMA BUNDA MULIA  SCHOOL","Jl. Lodan Raya No.2","Prop. D.K.I. Jakarta","SMA","-6.1295000","106.8194000"
"20104437","SMAS PELITA KUDUS","JL. INDRALOKA RAYA NO. 33A","Prop. D.K.I. Jakarta","SMA","-6.1568000","106.7765000"
"20104414","SMAS DIAN KASIH","Perumahan Citra Garden 5 Blok H 1","Prop. D.K.I. Jakarta","SMA","-6.1312000","106.6969000"
"20100629","SMAS BUNGA HATI BANGSA","JL.VILA KAPUK INDAH  BLOK G / 1","Prop. D.K.I. Jakarta","SMA","-6.1325000","106.7613000"
"20100807","SMAN 15 JAKARTA","JL. AGUNG UTARA STS BLOK A","Prop. D.K.I. Jakarta","SMA","-6.1378000","106.8617000"
"20100601","SMAS KRISTEN 5 BPK PENABUR","JL. HIBRIDA RAYA BLOK QA3","Prop. D.K.I. Jakarta","SMA","-6.1482000","106.9082000"
"20103171","SMAS PGRI 24 JAKARTA","JL. SMPN 157","Prop. D.K.I. Jakarta","SMA","-6.2954000","106.9020000"
"20103288","SMAN 107 JAKARTA","JL. RAWA BADUNG TIMUR CAKUNG","Prop. D.K.I. Jakarta","SMA","-6.2059000","106.9253000"
"20107279","SMAS ISLAM AS SYAFIIYAH 01 JAKARTA","JL. BUKIT DURI SELATAN NO. 29","Prop. D.K.I. Jakarta","SMA","-6.2202000","106.8511000"
"20103403","SMAS BINA DHARMA JAKARTA","JL. RAYA CIRACAS NO. 39","Prop. D.K.I. Jakarta","SMA","-6.3275000","106.8847000"
"20104436","SMAS PELITA IV","JL. POS DURI RAYA NO. 23-29","Prop. D.K.I. Jakarta","SMA","-6.1559000","106.8019000"
"20100175","SMAS ADVENT SALEMBA","JL. SALEMBA RAYA NO. 47","Prop. D.K.I. Jakarta","SMA","-6.1969000","106.8515000"
"20103200","SMAS PUSAKA 1 JAKARTA","JL. TARUNA PAHLAWAN REVOLUSI","Prop. D.K.I. Jakarta","SMA","-6.2387000","106.8947000"
"69923322","SMA Raffles Christian School Kebon Jeruk","Jl. Pasanggrahan Raya","Prop. D.K.I. Jakarta","SMA","-6.1961550","106.7389850"
"20101339","SMAS BAPTIS CENGKARENG INDAH","KOMPLEK PERUM CENGKARENG INDAH BLOK GB/01","Prop. D.K.I. Jakarta","SMA","-6.1438000","106.7474000"
"20107276","SMAS AL AZHAR SYIFA BUDI","JL. KEMANG RAYA 7","Prop. D.K.I. Jakarta","SMA","-6.2542000","106.8112000"
"20101306","SMAS 1 KRISTEN BPK PENABUR","JL. TANJUNG DUREN RAYA NO. 4","Prop. D.K.I. Jakarta","SMA","-6.1743000","106.7813000"
"20102214","SMAN 34 JAKARTA","Jl. Margasatwa Raya No. 1","Prop. D.K.I. Jakarta","SMA","-6.3134000","106.7949000"
"20100779","SMAN 75 JAKARTA","JL. TIPAR CAKUNG","Prop. D.K.I. Jakarta","SMA","-6.1347000","106.9240000"
"20103307","SMAN 61 JAKARTA","JL.TARUNA PAHLAWAN REVOLUSI PONDOK BAMBU JAKARTA TIMUR","Prop. D.K.I. Jakarta","SMA","-6.2386000","106.8963000"
"20103213","SMAS BUDI MULIA UTAMA JAKARTA","RAWA JAYA NO. 5","Prop. D.K.I. Jakarta","SMA","-6.2350000","106.9438000"
"20102218","SMAN 26 JAKARTA","JL. TEBET BARAT IV","Prop. D.K.I. Jakarta","SMA","-6.2334000","106.8485000"
"20100800","SMAS YASPI JAKARTA","JL. DINAS KEBERSIHAN DKI","Prop. D.K.I. Jakarta","SMA","-6.1337000","106.9261000"
"69879021","SMA SAINT PETER SCHOOL","JL.BOULEVARD TIMUR RAYA NO. 8","Prop. D.K.I. Jakarta","SMA","-6.1700400","106.9086980"
"20100218","SMAN 20 JAKARTA","JL. KREKOT BUNDER III/I","Prop. D.K.I. Jakarta","SMA","-6.1593000","106.8324000"
"20103316","SMAS BINA PANGUDI LUHUR JAKARTA","JL. KRAMAT ASEM RAYA NO. 54","Prop. D.K.I. Jakarta","SMA","-6.2035000","106.8701000"
"20103167","SMAS PERGURUAN RAKYAT 3 JAKARTA","JL. PAHLAWAN REVOLUSI NO. 12","Prop. D.K.I. Jakarta","SMA","-6.2288000","106.8986000"
"20101326","SMAS MUHAMMADIYAH 13 JAKARTA","JL. GELONG BARU NO. 23A","Prop. D.K.I. Jakarta","SMA","-6.1766000","106.7972000"
"20177804","SMAK PENABUR KELAPA GADING","JL. BOULEVARD BUKIT GADING RAYA KAV. A5-A8","Prop. D.K.I. Jakarta","SMA","-6.1477000","106.9080000"
"20107340","SMAS YASPORBI 1 JAKARTA","JL. DEPOSITO I KOMP. BANK INDONESIA, MENTENG DALAM, TEBET, JAKARTA SELATAN","Prop. D.K.I. Jakarta","SMA","-6.2394000","106.8417000"
"20101322","SMAS PELITA 2","JL. MACAN NO.23-29 DAAN MOGOT","Prop. D.K.I. Jakarta","SMA","-6.1660000","106.7719000"
"20112282","SMAS CHARTAR BUANA","JL. PERUM CIBUBUR INDAH II","Prop. D.K.I. Jakarta","SMA","-6.3380000","106.8903000"
"20103308","SMAN 59 JAKARTA","BULAK TIMUR I/10-11","Prop. D.K.I. Jakarta","SMA","-6.2161000","106.9076000"
"20107380","SMAS JUBILEE","JL Sunter Jaya I No.1","Prop. D.K.I. Jakarta","SMA","-6.1440000","106.8722000"
"20100201","SMAN 77 JAKARTA","JL. CEMPAKA PUTIH TENGAH 17","Prop. D.K.I. Jakarta","SMA","-6.1753000","106.8662000"
"20103281","SMAN 31 JAKARTA","JL. KAYUMANIS TIMUR NO. 17","Prop. D.K.I. Jakarta","SMA","-6.2026000","106.8645000"
"20102216","SMAN 3 JAKARTA","SETIABUDI II","Prop. D.K.I. Jakarta","SMA","-6.2098000","106.8258000"
"20100187","SMAS KRISTEN 3 PENABUR JAKARTA","JL. GUNUNG SAHARI RAYA NO. 90 A","Prop. D.K.I. Jakarta","SMA","-6.1690000","106.8400000"
"20103203","SMAS DON BOSCO 2 JAKARTA","JL. PULO MAS BARAT V","Prop. D.K.I. Jakarta","SMA","-6.1748000","106.8813000"
"20103240","SMAS BPS&K I","Jl. Bina Karya No.2 Komplek Bina Marga I","Prop. D.K.I. Jakarta","SMA","-6.2334000","106.9388000"
"20112438","SMAS CITRA KASIH","CITRA GARDEN 5 BLOK H 3","Prop. D.K.I. Jakarta","SMA","-6.1358000","106.7020000"
"20103257","SMAN 98 JAKARTA","JL.JAHA   NO. 1","Prop. D.K.I. Jakarta","SMA","-6.3324000","106.8573000"
"20102193","SMAN 47 JAKARTA","Jalan Delman Utama I RT.001/011","Prop. D.K.I. Jakarta","SMA","-6.2471000","106.7731000"
"20103224","SMAS KRISTEN BERKAT JAKARTA","JL. JATINEGARA TIMUR NO. 89","Prop. D.K.I. Jakarta","SMA","-6.2220000","106.8683000"
"20102592","SMAN 49 JAKARTA","JL. PEPAYA NO. 9","Prop. D.K.I. Jakarta","SMA","-6.3237000","106.8192000"
"20107375","SMAS DHARMA SUCI JAKARTA","JL. JEMB 3 KOMP. PLUIT MAS BLOK F NO. 1-5","Prop. D.K.I. Jakarta","SMA","-6.1312000","106.7752000"
"69757184","SMAS KANAAN GLOBAL SCHOOL","PERUMAHAN TAMAN SURYA 3, JL  BOULEVARD BLOK L2","Prop. D.K.I. Jakarta","SMA","-6.1349000","106.7169000"
"20108505","SMAS KRISTEN PEMBANGUNAN 2","JL. PEMBANGUNAN 2 NO. 18","Prop. D.K.I. Jakarta","SMA","-6.1627000","106.8173000"
"20102576","SMAN RAGUNAN JAKARTA","JL. KOMPLEK GOR RAGUNAN","Prop. D.K.I. Jakarta","SMA","-6.3054000","106.8269000"
"20107388","SMAS NUSANTARA JAKARTA","JL. KRAMAT JAYA GG. VIII","Prop. D.K.I. Jakarta","SMA","-6.1189000","106.9204000"
"20100806","SMAN 13 JAKARTA","JL. SEROJA NO.1 TANJUNG PRIOK","Prop. D.K.I. Jakarta","SMA","-6.1191000","106.8946000"
"20100182","SMAS MUHAMMADIYAH 2 JAKARTA","JL. GARUDA NO. 33","Prop. D.K.I. Jakarta","SMA","-6.1624000","106.8423000"
"20100180","SMAS SUNDA KELAPA JAKARTA","JL. TAMAN SUNDA KELAPA 16 A Menteng Jakarta Pusat 10310","Prop. D.K.I. Jakarta","SMA","-6.2011000","106.8326000"
"20107310","SMAS KELUARGA WIDURI JAKARTA","JL. GUNUNG BALONG I / 2","Prop. D.K.I. Jakarta","SMA","-6.3037000","106.7880000"
"20103170","SMAS PGRI 10 JAKARTA","JL. RAWA KUNING GANG MUSHOLLA AL IKHSAN, RT 3 , RW 2, NO 119","Prop. D.K.I. Jakarta","SMA","-6.1981000","106.8658000"
"20107327","SMAS PSKD 4 JAKARTA","JL. PANGLIMA POLIM 2 NO. 51A","Prop. D.K.I. Jakarta","SMA","-6.2472000","106.8014000"
"20104405","SMAS AL KAMAL","JL. AL -  KAMAL KEDOYA RAYA  NO. 2","Prop. D.K.I. Jakarta","SMA","-6.1880000","106.7559000"
"20101302","SMAS 2 KRISTEN KETAPANG","JL. KOMP.  GREEN GARDEN BLOK M I","Prop. D.K.I. Jakarta","SMA","-6.1851000","106.7558000"
"20103285","SMAN 12 JAKARTA","JL. PERTANIAN KLENDER","Prop. D.K.I. Jakarta","SMA","-6.2147000","106.8978000"
"20100185","SMAS KARTINI 1 JAKARTA","JL. KALIBARU TIMUR V NO.1","Prop. D.K.I. Jakarta","SMA","-6.1658000","106.8554000"
"20107299","SMAS GONZAGA JAKARTA","JL. PEJATEN BARAT 10A","Prop. D.K.I. Jakarta","SMA","-6.2773000","106.8226000"
"20109513","SMAS HIGH SCOPE","JL. TB. SIMATUPANG NO. 8","Prop. D.K.I. Jakarta","SMA","-6.2930000","106.8043000"
"20104427","SMAS KRISTEN KALAM KUDUS","JL.TANGKILIO TIMUR NO.48-49","Prop. D.K.I. Jakarta","SMA","-6.1429000","106.8211000"
"20103287","SMAN 11 JAKARTA","JL. P KOMARUDIN 1 PANDIDIKAN PULO GEBANG CAKUNG JAKARTA TIMUR","Prop. D.K.I. Jakarta","SMA","-6.2057000","106.9403000"
"20109491","SMAS ISLAM AL-MARUF","JL. RAYA LAPANGAN TEMBAK - CIBUBUR","Prop. D.K.I. Jakarta","SMA","-6.3416000","106.8863000"
"20107302","SMAS IS AVICENA","JL. MOC. KAHFI  II  NO.66","Prop. D.K.I. Jakarta","SMA","-6.3467000","106.8154000"
"20107309","SMAS KARTIKA VIII-1 JAKARTA","JL. SEROJA","Prop. D.K.I. Jakarta","SMA","-6.3414000","106.8319000"
"20104421","SMAS KATOLIK ABDI SISWA","JL. PATRA TOMANG RAYA NO. 1","Prop. D.K.I. Jakarta","SMA","-6.1744000","106.7714000"
"20101616","SMAS SANTO CRISTOFORUS 1","JL. RAHAYU NO. 1A","Prop. D.K.I. Jakarta","SMA","-6.1645000","106.7848000"
"20100212","SMAN 35 JAKARTA","JL. MUTIARA","Prop. D.K.I. Jakarta","SMA","-6.2093000","106.8142000"
"20107193","SMAS KATOLIK NUSA MELATI","JL. HANKAM NO. 6 CIPAYUNG","Prop. D.K.I. Jakarta","SMA","-6.3303000","106.9041000"
"20100219","SMAN 24 JAKARTA","JL. LAPANGAN TEMBAK NO. 1  SENAYAN","Prop. D.K.I. Jakarta","SMA","-6.2109000","106.7964000"
"20107300","SMAS HANG TUAH 1 JAKARTA","JL. CILEDUK RAYA KOMP. SESKOAL","Prop. D.K.I. Jakarta","SMA","-6.2394000","106.7733000"
"20101583","SMAN 96 JAKARTA","JL. JATI RAYA NO. 40","Prop. D.K.I. Jakarta","SMA","-6.1470000","106.7396000"
"20107323","SMAS PATTIMURA JAKARTA","Jl. Jagakarsa Raya No. 88, RT. 02/05","Prop. D.K.I. Jakarta","SMA","-6.3266000","106.8192000"
"20103197","SMAS ST ANTONIUS JAKARTA","JL. DI PANJAITAN KAV. 46","Prop. D.K.I. Jakarta","SMA","-6.2215000","106.8739000"
"20100483","SMAS PSKD 3 JAKARTA","JL. KWINI I NO. 1","Prop. D.K.I. Jakarta","SMA","-6.1806000","106.8384000"
"20103198","SMAS SANTIKA","JL. BAMBU WULUNG NO. 2","Prop. D.K.I. Jakarta","SMA","-6.3316000","106.8934000"
"20107314","SMA MUHAMMADIYAH 3 JAKARTA","JL. LIMAU 3 BLOK B","Prop. D.K.I. Jakarta","SMA","-6.2480000","106.7907000"
"20107332","SMAS SUMBANGSIH JAKARTA","JL. AMPERA RAYA NO. 3-4","Prop. D.K.I. Jakarta","SMA","-6.2903000","106.8174000"
"20103303","SMAN 71 JAKARTA","JL. H. DOGOL","Prop. D.K.I. Jakarta","SMA","-6.2353000","106.9187000"
"20107589","SMAS GLOBAL ISLAMIC SCHOOL","JL. CONDET RAYA NO.5","Prop. D.K.I. Jakarta","SMA","-6.2824000","106.8551000"
"20100606","SMAS MUTIARA 1 JAKARTA","JL. KOMP. YOS SUDARSO II / 19","Prop. D.K.I. Jakarta","SMA","-6.1112000","106.8926000"
"69889089","SMA AUSTRALIAN INDEPENDENT SCHOOL INDONESIA JAKARTA","JL PEJATEN BARAT RAYA NO 69","Prop. D.K.I. Jakarta","SMA","-6.2985360","106.8285580"
"69917278","SMA MENTARI SCHOOL JAKARTA","Jl. H. Jian Rt. 004/03 No. 6","Prop. D.K.I. Jakarta","SMA","-6.2603160","106.8061060"
"20101350","SMAS HARAPAN JAYA","JL. DAAN MOGOT KM. 13","Prop. D.K.I. Jakarta","SMA","-6.1538000","106.7328000"
"20102215","SMAN 32 JAKARTA","JL. PANJANG KOMP.SETNEG BARU CIDODOL","Prop. D.K.I. Jakarta","SMA","-6.2322000","106.7744000"
"20103176","SMAS PANGUDI RAHAYU","JL. RAYA BOGOR KM 24,5","Prop. D.K.I. Jakarta","SMA","-6.3198000","106.8642000"
"20100801","SMAS YUSHA JAKARTA","JL. MAWAR LUAR NO. 1","Prop. D.K.I. Jakarta","SMA","-6.1194000","106.9085000"
"20107377","SMAS GITA KIRTI 2","JL. SUNTER JAYA IV NO. 2","Prop. D.K.I. Jakarta","SMA","-6.1558000","106.8674000"
"20100213","SMAS TRIWIBAWA JAKARTA","JL. RAJAWALI SELATAN I NO.30","Prop. D.K.I. Jakarta","SMA","-6.1464000","106.8378000"
"20107303","SMAS ISLAM HARAPAN IBU","Jl. H. Banan No. 1","Prop. D.K.I. Jakarta","SMA","-6.2729000","106.7740000"
"20107393","SMAS STELLA MARIS JAKARTA","JL. LELE BLOK A1","Prop. D.K.I. Jakarta","SMA","-6.1311000","106.7778000"
"69948873","SMA LENTERA KASIH","Jl. Sunter Permai Raya No.8","Prop. D.K.I. Jakarta","SMA","-6.1412250","106.8741050"
"20101626","SMAN 112 JAKARTA","JL. SANGGRAHAN","Prop. D.K.I. Jakarta","SMA","-6.1911000","106.7565000"
"20100610","SMAS PUSAKA ABADI JAKARTA","JL. V NO. 28 TELUK GONG","Prop. D.K.I. Jakarta","SMA","-6.1393000","106.7850000"
"69896714","SMA SINGAPORE SCHOOL, BONA VISTA","Jl. Bona Vista Raya, Lebak Bulus Jakarta Selatan 12440","Prop. D.K.I. Jakarta","SMA","-6.3006000","106.7847000"
"20107590","SMAS TRAMPIL 1 JAKARTA","JL. CILILITAN BESAR","Prop. D.K.I. Jakarta","SMA","-6.2630000","106.8738000"
"","SMA BEACON ACADEMY","Jl. Pegangsaan Dua No.66 Rt.004 Rw.19","Prop. D.K.I. Jakarta","SMA",".0000000",".0000000"
"20100796","SMAN 72 JAKARTA","JL. PRIHATIN KOMP  TNI AL","Prop. D.K.I. Jakarta","SMA","-6.1635000","106.8846000"
"20100616","SMAS DON BOSCO 1 JAKARTA","JL. BOULEVARD TIMUR KELAPA GADING","Prop. D.K.I. Jakarta","SMA","-6.1660000","106.9134000"
"20107284","SMA AL-KAUTSAR","JL. JEMBATAN SELATAN NO. 6 BLOK A","Prop. D.K.I. Jakarta","SMA","-6.2630000","106.8026000"
"20103297","SMAN 42 JAKARTA","JL. RAJAWALI HALIM PERDANA KUSUMA JAKARTA TIMUR","Prop. D.K.I. Jakarta","SMA","-6.2559000","106.8912000"
"20103206","SMAS DIAN PERSADA JAKARTA","JL. CIPINANG BARU I NO 21","Prop. D.K.I. Jakarta","SMA","-6.2009000","106.9546000"
"20107391","SMAS SANTO LUKAS 1 JAKARTA","JL ANCOL SELATAN II/ NO 1","Prop. D.K.I. Jakarta","SMA","-6.1306000","106.8583000"
"20100190","SMAS KRISTEN KARUNIA JAKARTA","JL. KARTINI RAYA NO. 10 A","Prop. D.K.I. Jakarta","SMA","-6.1583000","106.8362000"
"20103309","SMAN 58 JAKARTA","JL. RAYA CIRACAS NO. 2","Prop. D.K.I. Jakarta","SMA","-6.3282000","106.8775000"
"20103311","SMAN 53 JAKARTA","JL. CIPINANG JAYA II B","Prop. D.K.I. Jakarta","SMA","-6.2208000","106.8835000"
"20101613","SMAS 2 SANTO LEO","JL. KOSAMBI BARU SELATAN RAYA 1","Prop. D.K.I. Jakarta","SMA","-6.1738000","106.7154000"
"20102210","SMAN 46 JAKARTA","JL. MASJID DARUSSALAM","Prop. D.K.I. Jakarta","SMA","-6.2579000","106.7948000"
"20107295","SMAS DHARMA KARYA JAKARTA","JL. MELAWAI XII NO. 2 KAV. 207A","Prop. D.K.I. Jakarta","SMA","-6.2472000","106.7999000"
"20107367","SMAS AL JIHAD JAKARTA","JL. JIHAD PAPANGGO I","Prop. D.K.I. Jakarta","SMA","-6.1301000","106.8819000"
"20103305","SMAN 64 JAKARTA","JL. RAYA CIPAYUNG","Prop. D.K.I. Jakarta","SMA","-6.3310000","106.8906000"
"20101615","SMAS 2 SANTO KRISTOFORUS","PERUM TAMAN PALEM LESTARI BLOK A-18","Prop. D.K.I. Jakarta","SMA","-6.1349000","106.7246000"
"20101621","SMAN 23 JAKARTA","JL. MANDALA UTARA NO.6","Prop. D.K.I. Jakarta","SMA","-6.1718000","106.7994000"
"20107290","SMAS CITA BUANA","JL. PASO 84","Prop. D.K.I. Jakarta","SMA","-6.3158000","106.8148000"
"20100174","SMAS PERGURUAN NASIONAL JAKARTA","JL. CEMPAKA BARU TIMUR I NO. 1","Prop. D.K.I. Jakarta","SMA","-6.1696000","106.8623000"
"20103301","SMAN 81 JAKARTA","JL. KARTIKA EKAPAKSI KPAD JATIWARINGI KALIMALANG JAKARTA TIMUR","Prop. D.K.I. Jakarta","SMA","-6.2511000","106.9179000"
"20101313","SMAS KRISTEN SAMARIA KUDUS","JL RAYA MERUYA UTARA N0 17","Prop. D.K.I. Jakarta","SMA","-6.1969000","106.7544000"
"20107286","SMAS BUDI WALUYO JAKARTA","JL. CISANGGIRI 3/15","Prop. D.K.I. Jakarta","SMA","-6.2415000","106.8128000"
"20100221","SMAN 25 JAKARTA","JL. AM. SANGAJI NO. 22-24","Prop. D.K.I. Jakarta","SMA","-6.1674000","106.8139000"
"20100612","SMAS KRISTEN SAINT NICHOLAS","JL. PANTAI INDAH UTARA  BLOK S  NO. 8 PIK JAKARTA UTARA","Prop. D.K.I. Jakarta","SMA","-6.1399000","106.7758000"
"20101628","SMAS YP BDN","JL. DAAN MOGOT KOMP. BANK MANDIRI PESING","Prop. D.K.I. Jakarta","SMA","-6.1578000","106.7714000"
"20103180","SMAS MUHAMMADIYAH 23 JAKARTA","JL. DELIMA II BLOK C PERUMNAS","Prop. D.K.I. Jakarta","SMA","-6.2193000","106.9287000"
"20104432","SMAS KATOLIK SANG TIMUR","JL. KARMEL RAYA NO. 2","Prop. D.K.I. Jakarta","SMA","-6.1901000","106.7800000"
"20101630","SMAS 2 YADIKA","JL. KAMAL RAYA NO. 42","Prop. D.K.I. Jakarta","SMA","-6.1230000","106.7223000"
"20107313","SMA LABSCHOOL KEBAYORAN","JL. KH. AHMAD DAHLAN NO. 14","Prop. D.K.I. Jakarta","SMA","-6.2451000","106.7915000"
"69948835","SMA HIGHFIELD","Jl. Raya Rawa Domba No.88","Prop. D.K.I. Jakarta","SMA","-6.2246085","106.9172197"
"20100193","SMAS  PERGURUAN KSATRYA","JL. PERCETAKAN NEGARA","Prop. D.K.I. Jakarta","SMA","-6.1866000","106.8671000"
"20100214","SMAS YAPERMAS JAKARTA","JL. ANYER NO. 7 JAKARTA","Prop. D.K.I. Jakarta","SMA","-6.2026000","106.8439000"
"20102566","SMAN 82 JAKARTA","JL. DAHA II / 15A","Prop. D.K.I. Jakarta","SMA","-6.2312000","106.7996000"
"20103189","SMAS USWATUN HASANAH JAKARTA","JL. DEPNAKER NO. 2","Prop. D.K.I. Jakarta","SMA","-6.2852000","106.8822000"
"69955414","SMA EMIISc Jakarta","Jl. Raya Condet Kav. 7 No 27 Rt 001/003","Prop. D.K.I. Jakarta","SMA","-6.2770000","106.8558000"
"20107591","SMAS TRAMPIL 2 JAKARTA","JL. OLAHRAGA 2","Prop. D.K.I. Jakarta","SMA","-6.2677000","106.8613000"
"20103280","SMAN 36 JAKARTA","JL. PERHUBUNGAN RAYA RAWAMANGUN","Prop. D.K.I. Jakarta","SMA","-6.1990000","106.8991000"
"20103304","SMAN 67 JAKARTA","JL. SQUADRON","Prop. D.K.I. Jakarta","SMA","-6.2760000","106.8871000"
"20107336","SMAS TRIGUNA JAKARTA","JL. HANG LEKIU 3/17","Prop. D.K.I. Jakarta","SMA","-6.2344000","106.7954000"
"20100486","SMAS BUNDA MULIA JAKARTA","JL. AM. SANGAJI NO. 20","Prop. D.K.I. Jakarta","SMA","-6.1635000","106.8125000"
"20101629","SMAS 5 YADIKA","JL. JOGLO RAYA NO. 190","Prop. D.K.I. Jakarta","SMA","-6.1883000","106.7259000"
"20107317","SMAS MUHAMMADIYAH 5 JAKARTA","JL. TEBET TIMUR RAYA 565","Prop. D.K.I. Jakarta","SMA","-6.2101000","106.8510000"
"20101311","SMAS KATOLIK RICCI","JL. KEMENANGAN 3 NO. 47","Prop. D.K.I. Jakarta","SMA","-6.1426000","106.8120000"
"20104439","SMAS TUNAS MUDA","JL.MERUYA UTARA  NO.71","Prop. D.K.I. Jakarta","SMA","-6.1934000","106.7560000"
"20112433","SMAS JAKARTA ISLAMIC SCHOOL","JL. MANUNGGAL I KOMP. KODAM NO.17","Prop. D.K.I. Jakarta","SMA","-6.2607000","106.9106000"
"20112462","SMA BINA BANGSA SCHOOL PANTAI INDAH KAPUK","Walet Elok 8 Blok R8 No.1 Pantai Indah Kapuk","Prop. D.K.I. Jakarta","SMA","-6.1304550","106.7657600"
"20101352","SMAS 3 GALATIA","JL. BAMBU LARANGAN NO.57","Prop. D.K.I. Jakarta","SMA","-6.1409000","106.7169000"
"20100614","SMAS FONS VITAE 2 JAKARTA","JL. KRAMAT JAYA 1B","Prop. D.K.I. Jakarta","SMA","-6.1116000","106.9164000"
"20104422","SMAS KATHOLIK BINTANG KEJORA","JL. TAMAN CENGKARENG INDAH","Prop. D.K.I. Jakarta","SMA","-6.1515000","106.7365000"
"20103300","SMAN 88 JAKARTA","JL. SAWO","Prop. D.K.I. Jakarta","SMA","-6.3278000","106.8470000"
"20108502","SMAS ISLAM SAID NA UM JAKARTA","JL. K.H. MAS MANSYUR NO. 25","Prop. D.K.I. Jakarta","SMA","-6.1915000","106.8162000"
"20109524","SMA PERGURUAN RAKYAT 1 JAKARTA","Jl. Yon Zikon 14","Prop. D.K.I. Jakarta","SMA","-6.3448000","106.8263000"
"20101323","SMAS PADINDI","JL. PREPEDAN  RT12 RW9 N0 38","Prop. D.K.I. Jakarta","SMA","-6.1164000","106.7072000"
"20100805","SMAN 115 JAKARTA","JL. ROROTAN X","Prop. D.K.I. Jakarta","SMA","-6.1511000","106.9569000"
"20104408","SMA BINA BANGSA SCHOOL","JL. ARJUNA SELATAN KAV. 87","Prop. D.K.I. Jakarta","SMA","-6.1861000","106.7813000"
"69904250","SMA Raffles Christian School Pondok Indah","Jl. Gedung Hijau Raya 1 No. 1","Prop. D.K.I. Jakarta","SMA","-6.2653390","106.7754810"
"20107376","SMAS GIDEON JAKARTA","JL. GADANG NO. 77","Prop. D.K.I. Jakarta","SMA","-6.1276000","106.8841000"
"20107386","SMAS KRISTEN MAWAR SARON","JL. HIBRIDA TIMUR RAYA","Prop. D.K.I. Jakarta","SMA","-6.1636000","106.9199000"
"20102572","SMAN 63 JAKARTA","JL. AMD V MANUNGGAL V/57","Prop. D.K.I. Jakarta","SMA","-6.2287000","106.7490000"
"20100194","SMA MAHATMA GANDHI SCHOOL","JL. TABING BLOK B -16 NO. 3","Prop. D.K.I. Jakarta","SMA","-6.1539000","106.8403000"
"20107369","SMAS AL MUHAJIRIN JAKARTA","JL.TUNDA NO 20-21","Prop. D.K.I. Jakarta","SMA","-6.1463000","106.9065000"
"20101346","SMAS KRISTEN PANCARAN BERKAT","JL. SETIA JAYA RAYA NO. 100","Prop. D.K.I. Jakarta","SMA","-6.1495000","106.7896000"
"20107194","SMAS NAHDLATUL WATHAN","JL.RAYA PENGGILINGAN","Prop. D.K.I. Jakarta","SMA","-6.2088000","106.9372000"
"20103169","SMAS PGRI 1 JAKARTA","JL. CIPINANG MUARA 1","Prop. D.K.I. Jakarta","SMA","-6.2284000","106.8962000"
"20102569","SMAN 74 JAKARTA","Jl. Dharma Putra XI","Prop. D.K.I. Jakarta","SMA","-6.2529860","106.7863930"
"20104412","SMAS DHARMA JAYA","JL. KAV. POLRI BLOK D. XV/1","Prop. D.K.I. Jakarta","SMA","-6.1560000","106.7859000"
"20109560","SMA SIS KELAPA GADING","JL. Pegangsaan Dua No. 83","Prop. D.K.I. Jakarta","SMA","-6.1681330","106.9130700"
"20101589","SMAN 65 JAKARTA","Jalan Raya Panjang","Prop. D.K.I. Jakarta","SMA","-6.2007000","106.7687000"
"20100782","SMAN 92 JAKARTA","KOMP. PEMADAM KEBAKARAN","Prop. D.K.I. Jakarta","SMA","-6.1303000","106.9284000"
"20103283","SMAN 21 JAKARTA","JL. TANAH MAS RAYA NO.1","Prop. D.K.I. Jakarta","SMA","-6.1853000","106.8875000"
"20103431","SMAS CAWANG 1 BARU JAKARTA","JL. CAWANG BARU NO.543","Prop. D.K.I. Jakarta","SMA","-6.2426000","106.8704000"
"20101349","SMAS IP YAKIN","JL. BANGUN NUSA RAYA NO. 10","Prop. D.K.I. Jakarta","SMA","-6.1514000","106.7301000"
"","SMA ICHTHUS","JL. HAJI BATONG 1-1A/JL. CARINGIN BARAT 1","Prop. D.K.I. Jakarta","SMA","-6.2974890","106.8028870"
"20102568","SMAN 8 JAKARTA","JL. TAMAN BUKIT DURI","Prop. D.K.I. Jakarta","SMA","-6.2330000","106.8552000"
"20103178","SMAS NURUL HUDA JAKARTA","JL. TIPAR CAKUNG","Prop. D.K.I. Jakarta","SMA","-6.1744000","106.9383000"
"20100170","SMAS KANISIUS JAKARTA","JL. MENTENG RAYA 64 JAKARTA","Prop. D.K.I. Jakarta","SMA","-6.1855000","106.8353000"
"20100809","SMAN 18 JAKARTA","JL. WARAKAS 1 TANJUNG PRIOK","Prop. D.K.I. Jakarta","SMA","-6.1220000","106.8723000"
"20100216","SMAN 1 JAKARTA","JL. BUDI UTOMO NO. 7","Prop. D.K.I. Jakarta","SMA","-6.1672000","106.8373000"
"20100628","SMAS BUDI AGUNG","JL. TERUSAN BANDENGAN UTARA","Prop. D.K.I. Jakarta","SMA","-6.1361000","106.7965000"
"20107395","SMAS TANJUNG PRIOK JAKARTA","JL. MANGGA NO. 40","Prop. D.K.I. Jakarta","SMA","-6.1147000","106.9111000"
"20103230","SMAS ISLAM PB SOEDIRMAN","JL. RAYA BOGOR KM 24","Prop. D.K.I. Jakarta","SMA","-6.3136000","106.8620000"
"20103306","SMAN 62 JAKARTA","JL. RAYA BOGOR KM.20","Prop. D.K.I. Jakarta","SMA","-6.2851000","106.8726000"
"20107396","SMAS TRI DARMA BUDHIDAYA","JL. BIDARA RAYA GG. G NO.36","Prop. D.K.I. Jakarta","SMA","-6.1411000","106.7903000"
"69949830","SMA SAMPOERNA","Jl. Raya Pasar Minggu Kav. 16 Rt 007/02","Prop. D.K.I. Jakarta","SMA","-6.2516200","106.8487370"
"20100489","SMAS FRANSISKUS 1 JAKARTA","JL. KRAMAT RAYA NO. 67","Prop. D.K.I. Jakarta","SMA","-6.1879000","106.8462000"
"20103208","SMAS DEWI SARTIKA YBW JAKARTA","JL. KEBON NANAS UTARA II NO 23","Prop. D.K.I. Jakarta","SMA","-6.2306000","106.8724000"
"20101304","SMAS KRISTEN ALMASIH","JL. KUSUMA V BLOK E1/ NO 1 TAMAN DUTA MAS","Prop. D.K.I. Jakarta","SMA","-6.1638000","106.7783000"
"20107271","SMAS KEMURNIAN","JL. KEMURNIAN V/209","Prop. D.K.I. Jakarta","SMA","-6.1465000","106.8132000"
"20103302","SMAN 76 JAKARTA","JL. TIPAR CAKUNG JAKARTA TIMUR","Prop. D.K.I. Jakarta","SMA","-6.1722000","106.9314000"
"20101607","SMAS TRINITAS JAKARTA","JL. PAKIS RAYA BOJONG INDAH","Prop. D.K.I. Jakarta","SMA","-6.1656000","106.7414000"
"69930247","SMA D Royal Moroco Integrative Islamic School","Jl. H. Salim 3 No.7. Radio Dalam","Prop. D.K.I. Jakarta","SMA","-6.2591360","106.7904260"
"20107397","SMAS WIJAYA JAKARTA","JL. MASJID AL BARKAH NO. 16A","Prop. D.K.I. Jakarta","SMA","-6.1593000","106.8740000"
"20103223","SMAS LABSCHOOL JAKARTA","JL. PEMUDA KOMPLEK UNJ","Prop. D.K.I. Jakarta","SMA","-6.1934000","106.8807000"
"20177806","SMA TARUNA PERSADA","JALAN MASJID NO 29","Prop. D.K.I. Jakarta","SMA","-6.2993000","106.8579000"
"20107251","SMAS UNIVERSAL","JL. RUAS D. 7 BLOK D 6 NO. 2","Prop. D.K.I. Jakarta","SMA","-6.1559000","106.8539000"
"20107285","SMAS BOROBUDUR JAKARTA","JL. RAYA CILANDAK KKO","Prop. D.K.I. Jakarta","SMA","-6.3073000","106.8132000"
"20103313","SMAN 50 JAKARTA","JL. PLN. CIPINANG MUARA III","Prop. D.K.I. Jakarta","SMA","-6.2195000","106.8958000"
"20107301","SMAS HARNASTO INSTITUT JAKARTA","JL. CIDODOL RAYA NO.40","Prop. D.K.I. Jakarta","SMA","-6.2286000","106.7928000"
"20101584","SMAN 95 JAKARTA","JL. SATU MARET NO. 49","Prop. D.K.I. Jakarta","SMA","-6.1263000","106.7039000"
"20103235","SMAS AL QUDWAH","JL. KAYU TINGGI","Prop. D.K.I. Jakarta","SMA","-6.1694000","106.9496000"
"20177805","SMAS KRISTEN 8 PENABUR","JL. TANJUNG DUREN RAYA NO.4 BLOK D","Prop. D.K.I. Jakarta","SMA","-6.1799000","106.7914000"
"69883577","SMA NATIONALHIGH JAKARTA SCHOOL","JL. RAYA POS PENGUMBEN","Prop. D.K.I. Jakarta","SMA","-6.2027100","106.7479120"
