"schoolId","schoolName","schoolAddress","province","school_level","lat","long"
"20253934","SMAS IT ATTAUHID BABELAN","KP. MUARA PINANG LIMA","Prop. Jawa Barat","SMA","-6.0957000","107.0529000"
"20244679","SMAS YAKPI SUSUKAN","JL. KH. BUNYAMIN NO. 03","Prop. Jawa Barat","SMA","-6.6276000","108.3758000"
"20219794","SMAS KRISTEN PAULUS","JL. RAJIMAN NO. 11","Prop. Jawa Barat","SMA","-6.9036000","107.5995000"
"20235627","SMAS PGRI JATINANGOR","JL. RAYA JATINANGOR HEGARMANAH JATINANGOR - SUMEDANG","Prop. Jawa Barat","SMA","-6.9289000","107.7795000"
"20246453","SMAS ATTAQWA 02 BABELAN","JL. MASJID HIDAYATULLAH PULO ASEM BABELAN","Prop. Jawa Barat","SMA","-6.1703000","107.0265000"
"20220342","SMAN 1 BOGOR","JL. IR.H. JUANDA NO.16","Prop. Jawa Barat","SMA","-6.5974000","106.7933000"
"20227819","SMA AL-HUDA ARJASARI","JL. BABAKAN MANTRI PINGGIRSARI ARJASARI","Prop. Jawa Barat","SMA","-7.0634590","107.6320630"
"20237991","SMAN 1 MUARAGEMBONG","JL. PANTAI LAUT , KEC. MUARAGEMBONG, BEKASI","Prop. Jawa Barat","SMA","-6.0066000","107.0280000"
"20246376","SMAS AT TAWAZUN","JL. Sirnaraga Dusun Mekarsari RT 03/01","Prop. Jawa Barat","SMA","-6.5270000","107.6844000"
"20235621","SMAN CIMANGGUNG","JL. BUNTER CIHANJUANG","Prop. Jawa Barat","SMA","-6.9569000","107.8209000"
"20223059","SMAS AL IHSAN","JL. BELUT 1 PERUMNAS 2 BEKASI SELATAN","Prop. Jawa Barat","SMA","-6.2463000","106.9868000"
"20251798","SMAS PLUS INFORMATIKA","JL. BOJONGHUNI NO. 9 CIAMIS","Prop. Jawa Barat","SMA","-7.3236255","108.3459017"
"20213886","SMAN 1 RAJAGALUH","JL. MUTIARA NO.60 RAJAGALUH","Prop. Jawa Barat","SMA","-6.7767000","108.3419000"
"20212957","SMA NEGERI 1 SUBANG","JL. H.O. ISKANDAR 4 SUBANG","Prop. Jawa Barat","SMA","-7.1294000","108.5253000"
"20212950","SMA NEGERI 1 CIWARU","JL. RAYA 11 APRIL","Prop. Jawa Barat","SMA","-7.0862000","108.6412000"
"69874079","SMA REGINA CAELI","PERUM METLAND TRANSYOGI KM 1 CILEUNGSI BOGOR","Prop. Jawa Barat","SMA","-6.4136360","107.0200640"
"20233655","SMAN 1 SERANG PANJANG","JL. RAYA CIJENGKOL SAGALAHERANG","Prop. Jawa Barat","SMA","-6.6753000","107.6448000"
"20256636","SMA PASUNDAN MAJALAYA","JL. LEUWIDULANG NO. 22","Prop. Jawa Barat","SMA","-7.0480000","107.7528000"
"20280604","SMAS FUTURE GATE","JL YUDISTIRA KOMP PEMDA BLOK A","Prop. Jawa Barat","SMA","-6.2788000","106.9649000"
"20224107","SMA MUHAMMADIYAH 1","JL. JEND AMIR MACHMUD NO. 7","Prop. Jawa Barat","SMA","-6.8797000","107.5497000"
"20200670","SMAS DARUTAFSIR","JL. KP. PABUARAN KAUM DS. CIBANTENG RT 03/02","Prop. Jawa Barat","SMA","-6.6089000","106.5947000"
"20210745","SMAS ISLAM CIPASUNG","JL. PONPES CIPASUNG","Prop. Jawa Barat","SMA","-7.3499000","108.1272000"
"69918146","SMAN 4 CIBINONG","Jl. BOJONG KONENG RT 01 RW 01","Prop. Jawa Barat","SMA","-6.4862133","106.8582783"
"20208392","SMAN TANJUNGSARI","JL. RAYA TANJUNGSARI NO. 404 GUDANG - SUMEDANG","Prop. Jawa Barat","SMA","-6.8970000","107.8104000"
"69857938","SMAN 12 KOTA DEPOK","Jl. Cipayung No.27","Prop. Jawa Barat","SMA","-6.4199867","106.7955550"
"69881559","SMAN 1 CISAYONG","Jl. RAYA CISINGA KM. 19","Prop. Jawa Barat","SMA","-7.2443660","108.1272680"
"20215023","SMAS MUHAMMADIYAH KEDAWUNG","JL. TUPAREV NO. 70 A","Prop. Jawa Barat","SMA","-6.7104000","108.5371000"
"20227469","SMAN 9 GARUT","JL. BOJONGSARI TANGSI NO. 224","Prop. Jawa Barat","SMA","-7.0608000","108.0907000"
"20224124","SMA SANTA MARIA 3","JL. GATOT SUBROTO NO. 6","Prop. Jawa Barat","SMA","-6.8767000","107.5455000"
"20219750","SMAS ASIA AFRIKA 55","JL.A.YANI NO.107","Prop. Jawa Barat","SMA","-6.9202000","107.6211000"
"20220312","SMAS TUNAS HARAPAN","JL. PAHLAWAN NO.140","Prop. Jawa Barat","SMA","-6.6147933","106.8036400"
"20203719","SMAS MUHAMADIYAH CIPANAS","JL. SUKASARI NO. 47","Prop. Jawa Barat","SMA","-6.7298000","107.0371000"
"20227866","SMAS MUSLIMIN CIPONGKOR","JL. PLTA SAGULING DS BARANANGSIANG CIPONGKOR","Prop. Jawa Barat","SMA","-6.8502000","107.4922000"
"20237369","SMAS MUHAMMADIYAH KARAWANG","JL. K.H. Ahmad Dahlan No. 10-12 Kaum I Kel. Karawang Kulon, Karawang 41311","Prop. Jawa Barat","SMA","-6.3102000","107.2918000"
"20202261","SMAN 1 CISAAT","JL. VETERAN KM. 3 KAB.SUKABUMI","Prop. Jawa Barat","SMA","-6.9251917","106.8807117"
"20251791","SMAN 1 BANJARAN","JL. CIAPUS NO. 07","Prop. Jawa Barat","SMA","-7.0532000","107.5895000"
"20224115","SMA BUDI LUHUR","JL. KERKOF NO. 214 RT. 10/08 KP. PADAKASIH","Prop. Jawa Barat","SMA","-6.8888000","107.5314000"
"20220314","SMAS MUHAMMADIYAH","JL. PAHLAWAN GG RD SALEH 55","Prop. Jawa Barat","SMA","-6.6107633","106.7981517"
"20232377","SMAN 1 DRAMAGA","JL. RAYA DRAMAGA KM 07","Prop. Jawa Barat","SMA","-6.5696000","106.7400000"
"20223057","SMAS BINA SISWA UTAMA","JL.ASTER RAYA NO. 15 PERUMAHAN HARAPAN BARU","Prop. Jawa Barat","SMA","-6.2096000","106.9691000"
"20231711","SMAS ISLAM DARUL ABROR","JL. RAYA KRANGGAN GG. CAMAR","Prop. Jawa Barat","SMA","-6.3510000","106.9246000"
"20237986","SMAN 1 CIKARANG BARAT","PERUM TELAGA HARAPAN BLOK D CIKARANG BARAT","Prop. Jawa Barat","SMA","-6.2600000","107.1250000"
"69873998","SMA UNITY SCHOOL","CENTRAL PARK, GRAND GALAXY CITY","Prop. Jawa Barat","SMA","-6.2597570","106.9711540"
"20231708","SMAS ISLAM DARUSALAM","JL. CIKUNIR RAYANO.  2A JAKA MULYA","Prop. Jawa Barat","SMA","-6.2547000","106.9879000"
"20214981","SMAN 1 SURANENGGALA","JL. SYEK MAGELUNG KAPETAKAN","Prop. Jawa Barat","SMA","-6.6280000","108.5092000"
"20252008","SMAN 1 CIKIDANG","JL. PENDIDIKAN NO.35","Prop. Jawa Barat","SMA","-6.8976000","106.6507000"
"20227460","SMAN 28 GARUT","JALAN LETJEND S PARMAN","Prop. Jawa Barat","SMA","-7.5226000","107.4871000"
"20206205","SMAN 1 SOREANG","JL. RAYA SOREANG-BANJARAN KM.3","Prop. Jawa Barat","SMA","-7.0345290","107.5393440"
"20219738","SMAS BPI 1 BANDUNG","JL. BURANGRANG NO. 8","Prop. Jawa Barat","SMA","-6.9239000","107.6194000"
"20219721","SMAS BUNGA BANGSA BANDUNG","JL. DAGO BENGKOK NO. 3","Prop. Jawa Barat","SMA","-6.8639000","107.6213000"
"20213889","SMAN 2 MAJALENGKA","JL. JENDERAL AHMAD YANI NO. 2","Prop. Jawa Barat","SMA","-6.8360000","108.2290000"
"20271371","SMAS SAMPOERNA","JL. RAYA SUKABUMI KM 17 NO. 61 CARINGIN BOGOR","Prop. Jawa Barat","SMA","-6.7112000","106.8222000"
"69830500","SMA ISLAM BINA INSAN MANDIRI","Jl. PAMIJAHAN CIJERUK","Prop. Jawa Barat","SMA","-7.6066000","108.1069000"
"69874019","SMA ISLAM TERPADU YALHAS","Kp. Pasir Haur Rt 23 Rw 06","Prop. Jawa Barat","SMA","-6.8393310","106.7070840"
"20224549","SMAS ISLAM IBNU SIENA","JL. SILIWANGI NO. 41","Prop. Jawa Barat","SMA","-7.3470000","108.2296000"
"20215981","SMAN 1 HAURGEULIS","JL. Budi Utomo No.7","Prop. Jawa Barat","SMA","-6.4656000","107.9307000"
"20219756","SMAS ANGKASA","Jl. Lettu Subagio No. 22","Prop. Jawa Barat","SMA","-6.9062000","107.5830000"
"20200680","SMAN 1 JONGGOL","JL. SUKASIRNA JONGGOL  NO. 36","Prop. Jawa Barat","SMA","-6.4824000","107.0597000"
"69760679","SMAS PLUS NURUL IMAN","KP. GALUMPIT RT 05 RW 04","Prop. Jawa Barat","SMA","-7.1025000","107.8809000"
"20232313","SMAS AMALIAH","JL. RAYA TOL CIAWI NO. 1 DESA CIAWI","Prop. Jawa Barat","SMA","-6.6557000","106.8496000"
"69915812","SMAN 3 CIKAMPEK","JALAN JEND. A. YANI","Prop. Jawa Barat","SMA","-6.3954000","107.4323000"
"20245433","SMAN 2 CIKARANG PUSAT","Jl. Raya PLN  Desa Sukamahi","Prop. Jawa Barat","SMA","-6.3758430","107.1639290"
"20231715","SMAS MUTIARA 17 AGUSTUS","JL. RAYA TAMAN WISMA ASRI KAV.7","Prop. Jawa Barat","SMA","-6.2125000","107.0311000"
"20229746","SMAN 1 PASAWAHAN","JL. TERUSAN KAPTEN HALIM","Prop. Jawa Barat","SMA","-6.5870000","107.4747000"
"20223022","SMAS YASFI","JL. RAYA KP. SAWAH JATIMURNI","Prop. Jawa Barat","SMA","-6.3276000","106.9320000"
"20268860","SMAS YADIKA 13","JL. VILLA  INDAH 1 KP. KEBON","Prop. Jawa Barat","SMA","-6.2154000","107.0730000"
"20223053","SMAS HANDAYANI","JL. RAYA HANKAM NO. 50 JATIMURNI","Prop. Jawa Barat","SMA","-6.3419000","106.9233000"
"20219784","SMAS PELITA BANGSA","JL. SOEKARNO HATTA NO. 391","Prop. Jawa Barat","SMA","-6.9424130","107.6078580"
"20253274","SMAS ISLAM TERPADU RIYADLUSSHOLIHIN","Kp. Kubangsalawe Tawangbanteng","Prop. Jawa Barat","SMA","-7.3018000","108.1407000"
"20222367","SMAN 4 CIREBON","JL. PERJUANGAN NO. 01","Prop. Jawa Barat","SMA","-6.7487000","108.5405000"
"20200675","SMAS TRIPLE J CITEUREUP","JL. LANDBOUW , DS. KARANG ASEM BARAT NO.25","Prop. Jawa Barat","SMA","-6.4855000","106.8667000"
"69786373","SMAS TERPADU AL-MUKHTAR","Kp. PADAKARIA","Prop. Jawa Barat","SMA","-7.3300000","108.0693000"
"20200687","SMAS EKAWIJAYA CIBINONG","JL. MAYOR OKING JAYAATMAJA NO. 54  KEL. CIRIUNG","Prop. Jawa Barat","SMA","-6.4747517","106.8649183"
"20232336","SMAS GITA PGRI","JL. MEYJEN H.R EDISUKMA NO. 298 DESA WATES JAYA","Prop. Jawa Barat","SMA","-6.7493000","106.8048000"
"20238011","SMAS DARUL MUALLAMAH","JL. PASIR KUPANG NAGASARI SERANG BARU KAB.BEKASI","Prop. Jawa Barat","SMA","-6.3818000","107.1847000"
"20203720","SMAS PASUNDAN CIKALONGKULON","JL. ARIAWIRATANUDATAR NO. 77","Prop. Jawa Barat","SMA","-6.7198000","107.2123000"
"20229142","SMAS ARRAHMAN","JL. MASJID AL ITTIHAD NO. 35","Prop. Jawa Barat","SMA","-6.4346900","106.8079017"
"20233663","SMAS ASTHA HANNAS BINONG","JL. RAYA BINONG NO. 65 BINONG","Prop. Jawa Barat","SMA","-6.4046000","107.7944000"
"69883257","SMA DAR EL FIKRI CIANJUR","Jln. Bojongsari Kp. Nyalindung","Prop. Jawa Barat","SMA","-6.8527000","107.2086000"
"69787173","SMA SCHOOL OF UNIVERSE","Jl.RAYA PARUNG KM 43","Prop. Jawa Barat","SMA","-6.3739000","106.9911000"
"20203721","SMAS PGRI CIANJUR","JL. GATOT MANGKUPRAJA NO. 39","Prop. Jawa Barat","SMA","-6.8378000","107.1273000"
"20214977","SMAS PLUS NU PANGURAGAN","JL. NYI MAS GANDASARI NO. 10","Prop. Jawa Barat","SMA","-6.6269000","108.4514000"
"20223029","SMAS TAMAN HARAPAN 1","KOMP. PERUM HARAPAN BARU","Prop. Jawa Barat","SMA","-6.1845000","106.9936000"
"69948400","SMA NUSA BANGSA","Kp. Pasirpogor RT 02 RW 06","Prop. Jawa Barat","SMA","-7.4279000","107.8916000"
"20247144","SMAS AL MASTHURIYAH","Jl. Raya Cibolang KM 7 No. 03 Rt. 49/10","Prop. Jawa Barat","SMA","-6.9053717","106.8705900"
"20220318","SMAS PGRI 3","JL. KH.SHOLEH ISKANDAR NO 19","Prop. Jawa Barat","SMA","-6.5597000","106.7941000"
"20231347","SMAS PGRI JASINGA","JL. RAYA  JASINGA/ JL. PANCA MARGA DS. PAMAGARSARI","Prop. Jawa Barat","SMA","-6.4836000","106.4711000"
"20263276","SMAS AL MUMINUN CIPAKU","RT 07/01 PANYINGKIRAN MUKTISARI CIPAKU","Prop. Jawa Barat","SMA","-7.2663000","108.3914000"
"20219273","SMAS YPKKP BANDUNG","JL. CIJERAH NO. 230","Prop. Jawa Barat","SMA","-6.9274000","107.5651000"
"20229165","SMAS MUHAMMADIYAH SAWANGAN","JL. ABDUL WAHAB NO. 19","Prop. Jawa Barat","SMA","-6.3924000","106.7613000"
"20244673","SMAS NU LEMAHABANG","JL. RAYA PANDE NO.09","Prop. Jawa Barat","SMA","-6.8309000","108.6320000"
"69947131","SMAIT AL-ARABI","Perum Telaga Sakinah Blok CD 12 No.17","Prop. Jawa Barat","SMA","-6.3085472","107.1034641"
"20219779","SMAS PGRI 2","JL. CIPAGALO GIRANG NO. 42","Prop. Jawa Barat","SMA","-6.9522000","107.6473000"
"20224509","SMAN 3 TASIKMALAYA","JL. LETKOL BASIR SURYA NO.89","Prop. Jawa Barat","SMA","-7.3419000","108.2513000"
"20222384","SMAN 5 CIREBON","JL. PERJUANGAN MAJASEM","Prop. Jawa Barat","SMA","-6.7440000","108.5476000"
"20210762","SMAS NURUL AMANAH SALAWU","Jl. Raya Tasik Garut Km.31 Rancak","Prop. Jawa Barat","SMA","-7.3645000","107.9953000"
"20251911","SMAN 1 MANIIS","JL. RAYA PALUMBON DESA SINARGALIH KEC.MANIIS PURWAKARTA","Prop. Jawa Barat","SMA","-6.7076000","107.3140000"
"20227919","SMA ASH-SHOPA MAJALAYA","JL. RAYA BIRU MAJALAYA","Prop. Jawa Barat","SMA","-7.0510000","107.7327000"
"69770473","SMAS IT YAPIRA","KP. MEDANG RT 01/08","Prop. Jawa Barat","SMA","-6.3622000","106.6480000"
"20219233","SMAN 26 BANDUNG","JL. SUKALUYU","Prop. Jawa Barat","SMA","-6.9173000","107.7253000"
"20217763","SMAN 2 KARAWANG","JL. MANUNGGAL VII","Prop. Jawa Barat","SMA","-6.2923000","107.3298000"
"20227878","SMA PLUS MERDEKA SOREANG","JL. Citaliktik - Sindang Wargi","Prop. Jawa Barat","SMA","-7.0336000","107.5403000"
"20237361","SMAS AL KHOLIDIYAH","JL. RAYA PANGKALAN","Prop. Jawa Barat","SMA","-6.3550000","107.2570000"
"20219715","SMAS BPK 3 PENABUR BANDUNG","JL. RAYA CIBEUREUM NO. 92","Prop. Jawa Barat","SMA","-6.8986000","107.5637000"
"20219265","SMAS ST MARIA 1 BANDUNG","JL. BENGAWAN NO. 6","Prop. Jawa Barat","SMA","-6.9114000","107.6315000"
"20219776","SMAS PLUS AL GHIFARI BANDUNG","JL. CISARANTEN KULON NO. 140","Prop. Jawa Barat","SMA","-6.9246000","107.6846000"
"20219727","SMAS KARTIKA XIX-1","JL. TAMAN PRAMUKA NO. 163","Prop. Jawa Barat","SMA","-6.9093000","107.6271000"
"20232339","SMAS IBNU HAJAR","JL. KH. ABDUL HAMID KM .07 PASAREAN","Prop. Jawa Barat","SMA","-6.6362000","106.6576000"
"20253898","SMAS ISLAM ANNUR BABELAN","KP.KERANGKENG RT 05/03","Prop. Jawa Barat","SMA","-6.1411000","107.0192000"
"20212956","SMA NEGERI 2 KUNINGAN","JL. ARUJI KARTAWINATA NO. 16","Prop. Jawa Barat","SMA","-6.9793000","108.4853000"
"20258514","SMAS YADIKA 12","LIMO RAYA","Prop. Jawa Barat","SMA","-6.3717000","106.7707000"
"20227829","SMA BAKTI NUSANTARA","JL. ARJASARI LEBAKWANGI NO. 14 ARJASARI","Prop. Jawa Barat","SMA","-7.0466000","107.6052000"
"20223073","SMAS METROPOLITAN","JL. PEMUDA NO. 47 KRANJI","Prop. Jawa Barat","SMA","-6.2302000","106.9760000"
"20220347","SMAS TAMAN SISWA BOGOR TENGAH","JL. MERDEKA NO. 172","Prop. Jawa Barat","SMA","-6.5829000","106.7884000"
"20254054","SMAN 1 RANCAEKEK","JL. WALINI RANCAEKEK BANDUNG","Prop. Jawa Barat","SMA","-6.9599970","107.7657100"
"20244793","SMAS IT BANI MASUM CISALAK","JL. RAYA CIMANGGU NO. 87","Prop. Jawa Barat","SMA","-6.7359000","107.7837000"
"20219272","SMAS YWKA","JL.ELANG II NO.3","Prop. Jawa Barat","SMA","-6.9140000","107.5760000"
"20213892","SMAN 1 SUKAHAJI","JL. RAYABARAT NO. 29 SUKAHAJI","Prop. Jawa Barat","SMA","-6.8187000","108.2827000"
"20233659","SMAS PGRI 2 SUBANG","JL. ARIEF RAHMAN HAKIM SUBANG NO.2","Prop. Jawa Barat","SMA","-6.5567000","107.7607000"
"20217357","SMAN 1 PURWAKARTA","JL. KK SINGAWAINATA NO. 113","Prop. Jawa Barat","SMA","-6.5604000","107.4473000"
"20223042","SMAN 7 BEKASI","JL. LINGKAR TATA KOTA KRANGGAN","Prop. Jawa Barat","SMA","-6.2575000","106.9837000"
"69945596","SMA IT TUNAS BANGSA ","Kp. Hegarmanah","Prop. Jawa Barat","SMA","-7.2882497","106.9969504"
"20258552","SMAS RAUDATUL ISLAM","JL. RAYA SINDANG BARANG KM.11.8","Prop. Jawa Barat","SMA","-7.4805000","107.2258000"
"20237992","SMAN 1 SETU","PERUM GRAHA MUSTIKA MEDIA SETU BEKASI","Prop. Jawa Barat","SMA","-6.3208000","107.0467000"
"20215985","SMAS YAPIN KERTASEMAYA","JL. RAYA TULUNGAGUNG NO 76","Prop. Jawa Barat","SMA","-6.5391000","108.3523000"
"20258335","SMAS UNGGUL AR-RAHMAN","Jl. Muhammad Amir KM 09","Prop. Jawa Barat","SMA","-6.8402000","106.7186000"
"20216197","SMAS P MKGR KERTASEMAYA","JL. KH. HASBULLAH TENAJAR LOR","Prop. Jawa Barat","SMA","-6.4917000","108.3502000"
"20219735","SMAS KARYA PEMB 2","JL. RAYA UJUNGBERUNG NO. 25","Prop. Jawa Barat","SMA","-6.9293000","107.6885000"
"20227830","SMA BINA NEGARA 1 BALEENDAH","JL. RAYA ANDIR NO.216 BALEENDAH","Prop. Jawa Barat","SMA","-7.0464000","107.6051000"
"20203705","SMAS MIFTAHUL HUDA","JL. RAYA LELES KM. 13","Prop. Jawa Barat","SMA","-7.3259000","107.0647000"
"20223049","SMAS PUTRA HARAPAN","JL. GURAME RAYA NO. 1 PERUM. I BEKASI","Prop. Jawa Barat","SMA","-6.2341000","106.9837000"
"20224546","SMAS PASUNDAN 2 TASIKMALAYA","JL.RE.MARTADINATA -JATI","Prop. Jawa Barat","SMA","-7.3025000","108.2006000"
"20227470","SMAN 23 GARUT","JL.Raya Bungbulang-Jatigede-Pakenjeng","Prop. Jawa Barat","SMA","-7.4454000","107.6584000"
"20253030","SMAS AL KHOLILIYAH","KP. CIKADU DESA SUKATANI KEC.PARAKAN SALAK","Prop. Jawa Barat","SMA","-6.8042000","106.7305000"
"69822687","SMAS ISLAM TERPADU AL KAFI CIGEDUG","Cigedug","Prop. Jawa Barat","SMA","-7.3317000","107.8216000"
"20254004","SMAS MADINATUNNAJAH","JL.  D.I. PANJAITAN NO 30 KALIMUKTI PABEDILAN","Prop. Jawa Barat","SMA","-6.8701000","108.7899000"
"20273960","SMA SASAMA","JL. BOJONG MUNCANG","Prop. Jawa Barat","SMA","-7.1015000","107.7447000"
"20229168","SMAN 6 KOTA DEPOK","JL. LIMO RAYA","Prop. Jawa Barat","SMA","-6.3706000","106.7735000"
"20235626","SMAS PGRI PARAKAN MUNCANG","JL. PARAKAN MUNCANG  SIMPANG KM. 23 CIMANGGUNG","Prop. Jawa Barat","SMA","-6.9629200","107.8277360"
"20254158","SMAS FAJAR DUNIA","JL. PALASARI TIMUR RT 021/010","Prop. Jawa Barat","SMA","-6.4364000","106.9949000"
"20254134","SMA TERBUKA (SMA NEGERI 5 DEPOK)","KOMPLEK BUKIT RIVARIA","Prop. Jawa Barat","SMA","-6.4088000","106.7604000"
"20200673","SMAS TAMAN ISLAM","JL. KH. ABDUL HAMID KM.  4 SITU UDIK CIBUNGBULANG","Prop. Jawa Barat","SMA","-6.6142000","106.6564000"
"20223818","SMAN 2 KOTA DEPOK","JL. GEDE RAYA NO. 177 DEPOK TIMUR","Prop. Jawa Barat","SMA","-6.3945000","106.8492000"
"20224527","SMAS SILIWANGI TASIKMALAYA","JL. SAPTAMARGA NO. 54","Prop. Jawa Barat","SMA","-7.3459000","108.2305000"
"20268965","SMAS PLUS CENDEKIA CIKEAS","JL. BALAI DESA NAGRAK RT 04/05","Prop. Jawa Barat","SMA","-6.3858000","106.9469000"
"20218356","SMAN 1 CIKARANG UTARA","JL. KI HAJAR DEWANTARA NO. 91 CIKARANG UTARA BEKASI","Prop. Jawa Barat","SMA","-6.2484000","107.1589000"
"20233656","SMAN 1 TANJUNGSIANG","JL. SINDANGLAYA  TANJUNGSIANG","Prop. Jawa Barat","SMA","-6.7286000","107.8113000"
"20229164","SMAS MUHAMMADIYAH BEJI","JL. MI RIDWAN RAIS 37","Prop. Jawa Barat","SMA","-6.3787567","106.8256433"
"20232315","SMAS AS SYUJA IYAH","JL. SUKARAJA NAGRAK KM.1","Prop. Jawa Barat","SMA","-6.5988000","106.8435000"
"60726697","SMAN 1 CIEMAS","JL. PASIRHAUR","Prop. Jawa Barat","SMA","-7.2175000","106.4854000"
"20216194","SMAS AL ISHLAH BOARDING SCHOOL","JL. RAYA SUDIMAMPIR BALONGAN","Prop. Jawa Barat","SMA","-6.4234000","108.3668000"
"20244671","SMAS ISLAMIYAH WERU","JL.SYEKH DATUK KAHFI NO.45","Prop. Jawa Barat","SMA","-6.7038000","108.5073000"
"20227885","SMAS YAS SINDANGKERTA","JL. GANDOK SINDANGKERTA","Prop. Jawa Barat","SMA","-6.9877000","107.4143000"
"20224122","SMA PUTRA MANDIRI","JL. KOMP SANGKURIANG NO. 36","Prop. Jawa Barat","SMA","-6.8670000","107.5361000"
"69950289","SMA PLUS DAMAR BANGSA","Jl. Palasari KM. 2 RT.03/1","Prop. Jawa Barat","SMA","-6.8637000","106.7551000"
"20214979","SMAS PGRI PALIMANAN","JL. KI AGENG TEPAK","Prop. Jawa Barat","SMA","-6.7140000","108.4363000"
"20212951","SMA NEGERI 1 GARAWANGI","JL. RAYA GARAWANGI NO. 34","Prop. Jawa Barat","SMA","-6.9998000","108.5421000"
"69892332","SMA IT NURUL BAROKAH","BLOK DESA RT.05 RW.02 DESA KANCANA","Prop. Jawa Barat","SMA","-7.0138920","108.3719240"
"20233662","SMAS PGRI TANJUNG SIANG","JL. RAYA TANJUNGSIANG","Prop. Jawa Barat","SMA","-6.7474000","107.8034000"
"69874000","SMA CIMENTENG","JL BLOK BARU","Prop. Jawa Barat","SMA","-7.1683880","107.2166450"
"20219262","SMAS ALLOYSIUS 2","JL. BATUNUNGGAL INDAH II NO. 30","Prop. Jawa Barat","SMA","-6.9597000","107.6343000"
"20211565","SMAN 1 CIAMIS","JL GUNUNG GALUH NO.37 CIAMIS","Prop. Jawa Barat","SMA","-7.3308300","108.3551050"
"20219732","SMAS KIFAYATUL ACHYAR","JL. AH. NASUTION KM. 14","Prop. Jawa Barat","SMA","-6.9334000","107.7168000"
"20227813","SMA AL AMANAH CIWIDEY","JL.KOMPLEK MASJID BESAR CIWIDEY","Prop. Jawa Barat","SMA","-7.1029590","107.4626650"
"69882355","SMA TERPADU DAMPASAN","Jl. Pasir Garu Dusun Tuban RT.002/ RW.006","Prop. Jawa Barat","SMA","-7.5122640","108.6362310"
"20213897","SMAN 1 KADIPATEN","JL. LAPANGSARI NO. 61 KADIPATEN","Prop. Jawa Barat","SMA","-6.7724000","108.1735000"
"20247180","SMAS DAARUL AMANAH","Dusun Andansari  RT 003 RW 003","Prop. Jawa Barat","SMA","-6.7960000","108.3505000"
"20275311","SMAS ISLAM FATAHILLAH CABANGBUNGIN","JL. RAYA PULORENGAS","Prop. Jawa Barat","SMA","-6.0803000","107.1321000"
"20231718","SMAN 12 BEKASI","JL. I GUSTI NGURAH RAI GG. MASJID AL IKHLAS KRANJI","Prop. Jawa Barat","SMA","-6.2228000","106.9728000"
"20220351","SMAS YZA 2 BOGOR","JL. DR. SEMERU NO. 59","Prop. Jawa Barat","SMA","-6.5870000","106.7838000"
"20231325","SMAN 1 CIGUDEG","JL. RAYA CIGUDEG KM. 35, DESA CIGUDEG","Prop. Jawa Barat","SMA","-6.5544000","106.5340000"
"20262713","SMAS IJTIMAUL AHADIAH","JL. SEMBAHMADU NO.1","Prop. Jawa Barat","SMA","-7.4315000","107.9690000"
"20223041","SMAN 8 BEKASI","JL. IRIGASI NO. 1 RT.05/21 PEKAYON JAYA","Prop. Jawa Barat","SMA","-6.2557000","106.9744000"
"69952214","SMA IT AT-TAUFIQ","KAMPUNG KADUREA RT 02 RW 01","Prop. Jawa Barat","SMA","-7.3113085","106.8461790"
"69880471","SMA NU KARANGANYAR","Jalan Patimura Desa Karanganyar","Prop. Jawa Barat","SMA","-6.3804000","108.1569000"
"20264424","SMAN 1 JUNTINYUAT","JL. RAYA JUNTINYUAT NO. 14","Prop. Jawa Barat","SMA","-6.4291000","108.4372000"
"20219739","SMAS BINA DHARMA 2 BANDUNG","JL. BABAKAN SARI KIARACONDONG","Prop. Jawa Barat","SMA","-6.9226000","107.6521000"
"69760688","SMAS ISLAM NURUL IMAN","JL. RANCABUAYA KP. SAGA RT.03/09 DS. PURBAYANI","Prop. Jawa Barat","SMA","-7.4828000","107.5190000"
"20222166","SMAN 8 CIREBON","JL. PRONGGOL PEGAMBIRAN","Prop. Jawa Barat","SMA","-6.7320000","108.5741000"
"20220330","SMAS YPHB","JL.PAJAJARAN NO.234","Prop. Jawa Barat","SMA","-6.5782000","106.8074000"
"69856918","SMAS IT BAITURROHMAN","Kp. Solokpandan 01/ 02","Prop. Jawa Barat","SMA","-7.1990000","107.8590000"
"20231322","SMAN 1 BABAKAN MADANG","JL. RAYA BABAKAN MADANG","Prop. Jawa Barat","SMA","-6.5730000","106.8994000"
"20233669","SMAS TAMAN SISWA PAMANUKAN","JL. EYANG TIRTA PRAJA NO. 87 PAMANUKAN","Prop. Jawa Barat","SMA","-6.2851000","107.8116000"
"20210769","SMAS YAB SUKARATU","JL.BATU MASIGIT SINAGAR","Prop. Jawa Barat","SMA","-7.2909000","108.1466000"
"20222382","SMAS ISLAM AL-AZHAR CIREBON","JL. PILANG SETRAYASA NO. 31","Prop. Jawa Barat","SMA","-6.7194000","108.5627000"
"20227901","SMAN 1 PARONGPONG","JL. CIHANJUANG RAHAYU NO.39","Prop. Jawa Barat","SMA","-6.8098000","107.5762000"
"20211578","SMAN 1 CIHAURBEUTI","JL. KARTAWIJAYA NO. 600 PAMOKOLAN CIHAURBEUTI","Prop. Jawa Barat","SMA","-7.1955670","108.2004000"
"20227820","SMA AL MASUDIYAH MARGAASIH","JL. CIGONDEWAH HILIR NO.42 MARGAASIH","Prop. Jawa Barat","SMA","-6.9442000","107.5562000"
"20203702","SMAS  ISLAM AL MAZIYYAH CILAKU","Jln. KH.MUHAMMAD SUDJAI KM 6.3 CIHARASHAS","Prop. Jawa Barat","SMA","-6.8674000","107.1616000"
"20251787","SMAS SUMUR BANDUNG CILILIN","JL. RAYA CILILIN UTARA NO. 52","Prop. Jawa Barat","SMA","-6.9539000","107.4613000"
"20233665","SMAS PLUS PAGELARAN CISALAK","JL. PONTREN PAGELARAN III CISALAK","Prop. Jawa Barat","SMA","-6.7189000","107.7695000"
"20274909","SMAS ISTIQOMAH","KOMPLEK PURAGABAYA NO. 14 JL. CIJAWURA GIRANG RT 01/14","Prop. Jawa Barat","SMA","-6.9443000","107.6473000"
"20227877","SMA PLUS ISLAM PACET","JL.CAGAK NO.13 MARUYUNG PACET","Prop. Jawa Barat","SMA","-7.1501000","107.3335000"
"20220352","SMAS BINA BANGSA SEJAHTERA","JALAN RAYA DRAMAGA KM. 7","Prop. Jawa Barat","SMA","-6.5709000","106.7447000"
"20221593","SMAS PELITA MADANIA","Jl. Otista","Prop. Jawa Barat","SMA","-6.9271000","106.9355000"
"20219271","SMAN 1 BANDUNG","JL. IR. H. JUANDA NO. 93 Bandung","Prop. Jawa Barat","SMA","-6.8955000","107.6128000"
"20223024","SMAS TUNAS JAKA SAMPURNA","JL. SADEWA RAYA BLOK C NO.1, JAKASETIA","Prop. Jawa Barat","SMA","-6.2600000","106.9636000"
"20258093","SMAS BOGOR RAYA","Perumahan Danau Bogor Raya, Kota Bogor","Prop. Jawa Barat","SMA","-6.5971000","106.8202000"
"20219316","SMAN 7 BANDUNG","JL. LENGKONG KECIL NO. 53","Prop. Jawa Barat","SMA","-6.9232000","107.6150000"
"20217788","SMAN 1 PEDES","JL. Raya Sungaibuntu","Prop. Jawa Barat","SMA","-6.1083000","107.3639000"
"69954141","SMA IT NURUL ITTIHAD","Jl. Waringinsari Kp. Sukarilah Rt/Rw 02/02","Prop. Jawa Barat","SMA","-7.0873730","106.9937520"
"20216942","SMAN 1 KALIJATI","JL. RAYA TANGGULUN BARAT NO. 1","Prop. Jawa Barat","SMA","-6.5488000","107.6474000"
"20252192","SMA NEGERI  1 KADUPANDAK","JL. SILIWANGI NO. 1","Prop. Jawa Barat","SMA","-7.2541000","107.0472000"
"20214969","SMAN 1 BABAKAN","JL. PANGERAN SUTAJAYA NO. 4","Prop. Jawa Barat","SMA","-6.8510000","108.7231000"
"20219734","SMAS KEMAH IND 2","JL.SADANG SERANG","Prop. Jawa Barat","SMA","-6.8878000","107.6252000"
"20219801","SMAS MUTIARA 1","JL. MALEBER UTARA NO. 37","Prop. Jawa Barat","SMA","-6.9074000","107.5782000"
"20209191","SMAS ISLAM CIKUYA BUNGBULANG","JL. KP. CIKUYA","Prop. Jawa Barat","SMA","-7.4593000","107.5752000"
"20251782","SMAN 1 CIKALONGWETAN","JL. RAYA CIKALONGWETAN","Prop. Jawa Barat","SMA","-6.7626000","107.4638000"
"69946479","SMA EDU GLOBAL","Jl. Kalimantan No. 7","Prop. Jawa Barat","SMA","-6.9121206","107.6240599"
"69929546","SMA JUMHURIYYAH","Kp.Cipunaga","Prop. Jawa Barat","SMA","-7.3448000","106.9374000"
"20255779","SMAS TAUHIDUL APKAR","JL. HANJAWAR-PACET-MARIWATI CIBADAK GIRANG","Prop. Jawa Barat","SMA","-6.7121000","107.0593000"
"20202263","SMAN 1 JAMPANGKULON","JL. WARUNG TAGOG","Prop. Jawa Barat","SMA","-7.2900000","106.6368000"
"20232303","SMAS AL ASIYAH","JL. RAYA JAKARTA BOGOR PABUARAN CIBINONG","Prop. Jawa Barat","SMA","-6.4634883","106.8549133"
"20238021","SMA PELITA HARAPAN CIKARANG","JL. DAGO PERMAI NO. 1 LIPPO CIKARANG, CIKARANG SELATAN","Prop. Jawa Barat","SMA","-6.3287000","107.1475000"
"20232337","SMAS HANURA","JL. BABAKAN KEMANG DS. CIHIDEUNG UDIK","Prop. Jawa Barat","SMA","-6.5657000","106.7115000"
"69949270","SMA COKROAMINOTO BALEGEDE","Jl. Raya Balegede","Prop. Jawa Barat","SMA","-7.4124708","107.2891340"
"20276389","SMAS IT RAUDHATUL ULUM","KP. CIJEURAI RT. 003 RW. 014","Prop. Jawa Barat","SMA","-6.5542000","106.5476000"
"20276388","SMAN 1 KLAPANUNGGAL","JL. TERUSAN BOJONG","Prop. Jawa Barat","SMA","-6.4527000","106.9606000"
"20219324","SMAN 9 BANDUNG","LMU I SUPARMIN NO. I A BANDUNG","Prop. Jawa Barat","SMA","-6.9010000","107.5858000"
"69775444","SMAS IT UMMUL QURO","JL. KAYU MANIS","Prop. Jawa Barat","SMA","-6.5084000","106.7707000"
"20233668","SMAS SUDIRMAN PURWADADI","JL. RAYA PASIRBUNGUR NO.66 PURWADADI","Prop. Jawa Barat","SMA","-6.4368000","107.6883000"
"20224121","SMA PASUNDAN 3","JL. ENCEP KARTAWIRIA NO. 97A","Prop. Jawa Barat","SMA","-6.8617000","107.5511000"
"20237371","SMAN 1 CIKAMPEK","JL. IR. H. JUANDA CIKAMPEK","Prop. Jawa Barat","SMA","-6.3980000","107.4656000"
"69862451","SMA IT TUNAS BANGSA","JL. KALIMULYA NO. 86B","Prop. Jawa Barat","SMA","-6.4377133","106.8218667"
"20220328","SMAS KAMANDAKA","JL. BANGBARUNG RAYA","Prop. Jawa Barat","SMA","-6.5821000","106.8154000"
"69934552","SMA BAITUL QUR`AN","Komp. Timah, Blok CC III No. 19 Kelapa Dua","Prop. Jawa Barat","SMA","-6.3639000","106.8443000"
"69934745","SMA PLUS AL-MUBAROK","Kp. Karyamandala RT 02 RW 02","Prop. Jawa Barat","SMA","-7.4395000","108.2772000"
"69929246","SMA NURUL FALAH CINANGSI","Kp. Cinangsi RT 05/05","Prop. Jawa Barat","SMA","-7.4851383","107.6510547"
"20216938","SMAN 1 SUBANG","JL. KI HAJAR DEWANTARA NO. 14A SUBANG","Prop. Jawa Barat","SMA","-6.5557000","107.7518000"
"69896978","SMA Al Islam Islamic Boarding School","Jl. Raya Cirebon - Kuningan - Desa Kondangsari RT. 12/04","Prop. Jawa Barat","SMA","-6.7968000","108.5275000"
"69902897","SMAS IT KI HAJAR DEWANTORO","Kp. Pulo RT.04/37","Prop. Jawa Barat","SMA","-6.2170000","107.0765000"
"69900119","SMA PLUS AL-MUQORROBIN CISOMPET","Kp. Cihideung Desa. Cikondang","Prop. Jawa Barat","SMA","-7.5828000","107.8669000"
"69755543","SMAS PLUS PERSIS PAMEUNGPEUK","JL. TEGALGEDE","Prop. Jawa Barat","SMA","-7.6115000","107.7214000"
"20227916","SMA ISLAM AL-MUKLIS","JL. PANYAUNGAN NAGRAK","Prop. Jawa Barat","SMA","-7.0544000","107.5492000"
"20200604","SMAN 1 TAMANSARI","JL.. JAGA KARSA DESA TAMAN SARI","Prop. Jawa Barat","SMA","-6.6552000","106.7488000"
"20279952","SMAS PILAR INDONESIA","JALAN DEWA NO. 9 CIANGSANA","Prop. Jawa Barat","SMA","-6.3712000","106.9481000"
"20232368","SMAS MUHAMMADIYAH PAMIJAHAN","Jln. K.H. Abdul Hamid Km.15, Kp. Sindang Baru","Prop. Jawa Barat","SMA","-6.6831000","106.6479000"
"20238026","SMAS TRINITAS","JL. MAJAPAHIT 52 TAMAN SIMPRUG LIPPO CIKARANG","Prop. Jawa Barat","SMA","-6.3459000","107.1579000"
"20224541","SMAS ANGKASA TASIKMALAYA","JL. GARUDA NO. 26","Prop. Jawa Barat","SMA","-7.3359000","108.2246000"
"20238013","SMAS DIAN HARAPAN","JL. PALEM KUNING RAYA 2 TAMAN BEVERLI LIPPO","Prop. Jawa Barat","SMA","-6.3388000","107.1503000"
"20219766","SMAS PASUNDAN 2 BANDUNG","Jl. Cihampelas No. 167","Prop. Jawa Barat","SMA","-6.8904000","107.6041000"
"69857939","SMAN 13 Kota Depok","Jl. Pedurenan","Prop. Jawa Barat","SMA","-6.3768000","106.8733000"
"20223058","SMAS ATTAQWA","JL. KALIABANG BUNGUR NO.2","Prop. Jawa Barat","SMA","-6.1787000","106.9808000"
"20202251","SMAN 1 WARUNG KIARA","JL. PELABUHAN RATU KM. 29 WARUNGKIARA","Prop. Jawa Barat","SMA","-6.9771000","106.7193000"
"20224109","SMA NEGERI 4 CIMAHI","JL. KIHAPIT BARAT NO. 323","Prop. Jawa Barat","SMA","-6.9025000","107.5221000"
"20206211","SMA NEGERI 1 LEMBANG","JL. MARIBAYA NO. 68 LEMBANG","Prop. Jawa Barat","SMA","-6.8253000","107.6390000"
"20221559","SMAN 1 SUKABUMI","JL. RH. DIDI SUKARDI NO.124 SUKABUMI","Prop. Jawa Barat","SMA","-6.9389000","106.9309000"
"20227834","SMAS DARUL FALAH CIHAMPELAS","JL. RAYA CIHAMPELAS NO. 45","Prop. Jawa Barat","SMA","-6.9262000","107.4796000"
"20265521","SMAS PGRI 3","SUKUP NO.15","Prop. Jawa Barat","SMA","-6.9111000","107.6923000"
"69910388","SMA IT CARINGIN","Kp. Cimahi RT 01/12","Prop. Jawa Barat","SMA","-7.4792348","107.4978487"
"20203742","SMA NEGERI  1 CILAKU","JL. PERINTIS KEMERDEKAAN NO. 01","Prop. Jawa Barat","SMA","-6.8485000","107.1361000"
"20220336","SMAN 7 BOGOR","JL. PALUPUH NO.7","Prop. Jawa Barat","SMA","-6.5781000","106.8143000"
"20224110","SMA KARTIKA XIX-4","JL. DR. SAM RATULANGI D-26","Prop. Jawa Barat","SMA","-6.8924000","107.5330000"
"69856208","SMA QUANTUM INDONESIA","JL. Cimatis-Kalimanggis","Prop. Jawa Barat","SMA","-6.3909490","106.9201200"
"69734349","SMAS AT TAUBAH","JL. KH ISHAK MUJAWIR NO. 01 RT 01/01","Prop. Jawa Barat","SMA","-6.3116000","107.4289000"
"69944078","SMAN 1 CIREUNGHAS","Jl. Tugu Cilangla KM.12","Prop. Jawa Barat","SMA","-6.9389511","107.0333911"
"20217479","SMAN 1 CIBATU","JL. RAYA SUBANG KM. 15","Prop. Jawa Barat","SMA","-6.5018000","107.5343000"
"20229141","SMAS TERPADU ALMANAR","JL. RAYA LIMO PELITA  NO. 10","Prop. Jawa Barat","SMA","-6.3633000","106.7781000"
"20238006","SMAS ISLAM ASY SYIFA","KP. SAMPORA  DS. JAYA SAMPURNA KEC.SERANG BARU BEKASI","Prop. Jawa Barat","SMA","-6.3814000","107.0853000"
"20215025","SMAS KRAMAT DUKUPUNTANG","JL. KI AGENG TEPAK NO.161","Prop. Jawa Barat","SMA","-6.7678000","108.4148000"
"20233654","SMAN 1 PUSAKANAGARA","Jalan Ciawitali No. 47","Prop. Jawa Barat","SMA","-6.2749630","107.8762740"
"20210761","SMAS MUHAMMADIYAH SINGAPARNA","JL. MUHAMMADIYAH CIKEDOKAN SINGAPARNA","Prop. Jawa Barat","SMA","-7.3463000","108.1114000"
"20270720","SMAS ISLAM HASMI","Jln. Raya Cimanglid, Ciapus","Prop. Jawa Barat","SMA","-6.6374000","106.7788000"
"69907646","SMA DAARUL MUAWANAH","Kp. Sadanganyar Km. 10 Ds. Kertasari","Prop. Jawa Barat","SMA","-7.4357360","107.0766940"
"20268951","SMAS IT DARUL MUHSININ","JL RAJAWALI RAYA JC 13 NO 23 PERUM CITRA VILLA","Prop. Jawa Barat","SMA","-6.2474000","107.0855000"
"20215976","SMAN 1 KRANGKENG","JL. Raya Krangkeng No. 1","Prop. Jawa Barat","SMA","-6.4964000","108.4771000"
"20212940","SMA PUI CIWEDUS TIMBANG","Jln KH. Syaubari Nomor 77","Prop. Jawa Barat","SMA","-6.8788000","108.5152000"
"20217093","SMAS NURUL GINA ABIDIN CISALAK","JL. RAYA LIMA RATUS CISALAK","Prop. Jawa Barat","SMA","-6.6960000","107.7309000"
"20265522","SMAS PLUS PARIWISATA","JL. TERS. BOROBUDUR NO. 1-4","Prop. Jawa Barat","SMA","-6.9584000","107.5914000"
"20238007","SMAS BAITURRAHMAN","KP. CIHOE RT.01/05 DS. RIDOGALIH CIBARUSAH","Prop. Jawa Barat","SMA","-6.4410000","107.1158000"
"20246436","SMAS AN NAJAH","JL. RAYA CIKOLEANG DEPAN LAPAN DESA","Prop. Jawa Barat","SMA","-6.4297000","106.5754000"
"20229166","SMAN 4 KOTA DEPOK","JL. JERUK RAYA  KOMPLEK SUKATANI PERMAI KEL. SUKATANI KEC. TAPOS KOTA DEPOK","Prop. Jawa Barat","SMA","-6.3941000","106.8823000"
"20244733","SMAS RIYADLUL JANNAH","JL. INDUSTRI NO. 114 PASIR GOMBONG CIKARANG UTARA","Prop. Jawa Barat","SMA","-6.2766000","107.1515000"
"20227822","SMA ANGKASA MARGAHAYU","JL. TERUSAN KOPO KM. 10","Prop. Jawa Barat","SMA","-6.9830000","107.5637000"
"20252047","SMAS MAARIF PACET","JL. RAYA PACET NO.30","Prop. Jawa Barat","SMA","-6.6974000","107.0560000"
"20252202","SMA NEGERI 1 MANDE","Jln. R. Aria Natamanggala km.14","Prop. Jawa Barat","SMA","-6.7632000","107.2378000"
"20253086","SMAS PASUNDAN 9 BANDUNG","Jl. Babakan Ciparay Gg. Atakiria I No 28 Bandung","Prop. Jawa Barat","SMA","-6.9426000","107.5851000"
"20253399","SMAS MAARIF BANYURESMI","Kp. Teureup RT 01/06","Prop. Jawa Barat","SMA","-7.1544000","107.8925000"
"20247316","SMAN 2 CIKAMPEK","JL. JEND. A.YANI","Prop. Jawa Barat","SMA","-6.3956000","107.4322000"
"20254341","SMAS AL QODIRIYAH CIBEBER","JL. CIBAREGBEG","Prop. Jawa Barat","SMA","-6.9544680","107.1302030"
"20221587","SMAS PESANTREN TERPADU HAYATAN THAYYIBAH","JL. KARAMAT NO. 123 SUKABUMI","Prop. Jawa Barat","SMA","-6.9038000","106.9177000"
"20251819","SMA Negeri 10 Tasikmalaya","JL. KARIKIL MANGKUBUMI","Prop. Jawa Barat","SMA","-7.3580460","108.1731090"
"20276187","SMAN 9 DEPOK","JL. BALI RT 03/013 MEGAPOLITAN VILLAGE","Prop. Jawa Barat","SMA","-6.3426000","106.7727000"
"20215024","SMAS MANDIRI KEDAWUNG","JL. KEMBOJA TUPAREV NO 20 KEDAWUNG","Prop. Jawa Barat","SMA","-6.7208000","108.5347000"
"69859377","SMA TUNAS PERSADA MALANGBONG","JL. MALANGBONG-WADO DESA MEKARASIH KEC. MALANGBONG","Prop. Jawa Barat","SMA","-7.0231000","108.0833000"
"20247160","SMAS MUTIARA","JL. BHAYANGKARA KM.1 PALABUHAN RATU","Prop. Jawa Barat","SMA","-6.7852000","106.7248000"
"60726183","SMAS TERPADU NURUSSA ADAH","JL. INTAKE Kp.Cikerti Rt.02 rw.05","Prop. Jawa Barat","SMA","-6.9069000","107.3724000"
"20206151","SMAN 1 BALEENDAH","JL. RAA. WIRANATAKUSUMAH NO. 30 BALEENDAH","Prop. Jawa Barat","SMA","-7.0010000","107.6229000"
"20225276","SMAS AL AZHAR","JL. PESANTREN NO.2","Prop. Jawa Barat","SMA","-7.3846000","108.6032000"
"69956371","SMA ISLAM ANNABA","Jl. Raya Sukabumi Km. 5 Rt/Rw 04/01","Prop. Jawa Barat","SMA",".0000000",".0000000"
"20227443","SMAS MUHAMMADIYAH CIBIUK","JL. RAYA CIBIUK NO. 3","Prop. Jawa Barat","SMA","-7.0792000","107.9383000"
"20262716","SMAN 1 BANTARKALONG","JL. RAYA PAMIJAHAN","Prop. Jawa Barat","SMA","-7.5769000","108.0969000"
"20251860","SMAS IMAN MUARAGEMBONG","JL. PANTAI LAUT","Prop. Jawa Barat","SMA","-5.9883000","107.0400000"
"20231283","SMAS BUNDA HATI KUDUS","JL. TRANSYOGI KM.6 KOTA WISATA","Prop. Jawa Barat","SMA","-6.3875000","106.9489000"
"20229172","SMAS PRIBADI BEJI","JL. MARGONDA RAYA NO. 229","Prop. Jawa Barat","SMA","-6.3824000","106.8296000"
"20211502","SMAN 1 LAKBOK","JL.RAYA CINTAJAYA LAKBOK","Prop. Jawa Barat","SMA","-7.4040000","108.6596000"
"20231330","SMAN 1 GUNUNG PUTRI","JL. RAYA SANDING BOJONGNANGKA","Prop. Jawa Barat","SMA","-6.4268000","106.9149000"
"20232371","SMAN 1 TAJURHALANG","JL. RAYA TAJUR HALANG - BOJONG GEDE NO. 6 DS. TAJURHALANG","Prop. Jawa Barat","SMA","-6.4767000","106.7570000"
"69893232","SMA PGRI BANTARGADUNG","Jl. Pasirsuren - Bojongsoka","Prop. Jawa Barat","SMA","-6.9866300","106.6851960"
"20219275","SMAS YPS","JL. KOPO / PAKASIH N0.10","Prop. Jawa Barat","SMA","-6.9502000","107.5878000"
"69786423","SMAN 30 GARUT","Jl. Raya Cihurip Kp. Mulyasari Ds. Cihurip","Prop. Jawa Barat","SMA","-7.4915000","107.8610000"
"20224105","SMA PASUNDAN 2","JL. MELONG RAYA NO. 4","Prop. Jawa Barat","SMA","-6.9249000","107.5635000"
"20237988","SMAN 1 CIKARANG TIMUR","JL. CITARIK RAYA NO. 1 CIKARANG TIMUR","Prop. Jawa Barat","SMA","-6.2744000","107.2014000"
"20252020","SMA IIBS","JL. RAYA INDUSTRI NO.1 HYUNDAI LIPPO CIKARANG","Prop. Jawa Barat","SMA","-6.3520000","107.1204000"
"20225280","SMAN 2 BANJAR","Jl. KH. Muhamad Sanusi","Prop. Jawa Barat","SMA","-7.3506000","108.6363000"
"20253303","SMAS PROKLAMASI 1945","JL. CARINGIN MUSTIKA SARI","Prop. Jawa Barat","SMA","-6.2922000","107.0368000"
"20227881","SMA SWADAYA KARYA CIWIDEY","JL.CIBADAK CIBUNI RANCABALI","Prop. Jawa Barat","SMA","-7.1933000","107.3635000"
"20268843","SMAS PLUS AL-FALAH","JL. RAYA PANTAI SELATAN CIDADAP","Prop. Jawa Barat","SMA","-7.7771000","108.1177000"
"69935579","SMA TUNAS KARYA","Kp. Cirata RT 01 RW 04","Prop. Jawa Barat","SMA","-7.3427958","107.8186143"
"20229177","SMAS TARBIYAH ISLAMIYAH","JL. KEMBANG BEJI NO. 55 DEPOK UTARA","Prop. Jawa Barat","SMA","-6.3852000","106.8158000"
"20237984","SMAN 1 BOJONGMANGU","JL. Raya POJ Desa Bojongmangu Kec. Bojongmangu Kab. Bekasi","Prop. Jawa Barat","SMA","-6.4328000","107.1751000"
"69947905","SMA IT BAITUL HIKMAH AS-SHIDDIQ","Kp. Cikapunduhan RT 06 RW 02","Prop. Jawa Barat","SMA","-7.2178953","107.7974401"
"20252516","SMAS CINDERA MATA","JL. DAHLIA INDAH BLOK JF. PERUM, HARAPAN INDAH","Prop. Jawa Barat","SMA","-6.1739000","106.9784000"
"20224139","SMA NEGERI 2 CIMAHI","JL. KPAD SRIWIJAYA IX NO. 45 A","Prop. Jawa Barat","SMA","-6.8821000","107.5343000"
"20219716","SMAIT MIFTAHUL KHOIR","JL. TUBAGUS ISMAIL VIII NO. 60","Prop. Jawa Barat","SMA","-6.8846000","107.6179000"
"20271050","SMAN 1 CIJERUK","Jl. K.H Halimi Gegerbitung Hongbu","Prop. Jawa Barat","SMA","-6.6949000","106.7952000"
"69856205","SMA IT AL MUCHTAR","JL. KH. MUCHTAR THABRAN 1 NO. 32","Prop. Jawa Barat","SMA","-6.2025550","107.0140780"
"20268809","SMAS IT NURURRAHMAN","JL. RAYA SAWANGAN KM 2","Prop. Jawa Barat","SMA","-6.3964000","106.8034000"
"20212949","SMA NEGERI 1 CINIRU","JL. RAYA HANTARA CINIRU","Prop. Jawa Barat","SMA","-7.0451000","108.4987000"
"20223021","SMAS YPI 45","JL. CUT MEUTIA NO.83 BEKASI","Prop. Jawa Barat","SMA","-6.3367000","106.9727000"
"20227913","SMA BHAKTI PUTRA","JL. CIBODAS 61 SOLOKANJERUK","Prop. Jawa Barat","SMA","-7.0239000","107.7681000"
"20257336","SMAS IT DARUSSUUD TANJUNGSIANG","JL. PASIRLAJA PAKU HAJI TANJUNGSIANG","Prop. Jawa Barat","SMA","-6.7385000","107.7899000"
"69775678","SMAS PLUS IBNU SINA","JL. CIKAMPAK - SEGOG KM 9","Prop. Jawa Barat","SMA","-6.6467000","106.6870000"
"20200887","SMAN 1 PARUNG PANJANG","JL. RAYA SUDAMANIK KM. 7, DESA JAGABAYA","Prop. Jawa Barat","SMA","-6.3589000","106.5832000"
"20200667","SMAS PANDU","JL. RAYA CIBUNGBULANG KM 15 BOGOR","Prop. Jawa Barat","SMA","-6.5647000","106.6803000"
"20220313","SMAS MARDI YUANA","JL. SILIWANGI NO.50","Prop. Jawa Barat","SMA","-6.6149650","106.8082517"
"20218378","SMAN 1 CIKARANG SELATAN","JL. SERANG CIBARUSAH KM. 1","Prop. Jawa Barat","SMA","-6.3341000","107.1194000"
"20231317","SMAS MARSUDIRINI","PERUM TELAGA KAHURIPAN DS. TEGAL KEC. KEMANG","Prop. Jawa Barat","SMA","-6.4821000","106.7030000"
"20247157","SMAS AL FARDIYATUSSAADAH","JL. RAYA CITEPUS RT 02/14","Prop. Jawa Barat","SMA","-6.9760000","106.5321000"
"20227463","SMAN 4 GARUT","JL. PERKEBUNAN GIRIAAWAS","Prop. Jawa Barat","SMA","-7.3652000","107.8205000"
"20247145","SMAS AL ATIQIYAH","JL. CIPANENGAH-BOJONG GENTENG","Prop. Jawa Barat","SMA","-6.8377000","106.7395000"
"20200886","SMAN 1 CIGOMBONG","JL. MAYJEN H.E SUKMA NO. 297 DS. WATES JAYA","Prop. Jawa Barat","SMA","-6.7492000","106.8041000"
"20209237","SMAN 16 GARUT","JL. RAYA CIDATAR NO. 810","Prop. Jawa Barat","SMA","-7.2744000","107.7780000"
"20227814","SMA KP CICALENGKA","KOMPLEKS PERSEKOLAHAN SAWAH LEGA NAGROG","Prop. Jawa Barat","SMA","-6.9982000","107.8619000"
"20233649","SMAS MATLAUL HUDA PURWADADI","JL. PURWAJAYA No. 296","Prop. Jawa Barat","SMA","-6.4483000","107.7034000"
"20252051","SMAS PASUNDAN 1 CIANJUR","JL. PASUNDAN NO. 31","Prop. Jawa Barat","SMA","-6.8131000","107.1528000"
"20254097","SMAS KETAPANG 3","Jl Transyogi KM 6  Legenda Wisata    Zona Napoleon Blok E/A, Kel Nagrak","Prop. Jawa Barat","SMA","-6.4007000","106.9464000"
"20247270","SMAS ASSALAFIYAH CIASEM","JL. KEBONCAU DUSUN SIDAMULYA CIASEM","Prop. Jawa Barat","SMA","-6.3433000","107.6895000"
"20257330","SMAS VICTORY PLUS","JL. KEMANG PRATAMA BLOK A.N NO. 23","Prop. Jawa Barat","SMA","-6.2775000","106.9895000"
"69831977","SMA ISLAM KREATIF MUHAMMADIYAH CIANJUR","Jl. KH. Abdullah Bin Nuh No. 64","Prop. Jawa Barat","SMA","-6.8399000","107.1425000"
"20227839","SMAS HARAPAN BANGSA BALEENDAH","JL. PURADINATA NO. D19 BALEENDAH","Prop. Jawa Barat","SMA","-7.0080034","107.6213319"
"20233645","SMAS BINA BHAKTI JALANCAGAK","JL. BUNIHAYU TAMBAKAN JALANCAGAK","Prop. Jawa Barat","SMA","-6.6650000","107.7027000"
"20219793","SMAS REHOBOTH","JL. RD. DEWI SARTIKA","Prop. Jawa Barat","SMA","-6.9257000","107.6045000"
"20232396","SMAS PGRI CIBINONG","JL. GOLF CIRIUNG CIBINONG","Prop. Jawa Barat","SMA","-6.4671567","106.8649167"
"20223044","SMAN 5 BEKASI","JL. GAMPRIT JATI WARINGIN  ASRI","Prop. Jawa Barat","SMA","-6.2807000","106.9223000"
"20232369","SMAS MULIA BUANA","JL. PESANTREN NO. 23 DESA KEBASIRAN","Prop. Jawa Barat","SMA","-6.3454000","106.5728000"
"20209183","SMAN 3 GARUT","JL. JENDRAL A. YANI CIBATU","Prop. Jawa Barat","SMA","-7.0886000","107.9799000"
"69945126","SMA PLUS SIROJUSSYAFIIYYAH","Jl. Kemang Kp. Cihurang Rt/Rw 03/07","Prop. Jawa Barat","SMA","-6.7362728","107.0017298"
"20216941","SMAN 1 PAGADEN","JL. CIPUNAGARA PAGADEN","Prop. Jawa Barat","SMA","-6.4629000","107.8190000"
"20245434","SMAN 3 CIKARANG UTARA","JL. MELATI RAYA BLOK A PERUM BUMI CITRA LESTARI","Prop. Jawa Barat","SMA","-6.2893000","107.1531000"
"20206171","SMA ASSALAM DAYEUHKOLOT","JL.SITU TARATE CIBADUYUT DAYEUHKOLOT","Prop. Jawa Barat","SMA","-6.9666000","107.5926000"
"20214966","SMAN 1 CIWARINGIN","JL.JENDRAL URIP SUMOHARJO NO. 39","Prop. Jawa Barat","SMA","-6.6610000","108.3937000"
"69902487","SMA AWWALULHUDA","Jl. Sempurgemreng","Prop. Jawa Barat","SMA","-7.3937370","106.8227190"
"69827809","SMA AL AMIN","Jl.TAMRIN No. 1 CIBENING","Prop. Jawa Barat","SMA","-6.6649240","106.6588550"
"20219264","SMA SANTA MARIA 2","JL. SULAKSANA BARU I NO. 18","Prop. Jawa Barat","SMA","-6.9149000","107.6339000"
"69922305","SMA DARUL ULUM KADUPANDAK","Kp. Caringin Rt/Rw 03/04","Prop. Jawa Barat","SMA","-7.2236968","107.0519217"
"20214989","SMAN 1 SUMBER","JL. SUNAN MALIK IBRAHIM NO.4","Prop. Jawa Barat","SMA","-6.7610000","108.4786000"
"20271985","SMAS AL JIHAD","JL. Desa Gunung Mulya","Prop. Jawa Barat","SMA","-6.6478000","106.7044000"
"20227860","SMA MUHAMMADIYAH 2 MAJALAYA","JL. LASWI NO. 151 MAJALAYA","Prop. Jawa Barat","SMA","-7.0501930","107.7586990"
"69758461","SMA NURUL FALAH","KP. CISOLOK","Prop. Jawa Barat","SMA","-7.2798000","108.0205000"
"20238022","SMAS SARIPUTRA","JL. RE. MARTADINATA GG. NAKULA NO.35A CIKARANG UTARA","Prop. Jawa Barat","SMA","-6.2625000","107.1415000"
"20228467","SMA MUTIARA SANDI","JL. LASWI NO 345 MANGGAHANG BALEENDAH","Prop. Jawa Barat","SMA","-7.0184870","107.6540230"
"20222167","SMAN 9 CIREBON","JL. PRAMUKA KEBON PELOK","Prop. Jawa Barat","SMA","-6.7570000","108.5491000"
"20231710","SMAS ISLAM ASSYAFIIYAH 02","JL. JATIWARINGIN NO. 8","Prop. Jawa Barat","SMA","-6.2718000","106.9201000"
"69754538","SMAS PUTRADARMA GLOBAL SCHOOL","PERUM METLAND TAMBUN, JL KALIMAYA RT. 06/03","Prop. Jawa Barat","SMA","-6.2675000","107.0713000"
"69948448","SMA NEGERI 1 SUKRA","Jln. Raya Sukra-Ujunggebang Km. 0,5","Prop. Jawa Barat","SMA","-6.2971000","107.9355000"
"20211563","SMAN 1 BANJARSARI","JL. RAYA KM 03 BANJARSARI","Prop. Jawa Barat","SMA","-7.5029000","108.6311000"
"20268864","SMAS MA ARIF NU","JL. RAYA KRETEG NO. 55 KP. SUKAJAYA RT. 01/02","Prop. Jawa Barat","SMA","-6.6010000","106.7596000"
"20216952","SMAN 3 SUBANG","JL. EMO KURNIAATMAJA NO. 1 SUBANG","Prop. Jawa Barat","SMA","-6.5757000","107.7666000"
"20219807","SMAS MUHAMMADIYAH 1","JL. KANCIL","Prop. Jawa Barat","SMA","-6.9127000","107.5804000"
"20210773","SMAS PLUS AL WAHID SALAWU","JL. WANASIGRA","Prop. Jawa Barat","SMA","-7.3311000","107.9412000"
"20215021","SMAS NU CILEDUG","JL. LETJEND. SUPRAPTO","Prop. Jawa Barat","SMA","-6.9032000","108.7490000"
"69899711","SMA PEMBERDAYAAN UMMAT AN NAHL","Kp.PASAR KEMIS RT 03 RW 03 GUNUNG PICUNG PAMIJAHAN BOGOR","Prop. Jawa Barat","SMA","-6.6734000","106.6642000"
"20219736","SMAS KARYA AGUNG","JL. TERUSAN NILEM BARAT","Prop. Jawa Barat","SMA","-6.9355000","107.6208000"
"69899008","SMA BUDI BAKTI 1","Kp.pasirjambu Desa Margasari","Prop. Jawa Barat","SMA","-7.3749845","107.3491643"
"69761934","SMA NEGERI 1 PASIRKUDA","Jalan/Desa Padamulya kec. Pasirkuda Kabupaten Cianjur","Prop. Jawa Barat","SMA","-7.1992000","107.1996000"
"20252189","SMA TERPADU AL MASHUM MARDIYAH","JL. SIMPANG GALUDRA NO. 76","Prop. Jawa Barat","SMA","-6.7822000","107.0479000"
"20214986","SMAN 1 KARANG WARENG","JL. RAYA KH. ZAINAL A.","Prop. Jawa Barat","SMA","-6.8722000","108.6583000"
"20227847","SMAS KP CIKALONGWETAN","JL. RAYA CIKALONGWETAN","Prop. Jawa Barat","SMA","-6.7597000","107.4626000"
"20232305","SMAS AL FALAH","Jl. Alfalah Cikaret  RT.03/09","Prop. Jawa Barat","SMA","-6.4552550","106.8394470"
"20216202","SMAS NU INDRAMAYU","Jl. Ir. Sutami Gg. Manunggal","Prop. Jawa Barat","SMA","-6.3580000","108.3289000"
"20222358","SMAS SEKAR KEMUNING CIREBON","JL.SEKAR KEMUNING NO.36","Prop. Jawa Barat","SMA","-6.7420000","108.5380000"
"20253662","SMAS BAITUL HIKMAH","JL. KEBON KELAPA TENJO JAYA CIBADAK","Prop. Jawa Barat","SMA","-6.9187000","106.7713000"
"20256408","SMAS IBNU SIENA CIKONENG","JL. MARGALUYU NO. 117 CIKONENG","Prop. Jawa Barat","SMA","-7.2166000","108.4985000"
"20200683","SMAS AULIA","JL. KH. ABDUL HAMID KM 3 DESA  SITU ILIR","Prop. Jawa Barat","SMA","-6.6048000","106.6546000"
"20238516","SMAN 2 BOGOR","JL. KERANJI UJUNG NO.1 BUDI AGUNG","Prop. Jawa Barat","SMA","-6.5540000","106.7939000"
"69918550","SMA MUSLIMIN RONGGA","Kp. Genggong Rt.001 RW.016","Prop. Jawa Barat","SMA","-6.9756808","107.2787121"
"20247153","SMAS ISLAM AL BASHRY KALAPA NUNGGAL","JL. PALASARI GIRANG NO. 39","Prop. Jawa Barat","SMA","-6.8386000","106.6520000"
"20216196","SMAS PGRI 1 SINDANG","JL. MT. HARYONO","Prop. Jawa Barat","SMA","-6.3401000","108.2990000"
"20219239","SMAN 14 BANDUNG","JL. YUDHASTU PRAMUKA","Prop. Jawa Barat","SMA","-6.9029000","107.6355000"
"20212961","SMA NEGERI 1 KUNINGAN","JL. SILIWANGI NO. 55 KUNINGAN","Prop. Jawa Barat","SMA","-6.9778000","108.4823000"
"20223069","SMAS PANGERAN JAYAKARTA","JL. Pangeran Jayakarta Kav. Mekar Jaya Rt 001/006","Prop. Jawa Barat","SMA","-6.2257000","106.9865000"
"20227906","SMAN 1 KERTASARI","JL. TERUSAN PACET KM. 15,5","Prop. Jawa Barat","SMA","-7.1549000","107.6982000"
"20227876","SMA PERKAPEN SINUMBRA","JL. PTPN VIII SINUMBRA","Prop. Jawa Barat","SMA","-7.1502000","107.3338000"
"69873999","SMA KRISTEN PENABUR KOTA WISATA","JL. TRANSYOGI KM 6 PERUMAHAN KOTA WISATA CIBUBUR","Prop. Jawa Barat","SMA","-6.4463320","106.8987070"
"20217785","SMAN 1 JATISARI","JL. RAYA JATISARI","Prop. Jawa Barat","SMA","-6.3666000","107.5292000"
"20232310","SMAS AL KHAIRIYAH","JL. PTP XI  HAMBALANG NO 76 DS. TAJUR CITEUREUP","Prop. Jawa Barat","SMA","-6.5488000","106.9159000"
"20269170","SMAS BINTANG MULIA","JL. MEKAR KENCANA NO.1","Prop. Jawa Barat","SMA","-6.9549000","107.6148000"
"69753509","SMAS IT MIFTAHULHUDA","KP. BOJONGKONENG RT 01 RW 06","Prop. Jawa Barat","SMA","-7.5764000","108.1091000"
"20229176","SMAS TADIKA PERTIWI","JL. H. JAERAN NO. 1","Prop. Jawa Barat","SMA","-6.3390000","106.7822000"
"69888435","SMA BAITURRAHMAN","KP. CIHERANG RT 08/05","Prop. Jawa Barat","SMA","-6.9062480","106.6846090"
"20229153","SMAS ISLAM AN NIZHOMIYAH","JL. MADRASAH NO. 14","Prop. Jawa Barat","SMA","-6.4292283","106.8317917"
"69927177","SMAS KRISTEN IPEKA GRAND WISATA","Jl. Sunset Avenue Grand Wisata","Prop. Jawa Barat","SMA","-6.2783694","107.0533502"
"20274621","SMAS IBNU SINA","JL. KAPTEN HALIM BLK PSR SIMPAN","Prop. Jawa Barat","SMA","-6.5673000","107.4516000"
"20208419","SMAN 1 SUMEDANG","JL. P. GEUSAN ULUN NO.39 KOTA KULON- SUMEDANG SELATAN-SUMEDANG","Prop. Jawa Barat","SMA","-6.8583000","107.9214000"
"69946712","SMA TARBIYATUL ISLAM","Jl. Partadimaja No. 02 Rt/Rw 01/01","Prop. Jawa Barat","SMA","-7.4883000","107.3476000"
"20222361","SMAS TAMAN SISWA CIREBON","JL. PERJUANGAN BINAWAN V","Prop. Jawa Barat","SMA","-6.7367000","108.5566000"
"20232403","SMAS TARUNA TERPADU","JL. RAYA SEMPLAK SALABENDA BLK. TELKOM DS. PARAKAN JAYA","Prop. Jawa Barat","SMA","-6.4905000","106.7313000"
"20222362","SMAS WIDYA UTAMA CIREBON","JL. KESAMBI BARU I NO. 55A","Prop. Jawa Barat","SMA","-6.7470000","108.5376000"
"20227824","SMA AULIA MAJALAYA","JL.TUGU PAHLAWAN KONDANG MAJALAYA","Prop. Jawa Barat","SMA","-7.0548000","107.7572000"
"20213894","SMAN 1 MAJA","JL. RAYA MAJA SELATAN NO. 06","Prop. Jawa Barat","SMA","-6.8891000","108.3040000"
"20233753","SMAS DARUSSALAM KADANGHAUR","JL. RAYA BY PASS ERETAN","Prop. Jawa Barat","SMA","-6.3119000","108.0425000"
"20270923","SMA BINAUL UMMAH","JL. RAYA CIPARI KEL.CIPARI KEC.CIGUGUR","Prop. Jawa Barat","SMA","-6.9642000","108.4677000"
"69934744","SMA GAZA","Kp. Babakan RT 05 RW 02","Prop. Jawa Barat","SMA","-7.3540000","108.0165000"
"69915810","SMAN 1 MAJALAYA","PERUM CITRA KEBUN MAS","Prop. Jawa Barat","SMA","-6.3283000","107.3515000"
"20253857","SMAS AL HASANAH","JL. STASIUN KA CIGOMBONG RT 02/01","Prop. Jawa Barat","SMA","-6.7413000","106.8038000"
"69759073","SMAS BIDAYATUL FAIZIN CIKAJANG","KP. NEGLA DESA CIPANGRAMATAN CIKAJANG - GARUT","Prop. Jawa Barat","SMA","-7.4203000","107.8068000"
"20213885","SMAN 1 JATIWANGI","JL. RAYA TIMUR NO. 2","Prop. Jawa Barat","SMA","-6.7263000","108.2742000"
"20232392","SMAS PGRI CIAWI","JL. VETERAN III CIAWI","Prop. Jawa Barat","SMA","-6.6772000","106.8603000"
"20229749","SMAS PASUNDAN PLERED","JL. WARUNG KANDANG PLERED GG COKLAT","Prop. Jawa Barat","SMA","-6.6481000","107.3856000"
"20214990","SMAN 1 PLUMBON","JL. YUDISTIRA","Prop. Jawa Barat","SMA","-6.6937000","108.4794000"
"69895683","SMA Terpadu Darul Muta`allimin","Jl. Bantarsari Lewosari","Prop. Jawa Barat","SMA","-7.3238880","108.1843190"
"20203733","SMA NEGERI 1 SUKARESMI","Jl. Mariwati KM. 4","Prop. Jawa Barat","SMA","-6.7198000","107.0762000"
"69934728","SMA PLUS ASSYIFA","Kp. Situpari RT 01 RW 03","Prop. Jawa Barat","SMA","-7.7015000","108.1945000"
"69883500","SMA ANNUR DARUNNAJAH 8","JL. INTAN 1","Prop. Jawa Barat","SMA","-6.3963140","106.7049500"
"20200686","SMAS DWI WARNA","Jalan Raya Parung Km. 40","Prop. Jawa Barat","SMA","-6.4424000","106.7317000"
"20247146","SMAS AL-BAIRUNI","JL. RAYA CIDADAP SUKABUMI","Prop. Jawa Barat","SMA","-7.0395000","106.6534000"
"20271843","SMA PLUS AL-HIDAYAH CILAWU","KP. CIGARUNGSANG, RT. 02, RW. 01","Prop. Jawa Barat","SMA","-7.2958000","107.9105000"
"69822688","SMAS ISLAM TERPADU SITUWANGI CIKAJANG","Kp Seladatar RT 04 RW 01","Prop. Jawa Barat","SMA","-7.3600000","107.7963000"
"20246335","SMAS PLUS YASPIDA","JL.PARUNGSEAH NO.43 KM.4 CIPETIR","Prop. Jawa Barat","SMA","-6.8932000","106.8860000"
"20202258","SMAN 1 SIMPENAN","JL. BINA KARYA","Prop. Jawa Barat","SMA","-7.0300000","106.5681000"
"20223067","SMAS ISLAM PANGLIMA BESAR SOEDIRMAN","JL. TAMAN SOKA II TAMAN GALAXY","Prop. Jawa Barat","SMA","-6.2399000","106.9997000"
"20265518","SMAS ALFA CENTAURI","JL. Diponegoro No. 48","Prop. Jawa Barat","SMA","-6.9012000","107.6244000"
"20223040","SMAN 9 BEKASI","JL. RAYA LEGENDA","Prop. Jawa Barat","SMA","-6.2836000","107.0320000"
"20244764","SMAS IT AL LUTFAH","JL. VILLA MUTIARA NO. 3 CIKARANG SELATAN BEKASI","Prop. Jawa Barat","SMA","-6.3412000","107.1148000"
"20247281","SMAS SUMATRA 40-1","JL. PAHLAWAN NO. 21","Prop. Jawa Barat","SMA","-6.9001000","107.6337000"
"69947934","SMA ISLAM NURUL BAYAN SUKAWANGI","Kp. Ciwaru RT 01 RW 01","Prop. Jawa Barat","SMA","-7.4993094","107.9227671"
"20200884","SMAN 1 CARIU","JL. RAYA CARIU","Prop. Jawa Barat","SMA","-6.5235000","107.1266000"
"20237990","SMAN 1 KEDUNGWARINGIN","JL.RAYA LINGKAR KEDUNGWARINGIN","Prop. Jawa Barat","SMA","-6.2689000","107.2680000"
"20219241","SMAN 12 BANDUNG","Jl. Sekejati IV No. 36 Kiaracondong","Prop. Jawa Barat","SMA","-6.9410000","107.6459000"
"20233657","SMAN 1 PATOKBEUSI","JL. RAYA RAWAGEBANG KM. 1 PATOKBEUSI","Prop. Jawa Barat","SMA","-6.3754000","107.5833000"
"20253827","SMA NEGERI 1 DARMA","JL. DESA CIPASUNG KM 15","Prop. Jawa Barat","SMA","-7.0180000","108.3928000"
"20232376","SMAN 1 CISEENG","Jln. Cibeuteung Muara Rt.02/06","Prop. Jawa Barat","SMA","-6.4006000","106.6930000"
"20237379","SMAN 1 RENGASDENGKLOK","JL. KUTAGANDOK","Prop. Jawa Barat","SMA","-6.1571000","107.3271000"
"20231720","SMAN 14 BEKASI","JL. CERI RAYA PERUM ALINDA KENCANA PERMAI","Prop. Jawa Barat","SMA","-6.1965000","107.0085000"
"20253810","SMAS DON BOSCO III","JL. SENTOSA RAYA TAMAN SENTOSA KEC. CIKARANG SELATAN","Prop. Jawa Barat","SMA","-6.3212000","107.1391000"
"20217361","SMAN 2 PURWAKARTA","JL. RAYA SADANG NO.17","Prop. Jawa Barat","SMA","-6.5136000","107.4662000"
"20224543","SMAS PLUS PESANTREN AMANAH MUHAMMDIYAH","JL. SAMBONGJAYA NO. 50","Prop. Jawa Barat","SMA","-7.3484000","108.1998000"
"69888757","SMA PGRI CITRA CIKIDANG","Jl. Lio","Prop. Jawa Barat","SMA","-6.9189920","106.6204160"
"20219731","SMAS BINA BHAKTI 1","JL. BIMA NO. 9","Prop. Jawa Barat","SMA","-6.9122000","107.5951000"
"20206145","SMAN 1 CIPARAY","JL. RAYA PACET NO. 188","Prop. Jawa Barat","SMA","-7.0513950","107.7096640"
"20252009","SMAN 1 NYALINDUNG","JL. RANCABALI","Prop. Jawa Barat","SMA","-7.0329000","106.9441000"
"69935715","SMA IT AR-ROHMAH","Kp.Cipatat RT 03 RW 08","Prop. Jawa Barat","SMA","-7.7155000","108.1917000"
"20232375","SMAN 1 CISARUA","JL. ADHIJAKSA RT. 02 RW.02","Prop. Jawa Barat","SMA","-6.6661000","106.9260000"
"20222379","SMAS ADVENT CIREBON","JL. PULASAREN NO 01","Prop. Jawa Barat","SMA","-6.7240000","108.5697000"
"20220343","SMAS REGINA PACIS","JL. IR HJ. JUANDA NO. 2","Prop. Jawa Barat","SMA","-6.5921000","106.7964000"
"20227882","SMA TERPADU BANDUNG IBUN","JL. OMA ANGGAWISASTRA CIBEET IBUN","Prop. Jawa Barat","SMA","-7.0845000","107.7611000"
"20215988","SMAS PGRI PATROL","JL. MASJID JAMI PATROL","Prop. Jawa Barat","SMA","-6.3156000","107.9947000"
"69901004","SMA IC MAGNET SCHOOL","Kampung Pasir Ipis","Prop. Jawa Barat","SMA","-6.6347400","106.7060940"
"69786316","SMAS ISLAM AL-AZHAR HARAPAN INDAH","Jl. Al-Azhar Kav No.18-21","Prop. Jawa Barat","SMA","-6.1836000","106.9944000"
"20231314","SMAS MANBAUL HUDA","JL. TRANS YOGIE SERENA , DS. SIRNASARI","Prop. Jawa Barat","SMA","-6.6159000","107.1557000"
"20209182","SMAN 18 GARUT","JL.PERUM BUMI ABDI NEGARA 1","Prop. Jawa Barat","SMA","-7.1944000","107.9334000"
"69894140","SMA IT AS - SYAKUR","Kp. Cicara RT 03/05","Prop. Jawa Barat","SMA","-7.2215190","107.7865560"
"69899184","SMA MUHAMMADIYAH 04 DEPOK","JL. MASJID AL-HUKAMA NO.21 RT.3 RW.4","Prop. Jawa Barat","SMA","-6.3872000","106.7709000"
"20200677","SMAS MUHAMMADIYAH CILEUNGSI","JL. ANGGREK NO.25 CILEUNGSI","Prop. Jawa Barat","SMA","-6.3993000","106.9661000"
"20223817","SMAN 3 KOTA DEPOK","JL. RADEN SALEH NO. 45","Prop. Jawa Barat","SMA","-6.4078790","106.8410310"
"20270262","SMA BINA BANGSA SCHOOL","JL. SENTRA DAGO PAKAR BLOK F-1","Prop. Jawa Barat","SMA","-6.8644000","107.6455000"
"20209194","SMAN 21 GARUT","JL. PANORAMA CIBUNGUR","Prop. Jawa Barat","SMA","-7.2934000","107.5293000"
"20220344","SMAS RIMBA MADYA","JL. RIMBA MULYA II","Prop. Jawa Barat","SMA","-6.6008000","106.7759000"
"69915815","SMAN 2 TELUKJAMBE TIMUR","JL. Raya Perumnas Bumi Telukjambe Blok H","Prop. Jawa Barat","SMA","-6.3584528","107.2885393"
"20211491","SMAN 1 BAREGBEG","JL. R.E. MARTADINATA NO.150 CIAMIS","Prop. Jawa Barat","SMA","-7.3152000","108.3576000"
"20247179","SMAS AL MIZAN JATIWANGI","JL. RAYA TIMUR CIBORELANG NO.1 JATIWANGI","Prop. Jawa Barat","SMA","-6.7264000","108.2742000"
"20246730","SMAS GLOBAL PRESTASI","Komplek GPS Jl. KH. Noer Alie No. 10 B Kalimalang","Prop. Jawa Barat","SMA","-6.2488000","106.9620000"
"69816259","SMA IBNU HAJAR BOARDING SCHOOL","Jl. Nakula No. 01 RT. 01 RW. 01 Kel. Harjamukti Kec. Cimanggis Kota Depok 16454","Prop. Jawa Barat","SMA","-6.3839000","106.8843000"
"20231334","SMAN 1 PAMIJAHAN","JL. Gunung Salak Endah km. 03 Kec. Pamijahan Kab. Bogor","Prop. Jawa Barat","SMA","-6.6685000","106.6632000"
"20229752","SMAS PGRI 1 PURWAKARTA","JL. LAKS. (L). RE. MARTADINATA  NO.87","Prop. Jawa Barat","SMA","-6.5530000","107.4431000"
"20219237","SMAN 16 BANDUNG","JL. MEKARSARI NO. 81","Prop. Jawa Barat","SMA","-6.9265000","107.6568000"
"69895400","SMA BPK PENABUR HOLIS","Jl. Komplek Taman Holis Indah Blok A","Prop. Jawa Barat","SMA","-6.9343150","107.5733200"
"20208421","SMAN 3 SUMEDANG","JL. CIPADUNG NO. 54","Prop. Jawa Barat","SMA","-6.8441000","107.9288000"
"20238547","SMAS CIPICUNG","JL. CIPICUNG PUSPAMUKTI CIGALONTANG","Prop. Jawa Barat","SMA","-7.3486000","108.0139000"
"20219767","SMAS PASUNDAN 1 BANDUNG","Jl. Balonggede No. 28","Prop. Jawa Barat","SMA","-6.9237000","107.6075000"
"20223019","SMAN 10 BEKASI","JL. FLAMBOYAN RAYA PERUM HARAPAN INDAH","Prop. Jawa Barat","SMA","-6.2091000","106.9748000"
"20229156","SMAS ISLAMIYAH SAWANGAN","JL. RAYA MUKHTAR NO. 136","Prop. Jawa Barat","SMA","-6.4057000","106.7595000"
"20247156","SMAS ISLAM TARBIYYATUL FALAH","JL. CIMELATI SADAMUKTI KEC. CICURUG KAB. SUKABUMI PROV. JAWA BARAT","Prop. Jawa Barat","SMA","-6.7840000","106.7786000"
"69882370","SMA PELITA NUSANTARA","JL. PALEDANG NO 297 A RT 05/02","Prop. Jawa Barat","SMA","-6.9181900","107.5877950"
"20223819","SMAN 1 KOTA DEPOK","JL. NUSANTARA RAYA 317 DEPOK","Prop. Jawa Barat","SMA","-6.3951000","106.8144000"
"20229183","SMAS YAPEMRI DEPOK","JL. AGUNG RAYA UJUNG NO. 3","Prop. Jawa Barat","SMA","-6.3943000","106.8465000"
"69823285","SMAN 3 BABELAN","Perum Pondok Ungu Permai Sektor V Blok G RT. 006/030","Prop. Jawa Barat","SMA","-6.1724000","107.0104000"
"20251886","SMAS PLUS AL-FALAH JATINAGOR","JL. CIKUDA-NANGGERANG KM. 02 DESA CILELES JATINANGOR","Prop. Jawa Barat","SMA","-6.9077000","107.7730000"
"69902577","SMA SIROJUL HUDA SUKAWENING","Kp. Babakan","Prop. Jawa Barat","SMA","-7.1428000","108.0160000"
"69922135","SMA IT MAROKO","Kp. Sukawangi RT 01/03","Prop. Jawa Barat","SMA","-7.6488000","107.8882000"
"20221562","SMAN 4 SUKABUMI","JL. IR. H. JUANDA NO. 8 SUKABUMI","Prop. Jawa Barat","SMA","-6.9211000","106.9445000"
"20217780","SMAN 1 TELUKJAMBE","JL. Ronggowaluyo","Prop. Jawa Barat","SMA","-6.3246000","107.3053000"
"20219240","SMAN 13 BANDUNG","JL. RAYA CIBEUREUM NO 52","Prop. Jawa Barat","SMA","-6.9036000","107.5651000"
"20219806","SMAS MUHAMMADIYAH 2","JL. SARI WETES RAYA NO.6","Prop. Jawa Barat","SMA","-6.9177000","107.6556000"
"20203739","SMAN 1 CIANJUR","JL. PANGERAN HIDAYATULLAH NO. 62","Prop. Jawa Barat","SMA","-6.8256000","107.1314000"
"20272074","SMAS MIFTAHUL HUDA AL BARKAH","JL. H. MIHARJA","Prop. Jawa Barat","SMA","-6.6558000","107.0826000"
"69893110","SMA DAARUT TAUHIID BOARDING SCHOOL","Jalan Cigugur Girang No.33 RT.03 RW.07","Prop. Jawa Barat","SMA","-6.8359000","107.5839000"
"20209377","SMAS BAITUL HIKMAH TAROGONG KALER","JL. OTTO ISKANDARDINATA NO.66","Prop. Jawa Barat","SMA","-7.1858000","107.8892000"
"20238570","SMAS PUSAKA NUSANTARA 2","JL. SULTAN HASANUDIN NO.5A","Prop. Jawa Barat","SMA","-6.2615000","107.0590000"
"20271986","SMAS PUSPA BANGSA","JL. RAYA SURUPAN","Prop. Jawa Barat","SMA","-6.5785000","106.9591000"
"20229173","SMAS PSKD VII","JL. PITARA NO. 19","Prop. Jawa Barat","SMA","-6.4001000","106.8103000"
"69786290","SMAS LGBP SINDANGKERTA","JL. PONPES PALAHAN KM.1 RT.03 RW.08","Prop. Jawa Barat","SMA","-6.9761000","107.3928000"
"20209351","SMAN 26 GARUT","Jl. Kmp Tegal Panjang RT 01 RW 16","Prop. Jawa Barat","SMA","-7.1424980","108.0147980"
"69900067","SMA SULTHAN BARUNA","Jl.Simpang Desa Padaluyu Kec.Cikadu","Prop. Jawa Barat","SMA","-7.3441625","107.2336717"
"20253661","SMANURUL HUDA","JL. BABAKAN ASTANA NO.3","Prop. Jawa Barat","SMA","-6.9971000","106.5590000"
"69774710","SMAS PELITA BANGSA","KP. SUKAMULYA","Prop. Jawa Barat","SMA","-7.1393000","108.0530000"
"20229155","SMAS ISLAM DARUSSALAM","JL. KEBAYUNAN RT. 01 RW. 17 NO. 125","Prop. Jawa Barat","SMA","-6.4055000","106.8971000"
"20232410","SMAS YAPISA","JL. KH. RAFEI NO. 11 DS. NAGRAK","Prop. Jawa Barat","SMA","-6.3840000","106.9422000"
"20216207","SMAS MUHAMMADIYAH HAURGEULIS","JL. KH. AHMAD DAHLAN NO. 3","Prop. Jawa Barat","SMA","-6.4599000","107.9441000"
"20231313","SMAS MAFAZAH","JL. M. NUH NOOR BARENGKOK","Prop. Jawa Barat","SMA","-6.5928550","106.6341980"
"20214995","SMAN 1 LEMAHABANG","JL. KH. WAHID HASYIM NO. 70","Prop. Jawa Barat","SMA","-6.8306000","108.6214000"
"20252287","SMAN 1 CIMARAGAS","JL. RAYA CIMARAGAS NO.139 B CIMARAGAS","Prop. Jawa Barat","SMA","-7.3707000","108.4636000"
"69947043","SMA IT SILIWANGI","Kp. Mekarsiliwangi RT 01 RW 03","Prop. Jawa Barat","SMA","-7.2516000","107.7866000"
"69786634","SMAS PGRI CIDAUN","Jl. Patriot No.10 Desa Cimaragang","Prop. Jawa Barat","SMA","-7.4083000","107.4235000"
"20253783","SMAS TERPADU LISDA","KP. GANDOK II RT 001/004 BUNGURSARI","Prop. Jawa Barat","SMA","-7.3013000","108.1660000"
"20251918","SMAS SABILUL MUHTADIN","JL. RAYA PASAR BABELAN (SAMPING KORAMIL) BEKASI","Prop. Jawa Barat","SMA","-6.1645000","107.0446000"
"20227445","SMAS MUHAMMADIYAH KADUNGORA","JL. KADUNGORA NO. 28","Prop. Jawa Barat","SMA","-7.0718000","107.8990000"
"20252515","SMAS AR RIDWAN","JL. WIBAWA MUKTI II KP. PEDURENAN GG. H. LONGKOT NO 11","Prop. Jawa Barat","SMA","-6.3168000","106.9521000"
"69873594","SMAS DAARUL FIKRI","Kp. Warung Bambu RT.01/09","Prop. Jawa Barat","SMA","-6.3118160","107.0884750"
"20235619","SMAN 1 CIMALAKA","JL. TANJUNGKERTA NO  120 CIMALAKA 45353 SUMEDANG","Prop. Jawa Barat","SMA","-6.8049000","107.9496000"
"20269650","SMAS PLUS DARUSSALAM KOPOSARI","JL. ALTERNATIF CILEUNGSI-CIBUBUR","Prop. Jawa Barat","SMA","-6.3931000","106.9438000"
"69949664","SMA DAAR EN NISA ISLAMIC SCHOOL BOGOR","JL. PERDANA RAYA NO. 30 RT 02 RW 10","Prop. Jawa Barat","SMA","-6.5587000","106.7921000"
"20263274","SMAS AL HASAN BANJARSARI","Jl. Kawasen No. 80 Banjarsari","Prop. Jawa Barat","SMA","-7.5125000","108.6182000"
"69944385","SMA PGRI KADUPANDAK","Kp. Wargasari","Prop. Jawa Barat","SMA","-7.2359491","107.0110808"
"69899009","SMA BUDI BAKTI 2","KP.Gabungan Ds.Mekarjaya","Prop. Jawa Barat","SMA","-7.4138417","107.4110393"
"20251802","SMAS TUNAS BANGSA PEBAYURAN","JL. RAYA TELUKBANGO","Prop. Jawa Barat","SMA","-6.1087000","107.2116000"
"20247158","SMAS IT MAHMUDIYYAH","JL. BELAKANG MESJID AGUNG AL-HURIYYAH KAUM CICURUG","Prop. Jawa Barat","SMA","-6.7949000","106.8018000"
"60726667","SMAS TERPADU AL-FIYYAH","JL. GUNUNGJATI NO. 01 CIPARAPAT RT.10/03","Prop. Jawa Barat","SMA","-6.7777000","106.7737000"
"20232307","SMAS AL HUSNA","KOM. BTN LEUWILIANG PERMAI  NO. 99 DS. CIBEBER I","Prop. Jawa Barat","SMA","-6.5864000","106.6196000"
"20247162","SMAS PGRI CISAAT","JL. KALAPAREA KM. 05 RT.03 RW. 09","Prop. Jawa Barat","SMA","-6.8618000","106.8214000"
"20219805","SMAS MUHAMMADIYAH 3","JL. BANTENG DALAM NO. 6","Prop. Jawa Barat","SMA","-6.9328000","107.6242000"
"20202289","SMAN 1 CICURUG","Jl. Koramil No. 65  Cicurug Sukabumi","Prop. Jawa Barat","SMA","-6.7957000","106.7902000"
"20227871","SMA PGRI 31 PANGALENGAN","JL. RAYA PANGALENGAN NO. 332","Prop. Jawa Barat","SMA","-7.1759000","107.5709000"
"20219270","SMAS KRIDA NUSANTARA","JL. DESA CIPADUNG CIBIRU-BANDUNG","Prop. Jawa Barat","SMA","-6.9157000","107.7269000"
"20268437","SMAS PURWA BHAKTI","JL. VETERAN 3 TAPOS","Prop. Jawa Barat","SMA","-6.7338000","106.8337000"
"20246383","SMAS AT-TAQWA 03","JL.IBNU SABIL KP.PANGKALAN RT 02/08 SUKAMEKAR SUKAWANGI","Prop. Jawa Barat","SMA","-6.1555000","107.0586000"
"20265273","SMAS KOSGORO KARAWANG","JL. TAMPOMAS 2B KARANG INDAH","Prop. Jawa Barat","SMA","-6.2956000","107.2975000"
"69754446","SMAN 1 RANCABUNGUR","JL LETKOL ATANG SANJAYA","Prop. Jawa Barat","SMA","-6.5425000","106.7171000"
"20233646","SMAS BINA PUTERA SUBANG","JL. ARIEF RAHMAN HAKIM  NO. 41 SUBANG","Prop. Jawa Barat","SMA","-6.5554000","107.7553000"
"20231728","SMAS YATAMA","JL. RAYA JATIWARINGIN NO.6","Prop. Jawa Barat","SMA","-6.2682000","106.9246000"
"20280610","SMAS PLUS BINAAUL UMMAH","JL TAMBUN TAMBELANG KM 5","Prop. Jawa Barat","SMA","-6.2316000","107.0826000"
"20232329","SMAS DARUT TAQWA","JL. RAYA JAKARTA - BOGOR KM 44","Prop. Jawa Barat","SMA","-6.4832733","106.8431783"
"20208408","SMAN RANCAKALONG","JL. RAYA RANCAKALONG NAGARAWANGI RANCAKALONG SUMEDANG 45361","Prop. Jawa Barat","SMA","-6.8257000","107.8498000"
"20202259","SMAN 1 SAGARANTEN","JL. SMA 32 SAGARANTEN KAB.SUKABUMII","Prop. Jawa Barat","SMA","-7.2170000","106.8816000"
"20223027","SMAS TOGA TERANG","JL. BINTARA JAYA","Prop. Jawa Barat","SMA","-6.2415000","106.9478000"
"20210760","SMAS MUHAMMADIYAH RAWA","JL. MANGUNHARJA NO. 23","Prop. Jawa Barat","SMA","-7.3174000","108.0828000"
"20210718","SMAN 1 TARAJU","JL. RAYA TARAJU DESA SINGASARI KEC. TARAJU KAB. TASIKMALAYA","Prop. Jawa Barat","SMA","-7.4565000","107.9997000"
"20227859","SMAS MITRA DARMA CILILIN","JL. RADIO CILILIN","Prop. Jawa Barat","SMA","-6.9869000","107.4493000"
"20218357","SMAN 1 CIBARUSAH","JL. RAYA CIBARUSAH KABUPATEN BEKASI","Prop. Jawa Barat","SMA","-6.4289000","107.0783000"
"20219781","SMA PGII 2","Jl. Pahlawan Blk. No. 17","Prop. Jawa Barat","SMA","-6.9004000","107.6334000"
"20227474","SMAN 1 GARUT","JL. MERDEKA NO. 91","Prop. Jawa Barat","SMA","-7.2052080","107.9029800"
"20272059","SMAS PEMUDA GARUT","JL. RAYA MARGAWATI","Prop. Jawa Barat","SMA","-7.2640180","107.9444320"
"20244054","SMAS BINA PENDIDIKAN","JL.TELAGA ASIH NO.17 CIKARANG BARAT","Prop. Jawa Barat","SMA","-6.2717000","107.1029000"
"20231726","SMAS PLUS TERATAI PUTIH","JL. BKKBN CIKETING MUSTIKA JAYA","Prop. Jawa Barat","SMA","-6.3082000","107.0275000"
"20210742","SMAN 1 KARANGNUNGGAL","JL. RAYA KARANGNUNGGAL","Prop. Jawa Barat","SMA","-7.6263000","108.1330000"
"69947206","SMA ISLAM TERPADU MENTARI ILMU KARAWANG","Jl. Perum Karaba Indah I, Kp. Pintu Air","Prop. Jawa Barat","SMA","-6.3236000","107.2752000"
"20252521","SMAS BINA TUNGGAL","JL. Wahab Affan No. 1","Prop. Jawa Barat","SMA","-6.2097000","106.9771000"
"20203740","SMA NEGERI  1 CIBEBER","JL. RAYA CIBEBER KM. 13","Prop. Jawa Barat","SMA","-6.9164000","107.1217000"
"69821180","SMAN 6 TAMBUN SELATAN","Jl. Jatimulya Raya Rt. 01 Rw.13 Kel. Jatimulya Tambun Selatan","Prop. Jawa Barat","SMA","-6.2594000","107.0459000"
"20221591","SMAS MUHAMMADIYAH","JL. R. SYAMSUDIN SH. NO. 59 SUKABUMI","Prop. Jawa Barat","SMA","-6.9153000","106.9225000"
"69752279","SMAN 1 TENJOLAYA","JL. ABDUL FATAH","Prop. Jawa Barat","SMA","-6.6429000","106.6939000"
"20251964","SMAS YRM CIHAWAR","JL. RAYA CIHAWAR NO. 151 RAJADESA","Prop. Jawa Barat","SMA","-7.1968000","108.5077000"
"20232409","SMAS YAPIDA","KP. SANDING RT/RW3/6 DESA BOJONGNANGKA","Prop. Jawa Barat","SMA","-6.4344000","106.9014000"
"20256638","SMA MANGGALA","JL.RAYA PACET KM.8 CIPARAY","Prop. Jawa Barat","SMA","-7.1039000","107.7030000"
"20219768","SMAS PAJAJARAN","JL. MALEBER UTARA NO. 37","Prop. Jawa Barat","SMA","-6.9209020","107.5997950"
"20216944","SMAN 1 CIPEUNDEUY","JL. SAWANGAN CIPEUNDEUY","Prop. Jawa Barat","SMA","-6.4841000","107.6119000"
"20227872","SMAS PGRI CIPEUNDEUY","JL. CIRATA MARGALAKSANA","Prop. Jawa Barat","SMA","-6.7417000","107.3463000"
"20223043","SMAN 6 BEKASI","JL. ASRI LESTARI RAYA PERUM PONDOK MITRA","Prop. Jawa Barat","SMA","-6.3378000","106.9751000"
"20223045","SMAN 4 BEKASI","JL. CEMARA PERMAI PERUM HARAPAN JAYA","Prop. Jawa Barat","SMA","-6.2506000","106.9774000"
"20252653","SMAS AL BARKAH","Jl. Hegarmanah","Prop. Jawa Barat","SMA","-6.6607000","107.1733000"
"20247295","SMAS ITUS JALAKSANA","JL. PAJAJARAN NO. 1A PEUSING","Prop. Jawa Barat","SMA","-6.9018000","108.4743000"
"20222355","SMAS PUTRA NIRMALA CIREBON","JL. SUTOMO NO. 33","Prop. Jawa Barat","SMA","-6.7258000","108.5545000"
"69728578","SMAS IT AL FIDAA","JL. PERMATA RT 002 RW 010 Kampung Bulu","Prop. Jawa Barat","SMA","-6.2523000","107.0471000"
"69896045","SMA IT NURUL HUDA KAIMAS","Kp. Bojong Pesantren RT 01/04","Prop. Jawa Barat","SMA","-7.1360000","107.9848000"
"20231338","SMAN 1 TENJO","JL. Raya Tenjo - Parung Panjang KM. 03","Prop. Jawa Barat","SMA","-6.3480000","106.4638000"
"20228479","SMA TELKOM BANDUNG","JL.RADIO PALASARI DAYEUHKOLOT","Prop. Jawa Barat","SMA","-6.9734000","107.6263000"
"20227920","SMA TAMAN SISWA RANCAEKEK","Jl. Rancanilem (Terusan Jl. Cempaka Raya, Bumi Rancaekek Kencana) Rt 3 Rw 11","Prop. Jawa Barat","SMA","-6.9716000","107.7644000"
"20227844","SMAS KP 5 PADALARANG","JL. U. SURYADI NO. 17 PADALARANG","Prop. Jawa Barat","SMA","-6.8613000","107.4900000"
"20213877","SMAS PGRI 1 MAJALENGKA","JL. KH. ABDUL HALIM NO. 77 MAJALENGKA","Prop. Jawa Barat","SMA","-6.8324000","108.2101000"
"20255008","SMAN 2 BANJARSARI","JL. SUKADANA NO. 239","Prop. Jawa Barat","SMA","-7.5022000","108.5634000"
"69860526","SMA PLUS PUTRA MELATI","JL.SINGASARI-CIBODAS DESA. SINGASARI KM 5 KEC. JONGGOL KAB. BOGOR KP.16830","Prop. Jawa Barat","SMA","-6.4741030","107.0097280"
"20264425","SMAN 1 KEDOKANBUNDER","JL. RAYA CANGKINGAN KEDOKANBUNDER","Prop. Jawa Barat","SMA","-6.4942000","108.4006000"
"20219259","SMAS SWADAYA BANDUNG","JL. TERUSAN PASIR KODJA NO. 181","Prop. Jawa Barat","SMA","-6.9260000","107.5881000"
"20216208","SMAS ISLAM AT-TAQWA KANDANGHAUR","JL. RAYA BULAK KANDANGHAUR","Prop. Jawa Barat","SMA","-6.3546000","108.1066000"
"20238018","SMAS KRISTEN NASIONAL ANGLO","JL.SERUNI RAYA NO. 1 LEMBAH HIJAU LIPPO CIKARANG","Prop. Jawa Barat","SMA","-6.3480000","107.1384000"
"20220332","SMAN 3 BOGOR","JL. PAKUAN 4","Prop. Jawa Barat","SMA","-6.6072333","106.8109917"
"20214988","SMAN 1 WALED","JL. RAYA DEWI SARTIKA","Prop. Jawa Barat","SMA","-6.9149000","108.7157000"
"20252016","SMAS MARDI YUANA CIANJUR","JL. SILIWANGI NO. 66","Prop. Jawa Barat","SMA","-6.8320000","107.1348000"
"20206144","SMAN 1 CIPATAT","JL. DESA CIPTAHARJA NO. 35","Prop. Jawa Barat","SMA","-6.8402000","107.3714000"
"69883219","SMA DASA SEMESTA","JL. PAMOYANAN NO. 6A RT 01/02","Prop. Jawa Barat","SMA","-6.6319050","106.8054467"
"69759856","SMAS MUTIARA INDONESIA","JL. CIKUNIR NO.25 KP DUA","Prop. Jawa Barat","SMA","-6.2314000","106.9823000"
"20210780","SMAN 1 SARIWANGI","JL. CIPAKU SUKAMULIH","Prop. Jawa Barat","SMA","-7.3160000","108.0720000"
"20271471","SMA IT DARUL QUR AN","JL. RAYA PUSPIPTEK PEMBANGUNAN","Prop. Jawa Barat","SMA","-6.3760000","106.6801000"
"20231288","SMAS DAARUL ISTIQOOMAH","JL. H SATIBI NO. 25 CILEUNGSI","Prop. Jawa Barat","SMA","-6.4020000","106.9633000"
"20232331","SMAS DARUL FAIZIN","JL. KOLONEL BUSTOMI DESA CARINGIN","Prop. Jawa Barat","SMA","-6.7025000","106.8163000"
"20227437","SMAS CILEDUG AL-MUSADDADIYAH","JL. MAYOR SYAMSU NO. 2 B","Prop. Jawa Barat","SMA","-7.2060000","107.8956000"
"69877293","SMA AL - AMANAH BUNGBULANG","KP. RANCAKOLE","Prop. Jawa Barat","SMA","-7.4967410","107.5557490"
"20209186","SMAS YPI PULOSARI LIMBANGAN","JL. BANDUNG TASIKMALAYA","Prop. Jawa Barat","SMA","-7.0442000","107.9458000"
"20210770","SMAS SERBA BAKTI","JL. RAYA SURYALAYA","Prop. Jawa Barat","SMA","-7.1253000","108.2153000"
"20237996","SMAN 3 TAMBUN SELATAN","PERUM. GRAHA PRIMA BEKASI RT. 10 RW. 16","Prop. Jawa Barat","SMA","-6.2263000","107.0621000"
"20265517","SMAS AL ISLAM","JL. CILENGKRANG I","Prop. Jawa Barat","SMA","-6.9092000","107.7230000"
"69946120","SMA LEPPESA 2 CILILIN","KP. LEMBANG RT.02 RW.10","Prop. Jawa Barat","SMA","-6.9965202","107.4657882"
"20232374","SMAN 1 CIOMAS","JL. CIBINONG","Prop. Jawa Barat","SMA","-6.6045000","106.7499000"
"20246367","SMA NEGERI 1 PASAWAHAN","JL. RAYA PASAWAHAN","Prop. Jawa Barat","SMA","-6.8099000","108.4340000"
"20223030","SMAS SYARIF HIDAYATULLAH","JL. MASJID HIDAYATULLAH NO. 23","Prop. Jawa Barat","SMA","-6.2626000","106.9790000"
"20270792","SMAS MA ARIF KADUNGORA","JL. HARUMAN","Prop. Jawa Barat","SMA","-7.0724000","107.9278000"
"20252842","SMAS SLAMET RIYADI","JL PANDAWA PERUMAHAN RESINDA KARAWANG","Prop. Jawa Barat","SMA","-6.2929000","107.2697000"
"69947328","SMA Islam Terpadu Nurul Jannah","Kp. Cilangen","Prop. Jawa Barat","SMA","-7.2057000","108.1303000"
"20222311","SMAN 6 CIREBON","JL. WAHIDIN SUDIROHUSODO NO. 79","Prop. Jawa Barat","SMA","-6.7104000","108.5514000"
"69934717","SMA AT-TAJDID BOARDING SCHOOL","Jl. Muhammadiyah Cikedokan","Prop. Jawa Barat","SMA","-7.3458000","108.1113000"
"20251938","SMAS ISLAM RIYADLUL JANNAH","Jl.M.Bakri Kaum Desa Singajaya Kecamatan Jonggol","Prop. Jawa Barat","SMA","-6.6616000","106.6321000"
"20233667","SMAS RIYADHUL JANNAH CIMENTENG","JL. RAYA CIMENTENG KM 14 CIJAMBE","Prop. Jawa Barat","SMA","-6.6471000","107.7134000"
"69849075","SMA AL-AMANAH PAKENJENG","KP. BIHBUL DESA TANJUNGJAYA PAKENJENG-GARUT","Prop. Jawa Barat","SMA","-7.4296270","107.7793320"
"20219762","SMAS PMB","JL. ARCAMANIK RT 02/01","Prop. Jawa Barat","SMA","-6.9050000","107.6844000"
"20227826","SMA BPPI BALEENDAH","JL. ADIPATI AGUNG NO.23","Prop. Jawa Barat","SMA","-6.9989000","107.6236000"
"20211508","SMAN 1 PARIGI","JL. BABAKAN ARDIYASA NO.62","Prop. Jawa Barat","SMA","-7.7071000","108.4967000"
"20215019","SMAS PGRI KARANGSEMBUNG","JL. RAYA KARANGSUWUNG","Prop. Jawa Barat","SMA","-6.8454000","108.6390000"
"20212937","SMA NEGERI 1 CILIMUS","JL. PANAWUAN NO. 221","Prop. Jawa Barat","SMA","-6.8748000","108.4984000"
"20224137","SMA WARGA BAKTI","JL. RAYA CIBEBER NO. 148","Prop. Jawa Barat","SMA","-6.8941000","107.5183000"
"20252046","SMAS AL ITTIHAD CIANJUR","JL. RAYA BANDUNG KM.03 R. BANGO","Prop. Jawa Barat","SMA","-6.8019000","107.1724000"
"20223032","SMAN 11 BEKASI","JL. WIBAWAMUKTI KAV. AURI JATIASIH","Prop. Jawa Barat","SMA","-6.3437000","106.9399000"
"20219752","SMAS BINA DHARMA 1 BANDUNG","JL. GEGERKALONG HILIR NO. 18","Prop. Jawa Barat","SMA","-6.8699000","107.5926000"
"20227821","SMA AL-HIDAYAH CIPARAY","JL. SUMBERSARI SUTAM CIPARAY","Prop. Jawa Barat","SMA","-7.0049000","107.7161000"
"20227447","SMAS PASUNDAN GARUT","JL. PASUNDAN NO. 68","Prop. Jawa Barat","SMA","-7.2252080","107.9055020"
"20211560","SMAS MUHAMMADIYAH PANGANDARAN","JL MERDEKA NO.27 PANGANDARAN","Prop. Jawa Barat","SMA","-7.6800000","108.6448000"
"20219244","SMAN 18 BANDUNG","JL. MADESA SITUGUNTING","Prop. Jawa Barat","SMA","-6.9386000","107.5853000"
"20238003","SMAS AL - MUSLIM","JL. RAYA SETU KP. BAHAGIA TAMBUN BEKASI","Prop. Jawa Barat","SMA","-6.2700000","107.0750000"
"20247319","SMA ATHENA","JL. RAWA KALONG NO.18 KARANGSATRIA TAMBUN UTARA","Prop. Jawa Barat","SMA","-6.2241000","107.0411000"
"20231359","SMAS WIDYA KUSUMA","JL. THATA HIJAU RAYA BOULEVARD PERUM CILEUNGSI HIJAU","Prop. Jawa Barat","SMA","-6.4323000","106.9562000"
"20227459","SMAN 7 GARUT","JL. HANJUANG NO. 20","Prop. Jawa Barat","SMA","-7.4668000","107.5941000"
"20238569","SMAN 1 SUKAWANGI","JL. RAYA SUKAKERTA SUKAWANGI BEKASI","Prop. Jawa Barat","SMA","-6.1225000","107.1237000"
"20233653","SMAN 1 COMPRENG","Jl. Raya Mekarjaya - Compreng","Prop. Jawa Barat","SMA","-6.3734000","107.8818000"
"20219309","SMAN 5 BANDUNG","JL. BELITUNG NO 8","Prop. Jawa Barat","SMA","-6.9120000","107.6154000"
"20211500","SMAN 2 CIAMIS","JL. K.H. AHMAD DAHLAN NO. 2 CIAMIS","Prop. Jawa Barat","SMA","-7.3292434","108.3461025"
"20225278","SMAN 3 BANJAR","JL. KH Mustofa No. 117","Prop. Jawa Barat","SMA","-7.3711530","108.5259280"
"20238009","SMAS BINA NEGARA","JL. YPI N0. 3 DESA. BANTARSARI KEC. PEBAYURAN BEKASI","Prop. Jawa Barat","SMA","-6.2070000","107.2495000"
"20219808","SMAS MEDINA BANDUNG","JL. KH. AHMAD DAHLAN / BANTENG NO. 13-15","Prop. Jawa Barat","SMA","-6.9290000","107.6189000"
"20200671","SMAS RIYADLUL JANNAH","JL. MADNUR BABAKAN CISEENG, KMP. BINONG","Prop. Jawa Barat","SMA","-6.4687000","106.7116000"
"20206169","SMA BINA MUDA CICALENGKA","JL. Kapten Sangun No. 33","Prop. Jawa Barat","SMA","-6.9833000","107.8375000"
"20227887","SMA YUMIK BANJARAN","JL. SINDANG PANON NO. 31 BANJARAN","Prop. Jawa Barat","SMA","-7.0502000","107.5831000"
"20274173","SMAS MUHAMMADIYAH WANARAJA","JL. TALAGABODAS KM. 04 WANARAJA","Prop. Jawa Barat","SMA","-7.1872000","108.0129000"
"20211506","SMAN 1 PANGANDARAN","JL. RAYA BABAKAN NO. 129 PANGANDARAN","Prop. Jawa Barat","SMA","-7.6767000","108.6749000"
"20227458","SMAN 19 GARUT","JL. RAYA SIMPANG - SAMARANG NO. 100","Prop. Jawa Barat","SMA","-7.2694000","107.8141000"
"20218364","SMAN 1 TAMBUN UTARA","JL.RAYA SRIAMUR KEC. TAMBUN UTARA BEKASI","Prop. Jawa Barat","SMA","-6.1882000","107.0496000"
"20229185","SMAS YAPAN INDONESIA","JL. MUHTAR NO. 50","Prop. Jawa Barat","SMA","-6.4035000","106.7697000"
"20220435","SMAS BHAKTI TARUNA","JL. RAYA TAJUR NO 427","Prop. Jawa Barat","SMA","-6.6422433","106.8358883"
"20254043","SMAN 1 CAMPAKA","JL. RAYA CAMPAKA","Prop. Jawa Barat","SMA","-6.5100000","107.4832000"
"20238008","SMAS BINA BANGSA SUKATANI","JL. RAYA SUKATANI NO. 21 SUKATANI BEKASI","Prop. Jawa Barat","SMA","-6.1700000","107.1798000"
"69923901","SMA BHAKTI PUTRA INDONESIA","Kp. Cicariu RT 03/03","Prop. Jawa Barat","SMA","-7.3875080","107.5059373"
"20200682","SMAS AL NUR","JL. AL - NUR PABUARAN DS. PABUARAN","Prop. Jawa Barat","SMA","-6.4618133","106.8525500"
"20217360","SMAN 1 WANAYASA","JL. RAYA WANASARI","Prop. Jawa Barat","SMA","-6.6653000","107.5486000"
"20214973","SMAS YAPISA DUKUPUNTANG","JL. NYI AGENG SERANG NO. 02","Prop. Jawa Barat","SMA","-6.7683000","108.4189000"
"20247150","SMAS AT TIJARAH","Jln. Cimahigirang Rt. 022/004 Desa Citamiang","Prop. Jawa Barat","SMA","-6.8688000","106.8943000"
"20229149","SMAS BUDI UTOMO SUKMAJAYA","JL. AGUNG UJUNG DEPOK TIMUR","Prop. Jawa Barat","SMA","-6.3929000","106.8538000"
"69886260","SMA NEGERI 2 CIBINONG","JL DWI TUNGGAL DS PADASUKA","Prop. Jawa Barat","SMA","-7.3447790","107.1212940"
"20219786","SMAS NUGRAHA BANDUNG","JL. PLN DALAM NO. 4","Prop. Jawa Barat","SMA","-6.9513000","107.6115000"
"69942149","SMA ISLAM TERPADU INSANI","Jl. Karamat No. 55","Prop. Jawa Barat","SMA","-6.9088891","106.9164512"
"20203698","SMAS AL MUAWANAH CIANJUR","JL. TAIFUR YUSUP NO. 45","Prop. Jawa Barat","SMA","-6.8185000","107.1380000"
"20224138","SMA TUT WURI HANDAYANI","JL. ENCEP KARTAWIRIA NO. 93","Prop. Jawa Barat","SMA","-6.8656000","107.5602000"
"20251948","SMA HANDAYANI I ARJASARI","JL. RAYA BOJONGSEREH ARJASARI","Prop. Jawa Barat","SMA","-7.0323000","107.5944000"
"20210772","SMAS PLUS MUALLIMIN PERSIS RAJAPOLAH","JL. LAYANG RAJAPOLAH NO. 01","Prop. Jawa Barat","SMA","-7.2196000","108.1966000"
"20227850","SMA KP 1 PASEH","JL.OMA ANGGA WISASTRA IBUN","Prop. Jawa Barat","SMA","-7.0835000","107.7710000"
"20229178","SMAS SPRING FIELD","JL.RAFLES HILLS","Prop. Jawa Barat","SMA","-6.3779000","106.9056000"
"20227467","SMAN 2 GARUT","JL. GUNTUR NO. 3 LELES","Prop. Jawa Barat","SMA","-7.1035000","107.8986000"
"69912321","SMA BANJARWANGI SATU","Kp. Empang RT 03 RW 03","Prop. Jawa Barat","SMA","-7.4562000","107.8630000"
"20212943","SMAS MANBAUL ULUM","JL. PARENCA NO.2","Prop. Jawa Barat","SMA","-6.8693000","108.5323000"
"69942478","SMA MULTI ISTIQLAL","Kp. Warung Asem Rt.001 Rw.001","Prop. Jawa Barat","SMA","-6.2357000","107.0714000"
"69877297","SMA IT AL - MUAWANAH CIGEDUG","KP. CIGEDUG TONGGOH","Prop. Jawa Barat","SMA","-7.3349000","107.8078000"
"20268738","SMAS AN NUR ALIYYAH","JL. TRANSYOGI CIBUBUR-CILEUNGSI KM 8 NO. 18","Prop. Jawa Barat","SMA","-6.3895000","106.9487000"
"20252048","SMAS PGRI TAKOKAK","JL. PAHLAWAN NO. 5","Prop. Jawa Barat","SMA","-7.0563000","107.0031000"
"20227828","SMA BHAKTI MULYA BANJARAN","JL. RAYA CIHERANG NO.96 BANJARAN","Prop. Jawa Barat","SMA","-7.0437000","107.5614000"
"20202260","SMAN 1 CIRACAP","JL.R. NATADIPURA KEC. CIRACAP","Prop. Jawa Barat","SMA","-7.3302000","106.5144000"
"20227907","SMAN 1 MARGAASIH","JL. TERUSAN TAMAN KOPO INDAH 3","Prop. Jawa Barat","SMA","-6.9709000","107.5487000"
"20213884","SMAN 1 JATITUJUH","JL. RENTANG BARU NO.01","Prop. Jawa Barat","SMA","-6.6577000","108.2266000"
"20257671","SMAS ASHRIYAH NURUL IMAN","JL. NURUL IMAN NO. 1 RT 01/1","Prop. Jawa Barat","SMA","-6.4436000","106.7083000"
"69934731","SMA TERPADU SALMAN AL-FARISI","Kp. Nagrak","Prop. Jawa Barat","SMA","-7.5711700","108.1344500"
"20200689","SMAS HIDAYATUL IKHWAN","JL. RAYA TENJO - JASINGA KM. 01  DESA TENJO","Prop. Jawa Barat","SMA","-6.3284000","106.4542000"
"69848997","SMAN 1 PLERED","JL. WARUNG KANDANG PLERED","Prop. Jawa Barat","SMA","-6.6370630","107.3963690"
"20235622","SMAN CONGGEANG","JL. RAYA CONGGEANG NO. 218 CONGGEANG SUMEDANG","Prop. Jawa Barat","SMA","-6.7528000","108.0062000"
"20214971","SMAN 1 ARJAWINANGUN","Jl. Sutan Syahrir","Prop. Jawa Barat","SMA","-6.6398000","108.4050000"
"69856206","SMA IT INSAN MANDIRI","JL. MASJID SILATURAHIM NO. 36 JATISAMPURNA","Prop. Jawa Barat","SMA","-6.3799000","106.9126000"
"69872006","SMA ISLAM TERPADU MEKARMUKTI","KP. CIPEER RT 02 RW 01","Prop. Jawa Barat","SMA","-7.5377830","107.5647660"
"20258092","SMAS MUTIARA BUNDA","JL. PADANG GOLF ARCAMANIK","Prop. Jawa Barat","SMA","-6.9071000","107.6758000"
"20219790","SMAS LABORATORIUM - PERCONTOHAN UPI","JL.SENJAYA GURU KAMPUS UPI BANDUNG","Prop. Jawa Barat","SMA","-6.8617000","107.5923000"
"20219799","SMAS LPPN","RAJAWALI TIMUR NO. 76","Prop. Jawa Barat","SMA","-6.9156000","107.5850000"
"20235629","SMAS YKM TANJUNGSARI","JL. RAYA TANJUNGSARI NO. 398  SUMEDANG","Prop. Jawa Barat","SMA","-6.8966000","107.8095000"
"20229157","SMAS ISLAM TERPADU NURUL FIKRI","Jl. H. Sairi No. 145 RTM Kelapa Dua","Prop. Jawa Barat","SMA","-6.3666000","106.8429000"
"20223075","SMAS MARSUDIRINI","JL. RAYA NAROGONG 202, KEMANG PERATAMA","Prop. Jawa Barat","SMA","-6.2771000","106.9921000"
"20206170","SMA BANJAR ASRI CIMAUNG","JL. GUNUNG PUNTANG KM. 1 CIMAUNG","Prop. Jawa Barat","SMA","-7.0839000","107.5639000"
"20210764","SMAN 1 CIPATUJAH","JL. PANTAI SELATAN CIPATUJAH","Prop. Jawa Barat","SMA","-7.7476000","108.0190000"
"69931913","SMA BINA NUSA PURWAJAYA","Kp. Babakan RT 01/002","Prop. Jawa Barat","SMA","-7.5668714","107.9124896"
"20252983","SMAS NU DUKUHJATI","JL. SUMUR PONDOK DUKUHJATI","Prop. Jawa Barat","SMA","-6.5060000","108.4652000"
"69936614","SMA PLUS MA RUFUL HIDAYAH ","Jl. Raya Cigedug Kp. Barukai RT 01/04","Prop. Jawa Barat","SMA","-7.3261590","107.8448269"
"20253753","SMAS ISLAM KARANGBAHAGIA","JL. PILAR SUKATANI KP.SUKAMANTRI","Prop. Jawa Barat","SMA","-6.2376000","107.1595000"
"69788581","SMAN 2 SINGAPARNA","Kp. PAMEUNGPEUK RT 03 RW 06","Prop. Jawa Barat","SMA","-7.3449000","108.1537000"
"20216205","SMAS MUHAMMADIYAH JATIBARANG","JL. MAYOR DASUKI NO.131","Prop. Jawa Barat","SMA","-6.4671000","108.3023000"
"20227846","SMA KP BAROS ARJASARI","JL. BAROS NO.1 ARJASARI","Prop. Jawa Barat","SMA","-7.0543000","107.6161000"
"20200669","SMAS PGRI LEUWILIANG","JL. ANYAR CIBEBER LEUWILIANG DS. CIBEBER I","Prop. Jawa Barat","SMA","-6.5850000","106.6168000"
"20210774","SMAS AL MUKROM","JL. RAYA BOJONGGAMBIR","Prop. Jawa Barat","SMA","-7.5171000","107.9799000"
"69925473","SMA NURUL JANAH","Kp.Rawaputat Rt.04/03","Prop. Jawa Barat","SMA","-6.9522121","107.1520033"
"69867931","SMA IT SINARSARI","KP. CITEUREUP RT 02 RW 03","Prop. Jawa Barat","SMA","-7.6171290","107.7601310"
"20238548","SMAN 1 CIGALONTANG","JL. RAYA CIGALONTANG LENGKONGJAYA","Prop. Jawa Barat","SMA","-7.3525000","108.0356000"
"69935515","SMA KSATRIA NUSANTARA PADAHERANG","DUSUN PATINGGEN 2","Prop. Jawa Barat","SMA","-7.5288000","108.7011000"
"20215982","SMAN 1 TERISI","JL. MUNDAK JAYA","Prop. Jawa Barat","SMA","-6.4737000","108.1731000"
"20251784","SMA PGRI CICALENGKA","JL CICALENGKA-MAJALAYA KM 05 CICALENGKA","Prop. Jawa Barat","SMA","-6.9818000","107.8294000"
"69830492","SMA SULTHON AULIA BOARDING SCHOOL","JL Batu Tumbuh 1.Radar Selatan","Prop. Jawa Barat","SMA","-6.2618000","106.9048000"
"20235625","SMAS AL MASOEM JATINANGOR","JL. RAYA CIPACING NO 22 JATINANGOR - SUMEDANG","Prop. Jawa Barat","SMA","-6.9472000","107.7587000"
"20238027","SMAS YADIKA 8 JATI MULYA","JL. H.  JAMPANG NO. 91 JATIMULYA TAMBUN SELATAN","Prop. Jawa Barat","SMA","-6.2726000","107.0188000"
"20200587","SMAN 1 JASINGA","JL. SUKAMANAH NO. 3 RT. 04/02","Prop. Jawa Barat","SMA","-6.4720000","106.4681000"
"20212946","SMA AINURRAFIQ","JL. PEMUDA NO. 001","Prop. Jawa Barat","SMA","-6.8807000","108.4986000"
"20219279","SMAS TRINITAS BANDUNG","JL. KEBONJATI 209","Prop. Jawa Barat","SMA","-6.9167000","107.5930000"
"20231361","SMAS YADIKA 7 BOGOR","JL. RAYA KEMANG NO. 12","Prop. Jawa Barat","SMA","-6.5198780","106.7576100"
"20229745","SMAS AL MUHAJIRIN","VETERAN NO. 155","Prop. Jawa Barat","SMA","-6.5278000","107.4504000"
"20220546","SMAS AL AZHAR PLUS","Jl. Sindang Barang No. 219 Bogor Barat","Prop. Jawa Barat","SMA","-6.5804000","106.7619000"
"20252518","SMAS IT GEMA NURANI","JL. RAYA KALIABANG TENGAH NO.100","Prop. Jawa Barat","SMA","-6.1912000","107.0061000"
"20217338","SMAN 1 JATILUHUR","JL. PRAMUKA NO. 138","Prop. Jawa Barat","SMA","-6.5591000","107.4285000"
"20229641","SMAS AL ISLAM","JL. JEND. A YANI NO. 132","Prop. Jawa Barat","SMA","-6.5501000","107.4379000"
"20227909","SMAN 1 SINDANGKERTA","JL. RAYA SINDANGKERTA GUNUNGHALU RT.04 RW.03","Prop. Jawa Barat","SMA","-6.9899000","107.3934000"
"20253245","SMAS GEMA ISLAMI","JL.RAYA JATIKRAMAT INDAH II RT 03/11 KEL. JATIASIH KOTA BEKASI","Prop. Jawa Barat","SMA","-6.3137000","106.9581000"
"20240400","SMA KP 3 PASEH","JL. PEJUANG KP. MALANG RT.03/06","Prop. Jawa Barat","SMA","-7.0799000","107.7932000"
"20219266","SMAS ST ANGELA","JL. MERDEKA NO. 24, Bandung - Jawa Barat","Prop. Jawa Barat","SMA","-6.9126000","107.6110000"
"20227921","SMA PLUS TEBAR ILMU CIPARAY","JL.RAYA LASWI KM 2 BARANANGSIANG CIPARAY","Prop. Jawa Barat","SMA","-7.0255000","107.6919000"
"20227457","SMAN 25 GARUT","JL. RAYA KH. HASAN ARIEF","Prop. Jawa Barat","SMA","-7.1706000","107.9417000"
"20275048","SMAN 16 BEKASI","Jl Arteri Toll Jorr Jatimelati , PONDOK MELATI","Prop. Jawa Barat","SMA","-6.3107000","106.9316000"
"20229148","SMAS BUDI BHAKTI DEPOK","JL. KOMPLEKS ADHI KARYA (PEDATI-PONCOL)","Prop. Jawa Barat","SMA","-6.4001000","106.8341000"
"20219733","SMAS KEMALA BHAYANGKARI","JL. PALASARI NO. 46","Prop. Jawa Barat","SMA","-6.9121000","107.5798000"
"20219796","SMAS KRISTEN HIDUP BARU","JL.CIUMBULEUIT ATAS NO.160","Prop. Jawa Barat","SMA","-6.8657000","107.6060000"
"20224113","SMA NEGERI 1 CIMAHI","JL. PACINAN NO. 22 A CIMAHI","Prop. Jawa Barat","SMA","-6.8706000","107.5439000"
"20238437","SMAN 1 SINDANGKASIH","JL. RAYA SINDANGKASIH CIKONENG CIAMIS","Prop. Jawa Barat","SMA","-7.3451000","108.5000000"
"69856209","SMA GALAJUARA","JL. KALIABANG TENGAH NO. 22 THB","Prop. Jawa Barat","SMA","-6.1789000","106.9995000"
"20231725","SMAS ST BELLARMINUS","JL. KEMANG SARI IV/97 JATIBENING BARU PONDOK GEDE KOTA BEKASI 17412","Prop. Jawa Barat","SMA","-6.2737000","106.9370000"
"20219257","SMAN 10 BANDUNG","JL. CIKUTRA NO. 77","Prop. Jawa Barat","SMA","-6.9024000","107.6434000"
"20206208","SMAN 1 PADALARANG","JL. BABAKAN LOA PADALARANG","Prop. Jawa Barat","SMA","-6.8432000","107.4759000"
"69775473","SMAS JHON PAULS SCHOOL","Jl.Harapan Indah Bulevar Kav.05 Sektor V Kota Harapan Indah","Prop. Jawa Barat","SMA","-6.1536000","106.9820000"
"20253279","SMAS BUNDA","VILLA NUSA INDAH 2 BLOK DD 2 NO. 1","Prop. Jawa Barat","SMA","-6.3243000","106.9717000"
"69934747","SMA TERPADU MANAHIJUL HUDA","Kp. Tejamaya Ds.Sukaraja Kec.Rajapolah Kab.Tasikmalaya","Prop. Jawa Barat","SMA","-7.2349000","108.1877000"
"20252959","SMAS NURUL FALAAH","Jl. Pahlawan No. 06 Kp. Bulaksaga RT 03 RW 06","Prop. Jawa Barat","SMA","-6.4105000","106.6957000"
"20212963","SMA NEGERI 1 JALAKSANA","JL. RAYA PADAMENAK NO. 64","Prop. Jawa Barat","SMA","-6.9174000","108.4910000"
"20227837","SMA HANDAYANI 2 BANJARAN","JL.RAYA BANJARAN BLOK NAMBO ARJASARI","Prop. Jawa Barat","SMA","-7.0424000","107.5922000"
"20227827","SMA TERPADU BAITURRAHMAN","JL. Rancakole Kp. Bojong","Prop. Jawa Barat","SMA","-7.0719000","107.7027000"
"20200601","SMAN 1 LEUWILIANG","Kp. Sawah Kulon  No. 47 Jl. Raya Leuwiliang - Jasinga","Prop. Jawa Barat","SMA","-6.5722000","106.6293000"
"69786493","SMAS ISLAM TERPADU ISHLAHUL UMMAH BOARDING SCHOOL","JALAN CIEUNTEUNG NO 80 BLK. MEUBEL SAKURA","Prop. Jawa Barat","SMA","-7.3230000","108.1958000"
"20229169","SMAS PELITA DEPOK","JL. KENANGA NO. 4 DEPOK","Prop. Jawa Barat","SMA","-6.4017000","106.8225000"
"20227472","SMAN 17 GARUT","JL. RAYA SAMARANG KM 45","Prop. Jawa Barat","SMA","-7.2041000","107.8235000"
"20237366","SMAS KORPRI KARAWANG","JL. CIANJUR NO. 13 KARANGPAWITAN","Prop. Jawa Barat","SMA","-6.2970000","107.3010000"
"20231316","SMAS MARDI WALUYA","JL.MAYOR OKING NO.15","Prop. Jawa Barat","SMA","-6.4655900","106.8585850"
"69888787","SMA PGRI CIDAHU","JALAN CIDAHU KM 4","Prop. Jawa Barat","SMA","-6.7972500","106.7310450"
"20210766","SMAN 1 CIKATOMAS","JL. RAYA CIKATOMAS NO.109","Prop. Jawa Barat","SMA","-7.6110000","108.2619000"
"20210719","SMAN 1 SODONGHILIR","Jl. SEPATNUNGGAL TAGOG","Prop. Jawa Barat","SMA","-7.5247000","108.0524000"
"20252519","SMAN 15 BEKASI","JL. SMAN 15 PANGKALAN V CIKETING UDIK","Prop. Jawa Barat","SMA","-6.3639000","106.9877000"
"69799885","SMA BINA SPORA MANDIRI","Kp. Pasir Menjul RT 02 RW 01 Desa Pasir Jaya","Prop. Jawa Barat","SMA","-6.7294000","106.7901000"
"20247161","SMAS PESANTREN HUSNAYAIN","JL. JAYANEGARA KABANDUNGAN","Prop. Jawa Barat","SMA","-6.7907000","106.6359000"
"20203734","SMA NEGERI 1 SUKANAGARA","JL. RAYA SUKANAGARA NO.1","Prop. Jawa Barat","SMA","-7.0912000","107.1359000"
"20238028","SMAS DARUL MUTAQIN","JL. WIBAWA MULYA KEC. CIBARUSAH KAB. BEKASI","Prop. Jawa Barat","SMA","-6.4211000","107.1069000"
"20217781","SMAN 1 TELAGASARI","JL. RAYA TELAGASARI TIMUR","Prop. Jawa Barat","SMA","-6.2892000","107.3935000"
"20246334","SMAS AZ ZAINIYYAH","JL. WANASARI SELABINTANA KAB.SUKABUMI","Prop. Jawa Barat","SMA","-6.8947000","106.9369000"
"69899602","SMA IT CILOA LIMBANGAN","Jl. Veteran Kp. Ciloa","Prop. Jawa Barat","SMA","-7.0334000","107.9828000"
"20227884","SMA TUNAS BARU CIPARAY","JL. RAYA LASWI NO.492 CIPARAY","Prop. Jawa Barat","SMA","-7.0351210","107.7090450"
"69939970","SMA PRIMA TELADAN","Jl. Perkebunan Gedeh","Prop. Jawa Barat","SMA","-6.8015000","107.0606000"
"20219771","SMAS NUSANTARA 1","JL. DR. SETIABUDI NO. 234","Prop. Jawa Barat","SMA","-6.8645000","107.5943000"
"20233749","SMAS BUDHI UTOMO KRANGKENG","JL. RAYA KRANGKENG KM 27","Prop. Jawa Barat","SMA","-6.5007000","108.4807000"
"20224108","SMA NEGERI 6 CIMAHI","JL. MELONG RAYA NO. 172 CIJERAH","Prop. Jawa Barat","SMA","-6.9242000","107.5629000"
"69752268","SMAN 2 CIPATUJAH","JL. Raya Pamayangsari","Prop. Jawa Barat","SMA","-7.7702000","108.0966000"
"20218353","SMAN 1 SUKATANI","JL. RAYA SUKATANI KABUPATEN BEKASI","Prop. Jawa Barat","SMA","-6.1540000","107.1713000"
"20228469","SMA NURUZAMAN CILENGKRANG","JL. PASIRANGIN NO. 1 CILENGKRANG","Prop. Jawa Barat","SMA","-6.8931000","107.7235000"
"20229182","SMAS TUBAGUS PANGELING","JL. RAYA TAPOS","Prop. Jawa Barat","SMA","-6.3943000","106.8465000"
"20220316","SMAS PESAT","JL. PORAS NO.7","Prop. Jawa Barat","SMA","-6.5834000","106.7681000"
"20258396","SMAS IT AS-SYIFA BOARDING SCHOOL","JL. RAYA SUBANG-BANDUNG KM 12","Prop. Jawa Barat","SMA","-6.6537000","107.7222000"
"20227842","SMA KP 2 CIPARAY","JL.CIPARAY RANCAKOLE KM 6 CIPARAY","Prop. Jawa Barat","SMA","-7.0693000","107.6945000"
"20244676","SMAS PGRI BABAKAN","JL. PANGERAN SUTAJAYA NO. 24B","Prop. Jawa Barat","SMA","-6.8604000","108.7218000"
"20215975","SMAN 1 KROYA","JL. RAYA RANCAWAS","Prop. Jawa Barat","SMA","-6.4975000","108.0447000"
"20224551","SMAS BPK PENABUR","JL. IBU APIPAH NO.1 TASIKMALAYA","Prop. Jawa Barat","SMA","-7.3583000","108.2172000"
"20254075","SMAS TAMAN HARAPAN 2","JL. BULAK SENTUL NO. 78 HARAPAN JAYA","Prop. Jawa Barat","SMA","-6.2078000","106.9955000"
"69942549","SMA IT BUDJEMAK","Tanjungsiang","Prop. Jawa Barat","SMA","-6.7479000","107.8064000"
"20247163","SMAS PGRI CICURUG","JL. RAYA SILIWANGI CICURUG NO. 30 SUKABUMI","Prop. Jawa Barat","SMA","-6.7973000","106.7760000"
"69899932","SMAS PESANTREN DARUL IKHLAS","Kp. Kongsi","Prop. Jawa Barat","SMA","-6.3718000","107.0932000"
"20227439","SMAS ISLAM PESANTREN GALMASI","JL. NANJUNGJAYA","Prop. Jawa Barat","SMA","-7.0539000","108.0197000"
"20219261","SMAS SEBELAS MARET","JL. DENKI SELATAN V NO. 28","Prop. Jawa Barat","SMA","-6.9465000","107.6114000"
"20216940","SMAN 1 PAMANUKAN","JL. EYANG TIRTAPRAJA NO. 83","Prop. Jawa Barat","SMA","-6.2860000","107.8088000"
"20210743","SMAS KHZ MUSTHAFA SUKAMANAH","JL PAHLAWAN NASIONAL KHZ. MUSTHAFA NO.47","Prop. Jawa Barat","SMA","-7.3780000","108.1365000"
"20202262","SMAN 1 CISOLOK","JL. RAYA CIKELAT KM. 3 CISOLOK","Prop. Jawa Barat","SMA","-6.9414000","106.4797000"
"20238029","SMAS ISLAM YASPIA CIBARUSAH","JL. RAYA SUNAN GUNUNG JATI KP. CIBOGO","Prop. Jawa Barat","SMA","-6.4283000","107.0847000"
"20216201","SMAS NU JUNTINYUAT","JL. KH. HASYIM ASYHARI NO 1/1","Prop. Jawa Barat","SMA","-6.4679000","108.3948000"
"20224112","SMA NEGERI 5 CIMAHI","JL. PACINAN NO. 23 CIMAHI RT.3/4","Prop. Jawa Barat","SMA","-6.8717000","107.5441000"
"20203699","SMAS BPK PENABUR","JL. BARISAN BANTENG NO. 1","Prop. Jawa Barat","SMA","-6.8155000","107.1481000"
"20227855","SMA MAHAWARMAN","JL. RAYA CIKANCUNG 34 CIKANCUNG","Prop. Jawa Barat","SMA","-7.0120000","107.8257000"
"20219246","SMAN 19 BANDUNG","JL. Ir. H. Juanda (Dago Pojok)","Prop. Jawa Barat","SMA","-6.8742000","107.6189000"
"20252882","SMA IT AL-MULTAZAM","JL. DESA MANISKIDUL-JALAKSANA-KUNINGAN","Prop. Jawa Barat","SMA","-6.9100000","108.4834000"
"20238517","SMAN 5 BOGOR","JL. MANUNGGAL NO.22","Prop. Jawa Barat","SMA","-6.5855000","106.7839000"
"20224508","SMA Negeri 4 Tasikmalaya","JL. LETKOL RE. DJAELANI","Prop. Jawa Barat","SMA","-7.3303000","108.2069000"
"20244052","SMAS AL MAGHFIRAH","JL. KP. UTAN SETU TELAJUNG CIKARANG BARAT","Prop. Jawa Barat","SMA","-6.3188000","107.0780000"
"20253894","SMAK GAMALIEL","JL. JEND SUDIRMAN NO. 205-207","Prop. Jawa Barat","SMA","-6.9202000","107.5897000"
"69830402","SMA ISLAM TERPADU AL-FALAH BUNGBULANG","JL. CITALAHAB DESA MEKARJAYA KEC. BUNGBULANG","Prop. Jawa Barat","SMA","-7.4546000","107.5856000"
"20270776","SMAN 2 GUNUNG PUTRI","Jl. Boulevard Utama Kota Wisata Cibubur","Prop. Jawa Barat","SMA","-6.3643000","106.9573000"
"20235618","SMAS DARUL FATWA JATINANGOR","JL. JATIROKE - JATINANGOR - SUMEDANG","Prop. Jawa Barat","SMA","-6.9395000","107.7896000"
"69929051","SMA AL MA MOEN","Jl. Desa Sabandar, No. 57, Kp.Waas, RT.04 RW.13","Prop. Jawa Barat","SMA","-6.8103000","107.1678000"
"20252184","SMAS FAJAR HIDAYAH","JL. TRANSYOGI KM. 6 KEC. GUNUNG PUTRI","Prop. Jawa Barat","SMA","-6.3659000","106.9554000"
"20251778","SMAN 1 PARAKANSALAK","JL. RAYA PARAKANSALAK KAB. SUKABUMI","Prop. Jawa Barat","SMA","-6.8012000","106.7102000"
"20215977","SMAN 1 SUKAGUMIWANG","JL. BY PASS KERTASEMAYA KM.37","Prop. Jawa Barat","SMA","-6.5512000","108.3500000"
"20219723","SMAS BPN","JL.DESA CIPADUNG NO.213","Prop. Jawa Barat","SMA","-6.9187000","107.7174000"
"20215983","SMAN 1 TUKDANA","JL. RAYA KARANGKERTA","Prop. Jawa Barat","SMA","-6.5524000","108.2809000"
"20219765","SMAS PASUNDAN 3 BANDUNG","JL. KEBON JATI NO. 31","Prop. Jawa Barat","SMA","-6.9162000","107.6010000"
"20224506","SMA Negeri 6 Tasikmalaya","JL. CIBUNGKUL","Prop. Jawa Barat","SMA","-7.2729000","108.1880000"
"20244792","SMAS TERPADU RAHMATIKA SAGALAHERANG","JL. RAYA DAYEUH KOLOT SAGALAHERANG","Prop. Jawa Barat","SMA","-6.5562100","107.7596720"
"20213893","SMAN 1 MAJALENGKA","JL. KH. ABDUL HALIM NO. 113","Prop. Jawa Barat","SMA","-6.8334000","108.2163000"
"20237364","SMAS SUNAN GUNUNG JATI","JL. KAMBOJA NO. 10 GURO II","Prop. Jawa Barat","SMA","-6.3059000","107.3100000"
"20212942","SMA PERTIWI CILIMUS","JL. BANDORASAWETAN NO.448","Prop. Jawa Barat","SMA","-6.8880000","108.4932000"
"20238568","SMAN 1 SERANG BARU","PERUMAHAN KOTA SERANG BARU (KSB) BLOK E","Prop. Jawa Barat","SMA","-6.4028000","107.1115000"
"20212938","SMA NEGERI 1 CIGUGUR","JL. SUKAMULYA NO. 12","Prop. Jawa Barat","SMA","-6.9826000","108.4627000"
"69728579","SMAS DAARUL QURAN","KP. KUKUN CIANTRA RT 09/05 DS. CIANTRA","Prop. Jawa Barat","SMA","-6.3585000","107.1021000"
"69786633","SMAS PGRI CIKADU","KP SINGKUP DS SUKAMULYA KEC CIKADU","Prop. Jawa Barat","SMA","-7.3590000","107.0028000"
"20233752","SMAN 1 LOHBENER","JL. RAYA UTARA LOHBENER","Prop. Jawa Barat","SMA","-6.3981000","108.2836000"
"20222363","SMAS WINDU WACANA CIREBON","JL. PANGERAN DRAJAT","Prop. Jawa Barat","SMA","-6.7343000","108.5619000"
"60726806","SMAIT INSANTAMA PLUS","JL. HEGARMANAH IV NO. 47","Prop. Jawa Barat","SMA","-6.5931000","106.7726000"
"20222356","SMAS SANTA MARIA 1 CIREBON","JL. SISIMANGARAJA NO.22","Prop. Jawa Barat","SMA","-6.7373000","108.5747000"
"20219726","SMAS KARTIKA III-3","JL. ACEH NO. 108","Prop. Jawa Barat","SMA","-6.9096000","107.6110000"
"69883254","SMA CAHAYA RANCAMAYA","JL. KP. BOJONG KALER RT 01/04","Prop. Jawa Barat","SMA","-6.6653167","106.8354433"
"20237363","SMAS BUDI MULYA","JL. RAYA TELUKJAMBE - PANGKALAN","Prop. Jawa Barat","SMA","-6.3370000","107.2771000"
"20251780","SMAS ISLAM MUSYAWARAH","JL. BARU AJAK KM. 14,6 LEMBANG","Prop. Jawa Barat","SMA","-6.8196000","107.6158000"
"20238002","SMAS AL MAMUR","JL. HOS COKROAMINOTO NO. 9","Prop. Jawa Barat","SMA","-6.0496000","107.1138000"
"69757497","SMAS AL KAUTSAR","JL.RAMBUTAN RAYA KP.SOMANG RT 02/03","Prop. Jawa Barat","SMA","-6.3613000","106.5626000"
"20253130","SMAS IT AL BINA","JL. RAYA PEBAYURAN KABUPATEN BEKASI","Prop. Jawa Barat","SMA","-6.1372000","107.2596000"
"69765058","SMAS IT AS SHOF","JL. RAYA KALIMULYA RT 01/05 KB. DUREN","Prop. Jawa Barat","SMA","-6.4436900","106.8228083"
"20212955","SMA NEGERI 3 KUNINGAN","JL. SILIWANGI NO.13","Prop. Jawa Barat","SMA","-6.9767000","108.4839000"
"20213873","SMAN 1 CIKIJING","JL DEWI SARTIKA NO. 07 CIKIJING","Prop. Jawa Barat","SMA","-7.0156000","108.3644000"
"20219785","SMAS NUSANTARA","JL.KOPO NO.322","Prop. Jawa Barat","SMA","-6.9419000","107.5920000"
"69954465","SMA AL-KAUTSAR","Kp. Tataru","Prop. Jawa Barat","SMA","-7.3183730","108.0024030"
"69757511","SMAS NU TENAJAR KIDUL","JL. RAYA TENAJAR KIDUL RT 25 RW 05","Prop. Jawa Barat","SMA","-6.5165000","108.3515000"
"20223054","SMAS GALATIA","JL. BOULEVARD HIJAU BLOK A 1 KEL. PEJUANG","Prop. Jawa Barat","SMA","-6.1929000","106.9960000"
"20227468","SMAN 10 GARUT","JL. RAYA LEUWIGOONG NO. 21","Prop. Jawa Barat","SMA","-7.1112000","107.9517000"
"20232338","SMAS IBNU AQIL","JL. RAYA LALADON NO. 256 RT. 001 RW. 07","Prop. Jawa Barat","SMA","-6.5791000","106.7546000"
"20219791","SMAS YAHYA","JL. RE. MARTADINATA NO. 71A","Prop. Jawa Barat","SMA","-6.9054000","107.6184000"
"20238019","SMAS ISLAM NUR EL GHAZY","JL. SIMPANG TIGA SETU NO. 18 TAMBUN SELATAN","Prop. Jawa Barat","SMA","-6.2709000","107.0756000"
"20227914","SMA CENDIKIA INFORMATIKA","JL. RAYA LASWI KM. 4 CIPARAY","Prop. Jawa Barat","SMA","-7.0223000","107.6870000"
"20224545","SMAS PERWARI TASIKMALAYA","JL. SKP NO. 7 SUKASARI LENGKONGSARI TAWANG KOTA TASIKMALAYA KODE POS 46111","Prop. Jawa Barat","SMA","-7.3272000","108.2319000"
"20279931","SMAS AL-IRSYAD SATYA ","Jl. Raya Parahyangan KM 2,7 Kota Baru Parahyangan","Prop. Jawa Barat","SMA","-6.8642000","107.4772000"
"20203700","SMAS COKROAMINOTO CIANJUR","JL. IR. H. JUANDA NO. 1300","Prop. Jawa Barat","SMA","-6.8181000","107.1370000"
"20251786","SMAS PGRI LEMBANG","JL. BARU LAKSANA NO. 65 LEMBANG","Prop. Jawa Barat","SMA","-6.8081000","107.6243000"
"20200603","SMAN 1 CITEUREUP","JL. RAYA TAJUR DESA TARIKOLOT","Prop. Jawa Barat","SMA","-6.5048000","106.8882000"
"69939969","SMA IT ADZIKRI NURUL HUDA","Kp. Pangkalan Ds. Girijaya","Prop. Jawa Barat","SMA","-7.2166900","107.2173922"
"20237386","SMAN 5 KARAWANG","JL. Jend. A. Yani No. 10","Prop. Jawa Barat","SMA","-6.3039000","107.3067000"
"20252855","SMAS ISLAM AS SYAFIIYAH","JL. SUKA BUMI CIANJUR KM.10 PO.BOX 87 SUKABUMI","Prop. Jawa Barat","SMA","-6.9097000","107.0020000"
"20233651","SMAS MUHAMMADIYAH SUBANG","JL. KERTAWIGENDA NO. 27 SUBANG","Prop. Jawa Barat","SMA","-6.5596000","107.7592000"
"20206210","SMAN 1 MAJALAYA","JL. Panyadap No 2","Prop. Jawa Barat","SMA","-7.0299630","107.7698910"
"20227849","SMA KP CIWIDEY PASIRJAMBU","JL.RAYA SUKA RASA NO. 160 PASIRJAMBU","Prop. Jawa Barat","SMA","-7.0950000","107.4745000"
"20235624","SMAN TOMO","JL. RD ALI SADIKIN","Prop. Jawa Barat","SMA","-6.7637000","108.1259000"
"20229186","SMAS YASPEN TUGU IBU","JL. SENTOSA RAYA NO. 2","Prop. Jawa Barat","SMA","-6.4090000","106.8891000"
"20215980","SMAN 1 INDRAMAYU","JL. SOEKARNO-HATTA NO.2","Prop. Jawa Barat","SMA","-6.3531000","108.3234000"
"20206133","SMA PGRI RANCAEKEK","JL. RAYA BOJONGLOA RANCAEKEK","Prop. Jawa Barat","SMA","-6.9536000","107.7658000"
"20206146","SMAN 1 CILILIN","JL. RADIO CILILIN","Prop. Jawa Barat","SMA","-6.9870000","107.4489000"
"69904549","SMAN 1 CIBUAYA","Jln. Raya Cibuaya","Prop. Jawa Barat","SMA","-6.0233000","107.3920000"
"69950277","SMA IT MEKARJAYA","Kp. Lebaksueti RT 01 RW 02","Prop. Jawa Barat","SMA","-7.2459490","107.7876108"
"20214970","SMAN 1 ASTANAJAPURA","Jl. KH. A. Wakhid Hasyim No. 97 Kanci Kec. Astanajapura Kab. Cirebon","Prop. Jawa Barat","SMA","-6.7882000","108.6181000"
"20219280","SMAS PUTRA PAJAJARAN","JL. PAJAJARAN BLK NO. 37","Prop. Jawa Barat","SMA","-6.9072000","107.6024000"
"20220317","SMAS PGRI 1","JL. BINA MARGA 1/17","Prop. Jawa Barat","SMA","-6.6020783","106.8117483"
"20219268","SMAS TAMAN SISWA BANDUNG","TAMAN SISWA NO. 4","Prop. Jawa Barat","SMA","-6.9286000","107.6205000"
"20217408","SMAN 1 DARANGDAN","JL. RAYA  SAWIT BOJONG  KM. 1 DARANGDAN","Prop. Jawa Barat","SMA","-6.6985000","107.4473000"
"20269278","SMAS YABAFA PAKENJENG","JL. CIKONENG HILIR","Prop. Jawa Barat","SMA","-7.4888570","107.6709990"
"20227867","SMAS MUSLIMIN SINDANGKERTA","KP. SINDANGKERTA KEC. SINDANGKERTA","Prop. Jawa Barat","SMA","-6.9961000","107.4057000"
"20223028","SMAS TAMAN SISWA BEKASI","JL. SELECTA RAYA NO. 2 BLOK 6 PERUM BUMI BEKASI BARU","Prop. Jawa Barat","SMA","-6.2666000","106.9225000"
"20229515","SMAS MIFTAHUL ULUM","Kp. Cicadas RT 20 RW 07","Prop. Jawa Barat","SMA","-7.3886000","108.2973000"
"20237389","SMAS PGRI CIKAMPEK","JL. IR. H. JUANDA","Prop. Jawa Barat","SMA","-6.4002000","107.4646000"
"20219780","SMAS PGRI 1 BANDUNG","JL. SUKAGALIH NO. 80","Prop. Jawa Barat","SMA","-6.8930000","107.5889000"
"20231277","SMAS BINA BANGSA MANDIRI","Jl. Letda Natsir No.28 Cikeas Udik, Gunungputri-Kabupaten Bogor","Prop. Jawa Barat","SMA","-6.4212000","106.9427000"
"20203741","SMA NEGERI  1 CIBINONG","JL. RAYA CIBINONG KM. 90","Prop. Jawa Barat","SMA","-7.2391000","106.9872000"
"20237362","SMAS BHINNEKA KARAWANG","JL. KERTABUMI","Prop. Jawa Barat","SMA","-6.3046000","107.2926000"
"20219774","SMAS PASUNDAN 8 BANDUNG","JL. CIHAMPELAS NO. 167","Prop. Jawa Barat","SMA","-6.8908000","107.6040000"
"20223077","SMAS MALIDAR","JL. BALAI DESA NO.2 JATIRASA","Prop. Jawa Barat","SMA","-6.2584000","106.9910000"
"20215987","SMAS PUI JATIBARANG","JL. BY. PASS NO. 19","Prop. Jawa Barat","SMA","-6.4819000","108.3075000"
"20219312","SMAN 4 BANDUNG","JL. GARDUJATI NO. 20","Prop. Jawa Barat","SMA","-6.9194000","107.5983000"
"20238020","SMAS ISLAM PB SOEDIRMAN 2 BEKASI","JL.ENAU RAYA PERUMAHAN PURI HARAPAN","Prop. Jawa Barat","SMA","-6.1693510","106.9999830"
"20227857","SMA MARDIKA PASEH","JL.KADATUAN NO.51 MEKARPAWITAN PASEH","Prop. Jawa Barat","SMA","-7.0498000","107.7643000"
"69774834","SMAS Man Ana","Kp. Susukan Desa Gunung Picung Rt. 02 Rw. 02","Prop. Jawa Barat","SMA","-6.6529000","106.6665000"
"20219277","SMAS YAS BANDUNG","JL. PHH. HASAN MUSTAPA NO. 115","Prop. Jawa Barat","SMA","-6.9010000","107.6472000"
"20223046","SMAN 3 BEKASI","JL. PULO SIRIH RAYA NO. 1 GALAXY INDAH","Prop. Jawa Barat","SMA","-6.2664000","106.9752000"
"69941916","SMA MUHAMMADIYAH 1 TALEGONG","Kp. Datar Kibawang RT 03 TW 03","Prop. Jawa Barat","SMA","-7.2779468","107.5312309"
"20203723","SMAN 2 CIANJUR","JL. Pangeran Hidayatullah No.121","Prop. Jawa Barat","SMA","-6.8242000","107.1226000"
"20218354","SMAN 1 PEBAYURAN","JL. RAYA PEBAYURAN KABUPATEN BEKASI","Prop. Jawa Barat","SMA","-6.1610000","107.2491000"
"20235623","SMAN DARMARAJA","JL. CIKONDANG NO. 90 DARMARAJA SUMEDANG","Prop. Jawa Barat","SMA","-6.8940000","108.0551000"
"20203701","SMAS AL IANAH CIANJUR","JL. NYI. RADEN SITI BUDEDAR NO. 24","Prop. Jawa Barat","SMA","-6.8399000","107.1395000"
"20254122","SMAS PUSPA MEKAR","KP. NYANGKOKOT RT.04 RW.05","Prop. Jawa Barat","SMA","-6.5018000","106.9016000"
"20252464","SMAS AR RISSALAH","JL RAYA BANJAR KM 3.5 PAMALAYAN","Prop. Jawa Barat","SMA","-7.1977000","108.5032000"
"20227851","SMA KP MARGAHAYU","JL. TERUSAN KOPO NO.399 A MARGAHAYU","Prop. Jawa Barat","SMA","-6.9766630","107.5667110"
"20219269","SMAS TARUNA BAKTI","JL. RE. MARTADINATA","Prop. Jawa Barat","SMA","-6.9062000","107.6187000"
"20210748","SMAS AL HIDAYAH PUSPAHIANG","JL. CICANIR","Prop. Jawa Barat","SMA","-7.4183000","108.0772000"
"20223060","SMAS AL MUHADJIRIN","JL. P. JAWA RAYA PERUM 3","Prop. Jawa Barat","SMA","-6.2972000","106.9322000"
"20224114","SMA NEGERI 3 CIMAHI","JL. PESANTREN NO. 161","Prop. Jawa Barat","SMA","-6.8740000","107.5599000"
"20223025","SMAS TULUS BHAKTI","JL. SWANTANTRA 2 NO.7","Prop. Jawa Barat","SMA","-6.3103000","106.9754000"
"20233652","SMAN 1 BLANAKAN","JL. RAYA BLANAKAN 1.5","Prop. Jawa Barat","SMA","-6.2833000","107.6685000"
"20213887","SMAN 1 BANTARUJEG","Jl. Siliwangi No. 119 Bantarujeg","Prop. Jawa Barat","SMA","-6.9742000","108.2383000"
"20203703","SMAS KARYA BAKTI","JL. RAYA TOL CITARUM","Prop. Jawa Barat","SMA","-6.8559000","107.3223000"
"20219718","SMAS GUNA DHARMA","JL. A.H. Nasution KM 11,70","Prop. Jawa Barat","SMA","-6.9183000","107.7065000"
"69957429","SMAN 1 PAGELARAN","Jl. Raya Pagelaran Kp. Cibeureum Rt/Rw 06/07","Prop. Jawa Barat","SMA","-7.1895000","107.1465000"
"20216203","SMAS MUHAMMADIYAH KARANGAMPEL","JL. DAMPUAWANG NO. 01","Prop. Jawa Barat","SMA","-6.4641000","108.4525000"
"20217787","SMAN 1 KLARI","JL. KOSAMBI - KLARI","Prop. Jawa Barat","SMA","-6.3602510","107.3779530"
"20246722","SMAS ANWARUL HIDAYAH","JL. BUGIS SELATAN PAKISJAYA","Prop. Jawa Barat","SMA","-6.0024000","107.1084000"
"69753909","SMAN 29 GARUT","JLN. LINTAS SELATAN DS. JAGABAYA  KEC. MEKARMUKTI- GARUT","Prop. Jawa Barat","SMA","-7.4713000","107.4660000"
"20253251","SMAS BHAKTI NEGARA KAB BEKASI","JL. RAYA RENGAS BANDUNG DS. TANJUNG BARU BEKASI","Prop. Jawa Barat","SMA","-6.2670000","107.2212000"
"20214975","SMAS SUNAN GUNUNG JATI TENGAHTANI","JL. DESA BATEMBAT TENGAHTANI","Prop. Jawa Barat","SMA","-6.7061000","108.5190000"
"20220350","SMAS YZA 1 BOGOR TIMUR","JL. RAYA CIAWI KM.09","Prop. Jawa Barat","SMA","-6.6514150","106.8455060"
"69935558","SMA TEMASEK INDEPENDENT SCHOOL","Jl. Sindang Sirna No. 8","Prop. Jawa Barat","SMA","-6.8771790","107.5941190"
"20203744","SMA NEGERI 1 PACET","JL. HANJAWAR PACET SUKANAGALIH","Prop. Jawa Barat","SMA","-6.7014000","107.0527000"
"20227441","SMAS MUHAMMADIYAH 1 GARUT","JL. BRATAYUDHA NO. 39","Prop. Jawa Barat","SMA","-7.2179430","107.9097800"
"69820147","SMAIT ALMARJAN","Jl. Perintis 1 Depan Blok H7 Duta Indah","Prop. Jawa Barat","SMA","-6.2810000","106.9399000"
"20231343","SMAS PELITA HARAPAN","JL. BABAKAN MADANG BUKIT SENTUL","Prop. Jawa Barat","SMA","-6.6195000","106.7742000"
"20254167","SMAN 2 MAJALAYA","JL. RAYA WANGISAGARA MAJALAYA","Prop. Jawa Barat","SMA","-7.0785000","107.7366000"
"20251792","SMAN 1 CICALENGKA","JL. HAJI. DARHAM NO. 42 CICALENGKA","Prop. Jawa Barat","SMA","-6.9838000","107.8420000"
"20216211","SMAS DARUL FIKRI BUGIS","JL. KH. MACHFUDZ BUGIS","Prop. Jawa Barat","SMA","-6.3900000","107.9194000"
"60728545","SMA K 3 BINA BAKTI","KOMP. INDUSTRI NO. 5 TKI I","Prop. Jawa Barat","SMA","-6.9658960","107.5737460"
"20206227","SMAN 1 CISARUA","JL. KOLONEL MASTURI NO. 64 CISARUA","Prop. Jawa Barat","SMA","-6.8172930","107.5489950"
"20220348","SMAS TARUNA ANDHIGA","JL. VETERAN NO.46","Prop. Jawa Barat","SMA","-6.5947000","106.7855000"
"20253093","SMAS SAINT ENOCH","PERUM CITRA INDAH JONGGOL","Prop. Jawa Barat","SMA","-6.4446000","107.0407000"
"20212954","SMA NEGERI 1 CIBINGBIN","JL. SUKAMAJU NO. 34A","Prop. Jawa Barat","SMA","-7.0558000","108.7502000"
"20216945","SMAN 1 CIASEM","JL. MARGASARI 2 SUKAMANDI CIASEM","Prop. Jawa Barat","SMA","-6.3433000","107.6565000"
"20209236","SMAN 13 GARUT","JL. RAYA SELAAWI - BL. LIMBANGAN","Prop. Jawa Barat","SMA","-6.9967000","107.9467000"
"20253120","SMAS MUHAMMADIYAH PURASEDA","JL. RAYA PURASEDA LEUWILIANG","Prop. Jawa Barat","SMA","-6.6512000","106.6262000"
"20219757","SMAS AL HADI","JL. A .YANI KM. 7","Prop. Jawa Barat","SMA","-6.9037000","107.6674000"
"20227904","SMAN 1 CIKANCUNG","JL.JAYA DIKARTA NO.57","Prop. Jawa Barat","SMA","-7.0260740","107.8155240"
"20233658","SMAS PGRI 1 SUBANG","JL. OTO ISKANDARDINATA NO. 83","Prop. Jawa Barat","SMA","-6.5632000","107.7672000"
"69897019","SMA SABILUL HUDA","Kp Baru Sindangsari RT 01 RW 01","Prop. Jawa Barat","SMA","-7.3648900","108.1192830"
"20237377","SMAN 1 PANGKALAN","JL. PANGKALAN LOJI","Prop. Jawa Barat","SMA","-6.4955000","107.2184000"
"20238515","SMAS ISLAM AL UMM","UJUNG TOL CIAWI KP. WANGUN TENGAH","Prop. Jawa Barat","SMA","-6.6485883","106.8464733"
"20227434","SMAS AR RAHMAN KADUNGORA","JL. RAYA KADUNGORA KM 16","Prop. Jawa Barat","SMA","-7.0924000","107.8989000"
"20227841","SMAS ISLAM NURUL HUDA LEMBANG","KP. NYALINDUNG RT. 4 RW. 8 DS. CIKOLE LEMBANG","Prop. Jawa Barat","SMA","-6.7937000","107.6485000"
"20274847","SMAS CAHAYA BANGSA CLASSICAL SCHOOL","JL. BUJANGGA MANIK KAV.1 KOTA BARU PARAHYANGAN","Prop. Jawa Barat","SMA","-6.8691000","107.4679000"
"20253982","SMAS PGRI CIBADAK","JL. PERINTIS KEMERDEKAAN 315 CIBADAK","Prop. Jawa Barat","SMA","-6.9153000","106.7821000"
"69950694","SMA SANTA LUSIA BEKASI","JL. NEMAN JAYA KAV.18 RT 006/018","Prop. Jawa Barat","SMA","-6.2868579","106.9998872"
"20208420","SMAN 2 SUMEDANG","JL. TERUSAN 11 APRIL KM 3 RANCAMULYA - SUMEDANG UTARA - SUMEDANG","Prop. Jawa Barat","SMA","-6.8485000","107.9466000"
"20227886","SMA YAPI AL-HUSAENI","Kp. Lebakbiru RT 04 RW 11","Prop. Jawa Barat","SMA","-7.0260000","107.6812000"
"69888445","SMA PLUS KEMBANG KUNING","Kampung Kembang Kuning RT 03/06","Prop. Jawa Barat","SMA","-7.3386910","106.4790280"
"20237994","SMAN 2 SUKATANI","Jl. Raya Sasak Bali Kp. Kobak Baya RT 01/06 Sukamanah-Sukatani-Bekasi","Prop. Jawa Barat","SMA","-6.1947000","107.1732000"
"20217764","SMAN 3 KARAWANG","Jl. Banten By Pass","Prop. Jawa Barat","SMA","-6.2677000","107.3144000"
"20229167","SMAN 5 KOTA DEPOK","JL. PERUM BUKIT RIVARIA SWG","Prop. Jawa Barat","SMA","-6.4094000","106.7598000"
"20258140","SMAN 1 SINDANGWANGI","JL. Raya Jerukleueut Sindangwangi","Prop. Jawa Barat","SMA","-6.7778000","108.3828000"
"20255782","SMAS YADIKA KALIJATI","JL.. RAYA PURWADADI","Prop. Jawa Barat","SMA","-6.5151000","107.6744000"
"20213891","SMAN 1 TALAGA","JL. GANEAS NO.05 TALAGA","Prop. Jawa Barat","SMA","-6.9851000","108.3186000"
"20200691","SMAN 2 CIBINONG","JL. KARADENAN NO. 5","Prop. Jawa Barat","SMA","-6.5228617","106.8078650"
"20227903","SMAN 1 BOJONGSOANG","JL. SAPAN GUDANG","Prop. Jawa Barat","SMA","-6.9811410","107.6852110"
"20270484","SMAS MODERN RIYADHUL JALANCAGAK","JL. RAYA PRAPATAN BANDUNG","Prop. Jawa Barat","SMA","-6.6762000","107.6833000"
"20221561","SMAN 3 SUKABUMI","Jalan Ciaul Baru No.21","Prop. Jawa Barat","SMA","-6.9206000","106.9445000"
"69900219","SMA IT AL-HUDA","Kp. Pasir Asem Rt/Rw 05/02","Prop. Jawa Barat","SMA","-6.8009000","107.2652000"
"20223020","SMAN 1 BEKASI","JL. KH. AGUS SALIM NO. 181","Prop. Jawa Barat","SMA","-6.2280000","107.0113000"
"20227869","SMAN 1 CIPONGKOR","JL. PLTA SAGULING DS. SARINAGEN KEC. CIPONGKOR","Prop. Jawa Barat","SMA","-6.9100000","107.3681000"
"20247287","SMAS BAITURRAHMAN","JL. PROF. KHM. SYADELI HASAN NO. 44","Prop. Jawa Barat","SMA","-6.9086000","107.7060000"
"20231719","SMAN 13 BEKASI","JL. PARIWISATA PERUM. BUMI BEKASI BARU UTARA","Prop. Jawa Barat","SMA","-6.2599000","107.0202000"
"60726379","SMAS BINA PERSADA","JALAN PALABUHAN II KM. 12 PANGLESERAN","Prop. Jawa Barat","SMA","-6.9734037","106.8494263"
"20215978","SMAN 1 KANDANGHAUR","JL. RAYA KANDANGHAUR","Prop. Jawa Barat","SMA","-6.3610000","108.1128000"
"20212960","SMA NEGERI 1 LEBAKWANGI","JL. RAYA CINAGARA","Prop. Jawa Barat","SMA","-7.0276000","108.5858000"
"69949062","SMA IT TALEGONG","Kp. Pasir Angin RT 01 RW 01","Prop. Jawa Barat","SMA","-7.2800000","107.5488000"
"20214998","SMAS PGRI KLANGENAN","JL. RAYA KLANGENAN","Prop. Jawa Barat","SMA","-6.7102000","108.4401000"
"69952197","SMA NEGERI 20 KOTA BEKASI","JL. CEMARA PERMAI PERUMAHAN HARAPAN JAYA","Prop. Jawa Barat","SMA","-6.2138000","106.9833000"
"20214992","SMAN 1 PABEDILAN","JL. MAYJEND SUTOYO NO. 1","Prop. Jawa Barat","SMA","-6.8399000","108.7509000"
"20219730","SMAS BPK 1 PENABUR BANDUNG","Jalan Dursasana 2-6","Prop. Jawa Barat","SMA","-6.9058000","107.6054000"
"20219782","SMA PGII 1","Jl. Panatayuda No. 2","Prop. Jawa Barat","SMA","-6.8980000","107.6168000"
"69888854","SMA NEGERI 1 LELEA","Jl. Raya Utara Larangan - Tugu","Prop. Jawa Barat","SMA","-6.5042800","108.2221240"
"","Bandung Alliance International School","Jl. Bujanggamanik Kav.2","Prop. Jawa Barat","SMA","-6.8683000","107.4670000"
"20227446","SMAS MAARIF NURUL HIDAYAH CIKELET","JL. LINGGAMANIK KM. 5 DS.PAMALAYAN CIKELET","Prop. Jawa Barat","SMA","-7.6273000","107.7094000"
"20206168","SMAS BINA PUTRA INDONESIA","JL. RAYA PURWAKARTA 169 KM. 3 PADALARANG","Prop. Jawa Barat","SMA","-6.8184000","107.5026000"
"69899623","SMA Pesantren Gedongan","Pondok Pesantren Gedongan","Prop. Jawa Barat","SMA","-6.8302000","108.6952000"
"20215974","SMAN 1 LOSARANG","JL. RAYA LOSARANG","Prop. Jawa Barat","SMA","-6.3891000","108.1450000"
"20227818","SMA AMS PAMEUNGPEUK","JL. RAYA BANJARAN KM 14 PAMEUNGPEUK","Prop. Jawa Barat","SMA","-7.0196110","107.5959390"
"20275996","SMAS PLUS MARGAWATI GARUT KOTA","JL. MARGAWATI KP. PUENDEUY RT 03 RW 18 GARUT KOTA","Prop. Jawa Barat","SMA","-7.2640180","107.9444320"
"20219775","SMAS PLUS MUTHAHHARI","JL. KAMPUS 2 NO. 13-20","Prop. Jawa Barat","SMA","-6.9163000","107.6550000"
"20227432","SMAS AL FATAH LIMBANGAN","JL. RAYA LIMBANGAN-LEUWIGOONG KM, 0.60","Prop. Jawa Barat","SMA","-7.0568000","107.9560000"
"20246430","SMAS ISLAM DIAN DIDAKTIKA","Jl. RAJAWALI BLOK F NO 10","Prop. Jawa Barat","SMA","-6.3542000","106.7748000"
"20227465","SMAN 12 GARUT","Jl Raya Cisewu No. 35 Cisewu Garut 44166","Prop. Jawa Barat","SMA","-7.3680650","107.5429390"
"20265284","SMAS YOS SUDARSO","JL. BELAKANG PASAR NO. 14","Prop. Jawa Barat","SMA","-6.3089000","107.2939000"
"20227910","SMAN 2 PADALARANG","JL. LETKOL GA MANULANG NO.165 PURABAYA JAYA MEKAR","Prop. Jawa Barat","SMA","-6.8552000","107.4755000"
"20216175","SMAS PGRI 2 SINDANG","JL. MT. HARYONO","Prop. Jawa Barat","SMA","-6.3337000","108.2888000"
"20223074","SMAS MARTIA BHAKTI","JL. JEND. SUDIRMAN KM. 32","Prop. Jawa Barat","SMA","-6.2406000","106.9923000"
"69954894","SMA NEGERI 1 LEUWISADENG","Kp Kali Pasir","Prop. Jawa Barat","SMA","-6.5911730","106.5856630"
"20231356","SMAS SMART EKSELENSIA INDONESIA","JL. PARUNG BOGOR DS. JAMPANG","Prop. Jawa Barat","SMA","-6.4691000","106.7279000"
"20271152","SMAS IT AT-TAISIRIYAH","Kp. Nenggeng RT 02 RW 09","Prop. Jawa Barat","SMA","-6.8743000","106.8342000"
"20222366","SMAN 3 CIREBON","JL. CIREMAI RAYA NO. 63","Prop. Jawa Barat","SMA","-6.7495000","108.5609000"
"20253236","SMAS UNGGULAN DAIAN NUR","JL. KARINI NO. 1","Prop. Jawa Barat","SMA","-6.3967000","108.1562000"
"20200688","SMAS HARAPAN BANGSA","JL. MAYJEN HE SUKMA NO. 40 CIBANDAWA DS. CIBURUY","Prop. Jawa Barat","SMA","-6.7359000","106.8186000"
"20231304","SMAS ISLAM PAMBUDI LUHUR","JL. GUNUNG SALAK ENDAH DESA CIBENING PAMIJAHAN","Prop. Jawa Barat","SMA","-6.6383000","106.6797000"
"20210747","SMAS AL MUCHTAR SINGAPARNA","KP. SINGARANI DS. CIKADONGDONG SINGAPARNA KAB.TASIKMALAYA","Prop. Jawa Barat","SMA","-7.3414000","108.1426000"
"20251963","SMAS IT AL-HIDAYAH JALAN CAGAK","JL. DESA SANCA KEC. CIATER","Prop. Jawa Barat","SMA","-6.7094000","107.7074000"
"20232306","SMAS AL HIDAYAH","JL. TEGAR BERIMAN NO. 8 KEL. TENGAH","Prop. Jawa Barat","SMA","-6.4850800","106.8240583"
"20220335","SMAN 6 BOGOR","JL. WALET NO 13","Prop. Jawa Barat","SMA","-6.5719000","106.7988000"
"20218351","SMAN 1 TAMBUN SELATAN","JL. KEBON KELAPA NO 02 TAMBUN SELATAN","Prop. Jawa Barat","SMA","-6.2715000","107.0661000"
"20223064","SMAS KORPRI","JL. RUMAH SAKIT MEKAR SARI BEKASI","Prop. Jawa Barat","SMA","-6.2322000","107.0119000"
"20227902","SMAN 1 BATUJAJAR","JL. RAYA SELACAU BATUJAJAR","Prop. Jawa Barat","SMA","-6.9296000","107.5050000"
"69774554","SMAS GLOBAL PERSADA MANDIRI","KOMPLEK GPM SCHOOL, JL MEKAR SARI NO 5","Prop. Jawa Barat","SMA","-6.2244000","107.0176000"
"20237993","SMAN 1 TAMBELANG","Jl. Bulak Sepat Indah (BSI), 001/06 Sukarapih Kec. Tambelang - Bekasi 17620","Prop. Jawa Barat","SMA","-6.1852000","107.1223000"
"20222360","SMAS SYARIF HIDAYATULLAH CIREBON","JL. LANGENSARI NO.11","Prop. Jawa Barat","SMA","-6.7371000","108.5514000"
"20224512","SMAS TERPADU RIYADLUL ULUM","KOMPLEK PESANTREN CONDONG-CIBEUREM","Prop. Jawa Barat","SMA","-7.3459000","108.2605000"
"20200676","SMAN 1 CIAMPEA","JL. RAYA CIBADAK KM. 15  DESA CIBADAK","Prop. Jawa Barat","SMA","-6.5561000","106.6899000"
"20211562","SMAS PLUS MULTAZAM","Jalan Pesantren Sindangsari Dusun Sindang RT 006 RW 002","Prop. Jawa Barat","SMA","-7.5216000","108.5026000"
"20202264","SMAN 1 JAMPANGTENGAH","JL. PANUMBANGAN KM. 2 JAMPANG TENGAH","Prop. Jawa Barat","SMA","-7.0630000","106.8127000"
"20237387","SMAS ISLAM NURUSSALAM","Jl.Raya Medang Asem","Prop. Jawa Barat","SMA","-6.1088000","107.2721000"
"20269741","SMAS AL ICHWAN","JL. RAYA SIMPANG TIGA CIKARANG","Prop. Jawa Barat","SMA","-6.2866000","107.1550000"
"69943680","SMA AL KAMIL ISLAMIC BOARDING SCHOOL","Jl. Raya Bandung Cianjur No. 53","Prop. Jawa Barat","SMA","-6.8141000","107.2382000"
"20231722","SMAS PAX PATRIAE","JL. GARDENIA BLOK BA 2 NO. 41 PERUM. VILLA GALAXY","Prop. Jawa Barat","SMA","-6.2668000","106.9923000"
"20216198","SMAS NU WIDASARI","JL. RAYA KONGSIJAYA NO. 49","Prop. Jawa Barat","SMA","-6.4702000","108.2819000"
"20247171","SMAS UNWANUL FALAH","JL. KH. SAMSURI NO. 32 CIBADAK","Prop. Jawa Barat","SMA","-6.8914000","106.7746000"
"20247159","SMAS KHARISMA 39","JL. RAYA SILIWANGI NO. 39 CICURUG","Prop. Jawa Barat","SMA","-6.8032000","106.7731000"
"20240399","SMA IT DIPATIUKUR","JL. LOA SASAK DESA MEKARSARI CIPARAY","Prop. Jawa Barat","SMA","-7.0302000","107.7394000"
"20203736","SMAS PGRI CIRANJANG","JL. JATI SINDANGRERET","Prop. Jawa Barat","SMA","-6.8219000","107.2465000"
"20214980","SMAN 1 GEGESIK","JL. NAKULA SADEWA","Prop. Jawa Barat","SMA","-6.5991000","108.4194000"
"20224505","SMA Negeri 7 Tasikmalaya","JL. AIR TANJUNG NO. 25","Prop. Jawa Barat","SMA","-7.3900000","108.2041000"
"20229170","SMAS PEMUKA","ANGIN MAMIRI RAYA NO.1","Prop. Jawa Barat","SMA","-6.3934000","106.8360000"
"20219760","SMAS ADVENT CIMINDI BANDUNG","JL. RAYA CIMINDI NO. 74","Prop. Jawa Barat","SMA","-6.9068000","107.5704000"
"69896046","SMA SITI AISYAH KADUNGORA","Jln. Raya Rancasalak No. 147","Prop. Jawa Barat","SMA","-7.0847000","107.8780000"
"20227854","SMAS LEPPESA CILILIN","JL. BOBOJONG MUKAPAYUNG CILILIN","Prop. Jawa Barat","SMA","-6.9952000","107.4725000"
"20270922","SMAS BHAKTI INSAN PERSADA","JL.PEMUDA DRAMAGA","Prop. Jawa Barat","SMA","-6.6188000","106.8106000"
"20227473","SMAN 14 GARUT","JL. LAPANG TRIKARYA","Prop. Jawa Barat","SMA","-7.1556000","108.0108000"
"20203735","SMAS PGRI CIPANAS","JL. MARIAWATI 0 - 11","Prop. Jawa Barat","SMA","-6.7306000","107.0423000"
"20246452","SMAS ISLAM AL-KAMAL","KP. KANANYAKAN RT 09/05","Prop. Jawa Barat","SMA","-6.4411000","107.1624000"
"69861171","SMA ISLAM AL MADINAH MALATI","Jl.MALATI INDAH RT 02 RW 08 SINGASARI JONGGOL","Prop. Jawa Barat","SMA","-6.4869410","106.9948700"
"20232366","SMAS MUHAMMADIYAH PARUNG","Jln. Ciseeng Gn. Kapur RT 14/04","Prop. Jawa Barat","SMA","-6.4351000","106.6969000"
"20227464","SMAN 8 GARUT","JL. RAYA GARUT - TASIKMALAYA KM. 6,5","Prop. Jawa Barat","SMA","-7.2896000","107.8909000"
"20220337","SMAN 8 BOGOR","JL. BTN CIPARIGI NO. 60","Prop. Jawa Barat","SMA","-6.5448000","106.8200000"
"69919741","SMA BIP MALANGBONG","Jl. Barudua RT 01/01","Prop. Jawa Barat","SMA","-7.1001000","108.0846000"
"20233648","SMAS LANG-LANG BUANA","JL. BAGUS YABIN NO. 7 KOPTI RAYA SUBANG","Prop. Jawa Barat","SMA","-6.5539000","107.7608000"
"20219260","SMAS SUMATERA 40-2 BANDUNG","JL. PAHLAWAN NO. 71","Prop. Jawa Barat","SMA","-6.9001000","107.6340000"
"20218365","SMAN 1 TARUMAJAYA","Kp Tambun Baru","Prop. Jawa Barat","SMA","-6.1402000","107.0062000"
"20232356","SMAS DARUL KHOLIDIN","KAMPUNG SASAK DS. TEGAL KEC. KEMANG","Prop. Jawa Barat","SMA","-6.4734000","106.6987000"
"20209187","SMAS YASTIC KARANGTENGAH","JL. KARANGTENGAH NO. 69","Prop. Jawa Barat","SMA","-7.0959000","108.0235000"
"20222149","SMAN 7 CIREBON","JL. PERJUANGAN","Prop. Jawa Barat","SMA","-6.7537000","108.5323000"
"69896859","SMA TRI DARMA NUSANTARA","Kp.Gunung Batu RT.02 RW.01","Prop. Jawa Barat","SMA","-7.4211180","107.2455960"
"20231727","SMAS YADIKA 4","JL. WADAS RAYA UJUNG NO.38 PONDOKGEDE","Prop. Jawa Barat","SMA","-6.2685000","106.9168000"
"20221563","SMAN 5 SUKABUMI","JL. SARASA BLOK LOASARI NO.1 SUKABUMI","Prop. Jawa Barat","SMA","-6.9532000","106.9317000"
"20219274","SMAS YPI","Jalan Muhammad No. 17","Prop. Jawa Barat","SMA","-6.9016000","107.5953000"
"20210744","SMAS YAPPAS AL BAROKAH","JL. RANCAPAKU","Prop. Jawa Barat","SMA","-7.3224000","108.1405000"
"20228442","SMA KP BALEENDAH","JL.ADIPATI AGUNG NO.32 BALEENDAH","Prop. Jawa Barat","SMA","-7.0020000","107.6227000"
"20200903","SMAN 1 RUMPIN","JL. Prada Abdullah","Prop. Jawa Barat","SMA","-6.5501000","106.5344000"
"20208424","SMAS PASUNDAN TANJUNGSARI","JL. RAYA TANJUNGSARI NO. 402","Prop. Jawa Barat","SMA","-6.8968000","107.8099000"
"20238521","SMAS YPH PLUS","JL.DEKENG NO.45A","Prop. Jawa Barat","SMA","-6.6390667","106.8156733"
"69945428","SMA PP BAITUL IZZAH NUSANTARA","Kp. Sukaluyu Blok Nyampai RT.02 RW.08","Prop. Jawa Barat","SMA","-6.8325000","107.7061000"
"20252514","SMAS DAYA UTAMA","JL. RAYA KOTALEGENDA MUSTIKAJAYA","Prop. Jawa Barat","SMA","-6.2981000","107.0326000"
"20220331","SMAS PUI","JL. PAHLAWAN NO. 57 B","Prop. Jawa Barat","SMA","-6.6163267","106.8054900"
"69888716","SMA PGRI CIAMBAR","Jl. Ciambar Km 5","Prop. Jawa Barat","SMA","-6.9846500","106.7954880"
"20219250","SMAN 22 BANDUNG","JL. RAJAMANTRI KULON  NO 17A","Prop. Jawa Barat","SMA","-6.9421000","107.6311000"
"20214978","SMAS PGRI PLUMBON","JL. BALAI DESA KARANGMULYA","Prop. Jawa Barat","SMA","-6.7025000","108.4844000"
"20220325","SMAS BUDI MULIA","JL. KAPTEN MUSLIHAT","Prop. Jawa Barat","SMA","-6.5973000","106.7931000"
"69921082","SMA BINA INSAN MULIA CIBINONG","Kp. Kedung Rt/Rw 04/06","Prop. Jawa Barat","SMA","-7.3978000","107.0954000"
"20203697","SMAS AL AZHARY CIANJUR","JL. H. ASKIO PENEMBONG","Prop. Jawa Barat","SMA","-6.8160000","107.1302000"
"20227454","SMAS YBKP3 TAROGONG","JL. TERUSAN PEMBANGUNAN","Prop. Jawa Barat","SMA","-7.2003930","107.8936880"
"20210767","SMAN 1 CIKALONG","JL. RAYA CIKALONG KM. 06","Prop. Jawa Barat","SMA","-7.7339000","108.1797000"
"20251779","SMAS AL BIDAYAH NBATUJAJAR","JL GIRI ASIH BATUJAJAR","Prop. Jawa Barat","SMA","-6.9007000","107.5016000"
"20229188","SMAS ISLAM YPPD","JL. PEMUDA NO. 17 B. DEPOK","Prop. Jawa Barat","SMA","-6.4030000","106.8214000"
"20219788","SMAS LANGLANGBUANA","JL. DR. SAHARDJO","Prop. Jawa Barat","SMA","-6.9071000","107.6758000"
"20268292","SMAS DARUL FALAH BATUJAJAR","Kp. Sukawening Rt/Rw. 04/02 Desa Jati Kecamatan Saguling","Prop. Jawa Barat","SMA","-6.9010000","107.4001000"
"20265516","SMAN 27 BANDUNG","Jl. Raya Utsman Bin Affan No. 1","Prop. Jawa Barat","SMA","-6.9592000","107.7073000"
"20238015","SMAS JAYA SUTI ABADI","JL. RAYA TAMBUN - TAMBELANG KM. 3 TAMBUN SELATAN","Prop. Jawa Barat","SMA","-6.2436000","107.0646000"
"20216937","SMAN 2 SUBANG","JL. WERA KM. 5 DANGDEUR SUBANG","Prop. Jawa Barat","SMA","-6.5476000","107.7372000"
"69892598","SMA MH YASIN SUBANG","Jl. D. I. Panjaitan No. 54 Subang","Prop. Jawa Barat","SMA","-6.5774450","107.7421850"
"20227451","SMAS PGRI GARUT","JL. GUNTUR MALATI","Prop. Jawa Barat","SMA","-7.2036800","107.9062550"
"20231301","SMAS AL MUKLISIN","JL. H. USA PO BOX 23 /PRU CISEENG, DS. CIBENTANG","Prop. Jawa Barat","SMA","-6.4457000","106.6872000"
"20219247","SMAN 25 BANDUNG","JL. BATURADEN VIII NO. 21","Prop. Jawa Barat","SMA","-6.9661000","107.6656000"
"20219327","SMAN 3 BANDUNG","JL. BELITUNG  NO. 8","Prop. Jawa Barat","SMA","-6.9122000","107.6149000"
"20219770","SMAS PAHLAWAN TOHA","JL. PETA LINGKAR SELATAN","Prop. Jawa Barat","SMA","-6.9363000","107.5923000"
"20247147","SMAS PESANTREN UNGGUL AL BAYAN","Jl. Al Bayan No. 100","Prop. Jawa Barat","SMA","-6.9001000","106.7837000"
"20208391","SMAN SITURAJA","JL. KAUM  NO. 14 SITURAJA - SUMEDANG 45371","Prop. Jawa Barat","SMA","-6.8412000","108.0176000"
"20224547","SMAS PASUNDAN 1 TASIKMALAYA","JL. DEWI SARTIKA NO. 18","Prop. Jawa Barat","SMA","-7.3571000","108.2274000"
"20231704","SMAS ANANDA","JL. PROF. MUH. YAMIN NO. 21 DURENJAYA","Prop. Jawa Barat","SMA","-6.2343000","107.0243000"
"20219773","SMAS PASUNDAN 7 BANDUNG","JL. KEBONJATI NO. 31","Prop. Jawa Barat","SMA","-6.9162000","107.6010000"
"69772703","SMAN 2 CIKARANG SELATAN","PERUM BUMI CIKARANG MAKMUR JL. DELIMA RAYA BLOK D","Prop. Jawa Barat","SMA","-6.3539000","107.1086000"
"20219251","SMAN 21 BANDUNG","RANCASAWO CIWASTRA","Prop. Jawa Barat","SMA","-6.9573000","107.6716000"
"20206132","SMA SAPTA DHARMA","JL. CIDALIMA NO. 9 SOREANG","Prop. Jawa Barat","SMA","-7.0269150","107.5156060"
"20240394","SMAS AL FIIL","JL. GAJAH ERETAN NO.19 GAJAH MEKAR","Prop. Jawa Barat","SMA","-6.9711000","107.5324000"
"20247169","SMAS TERPADU DARUL AMAL","JL. CIKASO-CINAGEN KP.SELAJATI RT 02/01","Prop. Jawa Barat","SMA","-7.2906000","106.6489000"
"20223052","SMAS HUTAMA","JL. RAYA HANKAM NO.68","Prop. Jawa Barat","SMA","-6.2891580","106.9156260"
"20222370","SMA KRISTEN PENABUR CIREBON","JL CIPTO MANGUNKUSUMO NO.24","Prop. Jawa Barat","SMA","-6.7167000","108.5499000"
"20224511","SMA NEGERI 1 TASIKMALAYA","JL. RUMAH SAKIT UMUM NO. 28","Prop. Jawa Barat","SMA","-7.3325000","108.2235000"
"20262037","SMA ISLAM MEKARBAKTI BUNGBULANG","JL. Pasir Batang Ds. Mekarbakti Kec. Bungbulang","Prop. Jawa Barat","SMA","-7.4419000","107.6022000"
"20246324","SMAS JEND SUDIRMAN BANDUNG","JL. BABAKAN TAROGONG NO. 119 F","Prop. Jawa Barat","SMA","-6.9329000","107.5920000"
"20238014","SMAS ISLAM MIFTAHUL ULUM","JL. KP. CINYOSOG DS. BURANGKENG KEC. SETU","Prop. Jawa Barat","SMA","-6.3438000","107.0333000"
"20223068","SMAS PANGUDI LUHUR II","JL. RAYA KP. SAWAH GG. MASJID","Prop. Jawa Barat","SMA","-6.3103000","106.9317000"
"20200681","SMAN 1 CILEUNGSI","JL. PASAR LAMA NO. 66 DS. CILEUNGSI KEC. CILEUNGSI KAB. BOGOR JAWA BARAT","Prop. Jawa Barat","SMA","-6.3941000","106.9561000"
"20206142","SMA SOREANG PUTRA","JL.RAYA SOREANG CIPATIK NO  48 SOREANG","Prop. Jawa Barat","SMA","-7.0249000","107.5210000"
"69824824","SMA PLUS LIWAUL FURQON","Jl.Raya Karacak RT 03 RW 04 Karacak Leuwiliang Bogor","Prop. Jawa Barat","SMA","-6.6113960","106.6132420"
"20258065","SMAS TERPADU DARUSSALAM","KP.NARUNGGUL","Prop. Jawa Barat","SMA","-7.1932000","108.1973000"
"20221577","SMAS PGRI 1 SUKABUMI","JL. R.H. DIDI SUKARDI NO.12 SUKABUMI","Prop. Jawa Barat","SMA","-6.9372000","106.9307000"
"20231312","SMAS MADANIA","PERUM. TELAGA KAHURIPAN , DS. TEGAL KEC. KEMANG","Prop. Jawa Barat","SMA","-6.4896000","106.7189000"
"69734348","SMAN 1 TELUKJAMBE BARAT","TELUKJAMBE BARAT","Prop. Jawa Barat","SMA","-6.3150000","107.3213000"
"20232382","SMAN 1 SUKAJAYA","JL. RAYA PASIR MADANG KM. 09","Prop. Jawa Barat","SMA","-6.5928000","106.5187000"
"20215990","SMAS PGRI GABUS WETAN","JL. PU BARAT GABUSKULON","Prop. Jawa Barat","SMA","-6.4402000","108.0763000"
"20256637","SMA AL-QONAAH BALEENDAH","JL. GIRI HARJA NO. 41","Prop. Jawa Barat","SMA","-7.0264000","107.6554000"
"69947164","SMA PERGURUAN ADVENT XIV BEKASI","JL SERSAN ASWAN NO.3","Prop. Jawa Barat","SMA","-6.2509416","107.0207525"
"20246454","SMAS SEKOLAH RAKYAT","JL. KP. BELENDUNG RT.20/07","Prop. Jawa Barat","SMA","-6.1461000","107.0493000"
"20220320","SMAS KRISTEN YPK SATU BAKTI","JL. KARTINI NO.3","Prop. Jawa Barat","SMA","-6.5920000","106.7885000"
"20237987","SMAN 1 CIKARANG PUSAT","JL. BERUANG RAYA NO. 9 PERUM. CIKARANG BARU","Prop. Jawa Barat","SMA","-6.3151000","107.1643000"
"20231714","SMAS MAHANAIM","JL. BAMBU KUNING SELATAN RT 04/03","Prop. Jawa Barat","SMA","-6.2590000","107.0004000"
"20232411","SMAS YAPNI","JL. PERUM LIPI PONDOK RAJEG INDAH CIBINONG","Prop. Jawa Barat","SMA","-6.4628750","106.8249483"
"20252520","SMAS WIDYA NUSANTARA","JL. TRISATYA NO. 47 PERUM BUMI BEKASI BARU","Prop. Jawa Barat","SMA","-6.2759000","106.9927000"
"20253915","SMAS YADIKA 11 BEKASI","JL. LURAH NAMAT KP. KRANGGAN LEMBUR JATIRANGGA","Prop. Jawa Barat","SMA","-6.3691000","106.9354000"
"20244680","SMAN 1 SUSUKAN","JL. PROF. DR. MOH. YAMIN, SH","Prop. Jawa Barat","SMA","-6.6240000","108.3769000"
"20227840","SMAS HARAPAN CIPONGKOR","JL. SAGULING NO. 3 CITALEM CIPONGKOR","Prop. Jawa Barat","SMA","-6.8195000","107.6195000"
"20219764","SMAS PASUNDAN 4 BANDUNG","JL.  CIJERAH","Prop. Jawa Barat","SMA","-6.9156000","107.5704000"
"20206209","SMAN 1 MARGAHAYU","JL KH.WAHID HASYIM NO.387 BANDUNG","Prop. Jawa Barat","SMA","-6.9771000","107.5681000"
"69915781","SMA PERMATA MANDIRI","Jalan Pengkolan Kondang Jampangkulon","Prop. Jawa Barat","SMA","-7.2423000","106.6218000"
"20237985","SMAN 1 CIBITUNG","JL. MUTIARA RAYA 3 PERUM VILLA MUTIARA JAYA","Prop. Jawa Barat","SMA","-6.2538000","107.0958000"
"20227874","SMA PELITA BUNGA BANGSA","JL.RAYA ARJASARI NO 05  ARJASARI","Prop. Jawa Barat","SMA","-7.0557491","107.6462102"
"20219326","SMAN 8 BANDUNG","JL. SOLONTONGAN NO. 3","Prop. Jawa Barat","SMA","-6.9383000","107.6259000"
"20224548","SMAS MUHAMMADIYAH TASIKMALAYA","JL. RUMAH SAKIT UMUM NO. 29","Prop. Jawa Barat","SMA","-7.3321000","108.2237000"
"20202250","SMAN 1 SUKARAJA","JL. MH. HOLIL NO. 78","Prop. Jawa Barat","SMA","-6.9156000","106.9448000"
"20247152","SMAS INSAN CENDEKIA  AL KAUSAR","JL. HABIB BABAKAN JAYA  PARUNG KUDA-SUKABUMI","Prop. Jawa Barat","SMA","-6.8069000","106.7614000"
"69786312","SMAS LABS SCHOOL KAIZEN","PERUM BUMI MUTIARA BLOK JB","Prop. Jawa Barat","SMA","-6.3313000","106.9718000"
"69888696","SMAS TERPADU BAITUL AMANAH PASIRWANGI","KP. CIWEDANG","Prop. Jawa Barat","SMA","-7.2077040","107.7628530"
"20227453","SMAS SETIA BHAKTI CILAWU","JL. RAYA GENTENG","Prop. Jawa Barat","SMA","-7.2606000","107.9033000"
"69921989","SMA CITRA NUSANTARA SINDANGBARANG","Jl. Raya Sindangbarang - Cidaun Km. 5","Prop. Jawa Barat","SMA","-7.4664000","107.1688000"
"69908200","SMA ISLAM CIKAL HARAPAN 2","Perumahan CitraIndah City Jl Raya Cileungsi-Jonggol km 23,2 Jonggol, Bogor 16830","Prop. Jawa Barat","SMA","-6.4531000","107.0416000"
"20212944","SMAS KOSGORO KUNINGAN","JL. ARUJI KARTAWINATA NO. 119","Prop. Jawa Barat","SMA","-6.9797000","108.4851000"
"20280621","SMAS PANCAR BAKTI","JL. WISATA ALAM, KAMPUNG CIMANDALA RT 02 RW 07","Prop. Jawa Barat","SMA","-6.6008000","106.9295000"
"20223071","SMA MUHAMMADIYAH 9 BEKASI","JL. KI MANGUN SARKORO NO. 45","Prop. Jawa Barat","SMA","-6.2390000","107.0063000"
"69900793","SMA NURUL FAJRI","Blok Dalem Rt.02 Rw.04 Desa Weragati","Prop. Jawa Barat","SMA","-6.7665000","108.2960000"
"20253190","SMAN 2 CIKARANG UTARA","JL. RAYA LEMAH ABANG CIKARANG UTARA BEKASI","Prop. Jawa Barat","SMA","-6.2742000","107.1739000"
"20203745","SMA NEGERI 1 SINDANG BARANG","JL. RAYA TIMUR NO. 123","Prop. Jawa Barat","SMA","-7.4522000","107.1384000"
"20231713","SMAS IT AL MARATUS SHOLIHAH","JL. RAYA SETU KEL. PEDURENAN BANTARGEBANG","Prop. Jawa Barat","SMA","-6.3185000","107.0149000"
"20254143","SMAS AL HIMMAH SUKALARANG","JL. RAYA SUKABUMI-CIANJUR NO. 13","Prop. Jawa Barat","SMA","-6.8498000","106.9833000"
"20252421","SMAS YADIKA 9","JL. BINTARA JAYA VIII NO. 51 BEKASI BARAT","Prop. Jawa Barat","SMA","-6.2427000","106.9480000"
"20253167","SMAS ISLAM AL-AZHAR 4","JL. PRATAMA RAYA, KEMANG PRATAMA RAWALUMBU","Prop. Jawa Barat","SMA","-6.2756000","106.9885000"
"20219729","SMAS BINA BHAKTI 2","JL. BIMA NO. 9","Prop. Jawa Barat","SMA","-6.9077000","107.5842000"
"20209213","SMAN 24 GARUT","Jalan Pangauban","Prop. Jawa Barat","SMA","-7.2746000","107.7824000"
"20215020","SMAS PGRI KEDAWUNG","JL. WIDARASARI TUPAREV NO 4 KEDAWUNG","Prop. Jawa Barat","SMA","-6.7123000","108.5470000"
"20252375","SMAS PONDOK DAUN","JL. PEKAPURAN NO. 78 A","Prop. Jawa Barat","SMA","-6.3866000","106.8712000"
"60728854","SMAS TERPADU AL-KANDIYAS","JL. PLTA SAGULING Kp. warung Tilu RT 06 RW 06","Prop. Jawa Barat","SMA","-6.9080000","107.3404000"
"69881555","SMA IT NURUL ISLAM","JL BABAKAN PESANTREN DS KUBANG","Prop. Jawa Barat","SMA","-6.7217640","107.1199740"
"20254612","SMAN 1 NANGGUNG","Jl. Pasir Sari Desa Nanggung Kecamatan Nanggung","Prop. Jawa Barat","SMA","-6.6074000","106.5370000"
"20251783","SMA PASUNDAN BANJARAN","JL.RAYA STASIUN TIMUR NO.63 BANJARAN","Prop. Jawa Barat","SMA","-7.0460000","107.5881000"
"20206207","SMAN 1 PANGALENGAN","JL. KEBON KOPI NO. 145 RT 03 RW 24","Prop. Jawa Barat","SMA","-7.1729870","107.5756930"
"20219810","SMA KRISTEN BPPK","JL. KEBON JATI NO. 108","Prop. Jawa Barat","SMA","-6.9162000","107.5986000"
"20229514","SMAS ITTIHADUL UMMAT","JL. CIKUMPAY","Prop. Jawa Barat","SMA","-7.4552000","108.1100000"
"20219725","SMA KARTIKA XIX-2","JL. PAK GATOT RAYA NO. 73","Prop. Jawa Barat","SMA","-6.8652000","107.5877000"
"20222368","SMAS IT NURUSSHIDIQ CIREBON","JL. WIRATAMA NO 30","Prop. Jawa Barat","SMA","-6.7184000","108.5686000"
"20212953","SMA NEGERI 1 CIDAHU","JL. KERTAWINANGUN NO. 09","Prop. Jawa Barat","SMA","-6.9809000","108.6457000"
"20252460","SMAN 1 GANTAR","JL. RAYA HAURGEULIS GANTAR KM.6,5","Prop. Jawa Barat","SMA","-6.5099000","107.9724000"
"20252595","SMAS BANI SALEH","JL. MELATI RAYA 2 NO.54","Prop. Jawa Barat","SMA","-6.2457000","107.0117000"
"69923800","SMA RAMA GLOBAL SCHOOL","Jl. Ds. Cibinong Jatiluhur Purwakarta","Prop. Jawa Barat","SMA","-6.6002651","107.4430908"
"69859376","SMA IT MEKARSEWU","Kp. Gunung Batu Desa Cisewu Kec. Cisewu","Prop. Jawa Barat","SMA","-7.3747980","107.5190530"
"69940395","SMA PLUS PERJUANGAN 78","Kp. Ciparay RT 01 RW 05","Prop. Jawa Barat","SMA","-7.3871644","107.7952689"
"69786982","SMAS PM AT TAQWA","JL. KH. RAFEI NO.15 RT 03/04","Prop. Jawa Barat","SMA","-6.3812130","106.9441130"
"20208407","SMAN  TANJUNGKERTA","JL. SUKAMANTRI TANJUNGKERTA SUMEDANG 45354","Prop. Jawa Barat","SMA","-6.7654000","107.8900000"
"20219238","SMAN 15 BANDUNG","SARIMANIS NO. 01 SARIJADI BANDUNG","Prop. Jawa Barat","SMA","-6.8727000","107.5869000"
"20237997","SMAN 4 TAMBUN SELATAN","PERUM GRIYA ASRI 2 BLOK F TAMBUN SELATAN","Prop. Jawa Barat","SMA","-6.2246000","107.0835000"
"69768187","SMAN 1 BONGAS","JL. RAYA BONGAS","Prop. Jawa Barat","SMA","-6.3904000","108.0098000"
"20229175","SMAS SEJAHTERA 1 DEPOK","JL. ANYELIR RAYA NO. 68","Prop. Jawa Barat","SMA","-6.3925000","106.8153000"
"20219720","SMAS DARUL HIKAM BANDUNG","JL. TUBAGUS ISMAIL DP. NO. 78","Prop. Jawa Barat","SMA","-6.8837000","107.6159000"
"20216939","SMA NEGERI 1 PURWADADI","JL. RAYA PURWADADI NO. 1 PURWADADI SUBANG","Prop. Jawa Barat","SMA","-6.4653000","107.6896000"
"20231268","SMAS AL IJTIHAD","JL. KAPTEN DASUKI BAKRI DESA  CIMAYANG","Prop. Jawa Barat","SMA","-6.6109000","106.6697000"
"20246479","SMAS AZZAHIRIYAH","KP. BALEKER RT01/03 DS. WARINGIN JAYA KD WARINGIN","Prop. Jawa Barat","SMA","-6.2634000","107.2525000"
"20213883","SMAN 1 KASOKANDEL","JL. DESA KASOKANDEL TIMUR NO.65","Prop. Jawa Barat","SMA","-6.7556000","108.2065000"
"20231272","SMAS AL MUSTHOPA","JL. RAYA TENJO - TIGARAKSA KM 0.5 DESA TENJO","Prop. Jawa Barat","SMA","-6.3267000","106.4663000"
"20232380","SMAN 1 MEGAMENDUNG","JL. CIKOPO SELATAN PASIR KALIKI, DS. SUKAMAJU","Prop. Jawa Barat","SMA","-6.6780000","106.8878000"
"20229174","SMA PUTRA BANGSA","JL. Margonda Raya KM. 2 Gg. Kedondong","Prop. Jawa Barat","SMA","-6.3827400","106.8270960"
"20206155","SMA BUPPI MAJALAYA","JL. TALUN NO. 09 MAJALAYA","Prop. Jawa Barat","SMA","-7.0520480","107.7562810"
"20238519","SMAS PGRI 5","JL. PARUNG BANTENG RT 03/01","Prop. Jawa Barat","SMA","-6.6233183","106.8254617"
"20218358","SMAN 1 CABANGBUNGIN","JL. RAYA BATUJAYA CABANG BUNGIN BEKASI","Prop. Jawa Barat","SMA","-6.0599000","107.1270000"
"69903026","SMA MIFTAHUL ULUM","Jl. Sindanghayu Rt/Rw 03/03 Ds. Sukasirna Kec. Leles","Prop. Jawa Barat","SMA","-7.3259000","107.0647000"
"20227825","SMA YP BINA BANGSA","JL.SIDANG RERET NO. 34 PAMEUNGPEUK","Prop. Jawa Barat","SMA","-7.0186000","107.5915000"
"20219795","SMAS KALAM KUDUS","JL. MEKAR PUSPITA NO.  53 - 55","Prop. Jawa Barat","SMA","-6.9662000","107.5976000"
"20231331","SMAN 1 GUNUNG SINDUR","JL. ATMA ASMAWI DS. GUNUNG SINDUR","Prop. Jawa Barat","SMA","-6.3833000","106.6595000"
"20245435","SMAS NURUL YAQIN","JL. SWADAYA  NO. 2 KP. KALEN KACING RT07/03 SUKAWANGI","Prop. Jawa Barat","SMA","-6.0959000","107.0697000"
"20231709","SMAS FLORA","PERUM PONDOK UNGU PERMAI BLOK 26 NO.7","Prop. Jawa Barat","SMA","-6.1785000","107.0100000"
"69888695","SMAS PLUS AL-MOENIR BAYONGBONG","JALAN RAYA CIBODAS","Prop. Jawa Barat","SMA","-7.2373000","107.8330000"
"20220338","SMAN 9 BOGOR","JL. KARTINI NO. 1","Prop. Jawa Barat","SMA","-6.5926000","106.7884000"
"20227823","SMA ASY-SYUJAIYYAH CIWIDEY","JL. CIWIDEY - SUKAWENING KM. 04","Prop. Jawa Barat","SMA","-7.0738000","107.4679000"
"20220545","SMAS AL GHAZALY","JL. CEMPAKA NO.6 KOTA PARIS","Prop. Jawa Barat","SMA","-6.5894000","106.7850000"
"20219235","SMAN 17 BANDUNG","JL. Tujuhbelas Caringin","Prop. Jawa Barat","SMA","-6.9420000","107.5749000"
"20232526","SMAS ISLAM TERPADU RAFLESIA","MAHKOTA RAYA NO. 32 B PONDOK DUTA","Prop. Jawa Barat","SMA","-6.3699000","106.8514000"
"20228432","SMA DARUL HIKMAH BOJONGSOANG","JL.CIKONENG NO.99 BOJONGSOANG","Prop. Jawa Barat","SMA","-6.9878010","107.6469090"
"20210765","SMAN 1 CINEAM","JL. RAYA CINEAM km  0,13","Prop. Jawa Barat","SMA","-7.3862000","108.3560000"
"20232311","SMA ISLAM TERPADU AL-MADINAH","JL. SUKAHATI NO. 36 RT.3 RW.10","Prop. Jawa Barat","SMA","-6.5107267","106.8052900"
"69953926","SMA NANGTANG","Kp. Nangka Bongkok","Prop. Jawa Barat","SMA","-7.3191070","108.0009650"
"20223031","SMAS SANTA MARIA MONICA","JL. KARANG SATRIA NO. 1 KP. CEREWET","Prop. Jawa Barat","SMA","-6.2237000","107.0344000"
"20216210","SMAS NU SUKRA","JL. EMBUTAN NO.12","Prop. Jawa Barat","SMA","-6.3057000","107.9252000"
"20223072","SMAS MUDI AL AZIZIYYAH","JL. RAYA AGKASAPURI JATIMEKAR","Prop. Jawa Barat","SMA","-6.2586000","106.9861000"
"20251864","SMAS DARUT TAUBAH","Komp. SBS JL. Danau Tondano Raya No.1 Block C/23","Prop. Jawa Barat","SMA","-6.2140160","106.9858220"
"20229150","SMAS CAKRA BUANA","JL. RAYA SAWANGAN NO. 91","Prop. Jawa Barat","SMA","-6.3936000","106.8023000"
"20253664","SMAN 1 KABANDUNGAN","JL. TIRTA ATMAJA","Prop. Jawa Barat","SMA","-6.7907000","106.6360000"
"69904548","SMAN 6 KARAWANG","Jl. Veteran Kepuh","Prop. Jawa Barat","SMA","-6.2963000","107.2987000"
"20219249","SMAN 23 BANDUNG","JL. MALANGBONG RAYA","Prop. Jawa Barat","SMA","-6.9128000","107.6650000"
"20220319","SMAS PGRI 4","JL. CIREMAI UJUNG NO.228","Prop. Jawa Barat","SMA","-6.5726000","106.8071000"
"69915809","SMAN 2 KLARI","JL. KOSAMBI KLARI","Prop. Jawa Barat","SMA","-6.3616770","107.3740670"
"20252077","SMA INTERNATIONAL ISLAMIC SCHOOL OF INDONESIA","KP. HAMBALANG RT/RW 05/02","Prop. Jawa Barat","SMA","-6.5523000","106.8809000"
"20200685","SMAN 1 CIAWI BOGOR","JL. BANJARSARI DESA BANJAR WARU CIAWI","Prop. Jawa Barat","SMA","-6.6762000","106.8612000"
"20227449","SMAS PGRI KURNIA","JL. RAYA KURNIA KERSAMANAH","Prop. Jawa Barat","SMA","-7.0527000","108.0352000"
"69954549","SMA PLUS AL-HIKMAH SUKARAJA","Kp. Parakantiga","Prop. Jawa Barat","SMA","-7.4575000","108.1910000"
"20244763","SMAN 1 SUKAKARYA","JL. RAYA SUKAMAKMUR KEC. SUKAKARYA KAB. BEKASI","Prop. Jawa Barat","SMA","-6.1735000","107.2179000"
"69758123","SMAS AL FALAH","KP SUKASIRNA DESA SUKALUYU","Prop. Jawa Barat","SMA","-7.2562000","107.0124000"
"69886285","SMA ISLAM AL-FAJAR","JALAN SWATANTRA V NO 01","Prop. Jawa Barat","SMA","-6.3034000","106.9691000"
"20218359","SMAN 1 BABELAN","JL. TAMAN KEBALEN INDAH BABELAN BEKASI","Prop. Jawa Barat","SMA","-6.1882000","107.0345000"
"20210779","SMAS PESANTREN CINTAWANA","JL. KOMP. PESANTREN CINTAWANA","Prop. Jawa Barat","SMA","-7.3614000","108.1046000"
"20227433","SMAS AL HIKMAH CIBATU","JL. KAUM NO. 2","Prop. Jawa Barat","SMA","-7.0973000","107.9829000"
"20221589","SMAS KRISTEN BPK PENABUR","JL. BHAYANGKARA NO. 240 SUKABUMI","Prop. Jawa Barat","SMA","-6.9151000","106.9320000"
"20216943","SMAN 1 JALANCAGAK","Jl. Raya Jalancagak No. 061","Prop. Jawa Barat","SMA","-6.6737000","107.6633000"
"20206213","SMAN 1 CIWIDEY","JL. BABAKAN TIGA NO.125","Prop. Jawa Barat","SMA","-7.0985620","107.4649820"
"69866096","SMA AL MINHAJ","JL. CIBURIAL SUKAMAJU RT 001 RW 011","Prop. Jawa Barat","SMA","-6.6466290","106.7668120"
"20229161","SMAS MARDI YUANA PANCORAN MAS","JL. CEMPAKA NO. 4","Prop. Jawa Barat","SMA","-6.3988000","106.8233000"
"20223033","SMAN 2 BEKASI","JL. TANGKUBAN PERAHU NO.1 KAYURINGIN","Prop. Jawa Barat","SMA","-6.3393000","106.9736000"
"20238004","SMAS AL - MUTTAQIN","JL. RAYA TAMBELANG BEKASI","Prop. Jawa Barat","SMA","-6.1915000","107.1232000"
"20220341","SMAN 10 BOGOR","JL. PINANG RAYA KOMP.  YASMIN SEKTOR VI","Prop. Jawa Barat","SMA","-6.5599000","106.7652000"
"20220322","SMAS BINA INSANI","JL. K.H SHOLEH ISKANDAR","Prop. Jawa Barat","SMA","-6.5570000","106.7848000"
"20223047","SMAS SANDIKTA","JL. RAYA HANKAM NO.208","Prop. Jawa Barat","SMA","-6.3001000","106.9237000"
"69900732","SMA TAHFIZH NURJAMILAH","Jln. Bintara Raya Rt 003/012 No. 27 Kel. Kranji Kec. Bekasi Barat Kota Bekasi","Prop. Jawa Barat","SMA","-6.2340000","106.9711000"
"20253836","SMAS PRIBADI","Jln. PHH. Mustofa no. 41","Prop. Jawa Barat","SMA","-6.8993000","107.6408000"
"20232327","SMA PLUS  DAARUL FUDLOLA","JL.JAKARTA BOGOR KM 40 KP. PANDURENAN PABUARAN","Prop. Jawa Barat","SMA","-6.4480433","106.8501433"
"20229751","SMAS PGRI 3 PURWAKARTA","JL. VETERAN GG. BERINGIN 216","Prop. Jawa Barat","SMA","-6.5364000","107.4482000"
"69889026","SMAS TERPADU PELITA BANGSA","Kp. Blukbuk RT.01/02","Prop. Jawa Barat","SMA","-6.0129880","107.0684340"
"20225277","SMAS BINA PUTERA","JL. TENTARA PELAJAR NO. 133 A","Prop. Jawa Barat","SMA","-7.3832300","108.5356400"
"20219253","SMAN 20 BANDUNG","JL. CITARUM NO. 23","Prop. Jawa Barat","SMA","-6.9045000","107.6224000"
"20220346","SMAS SILIWANGI","JL. KOL ENJO MARTADISASTRA","Prop. Jawa Barat","SMA","-6.5670000","106.8066000"
"20220334","SMAN 4 BOGOR","JL. DREDED V NO.36","Prop. Jawa Barat","SMA","-6.6161283","106.8007567"
"20212939","SMA NEGERI 1 CIAWIGEBANG","JL. SILIWANGI NO. 106","Prop. Jawa Barat","SMA","-6.9740000","108.5894000"
"20208422","SMAN JATINANGOR","JL. IR. SOEKARNO KM. 22 SUMEDANG","Prop. Jawa Barat","SMA","-6.9286000","107.7796000"
"20237370","SMAN 1 BATUJAYA","Jl. Raya Kutaampel Batujaya","Prop. Jawa Barat","SMA","-6.1057000","107.2521000"
"69786222","SMA COKROAMINOTO SUKARESMI","JL MARIWATI KM 5 CIPANAS","Prop. Jawa Barat","SMA","-6.8426000","107.0269000"
"20240402","SMAS MEKARWANGI LEMBANG","JL. BUKAMANAH DESA LANGENSARI KEC. LEMBANG","Prop. Jawa Barat","SMA","-6.8346000","107.6380000"
"20258460","SMA TERBUKA (SMA NEGERI 4 DEPOK)","KOMPLEK SUKATANI PERMAI","Prop. Jawa Barat","SMA","-6.4235000","106.8882000"
"20210741","SMAN 1 MANONJAYA","JL. PATROL KULON MANONJAYA","Prop. Jawa Barat","SMA","-7.3474000","108.3005000"
"20227461","SMAN 27 GARUT","JL. MIRAMARE","Prop. Jawa Barat","SMA","-7.6785000","107.8035000"
"20222381","SMAS COKROAMINOTO CIREBON","JL. SILIWANGI GG. KRAMAT 1 NO. 23","Prop. Jawa Barat","SMA","-6.7240000","108.5681000"
"20214997","SMAS PGRI LOSARI","JL.JENDRAL GATOTO SUBROTO NO.93","Prop. Jawa Barat","SMA","-6.8442000","108.8079000"
"20219521","SMAS PURAGABAYA","JL. H. YASIN TRSN. PASTEUR","Prop. Jawa Barat","SMA","-6.8958000","107.5922000"
"20231290","SMA ISLAM DAARUL ARHAM","Jl.Raya Tenjo -Parungpanjang","Prop. Jawa Barat","SMA","-6.3881930","106.5171930"
"20227815","SMA PUQ PAMEUNGPEUK","JL. SINDANGRERET NO.30","Prop. Jawa Barat","SMA","-7.0148620","107.6089100"
"20229516","SMAS NURUL WAFA","JL. KH. MOCH IDRIS SUKARAME","Prop. Jawa Barat","SMA","-7.3652000","108.1374000"
"20231315","SMAS MANDALA","JL. HEGARSARI NO. 10 LEUWILIANG  DS. CIBEBER I","Prop. Jawa Barat","SMA","-6.5840000","106.6183000"
"20218379","SMAN 2 TAMBUN SELATAN","JL. ARIES PERUM SKU TAMBUN SELATAN KAB.BEKASI","Prop. Jawa Barat","SMA","-6.2696000","107.0557000"
"20233750","SMAS LINGGAJATI ARAHAN","JL. RAYA LINGGAJATI","Prop. Jawa Barat","SMA","-6.3546000","108.2705000"
"20206131","SMAN 1 CIPEUNDEUY","JL. CINANGSI NANGGELENG CIPEUNDEUY","Prop. Jawa Barat","SMA","-6.7630000","107.3659000"
"20227912","SMA TERPADU AL-MUMIN","JL. OLAHRAGA SADANG NO.1","Prop. Jawa Barat","SMA","-7.0518400","107.7707400"
"69864644","SMAS PANGUDI LUHUR BERNARDUS","Kota Deltamas Jl. Tol Jakarta - Cikampek Km 37","Prop. Jawa Barat","SMA","-6.3584000","107.1859000"
"20251793","SMAN 1 CILEUNYI","JL.Pendidikan No.6","Prop. Jawa Barat","SMA","-6.9400000","107.7233000"
"20253979","SMAN 1 SURADE","JL. RAYA CIKASO KM 1 SURADE-SUKABUMI","Prop. Jawa Barat","SMA","-7.3374000","106.5824000"
"20227448","SMAS PERSIS PAKENJENG","JL. RAYA DEPOK PAKENJENG GARUT 44164","Prop. Jawa Barat","SMA","-7.4607000","107.6646000"
"20276416","SMAS LABSCHOOL CIBUBUR","JL RAYA HANKAM KAMPUS LABSCHOOL","Prop. Jawa Barat","SMA","-6.3432000","106.9253000"
"69952223","SMA IT UMMUL QURO","Jl. Raya Salopa Gunungtanjung Sukasari","Prop. Jawa Barat","SMA","-7.5821000","108.0977931"
"20219758","SMA AL FALAH KOTA BANDUNG","JL. CISITU BARU NO. 52","Prop. Jawa Barat","SMA","-6.8828000","107.6132000"
"69934741","SMA PLUS KOMARULAHYAR","Kp. Cicomre RT 01 RW 01","Prop. Jawa Barat","SMA","-7.5969000","107.9536000"
"20246145","SMAS AL FURQON","JL. CARINGIN POJOK RT 10/3","Prop. Jawa Barat","SMA","-6.8131000","106.9073000"
"69841003","SMAS MUTIARA ISLAMI PLUS","Kavling B Perum Kota Serang Baru","Prop. Jawa Barat","SMA","-6.3901860","107.1243380"
"20219254","SMAN 2 BANDUNG","JL. CIHAMPELAS NO. 173","Prop. Jawa Barat","SMA","-6.8891000","107.6032000"
"20202254","SMAN 1 PARUNG KUDA","JL. RAYA PARUNG KUDA","Prop. Jawa Barat","SMA","-6.8077000","106.7479000"
"20271683","SMA MUHAMMADIYAH CIKELET","JL. Cikelet No. 242 Cieurih - Cikelet - Garut - Jawa barat","Prop. Jawa Barat","SMA","-7.6272000","107.6777000"
"69953095","SMA SEKOLAH ANAK INDONESIA","Kp Legok Gaok RT 02 Rw 05 Desa Kadumangu","Prop. Jawa Barat","SMA","-6.5781120","106.8636900"
"20240396","SMAS AL MADINA","JL.PANYADAP NO.15 A DESA SUKAMANAH PASEH","Prop. Jawa Barat","SMA","-7.0183340","107.7703720"
"20229159","SMAS KHARISMAWITA DEPOK","JL. RAYA CIPUTAT-PARUNG","Prop. Jawa Barat","SMA","-6.3651000","106.7463000"
"69888448","SMA PUTRA JUANG","Jl Cipetir Rt 02/06 Ds Sukatani","Prop. Jawa Barat","SMA","-6.8782390","107.2569450"
"20232351","SMAS ISLAM AL GOZALI","JL. PERMATA NO. 19  RT 06/05","Prop. Jawa Barat","SMA","-6.3942000","106.7209000"
"20225279","SMAN 1 BANJAR","JL. KH. MUSTOFA NO.1","Prop. Jawa Barat","SMA","-7.3712950","108.5266830"
"69947172","SMA ISLAM TERPADU HARAPAN UMAT KARAWANG","Jl Pakuncen No 01 RT 01 RW 06","Prop. Jawa Barat","SMA","-6.3149000","107.2921000"
"20219749","SMAS 19 BUMI SIL","JL.SADANG KIDUL","Prop. Jawa Barat","SMA","-6.8897000","107.6273000"
"20211505","SMAN 1 PANAWANGAN","JL. RAYA CIAMIS-CIREBON KM.159","Prop. Jawa Barat","SMA","-7.1016000","108.3794000"
"20252465","SMAS PLUS DARUSSALAM","JL. K.H. AHMAD FADLIL NO. 2","Prop. Jawa Barat","SMA","-7.3346000","108.3915000"
"20214993","SMAN 1 LOSARI","JL. SOEKARNO HATTA NO. 110","Prop. Jawa Barat","SMA","-6.8419000","108.8076000"
"69864697","SMA KRISTEN SAINT JOHN","Jl. Tanah Apit Rt 06/09","Prop. Jawa Barat","SMA","-6.2081980","106.9770530"
"20215984","SMAN 1 ANJATAN","JL. RAYA KOPYAH","Prop. Jawa Barat","SMA","-6.3738000","107.9574000"
"20211504","SMAN 1 PAMARICAN","JL. PAMARICAN DS. NEGLASARI NO. 44 PAMARICAN","Prop. Jawa Barat","SMA","-7.4545000","108.5072000"
"69849359","SMAS MUHAMMADIYAH PAKENJENG","KP PASIRLANGU","Prop. Jawa Barat","SMA","-7.4555000","107.6406000"
"20254165","SMAN 2 BABELAN","PERUM BABELAN MAS PERMAI","Prop. Jawa Barat","SMA","-6.1952000","107.0366000"
"20221575","SMAS TAMAN SISWA","JL. R. SYAMSUDIN SH NO. 62","Prop. Jawa Barat","SMA","-6.9356000","106.9268000"
"69760562","SMAN 18 BEKASI","JL. Rudal No.18 Perumahan Duren Jaya Permai","Prop. Jawa Barat","SMA","-6.2376000","107.0360000"
"20245860","SMAN 1 PABUARAN","JL. RAYA PABUARAN","Prop. Jawa Barat","SMA","-6.4469000","107.5990000"
"20227831","SMAS CIPTA MANDIRI CISARUA","JL. DESA CIPADA  CISARUA","Prop. Jawa Barat","SMA","-6.8163000","107.5395000"
"69946512","SMA PLUS SINGAJAYA","Kp. Cijungklang RT 01 RW 08","Prop. Jawa Barat","SMA","-7.4630895","107.9356482"
"20232383","SMAN 1 SUKAMAKMUR","Jln. Raya AMD Desa Sukamulya","Prop. Jawa Barat","SMA","-6.5778000","107.0073000"
"20224507","SMA Negeri 5 Tasikmalaya","JL.TENTARA PELAJAR NO. 58","Prop. Jawa Barat","SMA","-7.3320000","108.2223000"
"20254098","SMAN 1 CARINGIN","JL. RAYA HE. SUKMA CARINGIN","Prop. Jawa Barat","SMA","-6.7047000","106.8248000"
"69926270","SMA NEGERI 2 CILEUNGSI","KOMPLEK METLAND TRANSYOGI JL. GANDARIA UTARA NO. 2 CILEUNGSI","Prop. Jawa Barat","SMA","-6.3942000","106.9778000"
"69895438","SMA Nehru Memorial School","Jl. Lembong 40 Bandung, Jawa Barat","Prop. Jawa Barat","SMA","-6.9211480","107.6281880"
"20231303","SMAS NURUL HIKMAH","JL. RAYA JONGGOL KP. CIBUCIL DS. SUKAMANAH JGL","Prop. Jawa Barat","SMA","-6.4389000","107.0550000"
"20276113","SMAS IT AL-QUDWAH","JL. BERINGIN NO. 1 RT 004/18","Prop. Jawa Barat","SMA","-6.3857617","106.8309033"
"20220321","SMAS KOSGORO","JL. PAJAJARAN NO.217A","Prop. Jawa Barat","SMA","-6.5795000","106.8081000"
"20219267","SMAS RAJAWALI","JL. ANDIR NO.117 A/78 BANDUNG","Prop. Jawa Barat","SMA","-6.9132000","107.5838000"
"20219717","SMAS INDONESIA RAYA BANDUNG","JL. PROF. SURIA SUMANTRI NO. 33B","Prop. Jawa Barat","SMA","-6.8890000","107.5809000"
"20232304","SMAS AL BASYARIAH","JL. RAYA PABUARAN GG. LANGGAR DS. RAWA PANJANG","Prop. Jawa Barat","SMA","-6.4616000","106.8040000"
"20219722","SMAS BUDI ISTRI","JL. MUJAHIDIN NO. 39","Prop. Jawa Barat","SMA","-6.9390000","107.6268000"
"69870672","SMA TERPADU BABUSSALAM","Kp. CALINCING KIDUL","Prop. Jawa Barat","SMA","-7.2088940","108.1326950"
"20246451","SMAS MUHAMMADIYAH SLIYEG","JL. SILIWANGI NO. 62","Prop. Jawa Barat","SMA","-6.4544000","108.3545000"
"20263279","SMAN 1 LUMBUNG","JL. RAYA LUMBUNG NO. 251","Prop. Jawa Barat","SMA","-7.3496000","108.5109000"
"20210717","SMAS PLUS NURUL ILMI","JL. RAYA KARANGNUNGGAL KM. 23","Prop. Jawa Barat","SMA","-7.4996000","108.1923000"
"69856264","SMA PLUS BAHRUL ULUM","Jl. Situwangi Km. 1","Prop. Jawa Barat","SMA","-7.4728000","107.4108000"
"20253561","SMAS ISLAM AL-MUNIR","JL. VILLA BEKASI INDAH I JEJALEN JAYA","Prop. Jawa Barat","SMA","-6.2306000","107.0667000"
"20253663","SMAS AL BASHRIYAH","KP. TENJOLAYA","Prop. Jawa Barat","SMA","-6.7613000","106.7568000"
"20253845","SMAN 1 KALIBUNDER","JL. CIBUNTU KALIBUNDER","Prop. Jawa Barat","SMA","-7.2631000","106.7288000"
"20232412","SMAS SEJAHTERA YASINA","JL. MAYJEN HR EDI SUKMA KM. 22 DESA WATES JAYA","Prop. Jawa Barat","SMA","-6.7525000","106.7921000"
"20235620","SMAN 2 CIMALAKA","JL. MARGAMUKTI NO.18 LICIN","Prop. Jawa Barat","SMA","-6.7958000","107.9494000"
"20215993","SMAN 2 INDRAMAYU","JL. PAHLAWAN NO.37","Prop. Jawa Barat","SMA","-6.3343000","108.3443000"
"20209374","SMAS DARUSSALAM WANARAJA","JL. RAYA WANARAJA NO. 400","Prop. Jawa Barat","SMA","-7.2188000","107.9971000"
"69946107","SMA NASIONAL PLUS BPK PENABUR BOGOR","Jl. Dewi Sartika No. 5 Sentul City","Prop. Jawa Barat","SMA","-6.6074486","106.9318530"
"69822684","SMAS DARUL HIKAM INTERNASIONAL","JL. MARIBAYA NO.89 RT.03 RW.01","Prop. Jawa Barat","SMA","-6.8282000","107.6273000"
"69930027","SMA Mutiara Nusantara","Jl. Sersan Bajuri Km. 1,5 - RT 3/RW 1","Prop. Jawa Barat","SMA","-6.8471000","107.5920000"
"20237453","SMAN 1 CIAMPEL","JL. RAYA GONO TIRTOWIDJOJO","Prop. Jawa Barat","SMA","-6.3914000","107.3630000"
"20202266","SMAN 1 NAGRAK","JL.  NAGRAK NO.16  KEC.NAGRAK KAB.SUKABUMI","Prop. Jawa Barat","SMA","-6.8645000","106.8039000"
"20219263","SMAS ALLOYSIUS 1","JL. SULTAN AGUNG NO. 4","Prop. Jawa Barat","SMA","-6.9575000","107.6236000"
"20208425","SMAS PGRI SITURAJA","JL. SAWAH MENAK - JATIMEKAR -  SITURAJA - SUMEDANG","Prop. Jawa Barat","SMA","-6.8479000","108.0275000"
"20231716","SMAS MUTIARA BARU","JL. PRAMUKA KAV.05 SEPANJANG JAYA","Prop. Jawa Barat","SMA","-6.2550000","107.0128000"
"20229158","SMAS KASIH PANCORAN MAS","JL. PEMUDA NO. 59","Prop. Jawa Barat","SMA","-6.4028000","106.8248000"
"20219737","SMAS BPI 2 BANDUNG","JL. BURANGRANG NO. 8","Prop. Jawa Barat","SMA","-6.9240000","107.6191000"
"20211503","SMAN 1 MANGUNJAYA","JL. RAYA MANGUNJAYA","Prop. Jawa Barat","SMA","-7.4904000","108.6981000"
"20247172","SMAS YASTI CISAAT","JL. VETERAN NO. 66 CISAAT SUKABUMI","Prop. Jawa Barat","SMA","-6.9112183","106.8865683"
"20227852","SMA KARANG ARUM CILENGKRANG","JL.KARANG ARUM RAYA NO.1 CILENGKRANG","Prop. Jawa Barat","SMA","-6.8975728","107.6989683"
"20200690","SMAS BAITUSSALAM","JL. RAYA KARTIKA SEJAHTERA NO. 1 DS. SASAK PANJANG Kec. TAJURHALANNG","Prop. Jawa Barat","SMA","-6.4577000","106.7462000"
"20252324","SMAN 1 CISAGA","Jl. Raya Cisaga - Ciamis No.814","Prop. Jawa Barat","SMA","-7.3499400","108.5104780"
"69759206","SMAS DHARMA PUTRA ADVENT","JL. RAYA KALIMALANG NO. 39","Prop. Jawa Barat","SMA","-6.2384000","106.9698000"
"20203696","SMAS ADDWAH CIPANAS","Jalan Raya Cigombong No.7","Prop. Jawa Barat","SMA","-6.7586000","107.0474000"
"20202267","SMAN 1 PELABUHAN RATU","JL. BHAYANGKARA KM. 1 PALABUHAN RATU","Prop. Jawa Barat","SMA","-6.9878000","106.5596000"
"20252198","SMA TALENTA","JL. TAMAN KOPO INDAH 3 BLOK F-1","Prop. Jawa Barat","SMA","-6.9634480","107.5586450"
"20244677","SMAS YADIKA KEDAWUNG","JL. KAPUK RAYA KEDAWUNG","Prop. Jawa Barat","SMA","-6.7176000","108.5299000"
"60726457","SMAS KRISTEN TERANG BANGSA","JL. SETIABUDI NO. 10","Prop. Jawa Barat","SMA","-6.7265970","108.5532270"
"20247182","SMAN 1 SUMBERJAYA","JL. DESA RANCAPUTAT","Prop. Jawa Barat","SMA","-6.7030000","108.3499000"
"69949642","SMA IT MUTIARA HIKMAH","Jl. H. Nabrih Kp. Buwek Rt.003/022","Prop. Jawa Barat","SMA","-6.2798599","107.0450846"
"20227466","SMAN 11 GARUT","JL. SILIWANGI NO. 2","Prop. Jawa Barat","SMA","-7.2172000","107.9020000"
"20219751","SMAS ADVENT","JL. NARIPAN NO. 91","Prop. Jawa Barat","SMA","-6.9208000","107.6164000"
"20231724","SMA PGRI 2 KOTA BEKASI","Jl. K.H. Muchtar Thabrani, Perum Tytyan Kencana","Prop. Jawa Barat","SMA","-6.1907000","107.0044000"
"60725084","SMAS IT AL-MAIDAH","KP. KEPUH RT. 09/04","Prop. Jawa Barat","SMA","-6.0786000","107.0892000"
"20227848","SMA KP 1 CIPARAY","JL.RAYA PACET ANDIR NO.59 CIPARAY","Prop. Jawa Barat","SMA","-7.0416000","107.7119000"
"69888857","SMA ISLAM AL-KHAIRIYAH","JL KUBANG-MULYASARI KP PATARUMAN","Prop. Jawa Barat","SMA","-6.8909860","107.1730650"
"20220520","SMAS BHAKTI INSANI","JL. BATUTULIS GG. NV. SIDIK NO.5 C","Prop. Jawa Barat","SMA","-6.6188650","106.8106150"
"20224504","SMA Negeri 8 Tasikmalaya","JL. MULYASARI NO. 3 TAMANSARI","Prop. Jawa Barat","SMA","-7.3781000","108.2307000"
"20229162","SMAS MAWADDAH","JL. UTAN JAYA","Prop. Jawa Barat","SMA","-6.4479883","106.8116350"
"20214968","SMAN 1 BEBER","JL. RAYA BEBER NO. 233","Prop. Jawa Barat","SMA","-6.8321000","108.5218000"
"20202317","SMAN 1 CIBADAK","JL. PERINTIS KEMERDEKAAN 72 CIBADAK","Prop. Jawa Barat","SMA","-6.8875000","106.7749000"
"20209193","SMAN 20 GARUT","JL. SURAPATI NO. 19","Prop. Jawa Barat","SMA","-7.4941000","107.9148000"
"20268950","SMAS NURUL HIKMAH","GG. DUKUH KP. PADURENAN RT 05 RW 13 NO 2","Prop. Jawa Barat","SMA","-6.4537367","106.8511583"
"20224544","SMAS PLUS NASRUL HAQ","Sukasari","Prop. Jawa Barat","SMA","-7.4128000","108.1915000"
"20253599","SMAS PENABUR","JL. HARAPAN INDAH BULEVAR KAV.21","Prop. Jawa Barat","SMA","-6.1881000","106.9807000"
"20219787","SMAS MUTIARA 2 BANDUNG","RAYA CIBEREUM NO. 10","Prop. Jawa Barat","SMA","-6.9141000","107.5816000"
"20200674","SMAS TARBIYATUL FALAH","JL. ABDUL FATAH KM 4 DESA CINANGKA","Prop. Jawa Barat","SMA","-6.5853000","106.7055000"
"20212962","SMA NEGERI 1 KADUGEDE","JL. RAYA KADUGEDE NO. 65","Prop. Jawa Barat","SMA","-7.0049000","108.4506000"
"20253152","SMAN 1 SUKADANA","JL.GARDU CIILAT","Prop. Jawa Barat","SMA","-7.2198000","108.5139000"
"20270709","SMAS INFORMATIKA","JL. RAYA PENGARENGAN NO. 1 DS. SUKADAYA SUKAWANGI","Prop. Jawa Barat","SMA","-6.1216000","107.1670000"
"20214996","SMAN 1 JAMBLANG","JL. NYI MAS RARAKERTA KLANGENAN NO.33","Prop. Jawa Barat","SMA","-6.6990000","108.4525000"
"20219792","SMAS TRI MULIA","JL. DJUNJUNAN NO. 105","Prop. Jawa Barat","SMA","-6.8962000","107.5894000"
"20247155","SMAS ISLAM MIFTAUSSA`ADAH","JL. PAKUWON KM. 01","Prop. Jawa Barat","SMA","-6.8344000","106.7555000"
"20220329","SMAS KESATUAN","JL. PAJAJARAN,KOMP. PULO ARMEN","Prop. Jawa Barat","SMA","-6.6139183","106.8119467"
"20215992","SMAN 1 SLIYEG","JL. RAYA SLEMAN","Prop. Jawa Barat","SMA","-6.4859000","108.3903000"
"20227843","SMA KP 2 PASEH","JL. CIGARUKGAK - KADURIUNG","Prop. Jawa Barat","SMA","-7.0567000","107.7942000"
"20232335","SMAS FATHAN MUBINA","JL. VETERAN III (RAYA TAPOS) NO. 23 A DS. BANJARSARI CIAWI","Prop. Jawa Barat","SMA","-6.6779000","106.8646000"
"20228433","SMAS DAARUL ILMI CIPEUNDEUY","Kp. Ciwaru RT.04 RW.09","Prop. Jawa Barat","SMA","-6.8470000","107.5899000"
"20200885","SMAN 1 CIBINONG","Jl. Mayor Oking Jayaatmaja No. 73 Kel. Ciriung","Prop. Jawa Barat","SMA","-6.4703533","106.8618067"
"20253249","SMAS GEMILANG YASIFA","JL. RAYA BABAKAN MADANG - SENTUL DS. CITARINGGUL","Prop. Jawa Barat","SMA","-6.5614000","106.8570000"
"69945707","SMA AN NAJA BOARDING SCHOOL","KOMP. PONDOK PESANTREN SABIILUNNAJA RT.01 RW.11","Prop. Jawa Barat","SMA","-6.7772672","107.3706780"
"20253322","SMAS CITRA MADANI","JL. RAYA JAKARTA - BOGOR KM 43 KEL. PABUARAN","Prop. Jawa Barat","SMA","-6.4741017","106.8461617"
"20210778","SMAS PGRI 43 SINGAPARNA","JL. SUKASENANG","Prop. Jawa Barat","SMA","-7.3474000","108.1190000"
"69774555","SMA ISLAM AL-AZHAR 8","Jalan Boulevard Utara Blok I Summarecon Bekasi","Prop. Jawa Barat","SMA","-6.2097000","107.0130000"
"20224106","SMA PASUNDAN 1","JL. TERUSAN NO. 32","Prop. Jawa Barat","SMA","-6.9256000","107.5615000"
"20233650","SMAS MUHAMMADIYAH SUKAMANDI","JL. JEND. AHMAD YANI NO. 4 SUKAMANDI CIASEM","Prop. Jawa Barat","SMA","-6.3389000","107.6671000"
"20257102","SMAS IT THORIQ BIN ZIYAD","JL. Toyogiri Selatan, Kel Jatimulya, Kec Tambun Selatan","Prop. Jawa Barat","SMA","-6.2696000","107.0294000"
"20213874","SMA PRAKARYA SINDANG","Jl. Pondok Mufidah Santi Asromo","Prop. Jawa Barat","SMA","-6.8358000","108.3080000"
"20227435","SMAS ASSHIDDIQIYAH","JL. PAMEKARAN NO. 668","Prop. Jawa Barat","SMA","-7.2133000","107.9247000"
"20268467","SMAS IT-TQ IHYA AS SUNNAH","JL. TERUSAN PASEH-BCANO. 11","Prop. Jawa Barat","SMA","-7.3463000","108.2099000"
"20247173","SMAS YPGHI NAGRAK","JL. Gudang Balekambang Kec.Nagrak","Prop. Jawa Barat","SMA","-6.8718000","106.8037000"
"69933838","SMA IT FITHRAH INSANI","JL. H.GOPUR NO.10","Prop. Jawa Barat","SMA","-6.8476237","107.5086470"
"69809508","SMA PLUS PANCATENGAH","Jl. Buniasih KM 4 Kp. Ciceuri RT 009 RW 003","Prop. Jawa Barat","SMA","-7.6985000","108.3076000"
"20212959","SMA NEGERI 1 LURAGUNG","JL. RAYA LURAGUNG KUNINGAN","Prop. Jawa Barat","SMA","-7.0141000","108.6204000"
"69824839","SMA NEGERI 1 SAGULING","KP. JALUPANG RT.04 RW.03","Prop. Jawa Barat","SMA","-6.9003000","107.4420000"
"20203743","SMA NEGERI  1 CIRANJANG","JL. JATI PASIR SANTA CIRANJANG","Prop. Jawa Barat","SMA","-6.8181000","107.2470000"
"69849088","SMAN BABAKANCIKAO","Jl. Raya Industri Kp. Krajan RT.05/03","Prop. Jawa Barat","SMA","-6.5077000","107.4209000"
"69893852","SMA ALEXANDRIA ISLAMIC SCHOOL","JL. PENGASINAN RAYA NO 50","Prop. Jawa Barat","SMA","-6.2807930","107.0033400"
"20223063","SMAS IT YAPIDH","JL. KOMSEN KRANGGAN KM.3 JATILUHUR JATIASIH","Prop. Jawa Barat","SMA","-6.3045000","106.9593000"
"20231339","SMAN 3 CIBINONG","PERUMAHAN BOGOR ASRI","Prop. Jawa Barat","SMA","-6.5108130","106.8231050"
"20219248","SMAN 24 BANDUNG","JL. A.H. NASUTION NO. 27","Prop. Jawa Barat","SMA","-6.9084000","107.6884000"
"20238023","SMAS PGRI TAMBUN SELATAN","JL. KEBON KELAPA NO. 99 TAMBUN SELATAN","Prop. Jawa Barat","SMA","-6.2701000","107.0669000"
"20217461","SMAN 1 BUNGURSARI","JL. RAYA BUNGURSARI BLK 122","Prop. Jawa Barat","SMA","-6.4786000","107.4793000"
"20214976","SMAS PUI GEGESIK","JL. RAYA KI PANUNGGUL","Prop. Jawa Barat","SMA","-6.5927000","108.4470000"
"20227905","SMAN 1 KATAPANG","JL. KIARAEUNYEUH","Prop. Jawa Barat","SMA","-7.0083000","107.5579000"
"20229747","SMAN 1 SUKASARI","JL. DS. KERTAMANAH","Prop. Jawa Barat","SMA","-6.5382000","107.2941000"
"20232391","SMAS PGRI JONGGOL","JL. M. BAKRI KAUM JONGGOL","Prop. Jawa Barat","SMA","-6.4693000","107.0608000"
"69897177","SMA DARUN NASYA","KP. PASIRHANDAP RT.01 RW.14 PAGERWANGI","Prop. Jawa Barat","SMA","-6.8312590","107.6781360"
"20217765","SMAN 4 KARAWANG","JL. Jend.Ahmad Yani","Prop. Jawa Barat","SMA","-6.3001000","107.3006000"
"20231324","SMAN 1 CIBUNGBULANG","JL. KAPTEN DASUKI BAKRI DESA CIBATOK 01","Prop. Jawa Barat","SMA","-6.5874000","106.6629000"
"20219804","SMAS MUHAMMADIYAH 4","JL. CILENGKRANG II NO. 7","Prop. Jawa Barat","SMA","-6.9155000","107.7179000"
"20251809","SMAS YAPINK TAMBUN SELATAN","JL. RAYA SULTAN HASANUDIN NO. 226","Prop. Jawa Barat","SMA","-6.2619000","107.0606000"
"20231308","SMAS KORNITA","JL. TANJUNG KAMPUS IPB BOGOR, DESA BABAKAN","Prop. Jawa Barat","SMA","-6.5841000","106.7404000"
"20215022","SMAS NASRUL ULUM GEGESIK","JL. RAYA JAGAPURA GEGESIK","Prop. Jawa Barat","SMA","-6.5387000","108.4162000"
"20237449","SMAS KHARISMA KARAWANG","JL. Raya By Pass KM 3 Tanjung Mekar","Prop. Jawa Barat","SMA","-6.2754000","107.2732000"
"20217358","SMAN 1 SUKATANI","JL. JATI JAJAR NO. 20","Prop. Jawa Barat","SMA","-6.6128000","107.4103000"
"20214967","SMAN 1 CILEDUG","JL.SILIWANGI NO.151","Prop. Jawa Barat","SMA","-6.9102000","108.7380000"
"20224513","SMAS PANCASILA TASIKMALAYA","JL. KHZ. MUSTOFA NO. 298","Prop. Jawa Barat","SMA","-7.3407000","108.2040000"
"20227475","SMAN 6 GARUT","JL. GUNTUR MELATI NO. 12 GARUT","Prop. Jawa Barat","SMA","-7.1965320","107.9064400"
"69944359","SMA NURUL AMIN","Kp. Pasirmuncang RT 03 RW 07","Prop. Jawa Barat","SMA","-7.2188000","107.8502000"
"20227900","SMAN 1 NAGREG","JL. RAYA NAGREG KM. 38 GAMBLUNG NAGREG","Prop. Jawa Barat","SMA","-7.0182920","107.8900410"
"20276140","SMAS AL-MADINAH CIBATU","JL. SALAM- CIBATU RW 05","Prop. Jawa Barat","SMA","-7.0844000","107.9650000"
"20229160","SMAS AVICENA CINERE","FLAMBOYAN BLOK F","Prop. Jawa Barat","SMA","-6.3418000","106.7799000"
"20210768","SMAN 1 CIAWI","JL. PASIRHUNI NO.10","Prop. Jawa Barat","SMA","-7.1381000","108.1441000"
"20276398","SMAS PGRI NARINGGUL","JL. RAYA NARINGGUL NO. 1","Prop. Jawa Barat","SMA","-7.3337000","107.3288000"
"20276429","SMAN 17 BEKASI","JL H ILYAS RT 02/12 JAKAMULYA","Prop. Jawa Barat","SMA","-6.2552000","106.9667000"
"20221588","SMAS NURUL KAROMAH","JL. KARAMAT NO. 79 SUKABUMI","Prop. Jawa Barat","SMA","-6.9072000","106.9173000"
"20267642","SMAN 1 RONGGA","Jln. Cinemrang","Prop. Jawa Barat","SMA","-6.9683000","107.2964000"
"20231348","SMAS PGRI RUMPIN","Kp. Leuwihalang Rt 02/05","Prop. Jawa Barat","SMA","-6.5041000","106.6542000"
"20222365","SMAN 2 CIREBON","JL CIPTO MANGUNKUSUMO NO. 01","Prop. Jawa Barat","SMA","-6.7539000","108.5421000"
"69915817","SMAN 1 TEGALWARU","JL. PANGKALAN-LOJI","Prop. Jawa Barat","SMA","-6.5624918","107.2400346"
"20247166","SMAS AL MANSHURIYAH","JL. MOHAMMAD AMIR KM. 9 BOJONGGENTENG","Prop. Jawa Barat","SMA","-6.8175000","106.7066000"
"20224510","SMA Negeri 2 Tasikmalaya","JL. R.E. MARTADINATA NO.261","Prop. Jawa Barat","SMA","-7.3021000","108.2029000"
"69928480","SMAS BINA UMAT","Jl. Raya Pertamina Kp. Kedaung RT.07/02","Prop. Jawa Barat","SMA","-6.1563662","107.0342705"
"20219797","SMAS KRISTEN DAGO","JL. IR. H. JUANDA 93 BANDUNG","Prop. Jawa Barat","SMA","-6.8967000","107.6116000"
"20223076","SMAS MANDALAHAYU","JL. MARGAHAYU JAYA NO. 304","Prop. Jawa Barat","SMA","-6.2503000","107.0189000"
"20247286","SMAS NASIONAL","JL.SADANG SERANG","Prop. Jawa Barat","SMA","-6.8864000","107.6260000"
"20209232","SMAN 22 GARUT","JL. RAYA CISOMPET","Prop. Jawa Barat","SMA","-7.5550000","107.8083000"
"20252852","SMAS AL KAHFI","JL. SPN LIDO","Prop. Jawa Barat","SMA","-6.7455000","106.8207000"
"20206212","SMA NEGERI 1 GUNUNG HALU","JL. SIMPANG GUNUNG HALU","Prop. Jawa Barat","SMA","-7.0161000","107.3074000"
"20227853","SMA KARYA BUDI CILEUNYI","JL. RAYA TAGOG CIMEKAR NO. 28 CILEUNYI","Prop. Jawa Barat","SMA","-6.9369000","107.7410000"
"20229147","SMAS BINTARA DEPOK","JL. RAYA SAWANGAN NO. 19","Prop. Jawa Barat","SMA","-6.3985000","106.8106000"
"69857937","SMAN 11 Kota Depok","Jl. Margonda Raya","Prop. Jawa Barat","SMA","-6.3832250","106.8273900"
"20229163","SMAS MUHAMMADIYAH PANCORAN MAS","JL. RAYA SAWANGAN NO.112","Prop. Jawa Barat","SMA","-6.3954000","106.8049000"
"69944155","SMA ISLAM TERPADU AN-NUR DUKUHDALEM","JL. DESA DUKUH DALEM BLOK DUKUH","Prop. Jawa Barat","SMA","-6.9729723","108.5872299"
"20220327","SMAS INSAN KAMIL","JL. RD ARIA SURIALAGA BOGOR BARAT","Prop. Jawa Barat","SMA","-6.6010000","106.7829000"
"20251788","SMA YADIKA CICALENGKA","JL. H. DARHAM NO. 122  CIKOPO","Prop. Jawa Barat","SMA","-6.9833000","107.8409000"
"20229151","SMAS PERINTIS DEPOK","JL. SILIWANGI NO. 39 RT. 001/010 PANCORANMAS DEPOK","Prop. Jawa Barat","SMA","-6.3996000","106.8236000"
"20251847","SMAN 1 LANGKAPLANCAR","JL. LANGKAPLANCAR DSN CIBEUREUM","Prop. Jawa Barat","SMA","-7.5027000","108.4216000"
"60730230","SMAS MIFTHAUSSAADAH","KP.SALIMAH RT 04/01 DESA GINTUNG CILEJET","Prop. Jawa Barat","SMA","-6.3563000","106.5289000"
"69758462","SMAS AL-IDRIS","KP. PARASALIAN RT 04 RW 01","Prop. Jawa Barat","SMA","-7.3338000","108.0724000"
"20253340","SMAS PAMOR","Jl. Akhmad  Yani Cikampek-Karawang","Prop. Jawa Barat","SMA","-6.4054000","107.4521000"
"20253557","SMAS MATHLAHUL HUDA","JL.MOH.TOHA NO.10 DESA CIBUNAR","Prop. Jawa Barat","SMA","-6.3433000","106.5640000"
"20227471","SMAN 5 GARUT","JL. CIKOPO","Prop. Jawa Barat","SMA","-7.6365000","107.7316000"
"69734347","SMAN 1 RAWAMERTA","JL. GARUNGGUNG RAWAMERTA","Prop. Jawa Barat","SMA","-6.1988000","107.3535000"
"69906513","SMA ISLAM AL-ISTIQOMAH","Komplek Pontren Al-Istiqomah Ciheulang Karang tengah","Prop. Jawa Barat","SMA","-6.8369000","107.1869000"
"20231337","SMAN 1 SUKARAJA","JL. BABAKAN TUMAS","Prop. Jawa Barat","SMA","-6.5848000","106.8450000"
"20268875","SMAS AL HIKMAH","Jl. Abdul Fatah Kp. Tapos Lebak","Prop. Jawa Barat","SMA","-6.6313000","106.6935000"
"69904078","SMA AL-HASBI ","Jl. Raya Cibeber Kp. Nyelempet Wetan","Prop. Jawa Barat","SMA","-6.8782300","107.1434003"
"20217762","SMAN 1 TEMPURAN","JL. Suryakencana Pagadungan","Prop. Jawa Barat","SMA","-6.1888000","107.4532000"
"69870886","SMA KRISTEN PENABUR SUMMARECON BEKASI","BOULEVARD UTARA KP TELUK BUYUNG","Prop. Jawa Barat","SMA","-6.2273000","107.0052000"
"20210740","SMAN 1 SINGAPARNA","JL. PAHLAWAN KHZ MUSTHAFA","Prop. Jawa Barat","SMA","-7.3544000","108.1194000"
"69881554","SMA PLUS AL-MUSLIMUN","JL SELAJAMBE PERAPATAN TUNGTURUNAN DS HEGARMANAH","Prop. Jawa Barat","SMA","-6.8579800","107.2230080"
"20214985","SMAN 1 PALIMANAN","JL. KH. AGUS SALIM NO. 128 PALIMANAN","Prop. Jawa Barat","SMA","-6.7159000","108.4281000"
"69916542","SMA IT AL IZZAH","Kp. Cibungur","Prop. Jawa Barat","SMA","-6.9493000","106.9448000"
"20227833","SMA DARMAYANTI CIMAUNG","JL. CANGKUANG MADUR MALASARI CIMAUNG","Prop. Jawa Barat","SMA","-7.0742000","107.5484000"
"20221558","SMAS YAYASAN AHMAD DJUWAENI","JL. VETERAN I NO. 36 SUKABUMI","Prop. Jawa Barat","SMA","-6.9260000","106.9132000"
"20227863","SMA MUHAMMADIYAH 5 RANCAEKEK","JL. RAYA RANCAEKEK MAJALAYA NO. 85 RANCAEKEK","Prop. Jawa Barat","SMA","-6.9592000","107.7615000"
"20247276","SMAS LAZUARDI GIS","JL. KAMPUS (PAKIS) RAYA SAWANGAN","Prop. Jawa Barat","SMA","-6.3971000","106.7745000"
"69855412","SMAS  PERGURUAN ADVENT BOGOR","JL. PAJAJARAN NO. 39","Prop. Jawa Barat","SMA","-6.6195650","106.8154910"
"20200602","SMAN 1 PARUNG","JL. WARU JAYA NO. 17 PARUNG DS. WARU JAYA","Prop. Jawa Barat","SMA","-6.4369000","106.7110000"
"69899135","SMA TUNAS NUSANTARA","Jl. Sopyan Sukendar No. 1","Prop. Jawa Barat","SMA","-7.3388023","108.0056356"
"20203704","SMAS KANAAN","JL. HOS COKROAMINOTO NO. 64","Prop. Jawa Barat","SMA","-6.8144000","107.1442000"
"20224514","SMA Negeri 9 Tasikmalaya","JL. LEUWIDAHU NO. 61","Prop. Jawa Barat","SMA","-7.2909000","108.1997000"
"20238520","SMAS YP 17","JL. GUNUNG BATU LOJI NO.144","Prop. Jawa Barat","SMA","-6.5892000","106.7712000"
"20253848","SMAS ISLAM AN NUR","JL. KH. MUCHTAR TABRANI 51 KALIABANG","Prop. Jawa Barat","SMA","-6.2064000","107.0132000"
"20210746","SMAS AL HIDAYAH CUKANGKAWUNG","JL. ANGGACANDRA NO. 133 CUKANGKAWUNG","Prop. Jawa Barat","SMA","-7.4744000","108.0170000"
"20251790","SMA YPPI BALEENDAH","JL. SITU SIPATAHUNAN NO. 09 BALEENDAH","Prop. Jawa Barat","SMA","-7.0105162","107.6289913"
"20217359","SMAN 1 TEGALWARU","JL. WARUNG JERUK","Prop. Jawa Barat","SMA","-6.6532000","107.3289000"
"20220349","SMAS YASIH","JL. BARANANGSIANG INDAH CIKEAS","Prop. Jawa Barat","SMA","-6.6131890","106.8297770"
"20238016","SMAS KARYA IMAN","JL. CEMARA RAYA MEADOW GREEN LIPPO CIKARANG","Prop. Jawa Barat","SMA","-6.3376000","107.1406000"
"20211490","SMAN 1 KAWALI","JL. PORONGGOL RAYA NO.9 KAWALI","Prop. Jawa Barat","SMA","-7.1869000","108.3639000"
"20254358","SMAS GLOBAL MANDIRI","JL. TRANS YOGI KM. 6 KOTA LEGENDA WISATA","Prop. Jawa Barat","SMA","-6.4070000","106.9402000"
"69883634","SMA PLUS AT-TAQWA","KOMPLEK BTN GRIYA BINONG INDAH BLOK F RT 05/04 DS CIBINONGHILIR","Prop. Jawa Barat","SMA","-6.8632290","107.1747910"
"20227918","SMA PASUNDAN RANCAEKEK","JL. DAHLIA RAYA BUMI RANCAEKEK KENCANA","Prop. Jawa Barat","SMA","-6.9744000","107.7568000"
"20252154","SMAS PERJUANGAN DWI WARNA","JL. BY PASS KLIWED NO. 155","Prop. Jawa Barat","SMA","-6.5160000","108.3444000"
"20222383","SMAS KARTIKA III-5 CIREBON","JL. KARANG JALAK NO. 61","Prop. Jawa Barat","SMA","-6.7304000","108.5458000"
"20219243","SMAN 11 BANDUNG","JL. KEMBAR BARU NO.23 BANDUNG","Prop. Jawa Barat","SMA","-6.9435000","107.6172000"
"20220547","SMAS ANANDA","JL. LAWANGGINTUNG KOMPLEK KPKN NO.25 RT 06/VI","Prop. Jawa Barat","SMA","-6.6188183","106.8119700"
"20227873","SMAS PANCA KARSA LEMBANG","JL KIWI KAYU AMBON NO. 32 LEMBANG","Prop. Jawa Barat","SMA","-6.8254000","107.6267000"
"20216200","SMAS NU KAPLONGAN","JL. RAYA KAPLONGAN NO.28","Prop. Jawa Barat","SMA","-6.4764000","108.4591000"
"20247170","SMAS ULUL AL-BAAB","JL. MAMA KH. OYON NO. 11 KP. CIHAUR RT 04/04","Prop. Jawa Barat","SMA","-6.9240000","106.8456000"
"20229171","SMA PGRI DEPOK","Jl. Pemuda Gg. Belimbing 3 No. 2","Prop. Jawa Barat","SMA","-6.4049000","106.8235000"
"20244672","SMAS MUHAMMADIYAH LEMAHABANG","JL. KH. ACHMAD DAHLAN NO. 1","Prop. Jawa Barat","SMA","-6.8396000","108.6362000"
"20202288","SMAN 1 CIKEMBAR","JL. PELABUAN 2 KM. 20 CIKEMBAR SUKABUMI","Prop. Jawa Barat","SMA","-6.9618450","106.7847817"
"20227440","SMAS MAARIF PEUNDEUY","Kp. Jinten RT 06 RW 03","Prop. Jawa Barat","SMA","-7.5488000","107.9062000"
"20227889","SMAN 1 DAYEUHKOLOT","JL. SUKAPURA DAYEUHKOLOT NO. 99","Prop. Jawa Barat","SMA","-6.9685000","107.6341000"
"60724689","SMA PGRI CIKIDANG ","PERKEBUNAN CILENTAB Rt. 012 Rw. 003","Prop. Jawa Barat","SMA","-6.8713000","106.6968000"
"20211509","SMAN 1 RANCAH","JL. RAYA CISAGA -RANCAH KM. 2 RANCAH","Prop. Jawa Barat","SMA","-7.2086000","108.5039000"
"20233751","SMAS MAARIF LOH BENER","JL. SURYANEGARA NO.1","Prop. Jawa Barat","SMA","-6.4144000","108.2928000"
"69856919","SMAS PLUS AL FURQON CIBIUK","Jl. Pulo Baru No. 1 Desa Cibiuk Kaler","Prop. Jawa Barat","SMA","-7.0797240","107.9554620"
"69851425","SMA NEGERI 10 DEPOK","JL. RAYA CURUG RT 01/06","Prop. Jawa Barat","SMA","-6.3962430","106.7352530"
"20269747","SMA NURUL FIKRI BOARDING SCHOOL LEMBANG","JL. CISARONGGE-CIDADAP RT/RW 004/04","Prop. Jawa Barat","SMA","-6.8199000","107.6740000"
"20227856","SMA MAJALAYA PUTRA","Jl. PASAR BARU NO. 75","Prop. Jawa Barat","SMA","-7.0500000","107.7645000"
"60726449","SMAS GEETA SCHOOL","JL. DR SUDARSONO NO. 42 CIREBON 45131","Prop. Jawa Barat","SMA","-6.7373000","108.5638000"
"20209195","SMAN 15 GARUT","JL. PANAWUAN NO.3A","Prop. Jawa Barat","SMA","-7.2152350","107.8892550"
"69950346","SMA NEGERI 21 KOTA BEKASI","JL. GAMPRIT JATIWARINGIN ASRI","Prop. Jawa Barat","SMA","-6.2598565","106.9363882"
"20265274","SMAS MATHLA UL ANWAR","JL. RAYA BATU JAYA KM. 2","Prop. Jawa Barat","SMA","-6.0760000","107.1897000"
"20213895","SMAN 1 LIGUNG","JL. RAYA BARAT LIGUNG","Prop. Jawa Barat","SMA","-6.6521000","108.2793000"
"20227879","SMA PUTRA INDONESIA PASEH","JL. RAJA DESA RT 06 RW 05","Prop. Jawa Barat","SMA","-7.0567190","107.7812130"
"20227816","SMA PLUS BABUSSALAM CIMENYAN","JL. KP  BABAKAN NO 2-6  RT 1 RW 1","Prop. Jawa Barat","SMA","-6.8569390","107.6441650"
"20219800","SMAS MAARIF BANDUNG","JL. GALUNGGUNG NO. 9","Prop. Jawa Barat","SMA","-6.9279000","107.6252000"
"20231280","SMAS BINA RUHAMA","JL. SUKARAJA CIMAHPAR KAUM, DS. SUKARAJA","Prop. Jawa Barat","SMA","-6.5892000","106.8391000"
"20271298","SMAS YADIKA SUMEDANG","JL. RAYA TANJUNGSARI NO 394 A TANJUNGSARI SUMEDANG","Prop. Jawa Barat","SMA","-6.8973000","107.8089000"
"69907337","SMA IT ASSYIFA","cisurupan","Prop. Jawa Barat","SMA","-7.3037000","107.7895000"
"20227908","SMA NEGERI 1 NGAMPRAH","Jl. Kenanga Raya PCI 2 Rt.01 Rw.19 Desa Tani Mulya Ngamprah","Prop. Jawa Barat","SMA","-6.8570000","107.5347000"
"69899353","SMA MADYA UTAMA","KP. KUBANG N0.02 RT.01 RW.05 NANGGERANG","Prop. Jawa Barat","SMA","-7.0209000","107.4656000"
"20237995","SMAN 2 TAMBUN UTARA","PERUM ALAMANDA REGENCY BLOK F TAMBUN  UTARA","Prop. Jawa Barat","SMA","-6.2332000","107.0506000"
"69931917","SMA PGRI MALANGBONG","Kp. Gudang Desa. Cisitu","Prop. Jawa Barat","SMA","-7.0554000","108.0873000"
"20252015","SMAS PASUNDAN 2 CIANJUR","JL. MOH. ALI NO.66","Prop. Jawa Barat","SMA","-6.8225000","107.1426000"
"20231717","SMAS NASIONAL 1","JL. RAYA HANKAM BOJONG NANGKA II NO. 38","Prop. Jawa Barat","SMA","-6.2952000","106.9184000"
"20217784","SMAN 1 CILAMAYA","Jl. Sukatani","Prop. Jawa Barat","SMA","-6.2290000","107.5544000"
"20211499","SMAN 3 CIAMIS","JL. BOJONGHUNI NO. 87 CIAMIS","Prop. Jawa Barat","SMA","-7.3199433","108.3391617"
"20232319","SMAS BINA PENDIDIKAN 2","DS. CIANGSANA RT. 3/9","Prop. Jawa Barat","SMA","-6.3462000","106.9613000"
"69896002","SMA PLUS AL-QOMARIYAH WALAHIR","JL. WALAHIR No. 2","Prop. Jawa Barat","SMA","-7.2515800","107.7952590"
"20203722","SMA NEGERI 1 warungkondang","JL. PASIRHUNI NO.15 GEKBRONG","Prop. Jawa Barat","SMA","-6.9079000","107.0881000"
"20221560","SMAN 2 SUKABUMI","JL. KARAMAT NO. 93 SUKABUMI","Prop. Jawa Barat","SMA","-6.9073000","106.9178000"
"20220323","SMAS BINA SEJAHTERA","JL. LEDENG SINDANGSARINO.5","Prop. Jawa Barat","SMA","-6.5916000","106.7806000"
"20258166","SMAS IT DARUL RAHMAN","Jl. Sawangan Elok 1 RT 03/08","Prop. Jawa Barat","SMA","-6.4278000","106.7335000"
"20232353","SMAS BINA INSAN JONGGOL","JL. BARU MENAN DESA SUKAMAJU KEC. JONGGOL","Prop. Jawa Barat","SMA","-6.4519000","107.0628000"
"20231299","SMAS INDOCEMENT","JL. RAYA PUSPA NEGARA NO. 1 KEL. PUSPA NEGARA","Prop. Jawa Barat","SMA","-6.4841000","106.8783000"
"20272023","SMAS DARUL QUR AN","Jalan Nagrog No. 85","Prop. Jawa Barat","SMA","-6.9090330","107.7143250"
"20267968","SMAN 1 CIKAKAK","JL. PADURENAN KM.1 CIKAKAK","Prop. Jawa Barat","SMA","-6.9586000","106.4977000"
"20233660","SMAS PGRI KALIJATI","JL. RAYA KALIJATI TIMUR","Prop. Jawa Barat","SMA","-6.5255000","107.6761000"
"69888996","SMA NEGERI 1 BOJONGGEDE","JL. Kemuning IV No. 71 Cimanggis Bojonggede","Prop. Jawa Barat","SMA","-6.5079760","106.7793480"
"20219306","SMAN 6 BANDUNG","JL. PASIR KALIKI NO. 51","Prop. Jawa Barat","SMA","-6.9113000","107.5978000"
"20210763","SMAN 1 JATIWARAS","JL. RAYA PAPAYAN","Prop. Jawa Barat","SMA","-7.4674000","108.2018000"
"20270492","SMAN 8 DEPOK","JL. M. NASIR RT 01/08","Prop. Jawa Barat","SMA","-6.4245130","106.8468880"
"20215979","SMAN 1 JATIBARANG","JL. AMPERA 100","Prop. Jawa Barat","SMA","-6.4640000","108.3144000"
"20227865","SMAS MUSLIMIN CILILIN","JL. RAYA WARUNG AWI DESA BONGAS CILILIN","Prop. Jawa Barat","SMA","-6.9627000","107.4346000"
"20229140","SMAS AL HASRA","JL. RAYA CIPUTAT-PARUNG","Prop. Jawa Barat","SMA","-6.3910000","106.7443000"
"20208423","SMAN JATINUNGGAL","JL. RAYA TARIKOLOT - SIRNASARI - JATINUNGGAL - SUMEDANG","Prop. Jawa Barat","SMA","-6.9456000","108.1245000"
"20253974","SMAS TRISULA","JL. TLANJUNG UDIK NO. 15","Prop. Jawa Barat","SMA","-6.4516000","106.9084000"
"20221586","SMAS ADVENT SUKABUMI","JL. VETERAN II NO. 8 SUKABUMI","Prop. Jawa Barat","SMA","-6.9474000","106.9233000"
"20231292","SMAS DARUSSALAM PURWASARI","JL. H. MUSTOFA NO. 13 DESA PURWASARI","Prop. Jawa Barat","SMA","-6.6260000","106.7193000"
"20232322","SMAS BUMI SEJAHTERA","JL. RAYA CIBUNGBULANG KM 18 DS. CIMANGGU I","Prop. Jawa Barat","SMA","-6.5967000","106.6682000"
"20217786","SMAN 1 KARAWANG","JL. Jendral Ahmad Yani","Prop. Jawa Barat","SMA","-6.2916000","107.2879000"
"20216212","SMAS YSMP CANDRADIMUKA","JL. ERETAN WETAN","Prop. Jawa Barat","SMA","-6.3294000","108.0847000"
"20232324","SMAS CISARUA","JL. RAYA PUNCAK KM. 80 DS.CISARUA","Prop. Jawa Barat","SMA","-6.6849000","106.9351000"
"20217459","SMAS PASUNDAN PURWAKARTA","JL. LAKS. RE. MARTADINATA NO. 111","Prop. Jawa Barat","SMA","-6.5596000","107.4441000"
"20227858","SMA MEKAR ARUM CILEUNYI","JL. RAYA CINUNUK NO. 82 DESA CINUNUK KECAMATAN CILEUNYI KABUPATEN BANDUNG","Prop. Jawa Barat","SMA","-6.9365280","107.7312190"
"20215991","SMAN 1 SINDANG","JL. MT. HARYONO","Prop. Jawa Barat","SMA","-6.3299000","108.3200000"
"20222364","SMAN 1 CIREBON","JL. WAHIDIN SUDIROHUSODO NO. 81","Prop. Jawa Barat","SMA","-6.7109760","108.5514410"
"20227455","SMAS YKBBB LELES","JL. RAYA TUTUGAN LELES","Prop. Jawa Barat","SMA","-7.1170000","107.8962000"
"20214965","SMAN 1 DUKUPUNTANG","JL. NYI AGENG SERANG","Prop. Jawa Barat","SMA","-6.7628000","108.4458000"
"20268524","SMAN 7 KOTA DEPOK","Perumahan The  Address","Prop. Jawa Barat","SMA","-6.3942000","106.8843000"
"20202265","SMAN 1 LENGKONG","JL. RAYA  TEGALLEGA","Prop. Jawa Barat","SMA","-7.1303000","106.7039000"
"20246434","SMAS BS MIFTAHUL ULUM TERISI","JL. SUMUR WATU","Prop. Jawa Barat","SMA","-6.4943000","108.1400000"
"20227862","SMA MUHAMMADIYAH 4 MARGAHAYU","JL. KOPO NO. 337 SAYATI MARGAHAYU","Prop. Jawa Barat","SMA","-6.9725000","107.5732000"
"20251781","SMA MATHLAUL ANWAR MARGAHAYU","JL. TERUSAN KOPO NO.302","Prop. Jawa Barat","SMA","-6.9761000","107.5677000"
"20237989","SMAN 1 KARANG BAHAGIA","JL. BUYUT KAIPAH NO. 11","Prop. Jawa Barat","SMA","-6.2073000","107.1887000"
"20279932","SMA AL MUKHTARIYAH RAJAMANDALA","JL. STASION RAJAMANDALA NO 01","Prop. Jawa Barat","SMA","-6.8268000","107.3565000"
"20247167","SMA PLUS DARUL HIDAYAH, KABUPATEN SUKABUMI","Kampung Baru RT. 05/01","Prop. Jawa Barat","SMA","-6.7996000","106.7698000"
"69934911","SMA IT YASHUDA","Kp. Sukahurip","Prop. Jawa Barat","SMA","-7.2827721","108.1404858"
"20212958","SMA NEGERI 1 MANDIRANCAN","JL. SILIWANGI NO. 1 A","Prop. Jawa Barat","SMA","-6.8162000","108.4730000"
"69850868","SMA BANDUNG INDEPENDENT SCHOOL","JL. SURYA SUMANTRI 61","Prop. Jawa Barat","SMA","-6.8845000","107.5807000"
"20210775","SMAS PGRI SALAWU","JL. RAYA SALAWU NO.32","Prop. Jawa Barat","SMA","-7.3821000","108.0651000"
"69786347","SMAS ISLAMIC AL-IRSYAD BOARDING SCHOOL","JLN TK YAMIN NO 1 PADARINCANG DS PALASARI KEC CIPANAS","Prop. Jawa Barat","SMA","-7.2713000","107.2073000"
"20228503","SMA IT DANUL FALAH","JL RAYA PINTU CISANGKUY WETAN PANGALENGAN","Prop. Jawa Barat","SMA","-7.1887000","107.5802000"
"20224540","SMA AL MUTTAQIN","JL. A. YANI NO. 140","Prop. Jawa Barat","SMA","-7.3151000","108.2313000"
"20232326","SMAS CITRA NUSA","Jl. KSR Dadi Kusmayadi No. 17","Prop. Jawa Barat","SMA","-6.4741467","106.8304150"
"20213896","SMAN 1 LEUWIMUNDING","JL. RAYA UTARA LEUWIMUNDING","Prop. Jawa Barat","SMA","-6.7767000","108.3419000"
"20227864","SMA MUHAMMADIYAH 6 KERTASARI","JL. LAPANGSARI CIBEUREUM NO.7 KERTASARI","Prop. Jawa Barat","SMA","-7.1945000","107.6749000"
"20209184","SMAS YPI SUKAWENING","JL. RAYA SUKAWENING NO. 77","Prop. Jawa Barat","SMA","-7.1609000","108.0075000"
"69788577","SMA SURURON","Kp.NAGROG RT.01 RW.04 KECAMATAN PASIRWANGI","Prop. Jawa Barat","SMA","-7.2222000","107.7592000"
"20223066","SMAS PGRI 1 BEKASI","JL. CIREBON DUREN JAYA","Prop. Jawa Barat","SMA","-6.2339000","107.0202000"
"20227442","SMAS MUHAMMADIYAH BANYURESMI","JL. KH HASAN ARIEF NO. 10","Prop. Jawa Barat","SMA","-7.1978000","107.9030000"
"20247149","SMAS AMALIYAH","JL. CIDAHU NO.23 CICURUG KAB.SUKABUMI","Prop. Jawa Barat","SMA","-6.7955000","106.7753000"
"20231721","SMAS PATRIOT BEKASI","JL. KALI BARU TIMUR KRANJI","Prop. Jawa Barat","SMA","-6.2213000","106.9767000"
"20221590","SMAS MARDI YUANA","JL. R.E MARTADINATA NO. 54 SUKABUMI","Prop. Jawa Barat","SMA","-6.9210000","106.9320000"
"69858458","SMAN 2 SUKATANI","JL. SINDANGLAYA KM 9 SUKATANI","Prop. Jawa Barat","SMA","-6.5886020","107.3784980"
"20217363","SMAN 3 PURWAKARTA","JL. LETKOL ABDUL KADIR NO. 15","Prop. Jawa Barat","SMA","-6.5421000","107.4394000"
"20227861","SMA MUHAMMADIYAH 3 CIPARAY","JL.RAYA LASWI NO.579 CIPARAY","Prop. Jawa Barat","SMA","-7.0360000","107.7119000"
"20219728","SMAS BPK 2 PENABUR","JL. DURSASANA NO. 8","Prop. Jawa Barat","SMA","-6.9037000","107.5966000"
"20232404","SMAS TERPADU ATAM BINA INSANI","JL. ACE TABRANI NO. 01 PANJAUNGAN","Prop. Jawa Barat","SMA","-6.5666000","106.5743000"
"20227911","SMA AL-FALAH BANJARAN","JL. KACA-KACA DUA RT 03 RW 03 PASIRMULYA BANJARAN","Prop. Jawa Barat","SMA","-7.0984560","107.5926230"
"20216195","SMAS ASSALAFIAH INDRAMAYU","JL. IR. H. JUANDA KM. 04","Prop. Jawa Barat","SMA","-6.3501000","108.3557000"
"20235628","SMAS PLUS GUNA CIPTA","Jl. Parakanmuncang KM.01","Prop. Jawa Barat","SMA","-6.9616000","107.8132000"
"20252288","SMAS PRESIDEN (BOARDING SCHOOL)","JABABEKA EDUCATION PARK JL. KI HAJAR DEWANTARA","Prop. Jawa Barat","SMA","-6.2813000","107.1684000"
"69897254","SMA IT RIJALUL GOD","Kp. Cipari RT 05 RW 02 Caringin","Prop. Jawa Barat","SMA","-7.4368000","107.5321000"
"20227875","SMA PEMUDA BANJARAN","JL.RAYA KAMASAN 243 BANJARAN","Prop. Jawa Barat","SMA","-7.0481790","107.5833140"
"69753773","SMAS ISLAM PUTRA DARMA","JL. BUWEK RAYA","Prop. Jawa Barat","SMA","-6.2410000","107.0791000"
"20237998","SMAN 5 TAMBUN SELATAN","Jl. Sunset Ave Grand Wisata Lambangsari Tambun Selatan","Prop. Jawa Barat","SMA","-6.2851000","107.0389000"
"20227450","SMAS PGRI CIBATU","JL. JENDERAL AHMAD YANI NO. 5","Prop. Jawa Barat","SMA","-7.1008000","107.9866000"
"69881316","SMA AL-HASBILLAH CISOMPET","KP. RANCAPALAH DESA CIHAURKUNING KEC. CISOMPET","Prop. Jawa Barat","SMA","-7.5849000","107.8190000"
"69874367","SMA AL-HIDAYAH","Jl. Puncakwangi","Prop. Jawa Barat","SMA","-7.4055000","106.9570000"
"20237376","SMAN 1 LEMAHABANG","Jl. Syech Quro","Prop. Jawa Barat","SMA","-6.2958330","107.4365550"
