"schoolId","schoolName","schoolAddress","province","school_level","lat","long"
"20300736","SMA MUHAMMADIYAH 1 MAJENANG","JL. KAUMAN NO. 2 JENANG","Prop. Jawa Tengah","SMA","-7.2984000","108.7619000"
"20307640","SMAN 1 BANDONGAN","JL. JANGKUNGAN","Prop. Jawa Tengah","SMA","-7.4603000","110.1834000"
"20300728","SMA NEGERI 2 CILACAP","JL. KETAPANG NO. 75, CILACAP","Prop. Jawa Tengah","SMA","-7.6866000","109.0362000"
"20309706","SMAS MUHAMMADIYAH 5 JUWIRING","JL. BULUREJO","Prop. Jawa Tengah","SMA","-7.6512000","110.7320000"
"20338218","SMAS MA ARIF NU AJIBARANG","JL. RAYA PANDANSARI AJIBARANG","Prop. Jawa Tengah","SMA","-7.4035000","109.0800000"
"20309680","SMAN 1 KARANGANOM","JL. RAYA 3 KARANGANOM","Prop. Jawa Tengah","SMA","-7.6498000","110.6272000"
"20319299","SMAN 3 DEMAK","JL. SULTAN TRENGGONO NO.81","Prop. Jawa Tengah","SMA","-6.9043000","110.5980000"
"20338223","SMAS MUHAMMADIYAH 1 PURWOKERTO","JL. DOKTER ANGKA NO. 1 PURWOKERTO","Prop. Jawa Tengah","SMA","-7.4155960","109.2311680"
"20325279","SMAN 3 SLAWI","JL. PROF. MOH. YAMIN SLAWI","Prop. Jawa Tengah","SMA","-6.9773000","109.1340000"
"20306190","SMAN 10 PURWOREJO","KALIKOTES KEC. PITURUH, PURWOREJO","Prop. Jawa Tengah","SMA","-7.6623000","109.8406000"
"20319283","SMAS PEMBANGUNAN MRANGGEN","JL. KEMBANGARUM NO. 148 MRANGGEN","Prop. Jawa Tengah","SMA","-7.0212000","110.5238000"
"20307711","SMAN 1 NGLUWAR","Dongkelan","Prop. Jawa Tengah","SMA","-7.6557000","110.2745000"
"20329521","SMA Hasyim Asy`ari","Jl. Dr. Wahidin No. 104 Pekalongan","Prop. Jawa Tengah","SMA","-6.8969000","109.6807000"
"20338226","SMAS PGRI GUMELAR","JL. PRAMUKA NO. 4 GUMELAR","Prop. Jawa Tengah","SMA","-7.3599000","108.9706000"
"20300755","SMA NEGERI 1 DAYEUHLUHUR","JL. WIRAPRAJA NO. 17","Prop. Jawa Tengah","SMA","-7.2585000","108.6084000"
"20321853","SMAN 1 LIMBANGAN","JL. RAYA LIMBANGAN BOJA","Prop. Jawa Tengah","SMA","-7.1582000","110.3101000"
"20308626","SMAS MUHAMMADIYAH 4 ANDONG","JL SOLO - KARANGGEDE","Prop. Jawa Tengah","SMA","-7.3748000","110.7677000"
"20308607","SMAS BHINNEKA KARYA 3 TERAS","JL RAYA SOLO - BOYOLALI","Prop. Jawa Tengah","SMA","-7.5415000","110.6605000"
"20311313","SMAS PANCASILA 1 WONOGIRI","JL. DIPONEGORO 69 WONOGIRI","Prop. Jawa Tengah","SMA","-7.8195000","110.9305000"
"20331705","SMAS NU KEJAJAR","JL.  Raya Dieng Km 17 Kejajar","Prop. Jawa Tengah","SMA","-7.2357000","109.9584000"
"20321981","SMAS NU 1 AL HIDAYAH KENDAL","JL. HABIPROYO NO. 1 KENDAL","Prop. Jawa Tengah","SMA","-6.9218000","110.2024000"
"20329846","SMAN 2 TEGAL","JL. LUMBA-LUMBA NO. 24","Prop. Jawa Tengah","SMA","-6.8607000","109.1256000"
"20313071","SMAS MUHAMMADIYAH 2 GEMOLONG","JL. SUKOWATI GEMOLONG","Prop. Jawa Tengah","SMA","-7.3844000","110.8513000"
"20322741","SMA NEGERI 1 SUBAH","JL. RAYA JATISARI SUBAH","Prop. Jawa Tengah","SMA","-6.9760000","109.8889000"
"20313826","SMAS NU PANUNGGALAN","JL. RAYA PANUNGGALAN","Prop. Jawa Tengah","SMA","-7.1286000","111.0687000"
"20319301","SMAN 2 DEMAK","JL. KUDUS NO. 182 DEMAK TELP. (0291) 685840","Prop. Jawa Tengah","SMA","-6.8875000","110.6521000"
"20313050","SMAS BHAKTI PRAJA 3 KALIJAMBE","JL. SOLO - PURWODADI KM. 15","Prop. Jawa Tengah","SMA","-7.4387000","110.8071000"
"20300596","SMA NEGERI 1 CIPARI","JL. MT HARYONO NO.4","Prop. Jawa Tengah","SMA","-7.4280000","108.7439000"
"69892226","SMA Mountainview Christian School","Jl. Nakula Sadewa Raya No.55","Prop. Jawa Tengah","SMA","-7.3392520","110.4771860"
"20331893","SMA AGUS SALIM","Jl. Beruang Raya No. 50","Prop. Jawa Tengah","SMA","-7.0010000","110.4520000"
"20313069","SMAS MUHAMMADIYAH 4 SUMBERLAWANG","JL. RAYA SOLO PURWODADI","Prop. Jawa Tengah","SMA","-7.3206000","110.8609000"
"20331902","SMAS KEBON DALEM","JL. WOTGANDUL BARAT NO.31","Prop. Jawa Tengah","SMA","-6.9784574","110.4240090"
"69936085","SMA WALISONGO KARANGMALANG","Sungkul RT12/04","Prop. Jawa Tengah","SMA","-7.4401000","111.0342000"
"20306189","SMAN 11 PURWOREJO","DS. BUTUH, BUTUHPURWOREJO","Prop. Jawa Tengah","SMA","-7.7261000","109.8642000"
"20300734","SMA NEGERI 1 JERUKLEGI","JL. RAYA JERUKLEGI NO. 23","Prop. Jawa Tengah","SMA","-7.6269000","109.0192000"
"20331704","SMAS MA ARIF WADASLINTANG","JL. WADASLINTANG - PREMBUN KM. 01","Prop. Jawa Tengah","SMA","-7.5378000","109.8010000"
"20328938","SMA ADVENT","JL. MT HARYONO NO. 478","Prop. Jawa Tengah","SMA","-6.9799000","110.4316000"
"20320371","SMA KANISIUS AMBARAWA","JL. MGR. SUGIYOPRANOTO NO. 226","Prop. Jawa Tengah","SMA","-7.2623000","110.3944000"
"20313847","SMAN 1 KRADENAN","JL. HONGGOKUSUMAN NO. 19 KUWU","Prop. Jawa Tengah","SMA","-7.1210000","111.1234000"
"20339023","SMA NEGERI 2 PATI","JL. JENDERAL AHMAD YANI NO. 4","Prop. Jawa Tengah","SMA","-6.7537000","111.0716000"
"20315694","SMA NEGERI 1 KRAGAN","JL. RAYA PANDANGAN, KRAGAN","Prop. Jawa Tengah","SMA","-6.6619140","111.5832420"
"20328927","SMA RONGGOLAWE","JL. DAMARWULAN II NO. 103","Prop. Jawa Tengah","SMA","-6.9782000","110.3796000"
"20331915","SMAS THERESIANA 1","JL. MAYJEN SUTOYO NO.69","Prop. Jawa Tengah","SMA","-6.9858983","110.4274050"
"20320372","SMA ISLAM SUDIRMAN BRINGIN","JL. DIPONEGORO NO. 08","Prop. Jawa Tengah","SMA","-7.2559000","110.5597000"
"20318338","SMA NEGERI 1 TAHUNAN","JL. AMARTA III GTI JEPARA","Prop. Jawa Tengah","SMA","-6.6304000","110.7055000"
"20314891","SMAS MUHAMMADIYAH TODANAN","JL. RAYA TODANAN","Prop. Jawa Tengah","SMA","-6.9390000","111.1799000"
"69760753","SMAS IT IBNU ABBAS","JL. KLATEN-SOLO KM. 4","Prop. Jawa Tengah","SMA","-7.6877680","110.6364020"
"20311314","SMAS MUHAMMADIYAH 2 MANYARAN","JL  RAYA PAGUTAN - MANYARAN","Prop. Jawa Tengah","SMA","-7.8395000","110.8079000"
"20319292","SMAN 1 MIJEN","JL. RAYA BAKUNG NO. 3","Prop. Jawa Tengah","SMA","-6.8344000","110.7209000"
"20330276","SMAS MASEHI PREMBUN","JL. CENDRAWASIH 39 PREMBUN","Prop. Jawa Tengah","SMA","-7.7089000","109.7841000"
"20338216","SMAS JENDERAL SUDIRMAN PWT","JL. GERILYA TIMUR","Prop. Jawa Tengah","SMA","-7.4388000","109.2595000"
"20313029","SMAN 1 TANGEN","JL. RAYA TANGEN - GESI KM. 2, SRAGEN","Prop. Jawa Tengah","SMA","-7.3360000","111.0493000"
"20327563","SMAN 1 MAGELANG","JL. CEMPAKA NO.1 MAGELANG","Prop. Jawa Tengah","SMA","-7.4835000","110.2124000"
"20327966","SMAN 1 SURAKARTA","JL. MONGINSIDI NO. 40","Prop. Jawa Tengah","SMA","-7.5579540","110.8306330"
"20306807","SMA NEGERI 1 WONOSOBO","JL. JOGONEGORO KM. 2","Prop. Jawa Tengah","SMA","-7.3782000","109.8992000"
"20338220","SMAS MA ARIF NU SIRAU KEMRANJEN","JL. SIRAU PO BOX 02 KEMRANJEN","Prop. Jawa Tengah","SMA","-7.5983000","109.2827000"
"20308620","SMAS TUNAS HARAPAN AMPEL","TANGKISAN, KALIGENTONG, AMPEL","Prop. Jawa Tengah","SMA","-7.4403000","110.5349000"
"20309685","SMAN 1 BAYAT","JL. TEGALREJO, BAYAT","Prop. Jawa Tengah","SMA","-7.7816000","110.6793000"
"20321449","SMA NEGERI 3 TEMANGGUNG","JL. MUJAHIDIN,  NO. 1 TEMANGGUNG","Prop. Jawa Tengah","SMA","-7.3215000","110.1727000"
"20358250","SMA HARAPAN BANGSA KALORAN","JL. GUNUNG PAYUNG","Prop. Jawa Tengah","SMA","-7.2744000","110.2543000"
"20320393","SMA MUHAMMADIYAH SUSUKAN","JL. RAYA SRUWEN KARANG GEDE KM 15","Prop. Jawa Tengah","SMA","-7.3939000","110.6201000"
"20300732","SMA NEGERI 1 MAJENANG","JL. RAYA PAHONJEAN","Prop. Jawa Tengah","SMA","-7.3013000","108.7462000"
"20339024","SMA NEGERI 3 PATI","JL. P. SUDIRMAN NO. 1A PATI","Prop. Jawa Tengah","SMA","-6.7568000","111.0191000"
"20320370","SMA KARTIKA III - I BANYUBIRU","JL. RAYA MUNCUL KM. 4","Prop. Jawa Tengah","SMA","-7.2992000","110.4064000"
"20313843","SMAN 1 WIROSARI","JL. RAYA NO.123 WIROSARI","Prop. Jawa Tengah","SMA","-7.0793000","111.0652000"
"20313841","SMAS PGRI KUWU","JL. KOMPLEK LAPANGAN OR. KUWU","Prop. Jawa Tengah","SMA","-7.1339000","111.1260000"
"20321439","SMA NEGERI 2 TEMANGGUNG","JL. PAHLAWAN TEMANGGUNG","Prop. Jawa Tengah","SMA","-7.3255000","110.1781000"
"20309689","SMAN 2 KLATEN","JL. ANGSANA, TRUNUH, KLATEN","Prop. Jawa Tengah","SMA","-7.7215170","110.5757020"
"20313842","SMAS PGRI PURWODADI","JL. LETJEN R. SUPRAPTO NO. 2","Prop. Jawa Tengah","SMA","-7.0913000","110.9151000"
"20302167","SMAN 3 PURWOKERTO","JL. KAMANDAKA BARAT NO. 3","Prop. Jawa Tengah","SMA","-7.4096000","109.2116000"
"20328867","SMA NEGERI 01","Jl. Taman Menteri Supeno No. 1","Prop. Jawa Tengah","SMA","-6.9922000","110.4186000"
"20313845","SMAN 1 PURWODADI","JL. R. SUPRAPTO NO. 82","Prop. Jawa Tengah","SMA","-7.0918000","110.9140000"
"20310496","SMAS GAJAH MADA KARTASURA","SUMBULUN LOR RT.02/XIII","Prop. Jawa Tengah","SMA","-7.5663000","110.7696000"
"20306173","SMAN 5 PURWOREJO","JL. MAGELANG KM. 7 PURWOREJO","Prop. Jawa Tengah","SMA","-7.6715000","110.0355000"
"20331952","SMAS ISLAM WONOSOBO","JL. MASJID NO. 13","Prop. Jawa Tengah","SMA","-7.3489000","109.9054000"
"20317485","SMAS PGRI 1 KUDUS","JL. MEJOBO NO. 73","Prop. Jawa Tengah","SMA","-6.8151000","110.8622000"
"20303946","SMAN 1 WANADADI","JL. RAYA TAPEN-WANADADI","Prop. Jawa Tengah","SMA","-7.3901000","109.5959000"
"20350707","SMAS ISLAM SUDIRMAN KEDUNGJATI","JL. P. KEMERDEKAAN NO. 97 KEDUNGJATI","Prop. Jawa Tengah","SMA","-7.1580000","110.6331000"
"20331978","SMAN 2 MAGELANG","JL. JEND. URIP SUMOHARJO","Prop. Jawa Tengah","SMA","-7.4818000","110.2344000"
"20319289","SMAS MIFTAHUL HUDA GAJAH","JL. TAMAN SISWA NO. 07","Prop. Jawa Tengah","SMA","-6.9066000","110.7144000"
"20313048","SMAN 1 GEMOLONG","JL. CITROSANCAKAN GEMOLONG","Prop. Jawa Tengah","SMA","-7.4005000","110.8372000"
"20307645","SMAS MUHAMMADIYAH SECANG","JL. H. ABU BAKRIN NO.1","Prop. Jawa Tengah","SMA","-7.3968000","110.2398000"
"20309683","SMAN 1 CEPER","JL. KAJEN - KAJEN","Prop. Jawa Tengah","SMA","-7.6921000","110.6775000"
"20311305","SMAN 1 MANYARAN","DK. PAGEYAN, DESA BERO","Prop. Jawa Tengah","SMA","-7.8549000","110.8353000"
"20317494","SMAN 1 KUDUS","JL. PRAMUKA 41 KUDUS","Prop. Jawa Tengah","SMA","-6.8113000","110.8516000"
"20329864","SMAS NAHDLATUL ULAMA","JL. DR. WAHIDIN SUDIROHUSODO NO. 4","Prop. Jawa Tengah","SMA","-6.8745000","109.1122000"
"20307639","SMAS MUHAMMADIYAH BOROBUDUR","JL. SYAILENDRA RAYA BOROBUDUR","Prop. Jawa Tengah","SMA","-7.6224000","110.2186000"
"20331907","SMA MASEHI 2 PSAK","Jl. Gemah Raya No. 8","Prop. Jawa Tengah","SMA","-7.0234000","110.4754000"
"20350718","SMAS IT IHSANUL FIKRI MUNGKID","JL.PABELAN 1","Prop. Jawa Tengah","SMA","-7.5846000","110.2354000"
"20331091","SMAS NU 3 MUALIMIN WELERI","JL. BALAI DESA PENARUBAN","Prop. Jawa Tengah","SMA","-6.9706000","110.0691000"
"20319281","SMAS TAKHASSUS AL - QURAN BONANG","JL. KRAJAN","Prop. Jawa Tengah","SMA","-6.8514000","110.5840000"
"20337813","SMA NEGERI 1 WONOTUNGGAL","JL.RAYA WATES, WONOTUNGGAL","Prop. Jawa Tengah","SMA","-6.9851000","109.7411000"
"20309690","SMAN 3 KLATEN","JL. MAYOR SUNARYO NO.42, JONGGRANGAN","Prop. Jawa Tengah","SMA","-7.6883400","110.6173100"
"20305028","SMAN 1 PEJAGOAN","Jln. Raya Soka Barat Km.04 Pejagoan, Kebumen","Prop. Jawa Tengah","SMA","-7.6738700","109.6316890"
"20303981","SMAN 1 PURWAREJA KLAMPOK","JL.RAYA PURWAREJA KLAMPOK","Prop. Jawa Tengah","SMA","-7.4662000","109.4300000"
"20330347","SMAS MUHAMMADIYAH 6 SURAKARTA","JL. BANYUANYAR DALAM RT 02/12","Prop. Jawa Tengah","SMA","-7.5664000","110.8162000"
"20361201","SMAS INSAN CENDIKIA AL-MUJTABA","JL. OVENSARI","Prop. Jawa Tengah","SMA","-7.5958000","110.7754000"
"20328911","SMA NEGERI 12","Jl. Raya Gunungpati","Prop. Jawa Tengah","SMA","-7.0624000","110.3718000"
"20308623","SMAS MUHAMMADIYAH 1 SIMO","JL MADU, NGRENI, SIMO","Prop. Jawa Tengah","SMA","-7.4371000","110.6831000"
"20327965","SMAS WIDYA BHAKTI SURAKARTA","JL. TANJUNG NO 75 KARANGASEM","Prop. Jawa Tengah","SMA","-7.5691000","110.8154000"
"69947125","SMAN 1 NGUNTORONADI","SMAN 1 NGUNTORONADI","Prop. Jawa Tengah","SMA","-7.9019583","110.9562204"
"20317492","SMAN 1 GEBOG","JL. PR. SUKUN GEBOG","Prop. Jawa Tengah","SMA","-6.7446000","110.8523000"
"20318334","SMAS NU KEDUNG","Jl. Raya Bugel - Pecangaan KM. 0,3 Kedung Jepara","Prop. Jawa Tengah","SMA","-6.6699000","110.6687000"
"20320242","SMA NEGERI 1 UNGARAN","JL. DIPONEGORO NO. 42 UNGARAN","Prop. Jawa Tengah","SMA","-7.1349000","110.4038000"
"20321832","SMAN 2 SUKOREJO","JL. LINGKAR UTARA KEBUMEN","Prop. Jawa Tengah","SMA","-7.0867000","110.0362000"
"20314889","SMAS NU KRADENAN","JL. RAYA MENDEN KM. 2,6","Prop. Jawa Tengah","SMA","-7.2249000","111.4584000"
"20340338","SMAS ISLAM MIFTAHUL HUDA DEMAK","JL. DIPONEGORO NO. 116 DEMAK","Prop. Jawa Tengah","SMA","-6.9097000","110.6336000"
"20318342","SMA NEGERI 1 DONOROJO","JL. BENTENG PORTUGIS","Prop. Jawa Tengah","SMA","-6.4733000","110.8878000"
"20330921","SMA TRENSAINS MUHAMMADIYAH SRAGEN","PRINGAN RT 1 RW 1","Prop. Jawa Tengah","SMA","-7.3641000","111.1213000"
"20315680","SMA NEGERI 1 SUMBER","JL. RAYA SUMBER - REMBANG KM. 2","Prop. Jawa Tengah","SMA","-6.7806000","111.2565000"
"20328916","SMA KARANGTURI","Padma Boulevard Selatan Blok F Kompleks Graha Padma","Prop. Jawa Tengah","SMA","-6.9904000","110.4454000"
"20328931","SMA PANCASILA","JL. BRIGJEND KATAMSO NO. 24","Prop. Jawa Tengah","SMA","-7.0095000","110.4442000"
"20328898","SMA NEGERI 15","Jl. Kedungmundu Raya No. 34","Prop. Jawa Tengah","SMA","-7.0388000","110.4612000"
"20331912","SMA SEPULUH NOVEMBER","JL. WONODRI SENDANG I NO. 4","Prop. Jawa Tengah","SMA","-7.0113000","110.4295000"
"20308618","SMAN 1 ANDONG","JL. SOLO - KR.GEDE KM.30 ANDONG","Prop. Jawa Tengah","SMA","-7.3658000","110.7520000"
"20326487","SMAN 1 BANTARKAWUNG","JL. RAYA BANTARKAWUNG NO. 15","Prop. Jawa Tengah","SMA","-7.2383000","108.9440000"
"20327962","SMAS KRISTEN 2 SURAKARTA","JL. ABDUL MUIS NO. 45","Prop. Jawa Tengah","SMA","-7.5610940","110.8291310"
"20338229","SMAS YOS SUDARSO SOKARAJA","JL. LETJEN SUPARJO RUSTAM TP 1 SOKARAJA KAB. BANYUMAS","Prop. Jawa Tengah","SMA","-7.4440000","109.2725000"
"20324304","SMAS PGRI 3 RANDUDONGKAL","JL. LAPANGAN OLAHRAGA RANDUDONGKAL","Prop. Jawa Tengah","SMA","-7.0686000","109.3403000"
"20331918","SMA WIDYA WIYATA","JL. GEDONGSONGO RAYA","Prop. Jawa Tengah","SMA","-6.9897000","110.3795000"
"20325294","SMAS MA ARIF LEBAKSIU","JL. DUREN SAWIT KESUBEN, LEBAKSI","Prop. Jawa Tengah","SMA","-6.9070000","109.1370000"
"20353971","SMA PERMATA BANGSA","Jl. Gombel Lama Golf Road","Prop. Jawa Tengah","SMA","-7.0411000","110.4162000"
"20324214","SMAN 1 RANDUDONGKAL","JL. LAPANGAN OLAH RAGA","Prop. Jawa Tengah","SMA","-7.0481000","109.3279000"
"20331702","SMAS KRISTEN WONOSOBO","JL. MLIPAK NO. 1 WONOSOBO","Prop. Jawa Tengah","SMA","-7.3710000","109.8962000"
"69874025","SMA ISLAM TERPADU ISTIQOMAH TEMBARAK","JL. RAYA BANJAR GREGES","Prop. Jawa Tengah","SMA","-7.3610270","110.1659300"
"20329847","SMAN 1 TEGAL","JL. MENTERI SUPENO NO. 16","Prop. Jawa Tengah","SMA","-6.8723000","109.1416000"
"20325299","SMAN 1 SLAWI","JL. KH. WAHID HASYIM NO. 1 - SLAWI","Prop. Jawa Tengah","SMA","-6.9839000","109.1345000"
"20327970","SMAN 5 SURAKARTA","JL. LETJEND. SUTOYO NO. 18","Prop. Jawa Tengah","SMA","-7.5502190","110.8306350"
"20312174","SMAN JUMAPOLO","Jln. Jurug No 1  Kecamatan Jumapolo Kabupaten Karanganyar","Prop. Jawa Tengah","SMA","-7.7053000","111.0077000"
"20317501","SMAN 2 KUDUS","JL. GANESHA NO 1 PURWOSARI","Prop. Jawa Tengah","SMA","-6.8055000","110.8265000"
"20341397","SMA NEGERI 1 PETUNGKRIYONO","Jl. Raya Petungkriyono","Prop. Jawa Tengah","SMA","-7.1418000","109.7362000"
"20300733","SMA NEGERI 1 KEDUNGREJA","JL. RAYA TAMBAKSARI NO. 212","Prop. Jawa Tengah","SMA","-7.5007540","108.7524890"
"20328896","SMA NEGERI 02","Jl. Sendangguwo Baru No.1","Prop. Jawa Tengah","SMA","-7.0094000","110.4604000"
"20307633","SMAS MARSUDIRINI MUNTILAN","JL. SLEKO NO. 4","Prop. Jawa Tengah","SMA","-7.5818000","110.2895000"
"20311316","SMAS KRISTEN WONOGIRI","JL. MURTI PRANOTO NO.13 WONOGIRI","Prop. Jawa Tengah","SMA","-7.8213000","110.9247000"
"20321436","SMA BHAKTI KARYA KALORAN","JL. KRANGGAN NO. 04 KALORAN","Prop. Jawa Tengah","SMA","-7.2727000","110.2399000"
"20322745","SMA NEGERI 1 BANDAR","JL. RAYA SIDAYU KM.3","Prop. Jawa Tengah","SMA","-7.0481000","109.8098000"
"20308442","SMAN 1 SIMO","JL. NGADENAN 549 PELEM SIMO BOYOLALI","Prop. Jawa Tengah","SMA","-7.4456000","110.6810000"
"20302112","SMAN 1 WANGON","JL. PEJARAKAN KELAPA GADING","Prop. Jawa Tengah","SMA","-7.5365000","109.0443000"
"20327988","SMAS SANTO PAULUS SURAKARTA","JL. DR. RAJIMAN NO 659 R","Prop. Jawa Tengah","SMA","-7.5709000","110.7867000"
"20324210","SMAN 1 BELIK","JL. RAYA DESA GUNUNGTIGA-BELIK","Prop. Jawa Tengah","SMA","-7.1862000","109.3378000"
"20303979","SMAN 1 SIGALUH","JL. RAYA SIGALUH KM.13 SIGALUH","Prop. Jawa Tengah","SMA","-7.3933000","109.7643000"
"20317483","SMAN 1 BAE KUDUS","JL. JEND. SUDIRMAN KM 04","Prop. Jawa Tengah","SMA","-6.8045000","110.8743000"
"20338496","SMAS PGRI PURWAREJA KLAMPOK","JL. PEKIRINGAN KLAMPOK","Prop. Jawa Tengah","SMA","-7.4627000","109.4284000"
"20306169","SMAN 9 PURWOREJO","JL. DAENDELS,GEPARANG PURWODADI","Prop. Jawa Tengah","SMA","-7.8709000","109.9933000"
"20305025","SMAN 2 KEBUMEN","JL. CINCIN KOTA NO.8 KEBUMEN","Prop. Jawa Tengah","SMA","-7.6572350","109.6675350"
"20340665","SMAS ISLAMIC CENTRE DEMAK","JL. DIPONEGORO NO. 47","Prop. Jawa Tengah","SMA","-6.9130000","110.6384000"
"20326437","SMAN 3 BREBES","JL. MT. HARYONO NO. 78 BREBES","Prop. Jawa Tengah","SMA","-6.8602000","109.0558000"
"20330113","SMA AL YAQIN","JL. PESANTREN NO. 42 PANGKALAN, SLUKE","Prop. Jawa Tengah","SMA","-6.6463000","111.4909000"
"20329523","SMA Masehi","Jl. Kurinci No. 34 Pekalongan","Prop. Jawa Tengah","SMA","-6.8933000","109.6654000"
"20319287","SMAS MUHAMMADIYAH SAYUNG","JL. RAYA SAYUNG NO. 11","Prop. Jawa Tengah","SMA","-6.9275000","110.5224000"
"20331700","SMA NEGERI 1 SELOMERTO","JL. BALEKAMBANG KM 4 SELOMERTO","Prop. Jawa Tengah","SMA","-7.4289000","109.9085000"
"20331038","SMAN 1 GABUS","JL. PUNDEN TLOGOTIRTO","Prop. Jawa Tengah","SMA","-7.1729000","111.2026000"
"20319302","SMAN 1 SAYUNG","JL. RAYA ONGGORAWE SAYUNG - DEMAK","Prop. Jawa Tengah","SMA","-6.9120940","110.5342970"
"20328872","SMA TUGU SOEHARTO","Jl. Menoreh Timur III No. 3","Prop. Jawa Tengah","SMA","-7.0152000","110.3939000"
"20306806","SMA NEGERI 2 WONOSOBO","JL. BANYUMAS KM. 5 WONOSOBO","Prop. Jawa Tengah","SMA","-7.4020000","109.8896000"
"20328895","SMA NEGERI 03","Jl. Pemuda No. 149","Prop. Jawa Tengah","SMA","-6.9802333","110.4123950"
"20328899","SMA NEGERI 14","JL. KOKROSONO","Prop. Jawa Tengah","SMA","-6.9649000","110.4029000"
"20339020","SMA NEGERI 1 KAYEN","JL. RAYA KAYEN - SUKOLILO","Prop. Jawa Tengah","SMA","-6.9008000","110.9728000"
"20312201","SMAN GONDANGREJO","JL. SOLO - PURWODADI KM. 11GONDANGREJO","Prop. Jawa Tengah","SMA","-7.4761970","110.8064540"
"20323604","SMA MUHAMMADIYAH 2 PEKALONGAN","Jl. Raya Ambokembang No. 46","Prop. Jawa Tengah","SMA","-6.9624000","109.6498000"
"69947401","SMA ASSALAM","Nglarangan","Prop. Jawa Tengah","SMA","-7.5486416","110.1645197"
"20320374","SMA ISLAM PLUS BINA INSANI SUSUKAN","JL. DS. KETAPANG SUSUKAN","Prop. Jawa Tengah","SMA","-7.4097000","110.6044000"
"20307638","SMAS MUHAMMADIYAH 2 MUNTILAN","JL. KHA.  DAHLAN NO. 14","Prop. Jawa Tengah","SMA","-7.5903000","110.2710000"
"20309729","SMAS MUHAMMADIYAH 1 KLATEN","JL. SERSAN SADIKIN 89, KLATEN  UTARA","Prop. Jawa Tengah","SMA","-7.6860830","110.6130950"
"20331095","SMAS RIFA IYAH ROWOSARI","JL.BULAK II ARAM-ARAM BULAK","Prop. Jawa Tengah","SMA","-6.9196000","110.0677000"
"20315693","SMA SANTA MARIA REMBANG","JL. PEMUDA KM 2 NO. 39 REMBANG","Prop. Jawa Tengah","SMA","-6.7225000","111.3476000"
"20326430","SMAN 1 LARANGAN","JL. RAYA BARAT SITANGGAL LARANGAN B","Prop. Jawa Tengah","SMA","-6.9463000","108.9633000"
"20308469","SMAN 2 BOYOLALI","JL. TENTARA PELAJAR 06 KEBONBIMO","Prop. Jawa Tengah","SMA","-7.4929000","110.6204000"
"69753734","SMAS FATHUL MAARIF","JL. TIKUNGAN BANYURIP 04/05","Prop. Jawa Tengah","SMA","-7.2086000","110.8554000"
"20337795","SMAS IT AL HIKMAH KARANGGEDE","KARANGGEDE, BOYOLALI","Prop. Jawa Tengah","SMA","-7.3851000","110.6571000"
"20309674","SMAN 1 PRAMBANAN","JL. MANISRENGGO KEBONDALEM","Prop. Jawa Tengah","SMA","-7.7325111","110.5019653"
"20362655","SMA BINA BANGSA SCHOOL","Jangli Boulevard RT 05 RW 06","Prop. Jawa Tengah","SMA","-7.0402000","110.4130000"
"20307652","SMAS AL HUSAIN SALAM","JL. YOGYA KM.22 KRAKITAN","Prop. Jawa Tengah","SMA","-7.6293000","110.3219000"
"20323550","SMA PGRI 2 KAJEN","Jl. Mandurorejo","Prop. Jawa Tengah","SMA","-7.0298000","109.5990000"
"20308605","SMAS BK 1 AMPEL","JL. PERINTIS KEMERDEKAAN, BOYOLALI, MADUMULYO","Prop. Jawa Tengah","SMA","-7.5428000","110.5945000"
"20311331","SMAN 2 WONOGIRI","JL. NAKULA V WONOKARTO","Prop. Jawa Tengah","SMA","-7.8012000","110.9191000"
"20313030","SMAN 1 SUMBERLAWANG","JL. RAYA SOLO - PURWODADI KM. 27","Prop. Jawa Tengah","SMA","-7.3396000","110.8453000"
"20318346","SMAS WALISONGO PECANGAAN","JL.RAYA JEPARA-KUDUS GG.KEMANTREN NO.9","Prop. Jawa Tengah","SMA","-6.6980000","110.7044000"
"20302173","SMAN 1 SOKARAJA","JL. RAYA SOKARAJA  TIMUR","Prop. Jawa Tengah","SMA","-7.4522000","109.3076000"
"20326435","SMAN 1 WANASARI","JL. RAYA DESA SIDAMULYA","Prop. Jawa Tengah","SMA","-6.9086000","109.0203000"
"20313833","SMAS ISLAM SUDIRMAN TANGGUNGHARJO","JL. RAYA KAPUNG TANGGUNGHARJO","Prop. Jawa Tengah","SMA","-7.0939000","110.6202000"
"20309735","SMAS BERBUDI GANTIWARNO","JL. RAYA GASWANGI JABUNG","Prop. Jawa Tengah","SMA","-7.7664000","110.5553000"
"20305013","SMAN 1 KUTOWINANGUN","JL. RAYA BARAT NO. 185 KUTOWINANGUN","Prop. Jawa Tengah","SMA","-7.7172600","109.7290860"
"20330281","SMAN 1 GOMBONG","JL. SEMPOR LAMA NO. 64 GOMBONG","Prop. Jawa Tengah","SMA","-7.6040960","109.5086020"
"20309688","SMAN 1 WONOSARI","JL. YOGJA - SOLO","Prop. Jawa Tengah","SMA","-7.6324000","110.7138000"
"20319284","SMAS PANCASILA","JL. SULTAN FATAH NO. 75 KATONSARI DEMAK","Prop. Jawa Tengah","SMA","-6.8985000","110.6007000"
"20302178","SMAS BRUDERAN PURWOKERTO","JL. JEND. GATOT SUBROTO NO. 63","Prop. Jawa Tengah","SMA","-7.4194000","109.2320000"
"20340939","SMAS NU WAHID HASYIM","JL. PROJOSUMARTO II, PESAYANGAN","Prop. Jawa Tengah","SMA","-6.9090000","109.1509000"
"20311310","SMAS PANGUDI LUHUR GIRIWOYO","JL. DESA SEJATI","Prop. Jawa Tengah","SMA","-8.0377000","110.9158000"
"20303984","SMAN 1 KARANGKOBAR","JL. LEKSANA NO. 25 KARANGKOBAR","Prop. Jawa Tengah","SMA","-7.2692000","109.7390000"
"20319290","SMAN 1 GUNTUR","JL. RAYA GUNTUR - DEMAK","Prop. Jawa Tengah","SMA","-6.9812000","110.6146000"
"20300727","SMA NEGERI 3 CILACAP","JL. KALIMANTAN 14","Prop. Jawa Tengah","SMA","-7.7069840","109.0319420"
"20314895","SMAN 2 BLORA","JL. REMBANG KM. 4 BLORA","Prop. Jawa Tengah","SMA","-6.9470000","111.4294800"
"20314886","SMAS PGRI CEPU","JL. TUKBUNTUNG NO. 1 CEPU","Prop. Jawa Tengah","SMA","-7.1365000","111.5853000"
"20339002","SMA BOPKRI 3 PATI","JL. TAYU - PUNCEL KM. 15","Prop. Jawa Tengah","SMA","-6.4914000","110.9948000"
"20323602","SMA ISLAM WONOPRINGO","Jl. Kampus YMI Sedayu","Prop. Jawa Tengah","SMA","-6.9775000","109.6346000"
"20326490","SMAN 1 BUMIAYU","JL. P. DIPONEGORO NO. 2 BUMIAYU","Prop. Jawa Tengah","SMA","-7.2214000","109.0210000"
"20317503","SMAN 1 MEJOBO","JL. PASAR DORO,JEPANG KUDUS","Prop. Jawa Tengah","SMA","-6.8332000","110.8693000"
"20313828","SMAS MUHAMMADIYAH TAWANGHARJO","JL.KH. AHAMAD DAHLAN NO. 5","Prop. Jawa Tengah","SMA","-7.0904000","111.0064000"
"20330037","SMAS MIFTAHUL ULUM NGAWEN","Jalan Masjid Al-Badar Ngawen Blora","Prop. Jawa Tengah","SMA","-6.9873000","111.3047000"
"20339076","SMA SRI MUKTI CILACAP","Jalan Bawean No. 293 Cilacap","Prop. Jawa Tengah","SMA","-7.7083000","109.0219000"
"20330282","SMAN 1 KARANGANYAR","JL. KEMAKMURAN NO. 51 KARANGANYAR","Prop. Jawa Tengah","SMA","-7.6357000","109.5745000"
"20317490","SMAS KERAMAT KUDUS","JL. PATIMURA NO. 45 KUDUS","Prop. Jawa Tengah","SMA","-6.8188000","110.8532000"
"20327940","SMAS BATIK 2 SURAKARTA","JL. SAM RATULANGI NO. 86","Prop. Jawa Tengah","SMA","-7.5636000","110.8065000"
"20330034","SMAS KATOLIK RANDUBLATUNG","JL. DIPONEGORO NO. 21 RANDUBLATUNG","Prop. Jawa Tengah","SMA","-7.2398000","111.3769000"
"20324211","SMAN 3 PEMALANG","JL. MOCHTAR NO. 2","Prop. Jawa Tengah","SMA","-6.9829000","109.3603000"
"20308451","SMAN 1 AMPEL","JL. PANTARAN KM.1 AMPEL","Prop. Jawa Tengah","SMA","-7.4549000","110.5329000"
"20314907","SMA MUHAMMADIYAH 1 BLORA","JL. AGIL KUSUMODIO  NO. 41","Prop. Jawa Tengah","SMA","-6.9642967","111.4115767"
"20325295","SMA MUHAMMADIYAH MARGASARI","JL. KERANDAN NO. 1","Prop. Jawa Tengah","SMA","-7.0931000","109.0294000"
"20307712","SMAN 1 MUNTILAN","JL. NGADIRETNO NO.1","Prop. Jawa Tengah","SMA","-7.5778000","110.2727000"
"20315692","SMA MUHAMMADIYAH LASEM","JL. SUNAN BONANG KM 1 LASEM","Prop. Jawa Tengah","SMA","-6.6915000","111.4517000"
"20327945","SMAS ISLAM DIPONEGORO","JL. SERAYU VIII NO. 2 SEMANGGI","Prop. Jawa Tengah","SMA","-7.5809000","110.8322000"
"20303248","SMAN 1 REMBANG","JL. MONUMEN JEND. SOEDIRMAN NO. 1","Prop. Jawa Tengah","SMA","-7.3280000","109.5108000"
"20319326","SMAS AL MAARIF DEMAK","JL. SULTAN HADIWIJAYA","Prop. Jawa Tengah","SMA","-6.8924000","110.6039000"
"20309682","SMAN 1 JATINOM","JL. KRAJAN","Prop. Jawa Tengah","SMA","-7.6225000","110.5987000"
"20306808","SMAN 1 WADASLINTANG","JL. WONOSOBO - PREMBUN KM. 40","Prop. Jawa Tengah","SMA","-7.5658000","109.8203000"
"20328912","SMA SEMESTA","Jl. Raya Gunungpati KM. 15","Prop. Jawa Tengah","SMA","-7.0535000","110.3705000"
"20302182","SMAN 1 PURWOKERTO","JL. GATOT SUBROTO NO. 73 PURWOKERTO","Prop. Jawa Tengah","SMA","-7.4208670","109.2371830"
"20331977","SMAS MUHAMMADIYAH 2 MAGELANG","JL. PANEMBAHAN SENOPATI BAYANAN","Prop. Jawa Tengah","SMA","-7.5035150","110.1995980"
"20354028","SMAN 1 SRAGEN","JL. PERINTIS KEMERDEKAAN NO. 16","Prop. Jawa Tengah","SMA","-7.4226000","111.0383000"
"20339022","SMA NEGERI 1 TAYU","JL. P. DIPONEGORO NO. 60 TAYU","Prop. Jawa Tengah","SMA","-6.5478950","111.0479850"
"20330216","SMA NEGERI 1 KEMBANG","JL. RAYA BANGSRI - KELING","Prop. Jawa Tengah","SMA","-6.5056000","110.8133000"
"20329850","SMAS PANCASAKTI TEGAL","JL. HALMAHERA KM 1 KOTA TEGAL","Prop. Jawa Tengah","SMA","-6.8567000","109.1447000"
"20332518","SMA YAPENDA KARANGANYAR","Jl. Kebonsari No. 702","Prop. Jawa Tengah","SMA","-7.0370000","109.6064000"
"20339001","SMA BOPKRI 1 PATI","JL. SUPRIYADI NO. 103","Prop. Jawa Tengah","SMA","-6.7367000","111.0895000"
"20327936","SMAS AL MUAYYAD SURAKARTA","JL. KH. SAMANHUDI NO. 64","Prop. Jawa Tengah","SMA","-7.5672940","110.8010190"
"20309728","SMAS MUHAMMADIYAH 12 KRAKITAN BAYAT","JL. MASJID AGUNG KRAKITAN BAYAT KLATEN 57462","Prop. Jawa Tengah","SMA","-7.7615000","110.6316000"
"20303230","SMAN 1 BUKATEJA","JL. RAYA PURWANDARU BUKATEJA","Prop. Jawa Tengah","SMA","-7.4267880","109.4242970"
"20302171","SMAN 1 BANYUMAS","JL. PRAMUKA NO. 13 BANYUMAS","Prop. Jawa Tengah","SMA","-7.5211000","109.2935000"
"20331903","SMA KESATRIAN 1","Jl. Pamularsih No. 116","Prop. Jawa Tengah","SMA","-6.9876000","110.3860000"
"20310415","SMAN 1 NGUTER","DS. NGUTER, KEL. NGUTER, KEC. NGUTER","Prop. Jawa Tengah","SMA","-7.7405000","110.8834000"
"20339014","SMA RIFAIYAH KAYEN","JL. RAYA PATI - KAYEN KM. 12","Prop. Jawa Tengah","SMA","-6.8731000","111.0073000"
"20317502","SMAN 2 BAE KUDUS","GONDANGMANIS KOTAK POS 52 BAE KUDUS","Prop. Jawa Tengah","SMA","-6.7873000","110.8661000"
"20306201","SMAS MUHAMMADIYAH KALIGESING","DS. PANDANREJO","Prop. Jawa Tengah","SMA","-7.7317000","110.1009000"
"20313852","SMAN 1 GEYER","JL. PURWODADI-SOLO KM. 15","Prop. Jawa Tengah","SMA","-7.2103000","110.9042000"
"20339017","SMA YOS SUDARSO","JL. PATI - TAYU KM. 2","Prop. Jawa Tengah","SMA","-6.7556000","111.0468000"
"20321428","SMA NEGERI 1 PARAKAN","JL. NGADIREJO PARAKAN","Prop. Jawa Tengah","SMA","-7.2716000","110.0904000"
"20340959","SMAS AL MUAWANAH","JL. DESA HARJAWINANGUN","Prop. Jawa Tengah","SMA","-7.0964000","109.1088000"
"20307650","SMAS ISLAM SECANG","JL. TEMANGGUNG NO. 28","Prop. Jawa Tengah","SMA","-7.3892000","110.2431000"
"20307710","SMAN 1 SALAMAN","JL. RAYA SALAMAN KM.16","Prop. Jawa Tengah","SMA","-7.5785000","110.1352000"
"20305010","SMAN 1 KEBUMEN","JL. MAYJEN SUTOYO 7","Prop. Jawa Tengah","SMA","-7.6675850","109.6533870"
"20308615","SMAN 1 KLEGO","JATEN, KLEGO, BOYOLALI","Prop. Jawa Tengah","SMA","-7.3802000","110.6919000"
"20331900","SMA INSTITUT INDONESIA","JL. MALUKU NO. 25","Prop. Jawa Tengah","SMA","-7.0077000","110.4450000"
"20311312","SMAS PANCASILA 2 BATURETNO","JL. SIDOMUKTI, BATURETNO","Prop. Jawa Tengah","SMA","-7.9684000","110.9578000"
"20315034","SMAS AL MUHAMMAD CEPU","JL. BLORA NO. 151","Prop. Jawa Tengah","SMA","-7.1369000","111.5851000"
"20315654","SMA NEGERI 2 REMBANG","JL. GAJAH MADA NO. 2 REMBANG","Prop. Jawa Tengah","SMA","-6.7012000","111.2917000"
"20309673","SMAN 1 WEDI","Bandungan RT 02 RW 12","Prop. Jawa Tengah","SMA","-7.7772000","110.5957000"
"20310418","SMAN 1 TAWANGSARI","JL. PATIMURA NO. 105","Prop. Jawa Tengah","SMA","-7.7359000","110.7903000"
"20339005","SMA JOYO KUSUMO KAYEN","JL. DESA PASURUHAN KAYEN","Prop. Jawa Tengah","SMA","-6.8889000","110.9680000"
"20308446","SMAN 1 KEMUSU","KLEWOR, KEMUSU, BOYOLALI","Prop. Jawa Tengah","SMA","-7.3126000","110.7524000"
"20325297","SMAN 2 SLAWI","JL. RA. KARTINI PO POX 22","Prop. Jawa Tengah","SMA","-7.0023000","109.1422000"
"20325310","SMAS MUHAMMADIYAH TARUB","Jl. Raya Balamoa Banjarwaru Km. 1,8 Tarub","Prop. Jawa Tengah","SMA","-6.9271000","109.1894000"
"20327987","SMAS REGINA PACIS SURAKARTA","JL. LU. ADI SUCIPTO NO. 45","Prop. Jawa Tengah","SMA","-7.5533620","110.7958480"
"20319327","SMAS AL HASANIYYAH KARANGAWEN","JL. KAUMAN NGAJEK","Prop. Jawa Tengah","SMA","-7.1056000","110.5520000"
"20318343","SMA NEGERI 1 JEPARA","JL.CS. TUBUN 1 JEPARA","Prop. Jawa Tengah","SMA","-6.5931000","110.6605000"
"20324215","SMAN 1 PETARUKAN","JL. DESA SIRANGKANG PETARUKAN","Prop. Jawa Tengah","SMA","-6.9614000","109.3726000"
"20320383","SMA NEGERI 1 PABELAN","DESA SEMOWO KEC. PABELAN","Prop. Jawa Tengah","SMA","-7.2958000","110.5399000"
"20339013","SMA PGRI 3 TAYU","DS. JEPAT LOR","Prop. Jawa Tengah","SMA","-6.5656000","111.0480000"
"20309725","SMAS MUHAMMADIYAH 2 DELANGGU","JL. CIRAN","Prop. Jawa Tengah","SMA","-7.6119000","110.7016000"
"20309707","SMAS MUHAMMADIYAH 3 PEDAN","JL. PEMUDA NO. 45 PEDAN","Prop. Jawa Tengah","SMA","-7.6912000","110.7026000"
"20326462","SMAN 1 JATIBARANG","JL. RAYA KARANGLO TEGALWULUNG","Prop. Jawa Tengah","SMA","-6.9617000","109.0688000"
"20339056","SMA MUHAMMADIYAH 3 KAYEN","JL. PERHUTANI, RT 02 RW 04, DESA KAYEN","Prop. Jawa Tengah","SMA","-6.8944000","110.9875000"
"20325300","SMAN 1 PANGKAH","JL. RAYA KALIKANGKUNG","Prop. Jawa Tengah","SMA","-6.9562060","109.1669170"
"20321974","SMAN 1 BOJA","JL. RAYA BEBENGAN NO. 203 D BOJA","Prop. Jawa Tengah","SMA","-7.1132000","110.2800000"
"20325308","SMAS PENAWAJA ADIWERNA","JL. S. AMANGKURAT I ADIWERNA","Prop. Jawa Tengah","SMA","-6.9233000","109.1434000"
"20300623","SMA KRISTEN CILACAP","JL. KANTIL NO 2 A CILACAP","Prop. Jawa Tengah","SMA","-7.7293830","109.0159470"
"20308604","SMAS BHINNEKA KARYA 06 BOYOLALI","JL. CERME NO. 1 JUWANGI","Prop. Jawa Tengah","SMA","-7.1821000","110.7496000"
"20315655","SMA NEGERI 3 REMBANG","JL. GAJAH MADA NO. 8","Prop. Jawa Tengah","SMA","-6.7070000","111.3202000"
"20319280","SMAN 1 DEMAK","JL. SULTAN FATAH NO. 85 KATONSARI DEMAK","Prop. Jawa Tengah","SMA","-6.9037000","110.6260000"
"20313854","SMAS YASIHA GUBUG","JL. K.H. HASAN ANWAR NO.9","Prop. Jawa Tengah","SMA","-7.0570000","110.6700000"
"20327935","SMAS BATIK 1 SURAKARTA","JL. SLAMET RIYADI NO. 445","Prop. Jawa Tengah","SMA","-7.5624000","110.7975000"
"20321438","SMA NEGERI 1 TEMANGGUNG","JL. KARTINI NO. 4 TEMANGGUNG, JAWA TENGAH 56215","Prop. Jawa Tengah","SMA","-7.3232000","110.1888000"
"20323503","SMA NEGERI 1 WIRADESA","Jl. Patimura No. 467 Wiradesa","Prop. Jawa Tengah","SMA","-6.9071000","109.6073000"
"69855672","SMA ISLAM AL FATH","JALAN KI HAJAR DEWANTARA  RT 002 RW 04 53","Prop. Jawa Tengah","SMA","-7.1228000","109.9509000"
"20330036","SMAS MUJAHIDIN RUNDUBLATUNG","JL. MASJID MUJAHIDIN NO. 1 BULAKAN","Prop. Jawa Tengah","SMA","-7.2029000","111.4144000"
"20325306","SMAS PGRI SLAWI","JL. SUPRIYADI TRAYEMAN","Prop. Jawa Tengah","SMA","-6.9848000","109.1279000"
"20307627","SMAN 1 CANDIMULYO","JL. CANDIMULYO KM. 4 MAGELANG","Prop. Jawa Tengah","SMA","-7.5097000","110.2618000"
"20300726","SMA NEGERI 1 BINANGUN","JL. DAMARWULAN","Prop. Jawa Tengah","SMA","-7.6721000","109.2795000"
"20300730","SMA NEGERI 1 SAMPANG","JL. LAPANGAN NO. 1","Prop. Jawa Tengah","SMA","-7.5649000","109.1847000"
"20331953","SMAS MUHAMMADIYAH WONOSOBO","JL. KH. AHMAD DAHLAN NO. 10","Prop. Jawa Tengah","SMA","-7.3655940","109.8980410"
"20300621","SMA YOS SUDARSO CILACAP","JL. JENDRAL AHMAD YANI NO. 54","Prop. Jawa Tengah","SMA","-7.7338000","109.0099000"
"20340298","SMA ISLAM DARUL ULUM CIPARI","JL. RAYA CIPARI KM. 04 CISURU","Prop. Jawa Tengah","SMA","-7.4148000","108.7375000"
"20329509","SMA Negeri 4 Pekalongan","Jl. HOS Cokroaminoto No. 383A Pekalongan","Prop. Jawa Tengah","SMA","-6.9307000","109.6795000"
"20338278","SMAN 1 KARANGSAMBUNG","JL. DS. KARANGSAMBUNG","Prop. Jawa Tengah","SMA","-7.5500000","109.6747000"
"20308614","SMAS VETERAN SAMBI","JL. RAYA SIMO - AMPEL","Prop. Jawa Tengah","SMA","-7.4857000","110.6953000"
"20307631","SMAS MAARIF SAWANGAN","JL. GONDOWANGI","Prop. Jawa Tengah","SMA","-7.5432000","110.2953000"
"20300624","SMA RADEN FATAH CIMANGGU","JL. RAYA GENTENG, PANIMBANG","Prop. Jawa Tengah","SMA","-7.3660000","108.8626000"
"20322744","SMA NEGERI 1 BATANG","JL. KI MANGUNSARKORO NO. 8","Prop. Jawa Tengah","SMA","-6.9337000","109.7586000"
"20308617","SMAN 1 BANYUDONO","JEMBUNGAN, BANYUNDONO, BOYOLALI","Prop. Jawa Tengah","SMA","-7.5494000","110.6859000"
"20330035","SMA MUHAMMADIYAH RANDUBLATUNG","JL MENDEN KM 1 RANDUBLATUNG","Prop. Jawa Tengah","SMA","-7.2090990","111.3852790"
"20307635","SMAS ISLAM SUDIRMAN PAKIS","JL. JEND. SUDIRMAN NO. 17","Prop. Jawa Tengah","SMA","-7.4539000","110.3365000"
"20327967","SMAN 2 SURAKARTA","JL. MONGINSIDI NO. 40","Prop. Jawa Tengah","SMA","-7.5584000","110.8293000"
"20307646","SMAS MUHAMMADIYAH SALAMAN","JL. Magelang Purworejo Km.17","Prop. Jawa Tengah","SMA","-7.5761000","110.1248000"
"20325280","SMA MA`ARIF NU JATINEGARA","JL. RAYA TIMUR JATINEGARA, TEGAL","Prop. Jawa Tengah","SMA","-7.0615000","109.2191000"
"20327975","SMAS TP 1 SURAKARTA","JL. KRAKATAU UTARA NO. 1/6","Prop. Jawa Tengah","SMA","-7.5637000","110.8267000"
"20319322","SMAS ISLAM RAUDHOTUT THOLIBIN ","Jln. RAYA BUNGO MUTIH","Prop. Jawa Tengah","SMA","-6.7728410","110.6321450"
"20324390","SMAS MUHAMMADIYAH 3 COMAL","Jl. Jend. Sudirman No. 12","Prop. Jawa Tengah","SMA","-6.8977000","109.5406000"
"20319285","SMAS NURUL ULUM TRENGGULI","JL. TRENGGULI -WELAHAN KM 0,2 DEMAK","Prop. Jawa Tengah","SMA","-6.9271000","110.6471000"
"20328914","SMA KRISTA MITRA","PURI ANJASMORO BLOK FF NO. 1","Prop. Jawa Tengah","SMA","-6.9635000","110.3885000"
"20302181","SMAN 1 PATIKRAJA","JL. ADIPURA NO. 3 PATIKRAJA","Prop. Jawa Tengah","SMA","-7.4851000","109.2281000"
"20328395","SMAS MUHAMMADIYAH (PLUS) SALATIGA","JL. KH. AHMAD DAHLAN No. Soka Salatiga","Prop. Jawa Tengah","SMA","-7.3050000","110.4917000"
"20326489","SMAN 1 BULAKAMBA","JL. RAYA GRINTING BULAKAMBA BREBES","Prop. Jawa Tengah","SMA","-6.8873000","108.9146000"
"20331910","SMA NASIONAL","Jl. Banyumanik Raya Barat I","Prop. Jawa Tengah","SMA","-7.0761000","110.4084000"
"20300629","SMA NASIONAL SIDAREJA","JL. JEND. SUDIRMAN NO. 30","Prop. Jawa Tengah","SMA","-7.4702000","108.7587000"
"20339015","SMA TAMAN MADYA JUWANA","JL. DIPONEGORO 514 JUWANA","Prop. Jawa Tengah","SMA","-6.7232000","111.1469000"
"20328876","SMA SINT LOUIS","Jl. Dr. Wahidin No. 110","Prop. Jawa Tengah","SMA","-7.0214000","110.4240000"
"20328915","SMAS KOLESE LOYOLA","JL. KARANGANYAR NO. 37","Prop. Jawa Tengah","SMA","-6.9818600","110.4266433"
"20313844","SMAN 1 TOROH","JL. RAYA PURWODADI-SOLO KM.07","Prop. Jawa Tengah","SMA","-7.1516000","110.9016000"
"20362784","SMAS MUHAMMADIYAH BOARDING SCHOOL ZAM-ZAM","JL. RAYA PERNASIDI CILONGOK","Prop. Jawa Tengah","SMA","-7.4002000","109.1305000"
"20327560","SMAS KRISTEN INDONESIA","JL. BERINGIN VII NO. 1","Prop. Jawa Tengah","SMA","-7.5030000","110.2257000"
"20313840","SMAS PANCASILA ","JL. P. DIPONEGORO GANG LUKITASARI II","Prop. Jawa Tengah","SMA","-7.1036000","110.9142000"
"20329772","SMAS AL IRSYAD TEGAL","JL. GAJAH MADA NO. 128","Prop. Jawa Tengah","SMA","-6.8729980","109.1216170"
"20308606","SMAS BHINNEKA KARYA 2 BOYOLALI","JL. PERINTIS KEMERDEKAAN PO. BOX. 108, BOYOLALI","Prop. Jawa Tengah","SMA","-7.5459000","110.6062000"
"20331759","SMA KRISTEN SIDAREJA","JL. JEND. SUDIRMAN 53","Prop. Jawa Tengah","SMA","-7.4859000","108.7957000"
"20310422","SMAN 1 BULU","JL. RAYA BULU","Prop. Jawa Tengah","SMA","-7.7624000","110.8313000"
"20300597","SMA ISLAM BUANA KROYA","Jl. Merak No. 28 Kroya","Prop. Jawa Tengah","SMA","-7.6304000","109.2467000"
"20329508","SMA Negeri 3 Pekalongan","Jl. Progo No. 28 Pekalongan","Prop. Jawa Tengah","SMA","-6.8715000","109.6712000"
"20339223","SMA YA BAKII 1 KESUGIHAN","JL. KEBON SALAK","Prop. Jawa Tengah","SMA","-7.6167000","109.1225000"
"20309676","SMAN 1 KLATEN","JL. MERBABU","Prop. Jawa Tengah","SMA","-7.7068330","110.5964100"
"20328933","SMAS NUSAPUTERA","JL. KIMANGUNSARKORO NO. 59","Prop. Jawa Tengah","SMA","-6.9807383","110.4280483"
"20320373","SMA ISLAM SUDIRMAN AMBARAWA","JL. JENDERAL SUDIRMAN NO. 2 A Ambarawa","Prop. Jawa Tengah","SMA","-7.2542000","110.4142000"
"20310495","SMAS ASSALAM SUKOHARJO","PABELAN KARTASURA SUKOHARJO PO BOX 286","Prop. Jawa Tengah","SMA","-7.5588000","110.7644000"
"69944788","SMA IT Bina Amal","Jl. Raya Gunungpati -Ungaran KM 1,5","Prop. Jawa Tengah","SMA","-7.0781443","110.3621572"
"20326500","SMAS ISLAM TAALAMUL HUDA BUMIAYU","JL. KH. AHMAD DAHLAN N0. 99 Kalierang Bumiayu","Prop. Jawa Tengah","SMA","-7.2544000","109.0116000"
"20330217","SMA NEGERI 1 NALUMSARI","JL. RAYA NALUMSARI NO.2","Prop. Jawa Tengah","SMA","-6.7440000","110.7885000"
"20315691","SMA ISLAM AL-KAMAL","JL. RAYA NO. 55 SARANG","Prop. Jawa Tengah","SMA","-6.7369000","111.6682000"
"20300719","SMA NEGERI 1 KROYA","JL. CANDRADIMUKA","Prop. Jawa Tengah","SMA","-7.6346000","109.2420000"
"20339007","SMA MUHAMMADIYAH 1 PATI","JL. RAYA PATI - TAYU KM. 4","Prop. Jawa Tengah","SMA","-6.7245000","111.0529000"
"20338221","SMAS MA ARIF NU SOKARAJA","JL. KY. ACH. MURSYID SOKARAJA","Prop. Jawa Tengah","SMA","-7.4460000","109.2915000"
"20313049","SMAS SAVERIUS KARANGMALANG","JL. MATARAM 13 TAMANSARI","Prop. Jawa Tengah","SMA","-7.4387000","111.0383000"
"20303980","SMAN 1 PURWANEGARA","JL. RAYA PURWANEGARA","Prop. Jawa Tengah","SMA","-7.4370000","109.5568000"
"20306174","SMAN 4 PURWOREJO","DS. BEDONO KLUWUNG","Prop. Jawa Tengah","SMA","-7.6727000","109.8944000"
"20323501","SMA NEGERI 1 PANINGGARAN","Jl. Raya Paninggaran","Prop. Jawa Tengah","SMA","-7.1698000","109.5895000"
"20331911","SMA SANTO MICHAEL","Jl. Teuku Umar No.16","Prop. Jawa Tengah","SMA","-7.0275000","110.4225000"
"20302170","SMAN 1 AJIBARANG","JL. RAYA PANCURENDANG","Prop. Jawa Tengah","SMA","-7.4042000","109.0921000"
"20341363","SMAN 1 AYAH","JL. LOGENDING KM 03","Prop. Jawa Tengah","SMA","-7.6976000","109.3964000"
"20313065","SMAS PGRI 1 KARANGMALANG","Jl. CEMARA NO. 22 TEGUHJAJAR","Prop. Jawa Tengah","SMA","-7.4280000","111.0343000"
"20300628","SMA NUSANTARA KESUGIHAN","JL. LINGKAR TIMUR 89","Prop. Jawa Tengah","SMA","-7.6128000","109.1082000"
"20319282","SMAS PGRI DEMAK","JL. SULTAN HADIWIJAYA N0. 13 DEMAK","Prop. Jawa Tengah","SMA","-6.8923000","110.6288000"
"20307632","SMAS MAARIF CANDIMULYO","JL. BARISAN","Prop. Jawa Tengah","SMA","-7.5026000","110.2737000"
"20307648","SMAS MUHAMMADIYAH MUNGKID","JL. PEMANDIAN  NO.8 BLABAK","Prop. Jawa Tengah","SMA","-7.5480000","110.2615000"
"20338802","SMAS ISLAM AL KAHFI SOMALANGU","KOMPLEK DOKTREN AL KAHFI","Prop. Jawa Tengah","SMA","-7.6822070","109.6954680"
"20307629","SMAS MUHAMMADIYAH 1 MUNTILAN","JL. TENTARA PELAJAR NO.17","Prop. Jawa Tengah","SMA","-7.5848000","110.2622000"
"20339009","SMA NASIONAL PATI","JL. NANAS NO. 528 PATI","Prop. Jawa Tengah","SMA","-6.7567000","111.0238000"
"20327976","SMAS TRI PUSAKA SURAKARTA","JL. KOLONEL SUTARTO 77","Prop. Jawa Tengah","SMA","-7.5624000","110.8375000"
"20349477","SMAN 1 PLUPUH","JL. SAMBIREJO. PLUPUH","Prop. Jawa Tengah","SMA","-7.4387000","110.9077000"
"20331036","SMAS KELUARGA GUBUG","JL. A. YANI NO. 1 GUBUG","Prop. Jawa Tengah","SMA","-7.0504000","110.6551000"
"20338843","SMAS NU LOANO","JL. MAGELANG KM. 7 PURWOREJO","Prop. Jawa Tengah","SMA","-7.6586000","110.0398000"
"20327944","SMAS ISLAM 1 SURAKARTA","JL. BRIGJEN SUDIARTO 151","Prop. Jawa Tengah","SMA","-7.5896430","110.8240450"
"20338495","SMAS MUHAMMADIYAH 1 BANJARNEGARA","JL. PEMUDA 61 A","Prop. Jawa Tengah","SMA","-7.3968000","109.6986000"
"20319291","SMAN 1 KARANGTENGAH","JL. BUYARAN KARANGTENGAH - DEMAK","Prop. Jawa Tengah","SMA","-6.9175000","110.5717000"
"20331897","SMA CITISCHOOL","JL. YOS SUDARSO NO. 9","Prop. Jawa Tengah","SMA","-6.9794000","110.3827000"
"20314882","SMAN 1 NGAWEN","JL. RAYA BLORA-PURWODADI KM 17","Prop. Jawa Tengah","SMA","-7.0252000","111.2914000"
"20339010","SMA PGRI 1 PATI","JL. A. YANI GG. MANGGIS 99 PATI","Prop. Jawa Tengah","SMA","-6.7466000","111.0605000"
"20324219","SMAN 1 BANTAR BOLANG","JL. KALI RUYUNG BANTARBOLANG","Prop. Jawa Tengah","SMA","-7.0364000","109.3857000"
"20324221","SMAS PANGUDI LUHUR SANTO LUKAS PEMALANG","JL. PEMUDA NO. 28 PEMALANG","Prop. Jawa Tengah","SMA","-7.1015000","109.4835000"
"20321971","SMAS MUHAMMADIYAH 2 BOJA","JL. PRAMUKA NO.104","Prop. Jawa Tengah","SMA","-7.1123000","110.2870000"
"20303233","SMAS MUHAMMADIYAH 2 BOBOTSARI","JL. KENDURUAN NO. 39","Prop. Jawa Tengah","SMA","-7.2865000","109.3730000"
"20306205","SMAS WIDYA KUTOARJO","JL. SAWUNGGALIH  NO. 70","Prop. Jawa Tengah","SMA","-7.6664000","109.9005000"
"20308447","SMAN 1 KARANGGEDE","JL SAWUNGRONO, KARANGGEDE","Prop. Jawa Tengah","SMA","-7.3433000","110.6462000"
"20339016","SMA WAHID HASYIM PATI","JL. RAYA PATI - TAYU KM. 4","Prop. Jawa Tengah","SMA","-6.7367000","111.0541000"
"20324393","SMAS HASYIM ASY ARI","JL. LETJEND DI PANJAITAN NO.32","Prop. Jawa Tengah","SMA","-7.1121000","109.4856000"
"69830074","SMAS MIFTAHUL FALAH","JL. KAUMAN NO. 16E","Prop. Jawa Tengah","SMA","-6.8156950","110.5682870"
"20315018","SMAS KRIDHA DOPLANG","JL. SUMUR UMUM DOPLANG BLORA","Prop. Jawa Tengah","SMA","-7.1867000","111.2863000"
"20315032","SMAS KATOLIK CEPU","JL. RSU NO. 46 CEPU","Prop. Jawa Tengah","SMA","-7.1434000","111.5969000"
"20326431","SMAN 1 LOSARI","JL. JEND SUDIRMAN NO. 70 LOSARI","Prop. Jawa Tengah","SMA","-6.8576000","108.8277000"
"20328939","SMA NEGERI 09","Jl. Cemara Raya","Prop. Jawa Tengah","SMA","-7.1044000","110.4108000"
"20328871","SMA UNGGULAN NURUL ISLAMI","Ds. Rejosari","Prop. Jawa Tengah","SMA","-7.0610000","110.3376000"
"20319324","SMAS FUTUHIYYAH MRANGGEN","JL. RAYA MRANGGEN NO. 89","Prop. Jawa Tengah","SMA","-7.0520000","110.5188000"
"20331034","SMAS AL ISLAM WIROSARI","JL. GAJAHMADA","Prop. Jawa Tengah","SMA","-7.0759000","111.0850000"
"20329845","SMAN 3 TEGAL","JL. SUMBODRO NO.81","Prop. Jawa Tengah","SMA","-6.8824000","109.1449000"
"69761901","SMAS EL-MADANI RAWALO","KEDUNGWANGKAL, BANJARPARAKAN RT 01 RW 01 RAWALO","Prop. Jawa Tengah","SMA","-7.5253000","109.1654000"
"20332523","SMA NASIMA","Jl. Arteri Utara Yos Sudarso No. 9","Prop. Jawa Tengah","SMA","-6.9884000","110.4167000"
"20339003","SMA ISLAM RF GEMBONG","JL.RAYA BERMI - GEMBONG KM 1 PATI","Prop. Jawa Tengah","SMA","-6.7212000","110.9473000"
"20330278","SMAS PLUS NURUL FALAH SRUWENG","DS. JABRES RT.02/RW.II","Prop. Jawa Tengah","SMA","-7.6457000","109.6093000"
"20328878","SMA NEGERI 10","Jl. Padi Raya No. 16 Semarang","Prop. Jawa Tengah","SMA","-6.9548000","110.4583000"
"20318323","SMAS ISLAM JEPARA","JL. RATU KALINYAMAT JEPARA","Prop. Jawa Tengah","SMA","-6.5997000","110.6662000"
"20313033","SMAN 1 SAMBUNGMACAN","JL. RAYA TIMUR KM. 15","Prop. Jawa Tengah","SMA","-7.3717000","111.1191000"
"20328910","SMA NEGERI 13","Jl. Rowosemanding","Prop. Jawa Tengah","SMA","-7.0500000","110.3112000"
"20327979","SMAS MTA SURAKARTA","JL. KYAI MOJO","Prop. Jawa Tengah","SMA","-7.5872000","110.8363000"
"20305027","SMAN 1 PETANAHAN","JL. DESA TRESNOREJO","Prop. Jawa Tengah","SMA","-7.7328000","109.5772000"
"20328917","SMA ISLAM SULTAN AGUNG 3","Jl. Raya Kaligawe KM. 4","Prop. Jawa Tengah","SMA","-6.9558000","110.4561000"
"20303988","SMAS MUHAMMADIYAH 4 BANJARNEGARA","JL. RAYA KALIBENING NO. 75","Prop. Jawa Tengah","SMA","-7.2165000","109.6403000"
"20338230","SMAS KRISTEN PURWOKERTO","JL. JEND. GATOT SUBROTO NO. 89 PURWOKERTO","Prop. Jawa Tengah","SMA","-7.4228000","109.2425000"
"20327981","SMAS MUHAMMADIYAH 2 SURAKARTA","JL. YOSODIPURO NO. 95","Prop. Jawa Tengah","SMA","-7.5634680","110.8143780"
"20304995","SMAS PIUS BAKTI UTAMA GOMBONG","JL. TENTARA PELAJAR NO. 288","Prop. Jawa Tengah","SMA","-7.5947000","109.5334000"
"20340640","SMAN 1 BODEH","JL. DESA BABAKAN - BODEH - PEMALANG","Prop. Jawa Tengah","SMA","-6.8990000","109.4158000"
"20323603","SMA MUHAMMADIYAH 1 PEKAJANGAN","Jl. K.H. M. Mansyur No. 138","Prop. Jawa Tengah","SMA","-6.9428000","109.6520000"
"20322742","SMA NEGERI 1 GRINGSING","JL. KARANGANYAR LEBO","Prop. Jawa Tengah","SMA","-6.9622000","110.0268000"
"20327978","SMAS KRISTEN WIDYA WACANA","Jl. Mertolulutan No. 26","Prop. Jawa Tengah","SMA","-7.5659840","110.8374300"
"20306194","SMAS BRUDERAN PURWOREJO","JL. KH. WAHID HASYIM NO. 6 PURWOREJO","Prop. Jawa Tengah","SMA","-7.7123000","110.0136000"
"20320258","SMA NEGERI  SUSUKAN","JL. DESA TIMPIK","Prop. Jawa Tengah","SMA","-7.3899000","110.6248000"
"69761899","SMAS BOARDING SCHOOL PUTRA HARAPAN PURWOKERTO ","JL. KS TUBUN GANG SLOBOR NO.3 KOBER PURWOKERTO BARAT","Prop. Jawa Tengah","SMA","-7.4159660","109.2172320"
"20324213","SMAN 1 ULUJAMI","JL. AKASIA NO. 07","Prop. Jawa Tengah","SMA","-6.8743000","109.5768000"
"20300626","SMA AL IRSYAD CILACAP","JL. JEND. SUDIRMAN NO. 70","Prop. Jawa Tengah","SMA","-7.7273000","109.0044000"
"20327566","SMAN 5 MAGELANG","JL. BARITO II SIDOTOPO","Prop. Jawa Tengah","SMA","-7.4681000","110.2435000"
"20309727","SMAS MUHAMMADIYAH 13 KLATEN","JL. PEMUDA SELATAN NO. 115 KLATEN","Prop. Jawa Tengah","SMA","-7.7129030","110.5942380"
"20300731","SMA NEGERI 1 MAOS","JL. RAYA MAOS NO.50 RT.02/RW.05","Prop. Jawa Tengah","SMA","-7.6147000","109.1470000"
"20324394","SMAS DIPONEGORO PETARUKAN","JL. PEMUDA PETARUKAN","Prop. Jawa Tengah","SMA","-6.9590000","109.4214000"
"20325282","SMAS DAARU ULIL AL BAAB WARUREJA","JL. RAYA KEDUNGKELOR No. 1","Prop. Jawa Tengah","SMA","-6.8737000","109.3416000"
"20325303","SMAN 1 DUKUHWARU","Jalan Pramuka No. 48","Prop. Jawa Tengah","SMA","-6.9733000","109.0973000"
"20331898","SMA DIAN KARTIKA","JL. MURADI RAYA NO. 25","Prop. Jawa Tengah","SMA","-6.9870000","110.3711000"
"69851386","SMA VIP AL-HUDA KEBUMEN","JL. PEMALI NO. 11 JETIS, KUTOSARI, KEBUMEN","Prop. Jawa Tengah","SMA","-7.6694450","109.6477380"
"20338399","SMAS MA ARIF BULAKAMBA","JL. RAYA LUWUNGRAGI BULAKAMBA","Prop. Jawa Tengah","SMA","-6.8881000","108.9785000"
"20314259","SMAS YATPI GODONG","JL BRIGJEN KATAMSO KM. 01 GODONG","Prop. Jawa Tengah","SMA","-7.0275000","110.7796000"
"69754834","SMAS AL-AMIN PALUR","PALUR WETAN RT 03 RW 05 PALUR MOJOLABAN SUKOHARJO","Prop. Jawa Tengah","SMA","-7.7190000","110.8249000"
"20321838","SMAN 1 PEGANDON","JL.RAYA PUTAT PEGANDON","Prop. Jawa Tengah","SMA","-6.9654000","110.1536000"
"20312188","SMAN COLOMADU","JL. FAJAR INDAH BATURAN","Prop. Jawa Tengah","SMA","-7.5428740","110.7902800"
"20321835","SMAN 1 SUKOREJO","JL. BANARAN  5 SUKOREJO","Prop. Jawa Tengah","SMA","-7.0906000","110.0451000"
"20324218","SMAN 1 COMAL","JL. JEND. ACHMAD YANI NO. 77 Comal","Prop. Jawa Tengah","SMA","-6.8503000","109.4905000"
"20311320","SMAN 1 SLOGOHIMO","JL. SLOGOHIMO - PURWANTORO","Prop. Jawa Tengah","SMA","-7.8274000","111.1864000"
"20300630","SMA MUHAMMADIYAH SIDAREJA","JL. AMPERA NO 29","Prop. Jawa Tengah","SMA","-7.4869680","108.8109730"
"20318341","SMA NEGERI 1 MAYONG","JL. RAYA KUDUS - JEPARA KM 20","Prop. Jawa Tengah","SMA","-6.7342000","110.7332000"
"20321976","SMAS THERESIANA WELERI","JL. TAMTAMA WELERI","Prop. Jawa Tengah","SMA","-6.9787000","110.0744000"
"69896909","SMA ISLAM AL AZHAR 16","Jl. RM Hadi Soebeno S Komplek BSB","Prop. Jawa Tengah","SMA","-7.0310000","110.3377000"
"20319305","SMAS KY AGENG GIRI MRANGGEN","Jl. Raya Girikusumo 04/03 Banyumeneng, Mranggen,DMK","Prop. Jawa Tengah","SMA","-7.0907000","110.5005000"
"20300600","SMA AL HIDAYAH SIDAREJA","Jalan Kalimantan No. 1 Tinggarjaya Sidareja","Prop. Jawa Tengah","SMA","-7.4822000","108.7707000"
"20327986","SMAS PANGUDI LUHUR ST, YOSEF","JL. LU. ADISUCIPTO (JL. KELENGKENG 1)","Prop. Jawa Tengah","SMA","-7.5513170","110.7970680"
"20324370","SMAS PGRI 2 COMAL","JL. RAYA SIDOREJO","Prop. Jawa Tengah","SMA","-6.9181000","109.5493000"
"20303246","SMAN 2 PURBALINGGA","JL. PUCUNG RUMBAK","Prop. Jawa Tengah","SMA","-7.3946000","109.3758000"
"20330346","SMAS AL ISLAM 1 SURAKARTA","JL. HONGGOWONGSO NO. 94","Prop. Jawa Tengah","SMA","-7.5744000","110.8157000"
"20338397","SMAS AL HIKMAH SIRAMPOG","JL. Pondok Pesantren Al Hikmah 2 BENDA SIRAMPOG","Prop. Jawa Tengah","SMA","-7.2204000","109.0388000"
"20310425","SMAN 1 KARTASURA","JL. RAYA SOLO - YOGYA KM.11 PUCANGAN RT. 01 RW. 01","Prop. Jawa Tengah","SMA","-7.5536000","110.7338000"
"20321839","SMAN 1 PATEAN","JL. Selo Dusun Rowosari","Prop. Jawa Tengah","SMA","-7.0970000","110.0819000"
"20313070","SMAS MUHAMMADIYAH 3 MASARAN SRAGEN","JL. RAYA MASARAN SRAGEN","Prop. Jawa Tengah","SMA","-7.4680000","110.9406000"
"20337806","SMA MUHAMMADIYAH 3 GONDANGREJO","JL. RAYA SOLO PURWODADI KM. 12.5","Prop. Jawa Tengah","SMA","-7.4657040","110.8071650"
"20324387","SMAS PGRI 1 TAMAN","JL. DR. WAHIDIN SUDIROHUSODO","Prop. Jawa Tengah","SMA","-6.9200000","109.4005000"
"20303232","SMAS SANTO AGUSTINUS","JL. MAY.JEND. SUNGKONO","Prop. Jawa Tengah","SMA","-7.4108870","109.3423080"
"20328396","SMAS KR SATYA WACANA","JL. DIPONEGORO NO. 52-60","Prop. Jawa Tengah","SMA","-7.3181000","110.5016000"
"20320243","SMA NEGERI 1 TUNTANG","DESA DELIK TUNTANG","Prop. Jawa Tengah","SMA","-7.2656000","110.4651000"
"20360268","SMAS MUBAROKUL ULUM BANJARHARJO","Jalan Suka Asih Nomor 8","Prop. Jawa Tengah","SMA","-7.0667000","108.7850000"
"20325305","SMAN 1 BALAPULANG","JL. RAYA BANJARANYAR, BALAPULANG","Prop. Jawa Tengah","SMA","-7.0893000","109.0873000"
"20308439","SMAN 1 WONOSEGORO","REPAKING, WONOSEGORO, BOYOLALI","Prop. Jawa Tengah","SMA","-7.2986000","110.6828000"
"20331707","SMAS TAKHASSUS AL-QUR AN","JL.KH. ASY ARIYAH NO. 29","Prop. Jawa Tengah","SMA","-7.3278000","109.9002000"
"20306171","SMAN 7 PURWOREJO","JL. KI MANGUNSARKORO NO. 1","Prop. Jawa Tengah","SMA","-7.7217000","110.0173000"
"20311334","SMAN 1 WONOGIRI","JL. PERWAKILAN NO. 24","Prop. Jawa Tengah","SMA","-7.8150000","110.9293000"
"20328397","SMAS KRISTEN 2 ARGOMULYO","JL. ARGOLUWIH NO. 15","Prop. Jawa Tengah","SMA","-7.3441370","110.5066110"
"20321435","SMA ISLAM KANDANGAN","JL. RAYA CARUBAN KANDANGAN","Prop. Jawa Tengah","SMA","-7.2618000","110.1859000"
"69901284","SMAIT AL HUDA","BULUSULUR, RT 02 RW 02","Prop. Jawa Tengah","SMA","-7.8134000","110.9547000"
"20307644","SMAS PANGUDI LUHUR VAN LITH","JL. KARTINI NO. 1","Prop. Jawa Tengah","SMA","-7.5806000","110.2941000"
"20328892","SMA NEGERI 06","Jl. Ronggolawe  No. 4","Prop. Jawa Tengah","SMA","-6.9817000","110.3884000"
"20305446","SMAS PGRI 1 KEBUMEN","JL. KRAKATAU","Prop. Jawa Tengah","SMA","-7.6612860","109.6483560"
"20313831","SMAS MIFTAHUL HUDA PURWODADI","JL. KH. HASAN ANWAR NO. 22 B","Prop. Jawa Tengah","SMA","-7.0813000","110.9062000"
"20321836","SMAN 1 SINGOROJO","JL. BOJA - SINGOROJO","Prop. Jawa Tengah","SMA","-7.0858000","110.2375000"
"20320389","SMA VIRGO FIDELIS BAWEN","JL. PALAGAN 59 BAWEN","Prop. Jawa Tengah","SMA","-7.2073000","110.4009000"
"20329520","SMA Al-Irsyad","Jl. Seruni No. 66A Pekalongan","Prop. Jawa Tengah","SMA","-6.8869000","109.6833000"
"20309705","SMAS MUHAMMADIYAH 8 BAYAT","JL. RAYA BAYAT","Prop. Jawa Tengah","SMA","-7.7865000","110.6357000"
"20320384","SMA NEGERI 1 GETASAN","JL. RAYA KOPENG KM.08","Prop. Jawa Tengah","SMA","-7.3711000","110.4403000"
"20318331","SMAS MUHAMMADIYAH 2 MAYONG","JL. PEGADAIAN MAYONG","Prop. Jawa Tengah","SMA","-6.7489000","110.7598000"
"20313073","SMAS MUHAMMADIYAH 9 SAMBIREJO","JL. SRAGEN - BALONG KM. 12","Prop. Jawa Tengah","SMA","-7.4801000","111.0814000"
"20338225","SMAS MUHAMMADIYAH TAMBAK","JL. KARANGPUCUNG TAMBAK","Prop. Jawa Tengah","SMA","-7.6144000","109.3965000"
"20307727","SMAN 1 GRABAG","JL. RAYA GRABAG","Prop. Jawa Tengah","SMA","-7.3714000","110.3059000"
"20310417","SMAN 1 SUKOHARJO","JL. PEMUDA NO. 38 SUKOHARJO","Prop. Jawa Tengah","SMA","-7.6762000","110.8207000"
"69943795","SMA Islam Al Azhar 15","Jl. Sri Kuncoro III No. 5","Prop. Jawa Tengah","SMA","-6.9912854","110.3860768"
"20330033","SMAS KATOLIK BLORA","JL. A. YANI NO.19A BLORA","Prop. Jawa Tengah","SMA","-6.9684600","111.4231783"
"20312173","SMAN KARANGPANDAN","JL. BLORA","Prop. Jawa Tengah","SMA","-7.6139000","111.0651000"
"20306821","SMAN 1 MOJOTENGAH","JL. LURAH SUDARTO","Prop. Jawa Tengah","SMA","-7.3408000","109.9159000"
"20302165","SMAN 2 PURWOKERTO","JL. GATOT SUBROTO NO. 69 PWT","Prop. Jawa Tengah","SMA","-7.4202710","109.2357790"
"20300601","SMA A. YANI KAWUNGANTEN","JL. BELAKANG STASIUN KAWUNGANTEN","Prop. Jawa Tengah","SMA","-7.5897000","108.9195000"
"20327982","SMAS MUHAMMADIYAH 3 SURAKARTA","JL. KOL. SUTARTO NO. 62","Prop. Jawa Tengah","SMA","-7.5631000","110.8362000"
"69929336","SMA SCIENCE PLUS BAITUL QURAN BOARDING SCHOOL","GARUT RT. 04","Prop. Jawa Tengah","SMA","-7.4769000","111.0910000"
"20324395","SMA AL FUDLOLA MOGA","JL. RAYA MOGA NO 99 - MOGA - PEMALANG","Prop. Jawa Tengah","SMA","-6.8565000","109.5211000"
"20307651","SMAS BENTARA WACANA MUTILAN","JL. LETTU SUGIARNO NO. 40 A","Prop. Jawa Tengah","SMA","-7.5895000","110.2703000"
"20314884","SMAN 1 CEPU","JL. DIPONEGORO NO. 55 CEPU","Prop. Jawa Tengah","SMA","-7.1506000","111.5921000"
"20300633","SMA MUHAMMADIYAH KEDUNGREJA","JL. RAYA  KEDUNGREJA NO. 80 CILACAP","Prop. Jawa Tengah","SMA","-7.5375000","108.8014000"
"20308616","SMAN 1 CEPOGO","JL RAYA CEPOGO KM 8 CEPOGO","Prop. Jawa Tengah","SMA","-7.5204000","110.5400000"
"69830648","SMA TERBUKA 1 WIROSARI","JL. RAYA NO. 123 WIROSARI","Prop. Jawa Tengah","SMA","-7.0918270","111.0831940"
"20302183","SMAN 1 JATILAWANG","JL. RAYA NO 376 JATILAWANG","Prop. Jawa Tengah","SMA","-7.5156000","109.1084000"
"20307713","SMAN 1 MERTOYUDAN","JL. PRAMUKA NO. 49 PANCAARGA","Prop. Jawa Tengah","SMA","-7.5143000","110.2345000"
"20329843","SMAN 5 TEGAL","JL. KALI KEMIRI II","Prop. Jawa Tengah","SMA","-6.8641000","109.1064000"
"20310416","SMAN 1 POLOKARTO","BUTUH, GODOG, POLOKARTO, SKH","Prop. Jawa Tengah","SMA","-7.6450300","110.8868210"
"20328448","SMAN 2 SALATIGA","Jl. Tegalrejo No. 79 Kota Salatiga","Prop. Jawa Tengah","SMA","-7.3526000","110.4997000"
"69910051","SMA DARUL MAARIF BANYUPUTIH","Jl. Raya Pantura Desa Sembung kec. Banyuputih kab. Batang","Prop. Jawa Tengah","SMA","-6.9716000","109.9318000"
"20325283","SMAS BHAKTI PRAJA ADIWERNA","JL. SINGKIL No 242, ADIWERNA","Prop. Jawa Tengah","SMA","-6.9313000","109.1128000"
"20319303","SMAN 1 MRANGGEN","Jl. Kyai Santri","Prop. Jawa Tengah","SMA","-7.0423000","110.5121000"
"20305011","SMAN 1 KLIRONG","JL. RAYA KLIRONG","Prop. Jawa Tengah","SMA","-7.7398000","109.6272000"
"20328924","SMA AT THOHIRIYYAH","Jl. KH Thohir No. 36","Prop. Jawa Tengah","SMA","-7.0146000","110.4859000"
"20317486","SMAS NU HASYIM ASYARI","JL. MEJOBOMLATI KIDUL,KUDUS","Prop. Jawa Tengah","SMA","-6.8132000","110.8565000"
"20331819","SMAS MA ARIF LEKSONO","JL. KAUMAN KM. 01 LEKSONO","Prop. Jawa Tengah","SMA","-7.4181000","109.8549000"
"20321973","SMAN 1 CEPIRING","JL.SRI AGUNG 57 CEPIRING","Prop. Jawa Tengah","SMA","-6.9864000","110.2098000"
"20350720","SMA NEGERI 1 SIRAMPOG","JL. RAYA SIRAMPOG KM.9 MANGGIS","Prop. Jawa Tengah","SMA","-7.2232000","109.0805000"
"20325298","SMAN 1 WARUREJA","Jl. AMD No.4 Desa Sukareja Warureja","Prop. Jawa Tengah","SMA","-6.9232000","109.3247000"
"20331093","SMAS MUHAMMADIYAH 3 KALIWUNGU","JL. SEKOPEK NO.130 KALIWUNGU","Prop. Jawa Tengah","SMA","-6.9470000","110.2489000"
"20315696","SMA NEGERI 1 PAMOTAN","JL. LASEM KM. 01 PAMOTAN","Prop. Jawa Tengah","SMA","-6.7540000","111.4841000"
"20320391","SMA TAMAN MADYA AMBARAWA","JL. DR. CIPTO NO. 63 AMBARAWA","Prop. Jawa Tengah","SMA","-7.2329000","110.3997000"
"20314893","SMAS MUHAMMADIYAH CEPU","JL. RONGGOLAWE GG. KHA DAHLAN NO.6 CEPU","Prop. Jawa Tengah","SMA","-7.1444000","111.5945000"
"20321980","SMAS PGRI 1 KENDAL","JL. MANGGA RAYA PURIN","Prop. Jawa Tengah","SMA","-6.8892000","110.1872000"
"20309679","SMAN 1 KARANGDOWO","JL. SENTONO KARANGDOWO","Prop. Jawa Tengah","SMA","-7.6821000","110.7447000"
"20331896","SMA AL USWAH","Jln. Mr. Koesbiono Tjondro Wibowo","Prop. Jawa Tengah","SMA","-7.0430000","110.3910000"
"69829549","SMA SYUBBANUL WATHON","Jl. Kyai Abdan No. 3 Dlimas Tegalrejo Magelang Jawa Tengah","Prop. Jawa Tengah","SMA","-7.4576940","110.2697340"
"20321429","SMA NEGERI 1 CANDIROTO","JL. SIBAJAG MUNTUNG, CANDIROTO","Prop. Jawa Tengah","SMA","-7.2132000","110.0533000"
"20311332","SMAN 1 WURYANTORO","JL. RAYA WURYANTORO","Prop. Jawa Tengah","SMA","-7.8884000","110.8597000"
"20313062","SMAS KRISTEN SRAGEN","JL. RA. KARTINI NO. 22","Prop. Jawa Tengah","SMA","-7.4559000","111.0065000"
"20318324","SMAS ISLAM AL HIKMAH","JL. PANCUR GANG 1 PELEMKEREP MAYONG","Prop. Jawa Tengah","SMA","-6.7479000","110.7633000"
"20320388","SMA AL MAS`UDIYYAH BANDUNGAN","JL. RAYA BLATER JIMBARAN KM. 1","Prop. Jawa Tengah","SMA","-7.2138970","110.3980520"
"20309734","SMAS COKROAMINOTO","JL.DESA KARANGANOM, KLATEN UTARA","Prop. Jawa Tengah","SMA","-7.6339000","110.6450000"
"20331701","SMAS TAKHASSUS AS SAHRO","JL. MAGELANG KM. 30","Prop. Jawa Tengah","SMA","-7.5131000","110.0464000"
"20326432","SMAN 1 PAGUYANGAN","JL. KEDUNGBANTENG NO.1 PAGUYANGAN","Prop. Jawa Tengah","SMA","-7.3153000","109.0261000"
"20329844","SMAN 4 TEGAL","JL. DR. SETIABUDI NO. 32","Prop. Jawa Tengah","SMA","-6.8610000","109.1407000"
"20338516","SMAN 1 SIDOHARJO","Jalan Kebonagung-Sidoharjo","Prop. Jawa Tengah","SMA","-7.8727000","111.0484000"
"20308449","SMAN 1 BOYOLALI","JL. KATES NO.8 BOYOLALI","Prop. Jawa Tengah","SMA","-7.5416000","110.5987000"
"20329516","SMA Negeri 2 Pekalongan","Jl. Kusuma Bangsa Pekalongan","Prop. Jawa Tengah","SMA","-6.8660380","109.6785420"
"20311311","SMAS PANCASILA 3 PARANGGUPITO","JL. PARANGGUPITO - PANTAI SADENG","Prop. Jawa Tengah","SMA","-8.1505000","110.8529000"
"20325302","SMAN 1 KRAMAT","JL. GARUDA NO.1 A BONGKOK, KRAMAT","Prop. Jawa Tengah","SMA","-6.8788000","109.1873000"
"20319288","SMAS MUHAMMADIYAH 1 DEMAK","JL. KY JABAT NO. 9 DEMAK","Prop. Jawa Tengah","SMA","-6.8926000","110.6375000"
"20338403","SMAS NURUL HUDA PAGUYANGAN","JL. BERAN CILIBUR","Prop. Jawa Tengah","SMA","-7.2520060","109.0539860"
"20327964","SMAS WARGA SURAKARTA","JL. MONGINSIDI NO. 17","Prop. Jawa Tengah","SMA","-7.5594960","110.8322960"
"20323500","SMA NEGERI 1 KESESI","Jl. Raya Kaibahan Kesesi","Prop. Jawa Tengah","SMA","-7.0130910","109.5129810"
"20303986","SMAN 1 BATUR","JL. RAYA BATUR NO. 46A","Prop. Jawa Tengah","SMA","-7.2069000","109.8260000"
"20312189","SMAN 2 KARANGANYAR","JL. RONGGOWARSITO,BEJEN KARANGANYAR","Prop. Jawa Tengah","SMA","-7.6005890","110.9783970"
"20324391","SMAS MUHAMMADIYAH 2 PEMALANG","JL. DR. CIPTO MANGUNKUSUMO NO. 8","Prop. Jawa Tengah","SMA","-6.9410000","109.4271000"
"20328929","SMA PGRI 1 ","Jl. Menjangan Barat VI/6","Prop. Jawa Tengah","SMA","-7.0185000","110.4716000"
"20313031","SMAN 1 SUKODONO","JL. RAYA SUKODONO - TANON KM.01","Prop. Jawa Tengah","SMA","-7.3331000","110.9638000"
"20309677","SMAN 1 KARANGNONGKO","Jl. Deles","Prop. Jawa Tengah","SMA","-7.6790000","110.5371000"
"20304997","SMAS PGRI 1 GOMBONG","JL. POTONGAN NO. 292 GOMBONG","Prop. Jawa Tengah","SMA","-7.5995000","109.5046000"
"20330284","SMAN 1 ROWOKELE","JL. JATIJAJAR KM.4","Prop. Jawa Tengah","SMA","-7.6420000","109.4307000"
"20319298","SMAN 1 KARANGANYAR","JL. RAYA CANGKRING NO. 8","Prop. Jawa Tengah","SMA","-6.8586000","110.7916000"
"20320376","SMA ASSALAFI SUSUKAN","JL. KENTENG KEC. SUSUKAN","Prop. Jawa Tengah","SMA","-7.4080000","110.5598000"
"20309704","SMAN 1 GANTIWARNO","JL. BUNGASAN","Prop. Jawa Tengah","SMA","-7.7854000","110.5742000"
"20323398","SMA NEGERI 1 KAJEN","Jl. Mandurorejo","Prop. Jawa Tengah","SMA","-7.0279000","109.5859000"
"20327985","SMAS MURNI SURAKARTA","JL. DR. WAHIDIN NO. 33","Prop. Jawa Tengah","SMA","-7.5683180","110.8063430"
"20302169","SMAN 5 PURWOKERTO","JL. GEREJA NO. 20 PURWOKERTO","Prop. Jawa Tengah","SMA","-7.4187630","109.2337900"
"20307642","SMAS SHOLIHIN BANDONGAN","JL. R. ABDULLAH","Prop. Jawa Tengah","SMA","-7.4852000","110.1955000"
"20318340","SMA NEGERI 1 MLONGGO","JL RAYA JEPARA BANGSRI","Prop. Jawa Tengah","SMA","-6.5527000","110.7071000"
"20360534","SMAS ADH DHUHAA","JL. MANGESTI LUHUR NO. 10","Prop. Jawa Tengah","SMA","-7.5980000","110.7774000"
"20338214","SMAS DIPONEGORO 1 PWT","JL. LETJEND POL SUMARTO GG.VI NO. 64","Prop. Jawa Tengah","SMA","-7.4162000","109.2635000"
"20326461","SMAN 1 KERSANA","JL. STASIUN KERSANA","Prop. Jawa Tengah","SMA","-6.9302000","108.8519000"
"20328934","SMA NUSA BHAKTI","JL. WOLOGITO BARAT NO. 125","Prop. Jawa Tengah","SMA","-6.9872000","110.3694000"
"20329848","SMAS PIUS TEGAL","JL. KAPTEN ISMAIL NO. 120","Prop. Jawa Tengah","SMA","-6.8648000","109.1281000"
"20303249","SMAN 1 PURBALINGGA","JL. LETJEND. MT HARYONO","Prop. Jawa Tengah","SMA","-7.3870000","109.3523000"
"20338630","SMAS NURUL MUSLIM BATEALIT","JL. MINDAHAN BATEALIT","Prop. Jawa Tengah","SMA","-6.6382000","110.7471000"
"20318337","SMA NEGERI 1 WELAHAN","JL. RAYA GOTRI - WELAHAN","Prop. Jawa Tengah","SMA","-6.7568000","110.7246000"
"20300625","SMA PURNAMA MAJENANG","JL. BHAYANGKARA KOTAK POS 11","Prop. Jawa Tengah","SMA","-7.2994000","108.7479000"
"20302180","SMAN 1 SUMPIUH","JL. RAYA BARAT NO. 95 SUMPIUH","Prop. Jawa Tengah","SMA","-7.5930000","109.3632000"
"20312172","SMAN KEBAKKRAMAT","Jl. Kebakkramat - Tasikmadu","Prop. Jawa Tengah","SMA","-7.5334170","110.9060890"
"20307630","SMAS MAARIF SRUMBUNG","JL. MASJID ANNUR","Prop. Jawa Tengah","SMA","-7.5934000","110.3413000"
"20315695","SMA NEGERI 1 LASEM","JL. SUNAN BONANG NO. 1 LASEM","Prop. Jawa Tengah","SMA","-6.6890000","111.4543000"
"20329812","SMAS MUHAMMADIYAH","JL. KARTINI NO. 47","Prop. Jawa Tengah","SMA","-6.8727000","109.1374000"
"20338224","SMAS MUHAMMADIYAH SOKARAJA","JL. PRAMUKA N0.24 SOKARAJA","Prop. Jawa Tengah","SMA","-7.4568000","109.2873000"
"20308598","SMAN 1 MUSUK","MANGGUNG, SUKOREJO, MUSUK","Prop. Jawa Tengah","SMA","-7.6079000","110.5404000"
"20326433","SMAN 1 SALEM","JL. RAYA  SALEM BENTAR","Prop. Jawa Tengah","SMA","-7.1671000","108.8016000"
"20309681","SMAN 1 JOGONALAN","JL. KLATEN - YOGYA KM.7/23 KLATEN","Prop. Jawa Tengah","SMA","-7.7292000","110.5500000"
"20328919","SMA ISLAM PRAGOLAPATI","Jl. Raya Manyaran Gunungpati Km. 10","Prop. Jawa Tengah","SMA","-7.0277000","110.3832000"
"69945827","SMA Nur Lintang Kedu","Jl. Traji - Bandunggede Km 02","Prop. Jawa Tengah","SMA","-7.2488000","110.0974000"
"20338215","SMAS DIPONEGORO SUMPIUH","JL. Bong Cina Kradenan","Prop. Jawa Tengah","SMA","-7.6096000","109.3682000"
"20328870","SMAS WALISONGO","JL. KI MANGUNSARKORO NO. 17","Prop. Jawa Tengah","SMA","-6.9911133","110.4288200"
"20338130","SMAS MUHAMMADIYAH GODONG","JL. JEND. AHMAD YANI NO. 16","Prop. Jawa Tengah","SMA","-7.0209000","110.7660000"
"20319304","SMAS MAARIF KARANGAWEN","JRAGUNG KRAJAN","Prop. Jawa Tengah","SMA","-7.1129000","110.5584000"
"20328891","SMA NEGERI 07","Jl. Untung Suropati","Prop. Jawa Tengah","SMA","-7.0133000","110.3713000"
"20307709","SMAN 2 GRABAG","JL. RAYA GRABAG NO.46","Prop. Jawa Tengah","SMA","-7.3769000","110.3296000"
"20331979","SMAS TARAKANITA MAGELANG","JL. BERINGIN VI MAGELANG","Prop. Jawa Tengah","SMA","-7.4969000","110.2274000"
"20308440","SMAN 1 NOGOSARI","GLONGGONG, NOGOSARI, BOYOLALI","Prop. Jawa Tengah","SMA","-7.4822000","110.7439000"
"20328936","SMAS MATARAM","JL. M.T. HARYONO 403-405","Prop. Jawa Tengah","SMA","-6.9823100","110.4305150"
"20311318","SMAN 1 PRACIMANTORO","JL. TARUNA HARDO SEMERU","Prop. Jawa Tengah","SMA","-8.0527000","110.8042000"
"20318344","SMA NEGERI 1 BANGSRI","JL. JERUK WANGI,BANGSRI","Prop. Jawa Tengah","SMA","-6.5130000","110.7578000"
"69786248","SMAN 1 WEDUNG","Jl. Raya Bungo Pasir Kecamatan Wedung","Prop. Jawa Tengah","SMA","-6.7862000","110.6283000"
"20318320","SMAS MASEHI JEPARA","JL. YOS SUDARSO JEPARA","Prop. Jawa Tengah","SMA","-6.5892000","110.6660000"
"20313848","SMAN 1 KARANGRAYUNG","JL. RAYA KARANGRAYUNG JUWANGI KM. 1","Prop. Jawa Tengah","SMA","-7.1219000","110.7759000"
"20328935","SMA MUHAMMADIYAH 1","Jl. Tentara Pelajar No. 91","Prop. Jawa Tengah","SMA","-7.0194000","110.4332000"
"20327564","SMAN 3 MAGELANG","JL. MEDANG NO. 17 MAGELANG","Prop. Jawa Tengah","SMA","-7.4824510","110.2224850"
"20313849","SMAN 1 GUBUG","JL. A. YANI 171 GUBUG","Prop. Jawa Tengah","SMA","-7.0506000","110.6526000"
"20317487","SMAS NU AL MA RUF","Jl. AKBP. R. AGIL KUSUMADYA 2","Prop. Jawa Tengah","SMA","-6.8212000","110.8358000"
"20306172","SMAN 6 PURWOREJO","JL. TENTARA PELAJAR  210 KM. 4 PURWOREJO","Prop. Jawa Tengah","SMA","-7.7266180","109.9718220"
"69949652","SMA Muhammadiyah Program Khusus Kottabarat Surakarta","Jl. Pleret Barat 9 Sumber RT 06 RW 07","Prop. Jawa Tengah","SMA","-7.5499273","110.8245144"
"20300617","SMA NEGERI 1 CILACAP","JL. MT. HARYONO No. 730","Prop. Jawa Tengah","SMA","-7.7142000","109.0051000"
"20331092","SMAS MUHAMMADIYAH 1 WELERI","JL. RAYA 238 WELERI","Prop. Jawa Tengah","SMA","-6.9732000","110.0740000"
"20328922","SMA GITA BAHARI","Jl. Soekarno Hatta No. 180","Prop. Jawa Tengah","SMA","-7.0202000","110.4597000"
"20319323","SMAS AN NIDHOM MLATEN MIJEN","JL. MLATI GANG III MLATEN","Prop. Jawa Tengah","SMA","-6.8388000","110.7072000"
"20312204","SMA MUHAMMADIYAH 1 KARANGANYAR","JL. BRIGJEND SLAMET RIYADI KARANGANYAR","Prop. Jawa Tengah","SMA","-7.6029000","110.9503000"
"20314906","SMAN 2 CEPU","JL. RANDUBLATUNG KM. 5 CEPU","Prop. Jawa Tengah","SMA","-7.1589000","111.5505000"
"20331914","SMA TEUKU UMAR","Jl. Karangrejo Tengah IX/99","Prop. Jawa Tengah","SMA","-7.0267000","110.4070000"
"20331894","SMA AL FATTAH","Jl. Masjid Terboyo No. III","Prop. Jawa Tengah","SMA","-6.9576000","110.4444000"
"20318347","SMAS PGRI JEPARA","JALAN RATU KALINYAMAT DEMAAN JEPARA","Prop. Jawa Tengah","SMA","-6.5993000","110.6640000"
"20331899","SMA DON BOSKO","Jl. Sultan Agung No. 133","Prop. Jawa Tengah","SMA","-7.0221000","110.4191000"
"69760565","SMAS ISLAM KHALIFATULLAH","MOJO RT 01 RW 04 LABAN MOJOLABAN SUKOHARJO","Prop. Jawa Tengah","SMA","-7.6030000","110.8523000"
"20300718","SMA NEGERI 2 KROYA","JL. TEMUGIRING 1 GENTASARI","Prop. Jawa Tengah","SMA","-7.6049000","109.2588000"
"20325307","SMAS NU SURADADI","JL. RAYA SURADADI KM. 17 TEGAL","Prop. Jawa Tengah","SMA","-6.9238000","109.2739000"
"20339011","SMA PGRI 2 KAYEN","JL. RAYA KAYEN - JATIROTO  KM. 1","Prop. Jawa Tengah","SMA","-6.8857000","110.9962000"
"20328926","SMA MARDISISWA","Jl. Sukun No. 45","Prop. Jawa Tengah","SMA","-7.0661000","110.4158000"
"20339149","SMA NEGERI 1 ADIPALA","JL. A YANI DOPLANG","Prop. Jawa Tengah","SMA","-7.6413000","109.1779000"
"20312205","SMA KANISIUS BHARATA KARANGANYAR","JL. KAPTEN MULYADI KARANGANYAR","Prop. Jawa Tengah","SMA","-7.6158000","110.9672000"
"69886194","SMA MARIA REGINA","Jl. Palm 2 No. 1 Palm Hill Estate","Prop. Jawa Tengah","SMA","-7.0201680","110.3958550"
"20326484","SMAS WALISONGO KETANGGUNGAN","JL. JEND. SUDIRMAN NO. 87 KETANGGUNGAN","Prop. Jawa Tengah","SMA","-6.9749000","108.8857000"
"20320375","SMA BHAKTI MUDA KALIWUNGU","DESA MUKIRAN","Prop. Jawa Tengah","SMA","-7.4584000","110.6253000"
"20313829","SMAS MUHAMMADIYAH GUBUG","JL. PEMUDA NO. 92  GUBUG","Prop. Jawa Tengah","SMA","-7.0575000","110.6664000"
"20323399","SMA NEGERI 1 KEDUNGWUNI","Jl. Paesan Utara","Prop. Jawa Tengah","SMA","-6.9604000","109.6418000"
"20326436","SMAN 2 BREBES","JL. AHMAD YANI NO 77 BREBES","Prop. Jawa Tengah","SMA","-6.8726080","109.0484080"
"69893229","SMA NASIONAL 3 BAHASA PUTERA HARAPAN","Jl. S. Parman Kompleks Stadion Mini","Prop. Jawa Tengah","SMA","-7.4528800","109.2474570"
"20303237","SMAS MA ARIF KARANGMONCOL","JL. RAYA PEKIRINGAN NO.2","Prop. Jawa Tengah","SMA","-7.2646000","109.4694000"
"20313072","SMAS MUHAMMADIYAH 1 SRAGEN","JL. RAYA SUKOWATI 108 SRAGEN","Prop. Jawa Tengah","SMA","-7.4301000","111.0032000"
"20311317","SMAS KANISIUS HARAPAN","PERTINGGEN  JL. KENANGA","Prop. Jawa Tengah","SMA","-7.9443000","111.0559000"
"69900630","SMA ISLAM ANDALUSIA KEBASEN","Desa Randegan RT 01 RW 02","Prop. Jawa Tengah","SMA","-7.5306000","109.2383000"
"20331758","SMA DIPONEGORO SAMPANG","JL. GERILYA NO. 9","Prop. Jawa Tengah","SMA","-7.5742000","109.2017000"
"20318321","SMAS ISLAM SULTAN AGUNG 2","JL. RAYA GOTRI - WELAHAN","Prop. Jawa Tengah","SMA","-6.7325000","110.7237000"
"20320382","SMA  MUHAMMADIYAH SUMOWONO","JL. KALIBANGER NO. 73","Prop. Jawa Tengah","SMA","-7.2360000","110.2864000"
"20356178","SMAN 1 PADAMARA","JL. RAYA PADAMARA","Prop. Jawa Tengah","SMA","-7.3831480","109.3228600"
"20313835","SMAS ISLAM KARANGRAYUNG","JL. RAYA KARANGRAYUNG - GODONG","Prop. Jawa Tengah","SMA","-7.1030000","110.7803000"
"20341554","SMAS IT NURHIDAYAH","JL. PANDAWA NO. 10","Prop. Jawa Tengah","SMA","-7.5669000","110.7270000"
"20326486","SMAN 1 BANJARHARJO","JL. RAYA BARAT NO. 27 BANJARHARJO BREBES","Prop. Jawa Tengah","SMA","-6.9864000","108.8421000"
"20311306","SMAN 1 GIRIMARTO","JL. MARON, GIRIMARTO","Prop. Jawa Tengah","SMA","-7.8004000","111.0779000"
"20307647","SMAS MUHAMMADIYAH NGLUWAR","JL. KYAI SAHID KM 1","Prop. Jawa Tengah","SMA","-7.6456000","110.2756000"
"20310424","SMAN 1 MOJOLABAN","JL. BATARA SURYA NO. 10","Prop. Jawa Tengah","SMA","-7.6005000","110.8690000"
"20338228","SMAS VETERAN PURWOKERTO","JL. DR. ANGKA NO. 56 PURWOKERTO","Prop. Jawa Tengah","SMA","-7.4166620","109.2381480"
"20304998","SMAS MUHAMMADIYAH KEBUMEN","JL. JEND. A. YANI NO. 83 KEBUMEN","Prop. Jawa Tengah","SMA","-7.6774030","109.6675400"
"20321977","SMAS PONDOK MODERN SELAMAT","JL. Raya Soekarno-Hatta KM 3","Prop. Jawa Tengah","SMA","-6.9212000","110.1772000"
"20339057","SMA NEGERI 1 BATANGAN","JL. RAYA JUWANA - REMBANG KM. 8","Prop. Jawa Tengah","SMA","-6.7104000","111.2075000"
"20308445","SMAN 1 NGEMPLAK","DONOHUDAN, NGEMPLAK, BOYOLALI","Prop. Jawa Tengah","SMA","-7.5138000","110.7531000"
"20315697","SMA NEGERI 1 REMBANG","JL. GAJAH MADA NO. 5 REMBANG","Prop. Jawa Tengah","SMA","-6.7154000","111.3215000"
"20332522","SMA KRISTEN TERANG BANGSA","JL. ARTERI UTARA, KOMP. GRAND MARINA","Prop. Jawa Tengah","SMA","-6.9547000","110.3925000"
"20309732","SMAS ISLAM PANDANARAN KLATEN","JL. KI AGENG GRIBIG, KLATEN UTARA","Prop. Jawa Tengah","SMA","-7.6897380","110.6111170"
"20327980","SMAS MUHAMMADIYAH 1 SURAKARTA","JL. RADEN MAS SAID NO.35","Prop. Jawa Tengah","SMA","-7.5646500","110.8219110"
"20339055","SMA MUHAMMADIYAH 2 SUKOLILO","JL. KH. A. DAHLAN NO. 5 SUKOLILO PATI","Prop. Jawa Tengah","SMA","-6.8959000","110.9537000"
"20338402","SMAS NU LARANGAN","JL. RAYA BARAT LARANGAN","Prop. Jawa Tengah","SMA","-7.0223000","108.9239000"
"20307634","SMAS WIDYA WACANA SECANG","JL. TEMANGGUNG NO. 51","Prop. Jawa Tengah","SMA","-7.3885000","110.2424000"
"20339021","SMA NEGERI 1 PATI","JL. P. SUDIRMAN NO. 24 PATI","Prop. Jawa Tengah","SMA","-6.7543000","111.0245000"
"20321837","SMAN 1 ROWOSARI","JL. BAHARI KM.5 ROWOSARI","Prop. Jawa Tengah","SMA","-6.9426000","110.0526000"
"20325296","SMAS MUHAMMADIYAH SURADADI","JL. AKHROM SURADADI RT. 01 / 10, SURADADI","Prop. Jawa Tengah","SMA","-6.9121000","109.2325000"
"20315682","SMA NEGERI 1 SALE","DS. WONOKERTO, SALE","Prop. Jawa Tengah","SMA","-6.8501000","111.5863000"
"20306193","SMAS DARUL HIKMAH","JL. S. PARMAN, KUTOARJO","Prop. Jawa Tengah","SMA","-7.6808000","109.9251000"
"20329525","SMA Santo Bernardus","Jl. Patriot No. 14 Pekalongan","Prop. Jawa Tengah","SMA","-6.8769480","109.6681710"
"20339008","SMA MURIA PATI","JL. PRATOMO PATI","Prop. Jawa Tengah","SMA","-6.7957000","111.0210000"
"20341009","SMAS NU 5 BRANGSONG","JL. AHMAD YANI NO. 150 SIDOREJO","Prop. Jawa Tengah","SMA","-6.9638000","110.2168000"
"20310431","SMAS MUHAMMADIYAH 5 GATAK","BLIMBING, GATAK, SUKOHARJO","Prop. Jawa Tengah","SMA","-7.5908000","110.7342000"
"20338494","SMAS COKROAMINOTO 1 BANJARNEGARA","JL. PEMUDA NO. 63","Prop. Jawa Tengah","SMA","-7.3967000","109.6984000"
"20329784","SMAS IHSANIYAH TEGAL","JL. JALAK BARAT NO. 16","Prop. Jawa Tengah","SMA","-6.8532000","109.1229000"
"20307714","SMAN 1 KOTA MUNGKID","JL. LETNAN TUKIYAT","Prop. Jawa Tengah","SMA","-7.5857000","110.2088000"
"20320392","SMA SEDES SAPIENTIAE JAMBU","TROMOL POS 203 BEDONO, KEC. JAMBU","Prop. Jawa Tengah","SMA","-7.3078190","110.3523150"
"20339019","SMA NEGERI 1 JUWANA","JL. KI HAJAR DEWANTORO NO. 54 JUWANA","Prop. Jawa Tengah","SMA","-6.6687000","111.1364000"
"20318332","SMAS MUHAMMADIYAH 3 JEPARA","JL. KH. MOELIKI NO. 03 JEPARA","Prop. Jawa Tengah","SMA","-6.5900000","110.6698000"
"20339004","SMA ISLAM TUAN SOKOLANGU","JL.GABUS - TLOGOAYU KM 2","Prop. Jawa Tengah","SMA","-6.8278000","111.0368000"
"20331909","SMA MUHAMMADIYAH 2","JL. RAYA RM HADI SUBENO S","Prop. Jawa Tengah","SMA","-7.0379000","110.3288000"
"20307641","SMAS TARUNA NUSANTARA","JL. RAYA MAGELANG PURWOREJO KM 5","Prop. Jawa Tengah","SMA","-7.5163000","110.1981000"
"20307636","SMAS ISLAM SUDIRMAN GRABAG","JL. TELAGA BLEDER KM. 1","Prop. Jawa Tengah","SMA","-7.3693000","110.3165000"
"20326460","SMAN 1 KETANGGUNGAN","JL. KARANGMALANG KETANGGUNGAN BREBES","Prop. Jawa Tengah","SMA","-6.9856000","108.8831000"
"20308441","SMAN 1 TERAS","JL SUDIMORO - RANDUSARI KM.2","Prop. Jawa Tengah","SMA","-7.5499000","110.6515000"
"20303250","SMAS MA ARIF KARANGANYAR","JL. RAYA KARANGANYAR NO. 11","Prop. Jawa Tengah","SMA","-7.3256000","109.4085000"
"20331094","SMAS NU MA ARIF 4 KANGKUNG","Jl. MASJID AL HUDA  DESA LABAN","Prop. Jawa Tengah","SMA","-6.9081000","110.1246000"
"20320386","SMA NEGERI 1 BERGAS","JL. SOEKARNO HATTA KEC. BERGAS","Prop. Jawa Tengah","SMA","-7.1790000","110.4317000"
"69899476","SMA TERPADU RIYADUL MUBAROK","Jl. Nyagak Desa Bandungsari","Prop. Jawa Tengah","SMA","-7.0584790","108.8218920"
"20310434","SMAS PRAWIRA MARTA KARTASURA","JL. KRANGGAN, WIROGUNAN, KARTASURA","Prop. Jawa Tengah","SMA","-7.5538000","110.7394000"
"20319286","SMAS NAHDLOTUSY SYUBAN PLOSO","JL. TANGGUL TUNTANG","Prop. Jawa Tengah","SMA","-6.9357000","110.6331000"
"20331035","SMAS BUDI LUHUR TANGGUNGHARJO","JL. RAYA TANGGUNGHARJO-TEGOWANU NO. 1","Prop. Jawa Tengah","SMA","-7.0893000","110.6045000"
"20321972","SMAS MUHAMMADIYAH 4 KENDAL","JL. PEMUDA NO. 75","Prop. Jawa Tengah","SMA","-6.9146000","110.2117000"
"20328879","SMA NEGERI 11","Jl. Lamper Tengah","Prop. Jawa Tengah","SMA","-7.0133000","110.4416000"
"20306175","SMAN 3 PURWOREJO","JL. YOGYAKARTA KM. 8 PURWOREJO","Prop. Jawa Tengah","SMA","-7.7851000","110.0043000"
"20305002","SMAS MUHAMMADIYAH KUTOWINANGUN","JL. PEMUDA NO. 14","Prop. Jawa Tengah","SMA","-7.7187600","109.7380980"
"20353753","SMA HIDAYATUL MUSTAFIDIN","JL. KUDUS COLO KM.11","Prop. Jawa Tengah","SMA","-6.7250000","110.8727000"
"20314881","SMAN 1 RANDUBLATUNG","JL. BLORA  KM. 37","Prop. Jawa Tengah","SMA","-7.1863000","111.3970000"
"20341151","SMAS AL ITISHOM GRABAG","KLIWONAN GRABAG","Prop. Jawa Tengah","SMA","-7.3700000","110.3285000"
"20300729","SMA NEGERI 1 SIDAREJA","JL. KUNCI TROMOL POS 4","Prop. Jawa Tengah","SMA","-7.4738000","108.8089000"
"20314894","SMAN 1 TUNJUNGAN","JL. GATOT SUBROTO KM. 4","Prop. Jawa Tengah","SMA","-6.9664717","111.3826833"
"20310435","SMAS VETERAN 1 SUKOHARJO","JL. DR. MUWARDI NO. 84","Prop. Jawa Tengah","SMA","-7.6792000","110.8312000"
"20327565","SMAN 4 MAGELANG","JL. PANEMBAHAN SENOPATI 42/47","Prop. Jawa Tengah","SMA","-7.4995000","110.2198000"
"20314892","SMAS MUHAMMADIYAH KEDUNGTUBAN","JL.RAYA CEPU RANDUBLATUNG KM. 11","Prop. Jawa Tengah","SMA","-7.1962000","111.5025000"
"20317488","SMAS MUHAMMADIYAH","JL. KHR. ASNAWI 19 KUDUS","Prop. Jawa Tengah","SMA","-6.8019000","110.8306000"
"20308448","SMAN 3 BOYOLALI","JL. PERINTIS KEMERDEKAAN, BOYOLALI","Prop. Jawa Tengah","SMA","-7.5418000","110.5952000"
"20322739","SMAS MUHAMMADIYAH TERSONO","JL. RAYA TERSONO-LIMPUNG KM. 2","Prop. Jawa Tengah","SMA","-7.0358000","109.9529000"
"20310414","SMAS KRISTEN KALAM KUDUS SUKOHARJO","JL. DIPONEGORO KOMPLEK PERUMAHAN SOLO BARU, GROGOL SUKOHARJO","Prop. Jawa Tengah","SMA","-7.6128000","110.8146000"
"20302174","SMAN 1 RAWALO","Jl. Pawiyatan No. 1","Prop. Jawa Tengah","SMA","-7.5289000","109.1667000"
"20330280","SMAN 1 BULUSPESANTREN","JL. DS. WALUYO","Prop. Jawa Tengah","SMA","-7.7688000","109.6767000"
"20321434","SMA ISLAM SUDIRMAN TEMBARAK","JL. KESEHATAN 0.2","Prop. Jawa Tengah","SMA","-7.3601000","110.1767000"
"20328894","SMA NEGERI 04","Jl. Karangrejo Raya No. 12 A","Prop. Jawa Tengah","SMA","-7.0736000","110.4124000"
"20322746","SMAS WAHID HASYIM TERSONO","JL. LAPANGAN GEDONGSARI TERSONO","Prop. Jawa Tengah","SMA","-7.0271000","109.9628000"
"20320385","SMA NEGERI 1 BRINGIN","JL. WIBISONO II/3","Prop. Jawa Tengah","SMA","-7.2419000","110.5089000"
"20306210","SMAS MUHAMMADIYAH PITURUH","JL. RAYA PITURUH","Prop. Jawa Tengah","SMA","-7.6842000","109.8384000"
"20327972","SMAN 7 SURAKARTA","JL. MUH. YAMIN 79 SURAKARTA","Prop. Jawa Tengah","SMA","-7.5756600","110.8099250"
"20317484","SMAS PGRI KALIWUNGU","JL. JEPARA KM 5","Prop. Jawa Tengah","SMA","-6.7974000","110.8042000"
"20339018","SMA NEGERI 1 JAKENAN","Jalan Jakenan - Winong KM. 1,5 Kec. Jakenan Kab. Pati","Prop. Jawa Tengah","SMA","-6.7590000","111.1425000"
"20314883","SMAN 1 JEPON","JL. RAYA BLORA-CEPU KM. 9","Prop. Jawa Tengah","SMA","-6.9787200","111.4946000"
"20318325","SMAS BOPKRI 2 KELING","JL.RAYA KELET KELING","Prop. Jawa Tengah","SMA","-6.5418000","110.9066000"
"20325281","SMAS DIPONEGORO LEBAKSIU","JL. RAYA BABAKAN DUKUHLO NO. 1","Prop. Jawa Tengah","SMA","-7.0365000","109.1476000"
"20324217","SMAN 1 MOGA","JL. CAMPING SIGHT BANYUMUDAL","Prop. Jawa Tengah","SMA","-7.1009000","109.2307000"
"20312170","SMAN MOJOGEDANG","JL. GROMPOL JAMBANGAN","Prop. Jawa Tengah","SMA","-7.5147100","110.9680670"
"20306200","SMAS MUHAMMADIYAH KUTOARJO","JL. MARDIUSODO NO. 14,KUTOARJO","Prop. Jawa Tengah","SMA","-7.7135000","109.9119000"
"20313067","SMAS MUHAMMADIYAH 8 KALIJAMBE","JL. SOLO-PURWODADI KM 17","Prop. Jawa Tengah","SMA","-7.4363000","110.8093000"
"20322738","SMAS ISLAM A YANI BATANG","JL. KYAI SURGI PROYONANGGAN SELATAN BATANG","Prop. Jawa Tengah","SMA","-6.9237000","109.7324000"
"20312206","SMA BUNG KARNO KARANGPANDAN","JL. SOLO TAWANGMANGU","Prop. Jawa Tengah","SMA","-7.6165080","111.0594830"
"20312171","SMAN KERJO","JL. SUMBEREJO","Prop. Jawa Tengah","SMA","-7.5314780","111.0596260"
"20322747","SMAS NU ALMUNAWIR GRINGSING","JL. RAYA LAMA NO. 16 GRINGSING","Prop. Jawa Tengah","SMA","-6.9625000","110.0451000"
"20338213","SMAS BUDI UTOMO SOKARAJA","JL. MENTERI SUPENO NO.07","Prop. Jawa Tengah","SMA","-7.4587000","109.2841000"
"20303227","SMAN 1 KEJOBONG","JL. RAYA GUMIWANG KEJOBONG","Prop. Jawa Tengah","SMA","-7.4062680","109.4580670"
"20308602","SMAS GAGATAN KARANGGEDE","SRANTEN, KARANGGEDE","Prop. Jawa Tengah","SMA","-7.3642000","110.6511000"
"20309684","SMAN 1 CAWAS","Tugu, Cawas, Klaten","Prop. Jawa Tengah","SMA","-7.7713040","110.6974420"
"20300619","SMA YOS SUDARSO MAJENANG","JL. YOS SUDARSO NO. 01","Prop. Jawa Tengah","SMA","-7.3017240","108.7701720"
"20328913","SMA SEDES SAPIENTIAE","JL. MT. HARYONO NO. 908","Prop. Jawa Tengah","SMA","-6.9991000","110.4330000"
"20353956","SMAS AL FIRDAUS","Jl. Al Kautsar, Mendungan,","Prop. Jawa Tengah","SMA","-7.5545000","110.7722000"
"20322740","SMA NEGERI 2 BATANG","JL. PEMUDA KM. 3 DS. ROWO BELANG ,BATANG","Prop. Jawa Tengah","SMA","-6.9389610","109.7243240"
"20306207","SMAS PANCASILA PURWOREJO","PANGEN KOPLAK","Prop. Jawa Tengah","SMA","-7.7293000","109.9954000"
"69874024","SMA MIFTAKHUL MUBTADIIN MONTESSORI KALORAN","RT 03, RW 01 PRINGTALI, KEMIRI","Prop. Jawa Tengah","SMA","-7.2629000","110.2166000"
"20321979","SMAS PGRI 4 BOJA","JL. KAUMAN SELATAN BOJA","Prop. Jawa Tengah","SMA","-7.1116000","110.2879000"
"20310430","SMAS MUHAMMADIYAH 4 KARTASURA","JL. SLAMET RIYADI NO. 80 KARTASURA","Prop. Jawa Tengah","SMA","-7.5549000","110.7411000"
"20313830","SMAS MUHAMMADIYAH TOROH","JL. DONGKO DS. DEPOK","Prop. Jawa Tengah","SMA","-7.1394000","110.9063000"
"20329522","SMA Islam","Jl. Surabaya No. 1 Pekalongan","Prop. Jawa Tengah","SMA","-6.8636000","109.6838000"
"20328937","SMAS MASEHI 1 PSAK","JL. PASIR MAS RAYA NO. 1","Prop. Jawa Tengah","SMA","-6.9689000","110.4057000"
"20321437","SMA NEGERI 1 PRINGSURAT","JL. RAYA KRANGGAN PRINGSURAT","Prop. Jawa Tengah","SMA","-7.3617000","110.2575000"
"20330277","SMAS PGRI 1 PREMBUN","JL. RAYA PREMBUN PO BOX NO. 9","Prop. Jawa Tengah","SMA","-7.7217000","109.7978000"
"20321975","SMAS TRISULA KENDAL","JL. WALUYO 8 KENDAL","Prop. Jawa Tengah","SMA","-6.9148000","110.2160000"
"20327969","SMAN 4 SURAKARTA","JL. LU. ADI SUCIPTO NO. 1","Prop. Jawa Tengah","SMA","-7.5562310","110.8021370"
"20322729","SMAS BHAKTI PRAJA BATANG","JL. KI MANGUNSARKORO NO. 10 BATANG","Prop. Jawa Tengah","SMA","-6.9218000","109.7318000"
"20317504","SMAS ISLAM SUDIRMAN KUDUS","JL. KUDUS - PATI KM. 8 TENGGELES","Prop. Jawa Tengah","SMA","-6.8092000","110.9018000"
"20308600","SMAS ISLAM SUDIRMAN 2 BOYOLALI","JL. PERINTIS KEMERDEKAAN, BOYOLALI","Prop. Jawa Tengah","SMA","-7.5433000","110.5945000"
"20330348","SMAS YOSODIPURO SURAKARTA","JL. YOSODIPURO NO. 1","Prop. Jawa Tengah","SMA","-7.5672000","110.8225000"
"69888656","SMAS UNGGULAN TELADAN","JALAN SUBURAN BARAT NO. 337 - 338","Prop. Jawa Tengah","SMA","-7.0700470","110.5088480"
"20306915","SMAN 1 KALIWIRO","JL. TANJUNG ANOM","Prop. Jawa Tengah","SMA","-7.4628000","109.9075000"
"20303989","SMAS MA ARIF MANDIRAJA","JL. RAYA KERTAYASA KM 3 - MANDIRAJA","Prop. Jawa Tengah","SMA","-7.4521000","109.5032000"
"20321431","SMA MUHAMMADIYAH 1 TEMANGGUNG","JL. K.H. SAMANHUDI 6-8","Prop. Jawa Tengah","SMA","-7.3120000","110.1784000"
"69933462","SMA ISLAM PLUS AL-BAYAN WIRADESA","Jl. Raya Bener No. 16","Prop. Jawa Tengah","SMA","-6.9208019","109.6084367"
"20326498","SMAS AN NURIYYAH BUMIAYU","JL YUDAKERTI  dh JL. BANDUNG NO. 55 BUMIAYU","Prop. Jawa Tengah","SMA","-7.2537000","109.0049000"
"20318339","SMA NEGERI 1 PECANGAAN","JL. RAYA PECANGAAN JEPARA KM 13","Prop. Jawa Tengah","SMA","-6.6949000","110.7070000"
"20328918","SMA ISLAM SULTAN AGUNG 1","JL. MATARAM NO. 657","Prop. Jawa Tengah","SMA","-6.9966870","110.4309950"
"20360451","SMA KRISTEN SHEKINAH TEMANGGUNG","JL. SOEPENO No. 11 DEMANGAN TIMUR TEMANGGUNG","Prop. Jawa Tengah","SMA","-7.3267000","110.1840000"
"20307637","SMAS ISLAM SUDIRMAN KALIANGKRIK","JL. MAYOR ISMULLOH","Prop. Jawa Tengah","SMA","-7.4698000","110.1480000"
"20305001","SMAS MUHAMMADIYAH GOMBONG","JL. KENANGA NO. 266 GOMBONG","Prop. Jawa Tengah","SMA","-7.6104000","109.5179000"
"20302168","SMAN 4 PURWOKERTO","JL. LETKOL ISDIMAN NO.9 Purwokerto","Prop. Jawa Tengah","SMA","-7.4209000","109.2447560"
"20313846","SMAN 1 PULOKULON","JL. KI AGENG SELO","Prop. Jawa Tengah","SMA","-7.1176000","110.9988000"
"20313068","SMAS MUHAMMADIYAH 6 GONDANG SRAGEN","JL. SUKATANI, GONDANG TANI","Prop. Jawa Tengah","SMA","-7.4040000","111.1163000"
"20311307","SMAN 1 BATURETNO","JL. RAYA BATURETNO TROMOL POS 11","Prop. Jawa Tengah","SMA","-7.9940000","110.9354000"
"20331917","SMA WIDYA MANDALA","Jl. Menoreh Tengah X/9","Prop. Jawa Tengah","SMA","-7.0128000","110.3893000"
"20327939","SMAS TUJUH BELAS SURAKARTA","JL. R.M. SAID NO. 111","Prop. Jawa Tengah","SMA","-7.5639000","110.8197000"
"20310509","SMAS MUHAMMADIYAH PONTREN IMAM SYUHODO","JL. KH. AHMAD DAHLAN NO. 154","Prop. Jawa Tengah","SMA","-7.6232000","110.8925000"
"20321430","SMA PGRI TEMANGGUNG","JL. KARTINI NO. 34C","Prop. Jawa Tengah","SMA","-7.3288000","110.1917000"
"20338217","SMAS KARYA BAKTI JATILAWANG","JL.KEDUNGWRINGIN NO 2","Prop. Jawa Tengah","SMA","-7.5352000","109.1211000"
"20331904","SMA KESATRIAN 2","Jl. Gajah Raya No. 58","Prop. Jawa Tengah","SMA","-6.9827000","110.4495000"
"20313028","SMAN 2 SRAGEN","JL. ANGGREK 34 SRAGEN","Prop. Jawa Tengah","SMA","-7.4203000","111.0078000"
"20312200","SMAN 1 KARANGANYAR","JL. RW. MONGINSIDI 03 KARANGANYAR","Prop. Jawa Tengah","SMA","-7.6035000","110.9511000"
"20321831","SMAN 1 GEMUH","JL. NAPAK  TILAS GEMUH","Prop. Jawa Tengah","SMA","-6.9633000","110.1229000"
"20328893","SMA NEGERI 05","Jl. Pemuda No. 143","Prop. Jawa Tengah","SMA","-6.9803750","110.4132867"
"20313034","SMAN 1 GONDANG","JL. WISMA PRAJA, NO.35","Prop. Jawa Tengah","SMA","-7.4167000","111.1070000"
"20307643","SMAS SEMINARI MERTOYUDAN","JL. MAYJEND BAMBANG SOEGENG NO. 15","Prop. Jawa Tengah","SMA","-7.5195000","110.2254000"
"20328877","SMA SETIABUDHI","JL. WR. SUPRATMAN NO. 37","Prop. Jawa Tengah","SMA","-6.9861000","110.3849000"
"20308613","SMAS KANISIUS YOS SUDARSO","TEGALMULYO, MOJOSONGO","Prop. Jawa Tengah","SMA","-7.5401000","110.6174000"
"20338127","SMAS ISLAM PLUS ASIS","JL. PENAWANGAN SEDADI KM. 5","Prop. Jawa Tengah","SMA","-7.0932550","110.8461020"
"20340793","SMAN 1 PAGERBARANG","JL. RAYA PAGERBARANG - MARGASARI","Prop. Jawa Tengah","SMA","-7.0089000","109.0430000"
"20326485","SMAS YANURIS TONJONG","JL. RAYA LINGGAPURA TONJONG NO. 36 Telp (0289)4311544 TONJONG-BREBES 52271","Prop. Jawa Tengah","SMA","-7.1796000","109.0221000"
"20310421","SMAN 3 SUKOHARJO","JL. JEND. SUDIRMAN NO. 197","Prop. Jawa Tengah","SMA","-7.6678000","110.8213000"
"20306202","SMAN 1 PURWOREJO","JL. TENTARA PELAJAR NO. 55 PURWOREJO","Prop. Jawa Tengah","SMA","-7.7368000","110.0087000"
"20328897","SMA NEGERI 16","Jl. Ngadirgo Tengah","Prop. Jawa Tengah","SMA","-7.0245000","110.3086000"
"20311330","SMAN 3 WONOGIRI","JL.KI  MANGUNSARKORO NO. 70","Prop. Jawa Tengah","SMA","-7.8262000","110.9163000"
"20328874","SMA BINA NUSANTARA","Jalan Kematren No. 5","Prop. Jawa Tengah","SMA","-7.0125000","110.3543000"
"69775720","SMAS UNGGULAN PONDOK MODERN SELAMAT","JALAN SOEKARNO HATTA KM.3 KECAMATAN PATEBON, KABUPATEN KENDAL","Prop. Jawa Tengah","SMA","-6.9211000","110.1781000"
"20321959","SMAN 1 KALIWUNGU","JL.PANGERAN JUMINAH KALIWUNGU","Prop. Jawa Tengah","SMA","-6.9764000","110.2501000"
"20320387","SMA NEGERI 1 AMBARAWA","JL. YOS SUDARSO NO.46","Prop. Jawa Tengah","SMA","-7.2425000","110.3874000"
"20321833","SMAN 2 KENDAL","KELURAHAN JETIS KEC KOTA KENDAL","Prop. Jawa Tengah","SMA","-6.9153000","110.2072000"
"20323502","SMA NEGERI 1 SRAGI","Jl. Raya Bulakpelem","Prop. Jawa Tengah","SMA","-6.9435000","109.5525000"
"20328449","SMAN 3 SALATIGA","Jl. Kartini No.34 Salatiga Tlp. 0298 323300","Prop. Jawa Tengah","SMA","-7.3251000","110.4988000"
"69897124","SMA ISLAM AL AZHAR 14","Jl. Klentengsari 1","Prop. Jawa Tengah","SMA","-7.0565000","110.4271000"
"20328398","SMAS KRISTEN 1 SIDOMUKTI","JL. OSAMALIKI NO. 32","Prop. Jawa Tengah","SMA","-7.3288000","110.4952000"
"20340947","SMAS PELITA NUSANTARA KASIH","JL. SURYA NO. 54-56","Prop. Jawa Tengah","SMA","-7.5653370","110.8383020"
"20300721","SMA NEGERI 1 KAMPUNG LAUT","JL. Masigit Sela No. 09 Kampung Laut","Prop. Jawa Tengah","SMA","-7.6864000","108.8274000"
"20313027","SMAN 3 SRAGEN","JL. DR. SUTOMO NO. 2 SRAGEN","Prop. Jawa Tengah","SMA","-7.4273000","111.0087000"
"20303987","SMAN 1 BANJARNEGARA","JL. LETJEND. SUPRAPTO NO. 93 A","Prop. Jawa Tengah","SMA","-7.3999000","109.6845000"
"20313850","SMAN 1 GROBOGAN","JL. P. PUGER NO.23 GROBOGAN","Prop. Jawa Tengah","SMA","-7.0300000","110.9202000"
"20300627","SMA PGRI 4 GANDRUNGMANGU","JL. RAYA GANDRUNGMANGU","Prop. Jawa Tengah","SMA","-7.5263000","108.8171000"
"20300614","SMA MUHAMMADIYAH 1 CILACAP","JL. KALIMANTAN NO.12","Prop. Jawa Tengah","SMA","-7.7081000","109.0313000"
"20332517","SMA NEGERI 1 TALUN","Jl. Raya Kalirejo","Prop. Jawa Tengah","SMA","-7.0333000","109.7241000"
"20306170","SMAN 8 PURWOREJO","Grabag RT 01 RW 06","Prop. Jawa Tengah","SMA","-7.7979000","109.9099000"
"20320244","SMA NEGERI 1 TENGARAN","KEMBANGSARI KARANGDUREN TENGARAN","Prop. Jawa Tengah","SMA","-7.3936000","110.5131000"
"20321907","SMAN 1 KENDAL","JL. SOEKARNO HATTA KENDAL","Prop. Jawa Tengah","SMA","-6.9229000","110.1813000"
"20331905","SMA KRISTEN TRI TUNGGAL","JL. SEMARANG INDAH BLOK F NO.1","Prop. Jawa Tengah","SMA","-6.9648000","110.3964000"
"20327968","SMAN 3 SURAKARTA","Jl. Prof. W.Z. Johanes no 58 Surakarta","Prop. Jawa Tengah","SMA","-7.5647000","110.8406000"
"20324212","SMAN 2 PEMALANG","JL. JEND. SUDIRMAN NO. 14 RT.01/03 Taman- Pemalang","Prop. Jawa Tengah","SMA","-6.8766000","109.3828000"
"20324389","SMAS MUHAMMADIYAH 4 BELIK","JL. KH. AHMAD DAHLAN NO. 50B BELIK","Prop. Jawa Tengah","SMA","-7.1744000","109.3405000"
"20308619","SMAS YPP ANDONG","KACANGAN, ANDONG, BOYOLALI","Prop. Jawa Tengah","SMA","-7.3734000","110.7637000"
"20300622","SMA YA BAKII 2 GANDRUNGMANGU","JL. RAYA GANDRUNGMANGU","Prop. Jawa Tengah","SMA","-7.5217000","108.8539000"
"20325301","SMAN 1 MARGASARI","JL. RAYA KESAMBI, MARGASARI","Prop. Jawa Tengah","SMA","-7.1408000","108.9656000"
"20343760","SMAN SBBS GEMOLONG","JL. GEMOLONG ASRI. NO 1","Prop. Jawa Tengah","SMA","-7.3840000","110.8494000"
"20311315","SMAS MUHAMMADIYAH 1 WONOGIRI","JL. PERWAKILAN NO1 RT 02 RW 09 GIRIPURWO WONOGIRI","Prop. Jawa Tengah","SMA","-7.8226000","110.9224000"
"69881553","SMA TAKHASUS PLUS AL MARDLIYAH","Dukuh Kwangsan Magelung","Prop. Jawa Tengah","SMA","-6.9286700","110.2139730"
"20306176","SMAN 2 PURWOREJO","JL. MAYJEND. S. PARMAN, KUTOARJO","Prop. Jawa Tengah","SMA","-7.7148000","109.9180000"
"20309730","SMAS KARTIKA KLATEN","JL. ANGSANA NO 265","Prop. Jawa Tengah","SMA","-7.7195030","110.5755630"
"20327973","SMAN 8 SURAKARTA","JL. SUMBING VI/49","Prop. Jawa Tengah","SMA","-7.5551000","110.8390000"
"20318319","SMAS MUHAMMADIYAH 1 BANGSRI","JL. SEROJA NO. 02 KAUMAN BANGSRI","Prop. Jawa Tengah","SMA","-6.5177000","110.7668000"
"20338227","SMAS PGRI TAMBAK","JL. KARANG PUCUNG TAMBAK","Prop. Jawa Tengah","SMA","-7.6202000","109.4096000"
"20321982","SMAS NU 2 SUNAN ABINOWO PEGANDON","Jl. Raya Abinawa NO. 75","Prop. Jawa Tengah","SMA","-6.9734000","110.1028000"
"20313851","SMAN 1 GODONG","JL. RAYA SEMARANG- PURWODADI KM.37","Prop. Jawa Tengah","SMA","-7.0220000","110.7014000"
"20327561","SMAS MUHAMMADIYAH 1 MAGELANG","JL. TIDAR NO. 21 MAGELANG","Prop. Jawa Tengah","SMA","-7.4865000","110.2184000"
"20337796","SMAS MUHAMMADIYAH PK SAMBI","CANDEN, SAMBI, BOYOLALI","Prop. Jawa Tengah","SMA","-7.5001000","110.7002000"
"20327559","SMAS KATOLIK PENDOWO","JL.  PERINTIS KEMERDEKAAN NO. 92","Prop. Jawa Tengah","SMA","-7.4472130","110.2235450"
"20317493","SMAN 1 JEKULO KUDUS","JL. RAYA KUDUS PATI KM 10 NO 34","Prop. Jawa Tengah","SMA","-6.8053000","110.9263000"
"20310420","SMAN 2 SUKOHARJO","Jl. Raya Sala-Kartasura, Mendungan","Prop. Jawa Tengah","SMA","-7.5608000","110.7681000"
"20338131","SMAS MUHAMMADIYAH PURWODADI","JL. LETJEN R. SOEPRAPTO NO. 118 RT.7/RW.8","Prop. Jawa Tengah","SMA","-7.0949000","110.9137000"
"20306809","SMA NEGERI 1 SAPURAN","Jl. Sarwo Edhi Wibowo Km. 20","Prop. Jawa Tengah","SMA","-7.4804000","109.9842000"
"20330283","SMAN 1 MIRIT","JL. Ds. Tlogodepok, Mirit","Prop. Jawa Tengah","SMA","-7.8002000","109.7832000"
"20306209","SMAS MUHAMMADIYAH PURWOREJO","JL. KY. BRENGKEL PURWOREJO","Prop. Jawa Tengah","SMA","-7.7370000","110.0395000"
"20312203","SMA MUHAMMADIYAH 5 JATEN","JL. RAYA SOLO SRAGEN  KM. 10","Prop. Jawa Tengah","SMA","-7.6091000","110.9146000"
"20362426","SMAS ISLAM AL-AZHAR SOLO BARU","JL. RAYA SOLO BARU BAKI, SUKOHARJO","Prop. Jawa Tengah","SMA","-7.6082000","110.7925000"
"20306867","SMA NEGERI 1 KERTEK","JL.RAYA KERTEK KM. 6 WONOSOBO","Prop. Jawa Tengah","SMA","-7.3804000","109.9546000"
"20328920","SMA ISLAM HIDAYATULLAH","Jl. Cemara Raya No. 290","Prop. Jawa Tengah","SMA","-7.0732000","110.4177000"
"20330114","SMA KARTINI REMBANG","JL. GATOT SUBROTO NO. 2 REMBANG","Prop. Jawa Tengah","SMA","-6.7110000","111.4052000"
"20303239","SMAN 1 KUTASARI","JL. RAYA TOBONG - KUTASARI","Prop. Jawa Tengah","SMA","-7.3109000","109.2915000"
"20310419","SMAN 1 WERU","KARANGTENGAH, WERU, SUKOHARJO","Prop. Jawa Tengah","SMA","-7.7880000","110.7436000"
"20325309","SMA NU HASYIM ASY ARI","JL. RAYA KARANGJATI RT.03/01, TARUB","Prop. Jawa Tengah","SMA","-6.9272000","109.1823000"
"20338919","SMA NEGERI 1 KANDANGSERANG","Jl. Raya Kandangserang","Prop. Jawa Tengah","SMA","-7.1175000","109.5395000"
"20324216","SMAN 1 PEMALANG","JL. JEND. GATOT SUBROTO PEMALANG","Prop. Jawa Tengah","SMA","-6.9065000","109.3835000"
"20319328","SMAS ABDI NEGARA KARANG TENGAH","JL. SULTAN PATAH BUYARAN DEMAK","Prop. Jawa Tengah","SMA","-6.9164000","110.5801000"
"20338398","SMAS EMPAT LIMA SONGGOM","JL. JATIROKEH SONGGOM","Prop. Jawa Tengah","SMA","-6.9962000","109.0275000"
"20341094","SMAN 1 WATUMALANG","DESA KURIPAN WATUMALANG","Prop. Jawa Tengah","SMA","-7.3423000","109.8623000"
"20326434","SMAN 1 TANJUNG","JL. CEMARA TANJUNG BREBES","Prop. Jawa Tengah","SMA","-6.8809000","108.8663000"
"20320369","SMA NEGERI 1 SURUH","JL. JATIREJO NO. 17 SURUH","Prop. Jawa Tengah","SMA","-7.3378000","110.5952000"
"20320241","SMA NEGERI 2 UNGARAN","JL. DIPONEGORO 277 UNGARAN","Prop. Jawa Tengah","SMA","-7.1125000","110.4162000"
"20328921","SMA IBU KARTINI","Jl. Sultan Agung No. 77","Prop. Jawa Tengah","SMA","-7.0154000","110.4094000"
"20339053","SMA NEGERI 1 BANTARSARI","JL. KH. SYARBINI HASAN NO. 2","Prop. Jawa Tengah","SMA","-7.5268000","108.8835000"
"20340879","SMA JENDRAL AHMAD YANI KARANGPUCUNG","JL. RAYA KARANGPUCUNG","Prop. Jawa Tengah","SMA","-7.4111000","108.9015000"
"20317489","SMAS MASEHI KUDUS","JL. K.H. WAHID HASYIM 51 KUDUS","Prop. Jawa Tengah","SMA","-6.8124000","110.8375000"
"69950487","SMA BINA WIDYA SOLO","Jl. HOS Cokroaminoto No. 18 RT 01 RW 05 57125","Prop. Jawa Tengah","SMA","-7.5628956","110.8480269"
"20327558","SMAS EL SHADAI","JL. AHMAD YANI NO. 28 MAGELANG","Prop. Jawa Tengah","SMA","-7.4891000","110.2272000"
"20341281","SMAS MIFTAHUS SA ADAH","JL. RAYA DIPONEGORO KM. 4 TAMBAKSELO WIROSARI KAB. GROBOGAN","Prop. Jawa Tengah","SMA","-7.0422000","111.0969000"
"20331895","SMA AL ISLAM","Jl. Bangetayu Wetan","Prop. Jawa Tengah","SMA","-6.9671000","110.4639000"
"20327946","SMAS KRISTEN 1 SURAKARTA","JL. HONGGOWONGSO NO. 135","Prop. Jawa Tengah","SMA","-7.5779000","110.8154000"
"20314885","SMAN 1 BLORA","JL. TENTARA PELAJAR NO. 21 BLORA","Prop. Jawa Tengah","SMA","-6.9654325","111.4155087"
"20326488","SMAN 1 BREBES","JL. SETIABUDI NO.11 BREBES","Prop. Jawa Tengah","SMA","-6.8762000","109.0474000"
"69786402","SMAS PONDOK MODERN SELAMAT 2","JL. RAYA BATANG-SEMARANG KM.14, CLAPAR SUBAH","Prop. Jawa Tengah","SMA","-6.9521000","109.8256000"
"20321834","SMAN 1 WELERI","JL.BAHARI 17 WELERI","Prop. Jawa Tengah","SMA","-6.9614000","110.0503000"
"20328866","SMA NEGERI 08","Jl. Raya Tugu","Prop. Jawa Tengah","SMA","-6.9788000","110.3309000"
"20338844","SMA PIUS BAKTI UTAMA","JL. GAJAH MADA","Prop. Jawa Tengah","SMA","-7.7233000","109.9288000"
"20338401","SMAS MUHAMMADIYAH TONJONG","JL. RAYA TONJONG NO.2","Prop. Jawa Tengah","SMA","-7.1770000","109.0156000"
"20313832","SMAS KRISTEN PURWODADI","JL. KAPT. PA. TENDEAN NO. 15","Prop. Jawa Tengah","SMA","-7.0849000","110.9185000"
"20306206","SMAS SULTAN AGUNG","JL. RING ROAD UTARA","Prop. Jawa Tengah","SMA","-7.6868000","109.9904000"
"69762624","SMAS SAUQI NUSANTARA","JLEGONG, BANYUURIP, KLEGO, BOYOLALI","Prop. Jawa Tengah","SMA","-7.3611000","110.7233000"
"20311308","SMAN 1 JATISRONO","JL. RAYA WONOGIRI PONOROGO","Prop. Jawa Tengah","SMA","-7.8242000","111.1125000"
"20326491","SMAS MUHAMMADIYAH BUMIAYU","JL. KH. A. DAHLAN KM. 1 BUMIAYU","Prop. Jawa Tengah","SMA","-7.2411000","109.0260000"
"20319279","SMAN 1 DEMPET","JL. RAYA DEMAK GODONG KM. 10 DEMPET","Prop. Jawa Tengah","SMA","-6.9592000","110.7033000"
"20328925","SMA KRISTEN YSKI","JL. SIDODADI TIMUR NO. 23","Prop. Jawa Tengah","SMA","-7.0061000","110.4449000"
"20329517","SMA Negeri 1 Pekalongan","Jl. RA. Kartini No. 39 Pekalongan","Prop. Jawa Tengah","SMA","-6.8966000","109.6779000"
"20324388","SMAS NU TAMAN","JL. KOLONEL SUGIYONO 8","Prop. Jawa Tengah","SMA","-6.8619000","109.4199000"
"20303235","SMAS MUHAMMADIYAH 1 PURBALINGGA","JL. ALUN - ALUN SELATAN NO. 2","Prop. Jawa Tengah","SMA","-7.3905250","109.3635650"
"20338425","SMA NEGERI 1 PATIMUAN","JL. PANCIMAS","Prop. Jawa Tengah","SMA","-7.6161000","108.7524000"
"69752161","SMAS ISLAM ROUDLOTUL UMMAH","JL. KYAI SUMADI GLONGGONG","Prop. Jawa Tengah","SMA","-7.1028000","111.1189000"
"20326499","SMAS BUSTANUL ULUM NU BUMIAYU","JL. P. DIPONEGORO NO. 9 BUMIAYU","Prop. Jawa Tengah","SMA","-7.2394000","109.0064000"
"20328447","SMAN 1 SALATIGA","JL. KEMIRI NO. 1 SALATIGA","Prop. Jawa Tengah","SMA","-7.3176000","110.4973000"
"20317491","SMAS KANISIUS KUDUS","JL. YOS SUDARSO NO. 236 KUDUS","Prop. Jawa Tengah","SMA","-6.7955000","110.8522000"
"20310427","SMAS MUHAMMADIYAH 1 SUKOHARJO","JL. NUSA INDAH SELIRAN","Prop. Jawa Tengah","SMA","-7.6869000","110.8325000"
"20308443","SMAN 1 SAMBI","CATUR, SAMBI, BOYOLALI","Prop. Jawa Tengah","SMA","-7.5126000","110.7077000"
"20315681","SMA NEGERI 1 SULANG","JL. RAYA  SULANG","Prop. Jawa Tengah","SMA","-6.8082000","111.3881000"
"20303238","SMAN 1 KEMANGKON","JL. RAYA PANICAN","Prop. Jawa Tengah","SMA","-7.4436230","109.3896700"
"20320390","SMA TUNAS PATRIA UNGARAN","JL. DIPONEGORO UNGARAN","Prop. Jawa Tengah","SMA","-7.1123000","110.4461000"
"20303236","SMAS MUHAMMADIYAH 4 PURBALINGGA","JL. RAYA UTARA KERTANEGARA","Prop. Jawa Tengah","SMA","-7.2646000","109.4299000"
"20309675","SMAN 1 POLAN HARJO","JL. KARANGLO POLANHARJO","Prop. Jawa Tengah","SMA","-7.6102000","110.6506000"
"20327971","SMAN 6 SURAKARTA","JL. MR. SARTONO NO. 30","Prop. Jawa Tengah","SMA","-7.5501000","110.8315000"
"69889166","SMA ISLAM MIFTAHUL MANAN","JL. PP. MIFTAHUL MANAN KALILANGKAP KEC. BUMIAYU KAB. BREBES","Prop. Jawa Tengah","SMA","-7.2415000","108.9656000"
"20311319","SMAN 1 PURWANTORO","JL. RAYA TEGALREJO-PURWANTORO","Prop. Jawa Tengah","SMA","-7.8491000","111.2746000"
"20322737","SMAS BHAKTI PRAJA LIMPUNG","JL. BANYUPUTIH-LIMPUNG","Prop. Jawa Tengah","SMA","-6.9945000","109.9275000"
"20341603","SMAS AL IRSYAD AL ISLAMIYYAH","JL. PROF. DR. SUHARSO","Prop. Jawa Tengah","SMA","-7.4190570","109.2529780"
"20328446","SMAS THERESIANA","JL. CEMARA 2","Prop. Jawa Tengah","SMA","-7.3143000","110.4967000"
"20303985","SMAN 1 BAWANG","JL. RAYA PUCANG NO. 134, BAWANG","Prop. Jawa Tengah","SMA","-7.3982000","109.6524000"
"20325304","SMAN 1 BOJONG","Jalan Raya Tuwel","Prop. Jawa Tengah","SMA","-7.1621000","109.1411000"
"69947105","SMA ISLAM PLUS ALBANJARI","DK. KLAPANAN","Prop. Jawa Tengah","SMA","-6.9112633","111.3640967"
"20323379","SMA NEGERI 1 DORO","Jl. Raya Sawangan-Doro","Prop. Jawa Tengah","SMA","-7.0306000","109.6737000"
"20303229","SMAN 1 KARANGREJA","JL. RAYA KARANGREJA","Prop. Jawa Tengah","SMA","-7.2450000","109.3233000"
"20319300","SMAN 2 MRANGGEN","JL. PUCANG PENI RAYA","Prop. Jawa Tengah","SMA","-7.0241000","110.5075000"
"20310429","SMAS MUHAMMADIYAH 3 WATUKELIR","JL. RAYA WATUKELIR - WERU","Prop. Jawa Tengah","SMA","-7.7966000","110.7702000"
"20303231","SMAN 1 BOBOTSARI","JL. MAJAPURA","Prop. Jawa Tengah","SMA","-7.3089000","109.3744000"
"20307677","SMAN 1 DUKUN","MUSUK","Prop. Jawa Tengah","SMA","-7.5515000","110.3531000"
"20331976","SMAS KRISTEN 1 MAGELANG","JL. VETERAN NO. 8 MAGELANG","Prop. Jawa Tengah","SMA","-7.4895000","110.2249000"
"20322743","SMA NEGERI 1 BAWANG","JL. JLAMPRANG","Prop. Jawa Tengah","SMA","-7.1089000","109.9259000"
"20338918","SMA NEGERI 1 BOJONG","Jl. Raya Wangandowo No. 116","Prop. Jawa Tengah","SMA","-6.9798000","109.6030000"
"69823287","SMA AL-ABIDIN BILINGUAL BOARDING SCHOOL","JL. TARUMANEGARA 3","Prop. Jawa Tengah","SMA","-7.5380000","110.8063000"
"20305026","SMAN 1 PREMBUN","JL. WADASLINTANG 12 PREMBUN","Prop. Jawa Tengah","SMA","-7.7184000","109.7936000"
"20306191","SMAS ISLAM SUDIRMAN BRUNO","BRUNOREJO KEC. BRUNO","Prop. Jawa Tengah","SMA","-7.5712000","109.9214000"
"20302172","SMAN 1 BATURRADEN","JL. RAYA REMPOAH TIMUR NO.786","Prop. Jawa Tengah","SMA","-7.3631000","109.2394000"
"20324392","SMAS MUHAMMADIYAH 1 PEMALANG","JL. MARKISA NO. 1","Prop. Jawa Tengah","SMA","-6.9518000","109.3350000"
"20313856","SMAS PGRI WIROSARI","JL. KUWU-WIROSARI","Prop. Jawa Tengah","SMA","-7.0911000","111.0967000"
"20319321","SMAS SULTAN FATAH WEDUNG","JL.TPI LAMA (Sidorejo)","Prop. Jawa Tengah","SMA","-6.7972170","110.6139110"
