"schoolId","schoolName","schoolAddress","province","school_level","lat","long"
"20400391","SMA NEGERI 1 JETIS","JL. Imogiri Barat KM. 11, Kertan","Prop. D.I. Yogyakarta","SMA","-7.8903000","110.3747000"
"20401145","SMAN 1 KALASAN","JL. BOGEM KALASAN","Prop. D.I. Yogyakarta","SMA","-7.7574000","110.4836000"
"20401151","SMAS MUHAMMADIYAH 1 SLEMAN","JL. MAGELANG KM. 13 SLEMAN","Prop. D.I. Yogyakarta","SMA","-7.7052000","110.3467000"
"20403146","SMAS STELLA DUCE 2","JL. DR. SUTOMO NO. 16","Prop. D.I. Yogyakarta","SMA","-7.7959000","110.3784000"
"69944313","SMA BUDI UTAMA","Jl. Wijayakusuma 121B, Kutu Dukuh","Prop. D.I. Yogyakarta","SMA","-7.7580598","110.3609967"
"20401161","SMAN 1 DEPOK","BABARSARI CATURTUNGGAL","Prop. D.I. Yogyakarta","SMA","-7.7736000","110.4129000"
"20401152","SMAS MUHAMMADIYAH 1 PRAMBANAN","JL. GATAK, BOKOHARJO","Prop. D.I. Yogyakarta","SMA","-7.7686000","110.4912000"
"20402124","SMAN 1 KARANGMOJO","NGIPAK, KARANGMOJO 55891","Prop. D.I. Yogyakarta","SMA","-7.9659417","110.6725767"
"20400869","SMAS INSTITUT INDONESIA BERBAH","JL. WONOSARI KM. 8  BERBAH","Prop. D.I. Yogyakarta","SMA","-7.8212000","110.4257000"
"20402040","SMA GOTONG ROYONG SEMIN","BAKALAN, PUNDUNGSARI, SEMIN","Prop. D.I. Yogyakarta","SMA","-7.8660000","110.7385000"
"20402041","SMA DOMINIKUS WONOSARI","Jl. Mgr. Sugiyopranoto No 29 Wonosari Gunungkidul","Prop. D.I. Yogyakarta","SMA","-7.9706767","110.6076500"
"20401156","SMAS KOLESE DE BRITTO DEPOK","JL. LAKSDA ADISUCIPTO 161","Prop. D.I. Yogyakarta","SMA","-7.7813000","110.3924000"
"69947314","SMA ISLAM TERPADU BAITUSSALAM","Pulerejo","Prop. D.I. Yogyakarta","SMA","-7.7446000","110.4901000"
"20402120","SMAN 1 PATUK","BUNDER, PATUK 55862","Prop. D.I. Yogyakarta","SMA","-7.8759000","110.5428000"
"20403182","SMAS BOPKRI 2","JL. JEND. SUDIRMAN NO.87","Prop. D.I. Yogyakarta","SMA","-7.7826000","110.3773000"
"20402117","SMAN 1 SEMANU","SEMANU KIDUL 55893","Prop. D.I. Yogyakarta","SMA","-8.0104000","110.6454000"
"20403161","SMAN 8 YOGYAKARTA","JL. SIDOBALI NO.1","Prop. D.I. Yogyakarta","SMA","-7.8003000","110.3954000"
"20403158","SMAS MUHAMMADIYAH 2 YOGYAKARTA","JL. KAPAS NO. 7","Prop. D.I. Yogyakarta","SMA","-7.7996000","110.3832000"
"20402804","SMA SANJAYA XIV NANGGULAN","JL.SENTOLO-MUNTILAN","Prop. D.I. Yogyakarta","SMA","-7.7573000","110.2108000"
"20400389","SMA NEGERI 3 BANTUL","Jalan Pramuka, Gaten, Trirenggo, Bantul","Prop. D.I. Yogyakarta","SMA","-7.8816000","110.3428000"
"20401165","SMAS SANTO MIKAEL MLATI","JL. P. PURBOYO","Prop. D.I. Yogyakarta","SMA","-7.7184000","110.3375000"
"20402060","SMA MUHAMMADIYAH NGAWEN","KAMPUNG, NGAWEN 55853","Prop. D.I. Yogyakarta","SMA","-7.8374000","110.7009000"
"20401127","SMAN 1 PAKEM","JL. KALIURANG KM 17,5  PAKEM","Prop. D.I. Yogyakarta","SMA","-7.6584000","110.4221000"
"","SMA TUMBUH","JL AMRI YAHYA NO.1","Prop. D.I. Yogyakarta","SMA","-7.8037637","110.3501433"
"20403144","SMAS SANTA MARIA","JL. IREDA 19 A YOGYAKARTA","Prop. D.I. Yogyakarta","SMA","-7.8088000","110.3724000"
"20403172","SMAS TAMAN MADYA IP","JL. TAMAN SISWA NO. 25 D","Prop. D.I. Yogyakarta","SMA","-7.8054000","110.3804000"
"20401124","SMAN 1 SLEMAN","JL. MAGELANG KM. 14.4 MEDARI","Prop. D.I. Yogyakarta","SMA","-7.6826000","110.3393000"
"20402057","SMA MUHAMMADIYAH PONJONG","JL. SIMPANG LIMA, PATI, GENJAHAN","Prop. D.I. Yogyakarta","SMA","-7.9698000","110.7170000"
"20403179","SMAN 4 YOGYAKARTA","Jl. Magelang Karangwaru Lor","Prop. D.I. Yogyakarta","SMA","-7.7720000","110.3626000"
"20403147","SMAS MUHAMMADIYAH 5 YOGYAKARTA","PURWODININGRATAN  NG. I 902 A YOGYAKARTA","Prop. D.I. Yogyakarta","SMA","-7.7997000","110.3579000"
"20403162","SMAN 9 YOGYAKARTA","JL. SAGAN 1 YOGYAKARTA","Prop. D.I. Yogyakarta","SMA","-7.7815000","110.3765000"
"20400378","SMA NEGERI 1 KRETEK","GENTING","Prop. D.I. Yogyakarta","SMA","-7.9703000","110.2985000"
"20401131","SMAN 1 MINGGIR SLEMAN","JL. PAKERAN, SENDANGMULYO","Prop. D.I. Yogyakarta","SMA","-7.7530000","110.2326000"
"20403178","SMAN 3 YOGYAKARTA","JL. LAKSDA YOS SUDARSO 7","Prop. D.I. Yogyakarta","SMA","-7.7865000","110.3736000"
"20402778","SMA NEGERI 2 WATES","JL. KH. WAKHID HASYIM","Prop. D.I. Yogyakarta","SMA","-7.8943000","110.1467000"
"20403153","SMAS GADJAH MADA","JL.IBU RUSWO, YUDONEGARAN GM II 208","Prop. D.I. Yogyakarta","SMA","-7.8033000","110.3669000"
"20400371","SMA NEGERI 1 SEWON","JL. Parangtritis KM.5 Yogyakarta","Prop. D.I. Yogyakarta","SMA","-7.8682000","110.3223000"
"20400374","SMA NEGERI 1 PUNDONG","SRIHARDONO","Prop. D.I. Yogyakarta","SMA","-7.9573000","110.3456000"
"20400372","SMA NEGERI 1 SEDAYU","ARGOMULYO POS KEMUSUK","Prop. D.I. Yogyakarta","SMA","-7.8045000","110.2732000"
"20400399","SMA MUHAMMADIYAH PIYUNGAN","MUNGGUR","Prop. D.I. Yogyakarta","SMA","-7.8312000","110.4754000"
"20404175","SMAS PANGUDI LUHUR","JL. P. SENOPATI 18","Prop. D.I. Yogyakarta","SMA","-7.8018000","110.3669000"
"20400388","SMA NEGERI 1 DLINGO","KORIPAN","Prop. D.I. Yogyakarta","SMA","-7.9375000","110.4670000"
"20400400","SMA STELLA DUCE BANTUL","GANJURAN","Prop. D.I. Yogyakarta","SMA","-7.9270000","110.3198000"
"20402055","SMA MUHAMMADIYAH WONOSARI","JL. AGUS SALIM KEPEK, WNSR","Prop. D.I. Yogyakarta","SMA","-7.9538167","110.5922667"
"20401160","SMAN 1 GAMPING","JL. TEGALYOSO, BANYURADEN","Prop. D.I. Yogyakarta","SMA","-7.7881000","110.3349000"
"20409895","SMAS IT BINA ANAK SHOLEH","JL. P. WIROSOBO SOROSUTAN 17A","Prop. D.I. Yogyakarta","SMA","-7.8225000","110.3787000"
"20401130","SMAN 1 MLATI","JL. CEBONGAN","Prop. D.I. Yogyakarta","SMA","-7.7338000","110.3294000"
"20409801","SMA BUDI MULIA DUA","Jl. Raya Tajem Panjen","Prop. D.I. Yogyakarta","SMA","-7.7431000","110.4341000"
"20403170","SMAN 7 YOGYAKARTA","JL. M.T. HARYONO NO. 47","Prop. D.I. Yogyakarta","SMA","-7.8140000","110.3585000"
"20402137","SMAN 2 WONOSARI","JL. KI AGENG GIRING 3, KEPEK, WONOSARI, GUNUNGKIDUL, D.I. YOGYAKARTA","Prop. D.I. Yogyakarta","SMA","-7.9698300","110.5941167"
"20403175","SMAN 10 YOGYAKARTA","JL. GADEAN NO. 5","Prop. D.I. Yogyakarta","SMA","-7.7979430","110.3629200"
"20402811","SMA NEGERI 1 SAMIGALUH","TANJUNG","Prop. D.I. Yogyakarta","SMA","-7.6576270","110.1583220"
"20401170","SMAS ISLAM 1 SLEMAN","JL. WATES KM. 3 GAMPING","Prop. D.I. Yogyakarta","SMA","-7.7992000","110.3321000"
"20403151","SMAS BUDYA WACANA","JL. Cik Ditiro, Terban GK V / 248 yogyakarta 55223","Prop. D.I. Yogyakarta","SMA","-7.7788000","110.3748000"
"20400405","SMA NEGERI 1 BANTUL","JL. KHA WAKHID HASYIM BANTUL, SUMURAN, PALBAPANG, BANTUL","Prop. D.I. Yogyakarta","SMA","-7.8945000","110.3385000"
"20402800","SMA MUHAMMADIYAH WATES","JL. KHA DAHLAN","Prop. D.I. Yogyakarta","SMA","-7.8683000","110.1515000"
"20400406","SMA NEGERI 1 BANGUNTAPAN","NGENTAK, BATURETNO, BANGUNTAPAN, BANTUL","Prop. D.I. Yogyakarta","SMA","-7.8092000","110.4166000"
"20407361","SMAN 1 TANJUNGSARI","JL. BARON  KM. 12 KEMIRI","Prop. D.I. Yogyakarta","SMA","-8.0634000","110.5775000"
"20402052","SMA PEMBANGUNAN 2 KARANGMOJO","SRIMPI , KARANGMOJO 55891","Prop. D.I. Yogyakarta","SMA","-7.9555750","110.6783783"
"20404172","SMAS MA ARIF YOGYAKARTA","JL. DAGEN GT I /.509","Prop. D.I. Yogyakarta","SMA","-7.7933000","110.3618000"
"20402053","SMA PEMBANGUNAN 4 PLAYEN","JATISARI PLAYEN","Prop. D.I. Yogyakarta","SMA","-7.9439000","110.5538000"
"20400398","SMA MUHAMMADIYAH PLERET","KANGGOTAN","Prop. D.I. Yogyakarta","SMA","-7.8681000","110.3974000"
"20401147","SMAS MUHAMMADIYAH KALASAN","JL. DHURI TIRTOMARTANI, KALASAN","Prop. D.I. Yogyakarta","SMA","-7.7626000","110.4707000"
"20400165","SMA DHARMA AMILUHUR","JL. WATES KM. 9 POS KEMUSUK","Prop. D.I. Yogyakarta","SMA","-7.8100000","110.2816000"
"20400381","SMA NEGERI 2 BANTUL","JL. RA. KARTINI, TRIRENGGO, BANTUL","Prop. D.I. Yogyakarta","SMA","-7.8942000","110.3383000"
"20402119","SMAN 1 PLAYEN","PLEMBUTAN, PLAYEN 55861","Prop. D.I. Yogyakarta","SMA","-7.9662000","110.5449000"
"20404174","SMAS MUHAMMADIYAH 7 YOGYAKARTA","JL. KAPTEN P TENDEAN 41 YOGYAKARTA","Prop. D.I. Yogyakarta","SMA","-7.8015000","110.3514000"
"20401128","SMAN 1 NGEMPLAK","JANGKANG - MANISRENGGO","Prop. D.I. Yogyakarta","SMA","-7.7004000","110.4606000"
"20400872","SMAS GAMA DEPOK YOGJAKARTA","JL. GEJAYAN MRICAN NO. 5 YOGYAKARTA","Prop. D.I. Yogyakarta","SMA","-7.7739000","110.3892000"
"20404170","SMAS BOPKRI 3","JL. KAPTEN P. TENDEAN 55 YK","Prop. D.I. Yogyakarta","SMA","-7.8067000","110.3512000"
"20400167","SMA BOPKRI BANGUNTAPAN","JL. SUKUN NO. 94 KARANG BENDO","Prop. D.I. Yogyakarta","SMA","-7.7898000","110.4095000"
"20400376","SMA NEGERI 1 PIYUNGAN","KARANGGAYAM","Prop. D.I. Yogyakarta","SMA","-7.8434000","110.4421000"
"20400868","SMAS ISLAM PRAMBANAN","JL. RAYA KLURAK BARU","Prop. D.I. Yogyakarta","SMA","-7.7627000","110.4884000"
"20402126","SMAN 1 WONOSARI","Jalan Brigjen Katamso 04","Prop. D.I. Yogyakarta","SMA","-7.9656000","110.5989000"
"20400395","SMA PATRIA BANTUL","JL. PARANGTRITIS KM 11, SABDODADI, BANTUL","Prop. D.I. Yogyakarta","SMA","-7.8899000","110.3542000"
"20400853","SMAS ISLAM 3 PAKEM","JL. PAKEM - TURI KM. 0,5 LABASAN PAKEM","Prop. D.I. Yogyakarta","SMA","-7.6636000","110.4172000"
"20400390","SMA NEGERI 1 KASIHAN","JL. BUGISAN SELATAN","Prop. D.I. Yogyakarta","SMA","-7.8178000","110.3489000"
"20411874","SMA ALI MAKSUM","JL. KH. ALI MAKSUM, KRAPYAK","Prop. D.I. Yogyakarta","SMA","-7.8251000","110.3618000"
"20403152","SMAS BUDI LUHUR","KEPARAKAN KIDUL MG I / 1329","Prop. D.I. Yogyakarta","SMA","-7.8134000","110.3731000"
"20400875","SMAS BUDI MULIA MINGGIR","JL. KEBONAGUNG, MINGGIR","Prop. D.I. Yogyakarta","SMA","-7.7247000","110.2407000"
"20401158","SMAS MUHAMMADIYAH MLATI","JL. MAGELANG KM.7 YOGYAKARTA","Prop. D.I. Yogyakarta","SMA","-7.7457000","110.3614000"
"20400377","SMA NEGERI 1 PAJANGAN","KEDUNG","Prop. D.I. Yogyakarta","SMA","-7.8820980","110.3047970"
"69880393","SMA YOGYAKARTA INDEPENDENT SCHOOL","JL. CENDRAWASIH NO 1","Prop. D.I. Yogyakarta","SMA","-7.7622170","110.3677720"
"20400396","SMA PANGUDI LUHUR SEDAYU","JL. WATES KM. 12","Prop. D.I. Yogyakarta","SMA","-7.8036000","110.2601000"
"20401154","SMAS MANDALA BHAKTI","JL. ANGGAJAYA CONDONG CATUR","Prop. D.I. Yogyakarta","SMA","-7.7558000","110.3979000"
"20402809","SMA NEGERI 1 LENDAH","BOTOKAN","Prop. D.I. Yogyakarta","SMA","-7.9290000","110.2321000"
"20400282","SMA MUHAMMADIYAH IMOGIRI","KERTEN","Prop. D.I. Yogyakarta","SMA","-7.9136000","110.3849000"
"20403145","SMAS STELLA DUCE 1","JL. SABIRIN 1","Prop. D.I. Yogyakarta","SMA","-7.7844000","110.3718000"
"20402116","SMAN 1 SEMIN","BULUREJO, SEMIN 55854","Prop. D.I. Yogyakarta","SMA","-7.8905000","110.7121000"
"20402797","SMA BOPKRI WATES","JL. BAYANGKARA 2","Prop. D.I. Yogyakarta","SMA","-7.8571000","110.1588000"
"20400403","SMA NEGERI 1 IMOGIRI","JL. Imogiri Timur Km 14","Prop. D.I. Yogyakarta","SMA","-7.9109000","110.3923000"
"20401146","SMAN 1 GODEAN","SIDOKARTO GODEAN","Prop. D.I. Yogyakarta","SMA","-7.7722000","110.3067000"
"20400407","SMA NEGERI 1 BAMBANGLIPURO","JL. SAMAS KM. 18","Prop. D.I. Yogyakarta","SMA","-7.9430000","110.3001000"
"20403140","SMAS PERAK","JL. VETERAN WARUNGBOTO UH IV/970","Prop. D.I. Yogyakarta","SMA","-7.8108000","110.3937000"
"20403176","SMAN 11 YOGYAKARTA","JL. AM SANGAJI 50 YOGYAKARTA","Prop. D.I. Yogyakarta","SMA","-7.7775000","110.3678000"
"20409906","SMA KESATUAN BANGSA","JL. WATES KM 10 ARGOMULYA-SEDAYU-BANTUL YOGYAKARTA","Prop. D.I. Yogyakarta","SMA","-7.8084000","110.2716000"
"60724851","SMAS MUHAMMADIYAH BOARDING SCHOOL (MBS) SLEMAN","Jl. Piyungan Km. 2 Marangan Bokoharjo Prambanan Sleman","Prop. D.I. Yogyakarta","SMA","-7.7803000","110.4862000"
"20403138","SMAS MUHAMMADIYAH 6 YOGYAKARTA","JL. KH. WAKHID HASYIM NO. 16","Prop. D.I. Yogyakarta","SMA","-7.8115000","110.3557000"
"20400379","SMA NEGERI 1 SRANDAKAN","JL.PANDAN SIMO","Prop. D.I. Yogyakarta","SMA","-7.9428000","110.2443000"
"20402795","SMA NEGERI 1 TEMON","JL. KEBONREJO","Prop. D.I. Yogyakarta","SMA","-7.8794000","110.0723000"
"69946713","SMA ISLAM AL AZHAR 9 YOGYAKARTA","Jl. Lingkar Utara","Prop. D.I. Yogyakarta","SMA","-7.7527305","110.3625693"
"20402121","SMAN 1 PANGGANG","PUDAK GIRI WUNGU PANGGANG  55872","Prop. D.I. Yogyakarta","SMA","-8.0219000","110.4210000"
"20400392","SMA PGRI KASIHAN","SONOSEWU","Prop. D.I. Yogyakarta","SMA","-7.8091000","110.3403000"
"20403157","SMAS MUHAMMADIYAH 1 YOGYAKARTA","Jl. Gotongroyong II Petinggen","Prop. D.I. Yogyakarta","SMA","-7.7741000","110.3669000"
"20403159","SMAS SULTAN AGUNG","JL. BANTUL KM 3 YOGYAKARTA","Prop. D.I. Yogyakarta","SMA","-7.8205000","110.3588000"
"20401986","SMA PGRI PLAYEN","PLAYEN 55852","Prop. D.I. Yogyakarta","SMA","-7.9457000","110.5548000"
"20402050","SMA IKIP VETERAN III TAMBAKROMO","Jl. Gunung Panggung","Prop. D.I. Yogyakarta","SMA","-7.9395000","110.7708000"
"20400380","SMA NEGERI 2 BANGUNTAPAN","GLONDONG, WIROKERTEN, BANGUNTAPAN, BANTUL","Prop. D.I. Yogyakarta","SMA","-7.8473000","110.4016000"
"20402796","SMA NEGERI 1 SENTOLO","JL. PLOSO BANGUNCIPTO","Prop. D.I. Yogyakarta","SMA","-7.8628000","110.1500000"
"20401125","SMAN 1 SEYEGAN","TEGALGENTAN, MARGOAGUNG, SEYEGAN, SLEMAN","Prop. D.I. Yogyakarta","SMA","-7.7074000","110.3081000"
"20401122","SMAN 1 TEMPEL","BANJARHARJO, PONDOKREJO","Prop. D.I. Yogyakarta","SMA","-7.6625000","110.3100000"
"20400871","SMAS IKIP VETERAN","JL. CANGKRINGAN, NGEMPLAK","Prop. D.I. Yogyakarta","SMA","-7.7000000","110.4642000"
"20401133","SMAN 2 SLEMAN","BRAYUT, PANDOWOHARJO","Prop. D.I. Yogyakarta","SMA","-7.7021000","110.3725000"
"20403149","SMAS MUHAMMADIYAH 3 YOGYAKARTA","JL. Kapten Piere Tendean 58 Yogyakarta","Prop. D.I. Yogyakarta","SMA","-7.8069000","110.3503000"
"20401163","SMAS SUNAN KALIJOGO","JL. CANGKRINGAN, ARGOMULYO","Prop. D.I. Yogyakarta","SMA","-7.6683000","110.4627000"
"20404178","SMAS TAMAN MADYA JETIS","JL. PAKUNINGRATAN 34A YOGYA","Prop. D.I. Yogyakarta","SMA","-7.7806000","110.3640000"
"20403227","SMAS BOPKRI 1","JL. WARDANI NO. 2 YOGYAKARTA","Prop. D.I. Yogyakarta","SMA","-7.7868000","110.3769000"
"20402810","SMA NEGERI 1 PENGASIH","JL. KRT KERTODININGRAT 41","Prop. D.I. Yogyakarta","SMA","-7.8576000","110.1745000"
"20403213","SMAS BERBUDI","JL. IMOGIRI TIMUR NO. 210","Prop. D.I. Yogyakarta","SMA","-7.8315000","110.3900000"
"20402127","SMAN 2 PLAYEN","LOGANDENG, PLAYEN 55801","Prop. D.I. Yogyakarta","SMA","-7.9373000","110.5742000"
"20401162","SMAN 1 CANGKRINGAN","JL. MERAPI GOLF, CANGKRINGAN","Prop. D.I. Yogyakarta","SMA","-7.6497000","110.4333000"
"20400865","SMAS ANGKASA ADISUCIPTO","JL. JANTI, MAGUWOHARJO","Prop. D.I. Yogyakarta","SMA","-7.7829000","110.4252000"
"20400373","SMA NEGERI 1 SANDEN","Dusun Ngentak","Prop. D.I. Yogyakarta","SMA","-7.9571000","110.2674000"
"20400153","SMA MUHAMMADIYAH BANTUL","JL. URIP SUMOHARJO 04/A BANTUL","Prop. D.I. Yogyakarta","SMA","-7.8913000","110.3273000"
"20404176","SMAS PIRI 1 YOGYAKARTA","JL. KEMUNING 14 YOGYAKARTA","Prop. D.I. Yogyakarta","SMA","-7.7940000","110.3824000"
"20402808","SMA NEGERI 1 KOKAP","JAMBON","Prop. D.I. Yogyakarta","SMA","-7.8391000","110.0975000"
"20402806","SMA NEGERI 1 GIRIMULYO","Grigak","Prop. D.I. Yogyakarta","SMA","-7.7730000","110.1921000"
"20400873","SMAS DR WAHIDIN MLATI","JL. MAGELANG KM. 5 MLATI","Prop. D.I. Yogyakarta","SMA","-7.7598000","110.3663000"
"20400409","SMA UII BANGUNTAPAN","JL. SOROWAJAN BARU","Prop. D.I. Yogyakarta","SMA","-7.7886000","110.3984000"
"20403180","SMAN 5 YOGYAKARTA","JL. NYI PEMBAYUN 39","Prop. D.I. Yogyakarta","SMA","-7.8226000","110.3994000"
"20401169","SMAS MUHAMMADIYAH PAKEM","JL. KALIURANG KM.17 YOGYAKARTA","Prop. D.I. Yogyakarta","SMA","-7.6670000","110.4216000"
"20403214","SMAS BHINNEKA TUNGGAL IKA","JL. PONCOWINATAN 16 YOGYA","Prop. D.I. Yogyakarta","SMA","-7.7816000","110.3659000"
"20401126","SMAN 1 PRAMBANAN","JL. Prambanan - Piyungan KM.4","Prop. D.I. Yogyakarta","SMA","-7.7916000","110.4792000"
"20402807","SMA NEGERI 1 KALIBAWANG","Banjararum Kalibawang","Prop. D.I. Yogyakarta","SMA","-7.7131000","110.2156000"
"20401155","SMAS KOLOMBO DEPOK","JL. RAJAWALI 10 KOMP. KOLOMBO","Prop. D.I. Yogyakarta","SMA","-7.7781000","110.3906000"
"69944551","SMA SAINS WAHID HASYIM","Jl. Wahid Hasyim Gaten","Prop. D.I. Yogyakarta","SMA","-7.7777853","110.4251580"
"20403148","SMAS MUHAMMADIYAH 4 YOGYAKARTA","JL. MONDORAKAN NO. 51","Prop. D.I. Yogyakarta","SMA","-7.8274000","110.3976000"
"20407372","SMAS TERPADU BINA UMAT","JL. SETRAN  SUMBER ARUM","Prop. D.I. Yogyakarta","SMA","-7.7689000","110.2325000"
"20400874","SMAS DARUL HIKMAH","Jl. Palagan Tentara Pelajar Km 15 Sembung Purwobinangun Pakem Sleman","Prop. D.I. Yogyakarta","SMA","-7.6731000","110.3908000"
"20402794","SMA NEGERI 1 WATES","JL. TERBAHSARI","Prop. D.I. Yogyakarta","SMA","-7.8553000","110.1586000"
"20402054","SMA PEMBANGUNAN 3 PONJONG","Koripan","Prop. D.I. Yogyakarta","SMA","-7.9666000","110.7213000"
"20404177","SMAS SANTO THOMAS","JL. TIMOHO BALIREJO UTARA","Prop. D.I. Yogyakarta","SMA","-7.7892000","110.3963000"
"20403143","SMAS KATOLIK SANG TIMUR","JL. BATIKAN 7","Prop. D.I. Yogyakarta","SMA","-7.8149000","110.3836000"
"20401153","SMAS MAARIF 1 SLEMAN","JL. TURI KM. 1 TEMPEL","Prop. D.I. Yogyakarta","SMA","-7.6354000","110.3448000"
"20401129","SMAN 1 NGAGLIK","DONOHARJO, NGAGLIK","Prop. D.I. Yogyakarta","SMA","-7.6872000","110.3888000"
"20404171","SMAS IT ABU BAKAR","REJOWINANGUN NO 28 E KOTAGEDE","Prop. D.I. Yogyakarta","SMA","-7.8107000","110.4014000"
"20402801","SMA MUHAMMADIYAH AL MANAR GALUR","BROSOT","Prop. D.I. Yogyakarta","SMA","-7.9382000","110.2362000"
"20400375","SMA NEGERI 1 PLERET","KEDATON","Prop. D.I. Yogyakarta","SMA","-7.8667000","110.4090000"
"20401132","SMAN 2 NGAGLIK","Jl. Besi - Jangkang Km 2","Prop. D.I. Yogyakarta","SMA","-7.7049000","110.4350000"
"20404169","SMAS 17-1 YOGYAKARTA","JL. TENTARA PELAJAR 24","Prop. D.I. Yogyakarta","SMA","-7.7855000","110.3602000"
"20400411","SMA MUHAMMADIYAH KASIHAN","MRISI","Prop. D.I. Yogyakarta","SMA","-7.8418000","110.3438000"
"20403174","SMAN 1 YOGYAKARTA","JL. HOS COKROAMINOTO 10","Prop. D.I. Yogyakarta","SMA","-7.7997000","110.3525000"
"20403177","SMAN 2 YOGYAKARTA","JL. BENER NO.30","Prop. D.I. Yogyakarta","SMA","-7.7780390","110.3531700"
"20402039","SMAS PEMBANGUNAN I WONOSARI","JL. TENTARA PELAJAR NO. 44 TRIMULYO 1 KEPEK WONOSARI GUNUNGKIDUL YOGYAKARTA","Prop. D.I. Yogyakarta","SMA","-7.9696717","110.5952200"
"20400397","SMAS MUHAMMADIYAH SEWON","MREDO, JETAK","Prop. D.I. Yogyakarta","SMA","-7.8557000","110.3708000"
"20400870","SMAS IMMANUEL KALASAN","JL. SOLO KM. 15, KALASAN","Prop. D.I. Yogyakarta","SMA","-7.7603000","110.4796000"
"20402805","SMA NEGERI 1 GALUR","RT 15/07, PENDEKAN","Prop. D.I. Yogyakarta","SMA","-7.9345000","110.2014000"
"20402798","SMA MAARIF WATES","JL. GADINGAN","Prop. D.I. Yogyakarta","SMA","-7.8637000","110.1592000"
"20401164","SMAS SULAIMAN SLEMAN","JL. MAGELANG KM. 12 SLEMAN","Prop. D.I. Yogyakarta","SMA","-7.7034000","110.3494000"
"20400402","SMA 17 BANTUL","JL. KOLONEL SUGIYONO, RINGINHARJO, BANTUL","Prop. D.I. Yogyakarta","SMA","-7.8850000","110.3178000"
"20402118","SMAN 1 RONGKOP","JL. SADENG KM 25 SEMUGIH","Prop. D.I. Yogyakarta","SMA","-8.0658000","110.7576000"
"20404173","SMAS MARSUDI LUHUR","JL. BINTARAN KIDUL 12. YOGYAKARTA","Prop. D.I. Yogyakarta","SMA","-7.8039000","110.3728000"
"20401121","SMAN 1 TURI","GUNUNG ANYAR, DONOKERTO","Prop. D.I. Yogyakarta","SMA","-7.6499000","110.3681000"
"20403154","SMAS GOTONG ROYONG","JL. TOMPEYAN 156 YOGYAKARTA","Prop. D.I. Yogyakarta","SMA","-7.7848000","110.3551000"
"20403171","SMAN 6 YOGYAKARTA","JL. C. SIMANJUNTAK 2","Prop. D.I. Yogyakarta","SMA","-7.7815000","110.3727000"
