"schoolId","schoolName","schoolAddress","province","school_level","lat","long"
"20521714","SMAN 1 PRAJEKAN","JL. RAYA SITUBONDO - PRAJEKAN","Prop. Jawa Timur","SMA","-7.7987000","113.9775000"
"20501847","SMAS HANG TUAH 2 GEDANGAN","JL. KRI RATULANGGI NO. 1","Prop. Jawa Timur","SMA","-7.3686000","112.7295000"
"69773538","SMAS SAADHATUT DHARAIN","Dusun Saloros","Prop. Jawa Timur","SMA","-7.0236000","113.2350000"
"20529955","SMAN 2 SUMENEP","JL. KH. WAHID HASYIM III / 11","Prop. Jawa Timur","SMA","-7.0139000","113.8559000"
"20534744","SMAS PGRI 1","JL.  RAYA SURODINAWAN","Prop. Jawa Timur","SMA","-7.4843000","112.4231000"
"69912058","SMAS AL-THOLIBIL ULUM","Dusun Sorren","Prop. Jawa Timur","SMA","-6.9062180","113.2922040"
"20546523","SMAS NURUL JADID","JL. KARANGANYAR","Prop. Jawa Timur","SMA","-7.7130000","113.4970000"
"20549429","SMAS MAARIF NU AL IKHLAS AL MUHDOR YOSO","JL. MAKAM 01","Prop. Jawa Timur","SMA","-8.2491000","113.2572000"
"20505011","SMAN 1 SINGGAHAN","Jl. Raya Mulyoagung No. 1122 Singgahan Tuban","Prop. Jawa Timur","SMA","-6.9623000","111.7863000"
"20539032","SMAS NU BANCAR","JL. DESA BULUJOWO BANCAR","Prop. Jawa Timur","SMA","-6.7707000","111.7193000"
"20507733","SMAN 1 MEJAYAN","JL P SUDIRMAN NO 82","Prop. Jawa Timur","SMA","-7.5478290","111.6523000"
"20532394","SMAS KARTIKA IV-3 SURABAYA","JL. BRAWIJAYA NO. 38","Prop. Jawa Timur","SMA","-7.2974000","112.7284000"
"20551981","SMAS DARUL KHOLIL","JL, KALI MODERN TUNJUNG 11","Prop. Jawa Timur","SMA","-7.0445000","112.7863000"
"20542534","SMAS AL - AZIS BANGIL","JL. LAYUR No. 99 GEMPENG BANGIL","Prop. Jawa Timur","SMA","-7.5949000","112.7934000"
"20532139","SMAS KATOLIK SANTO STANISLAUS","JL. KALIJUDAN  23 - 25","Prop. Jawa Timur","SMA","-7.2607000","112.7736000"
"20500652","SMAS ISLAMIYAH BAWEAN","JL. RAYA TAMBAK NO. 101 A","Prop. Jawa Timur","SMA","-5.7308000","112.6471000"
"20539244","SMAS YAPITA","JL. ARIF RAHMAN HAKIM NO. 19","Prop. Jawa Timur","SMA","-7.2899000","112.7973000"
"20511964","SMAN 1 WATES","JL.POJOK - KC WATES-KAB.KEDIRI","Prop. Jawa Timur","SMA","-7.9164000","112.0932000"
"20511949","SMAN 1 PURWOASRI","Jln. Pahlawan Ds. Ketawang Kec. Purwoasri Kab. Kediri","Prop. Jawa Timur","SMA","-7.6652000","112.1192000"
"20503625","SMA ISLAM NGORO","JL. MERAPI NGORO","Prop. Jawa Timur","SMA","-7.7070000","112.2531000"
"20574536","SMA AL MUSLIM ","JL. RAYA WADUNG ASRI 39 F","Prop. Jawa Timur","SMA","-7.3492000","112.7675000"
"20515429","SMAN 1 NGUNUT","JL. RAYA SUMBERINGIN KIDUL","Prop. Jawa Timur","SMA","-8.1312000","112.0046000"
"20546518","SMAS ISLAM MAMBAUL ULUM","JL. KH. ASYARI KALIACAR","Prop. Jawa Timur","SMA","-7.8581000","113.4164000"
"20540301","SMA PGRI NGORO","JL. KAWI 6b NGORO","Prop. Jawa Timur","SMA","-7.6914000","112.2641000"
"69864665","SMA BAHRUL HUDA","Dusun Sumber Anyar","Prop. Jawa Timur","SMA","-7.2193480","113.4651480"
"20501704","SMAN 1 TARIK","JL.RAYA JANTI","Prop. Jawa Timur","SMA","-7.4334000","112.5231000"
"20540052","SMAS DHARMA WANITA 1","JL. RAYA GEDANGAN NO. 107","Prop. Jawa Timur","SMA","-7.3907000","112.7278000"
"20513142","SMAS DIPONEGORO NGANJUK","JL. KH. AGUS SALIM NO. 6","Prop. Jawa Timur","SMA","-7.6028000","111.8995000"
"20519322","SMAS ISLAM DARUT TAUHID BANGIL","JL. LAYUR 55 GEMPENG BANGIL","Prop. Jawa Timur","SMA","-7.5994000","112.7908000"
"69888668","SMA ISLAM AS SYUHADA`","JL. SERSAN ATMARI","Prop. Jawa Timur","SMA","-7.9189270","113.7898450"
"20532146","SMAS KATOLIK STELLA MARIS","JL. INDRAPURA NO.32","Prop. Jawa Timur","SMA","-7.2399000","112.7320000"
"20551887","SMA 3 ANNUQAYAH","JL. LEMBAH BUKIT LANCARAN","Prop. Jawa Timur","SMA","-7.0624000","113.6749000"
"20532109","SMAS WACHID HASYIM 5","JL. RAYA SEMEMI NO. 7","Prop. Jawa Timur","SMA","-7.2452000","112.6354000"
"20520029","SMAS TAMAN MADYA","JL. P. SUDIRMAN 177","Prop. Jawa Timur","SMA","-7.7723000","113.4093000"
"20506314","SMAS HASYIM ASY`ARI 2 GLAGAH","JL. Raya Puk NO. 01 GLAGAH","Prop. Jawa Timur","SMA","-7.0629000","112.4928000"
"20534124","SMAN 2 MADIUN","JL. BILITON 24 MADIUN","Prop. Jawa Timur","SMA","-7.6216000","111.5258000"
"69912064","SMAS ISLAM DARUS SALAM","Dusun Sloros","Prop. Jawa Timur","SMA","-7.0392810","113.2506810"
"69755240","SMAS MUTIARA BUNDA ","PONDOK MUTIARA BLOK MEC. 1-10","Prop. Jawa Timur","SMA","-7.4484000","112.7024000"
"20520804","SMAN 1 JATIROTO","JL. DESA ROJOPOLO - JATIROTO","Prop. Jawa Timur","SMA","-8.1346000","113.3263000"
"20551737","SMAS KH AGUS SALIM","JL. SRI TANJUNG RT 02 RW 10 KALIWINING JEMBER","Prop. Jawa Timur","SMA","-8.1888000","113.7456000"
"20536297","SMAN 2 PROBOLINGGO","JL. KI HAJAR DEWANTARA","Prop. Jawa Timur","SMA","-7.7653000","113.1999000"
"20520820","SMAN 2 LUMAJANG","JL. HOS. COKROAMINOTO NO. 159 LUMAJANG","Prop. Jawa Timur","SMA","-8.1252000","113.2180000"
"20527233","SMAN 1 PAMEKASAN","JL. PRAMUKA NO. 2","Prop. Jawa Timur","SMA","-7.1577270","113.4824300"
"20534305","SMAS ISLAM YPA","JL. JOYOBOYO I/4, JAMSAREN, KOTA KEDIRI","Prop. Jawa Timur","SMA","-7.8213000","112.0193000"
"20532094","SMAS SEJAHTERA 1 SURABAYA","JL. SIMO MULYO 1 / 3","Prop. Jawa Timur","SMA","-7.2634000","112.7116000"
"20514352","SMAS WIYATA DHARMA","JL. BRONGKOS SIRAMAN KESAMBEN","Prop. Jawa Timur","SMA","-8.1433000","112.3528000"
"20504487","SMAN 1 PADANGAN","JL. DR. SUTOMO NO.02 PADANGAN","Prop. Jawa Timur","SMA","-7.1677000","111.6098000"
"20515472","SMAS ISLAM SUNAN GUNUNG JATI","JL.RAYA NGUNUT GG.PDAM","Prop. Jawa Timur","SMA","-8.0995000","112.0056000"
"20529939","SMA MAMBAUL ULUM","JL. RAYA ARJASA","Prop. Jawa Timur","SMA","-6.8593000","115.3187000"
"20532117","SMAS TRISILA","JL. UNDAAN KULON 57-59","Prop. Jawa Timur","SMA","-7.2508000","112.7435000"
"20583922","SMAS DARUL ULUM","JL. POND-PEST DARUL ULUM","Prop. Jawa Timur","SMA","-7.0348000","113.7239000"
"20551682","SMAS ISLAM KASIYAN","Jl. Sriwijaya No. 19","Prop. Jawa Timur","SMA","-8.3119000","113.4711000"
"20517735","SMAN 1 SUMBERPUCUNG","JL. NUSA MENTARAMAN JATI GUWI","Prop. Jawa Timur","SMA","-8.1498000","112.4962000"
"20500633","SMAS KANJENG SEPUH","JL.PEMUDA NO. 75 SIDAYU","Prop. Jawa Timur","SMA","-6.9892000","112.5594000"
"69901434","SMAS SABILILLAH","Jl. Rajawali III No. 162","Prop. Jawa Timur","SMA","-7.2018450","113.2330430"
"20541216","SMAS DARUL ULUM","JL. RAYA KEPOHBARU","Prop. Jawa Timur","SMA","-7.1884000","112.0972000"
"20552092","SMAS TAHFIDZ","JL. VETERAN  MUDA 1/15","Prop. Jawa Timur","SMA","-7.1676000","113.4861000"
"20509332","SMAS PGRI MAOSPATI","JL. RAYA JURUSAN NGAWI","Prop. Jawa Timur","SMA","-7.5965000","111.4253000"
"20540291","SMA BAHRUL ULUM TAMBAK BERAS","JL. KH. WAHAB HASBULLAH 123","Prop. Jawa Timur","SMA","-7.5167000","112.2330000"
"20511951","SMAN 1 PLOSOKLATEN","DS.KAWEDUSAN PLOSOKLATEN","Prop. Jawa Timur","SMA","-7.8314000","112.1214000"
"69775579","SMAN 1 TULUNGAGUNG","JL. FATAHILLAH","Prop. Jawa Timur","SMA","-8.0596100","111.8842700"
"20533612","SMAS KRISTEN PETRA","JL. PROF. MOH. YAMIN SH. 53","Prop. Jawa Timur","SMA","-7.9905000","112.6321000"
"60724722","SMASI NURUL HIDAYAH ","DUSUN KRAJAN DESA OPO - OPO KREJENGAN","Prop. Jawa Timur","SMA","-7.8160000","113.3982000"
"20532171","SMAS MUHAMMADIYAH 1","JL. KAPASAN 73 - 75","Prop. Jawa Timur","SMA","-7.2396000","112.7498000"
"20523812","SMAS AL FALAH SILO","JL. KH. SYAMSUL ARIFIN 01","Prop. Jawa Timur","SMA","-8.2490000","113.8215000"
"20515469","SMAS PGRI 4 TULUNGAGUNG","JL.MAYOR SUJADI II/21","Prop. Jawa Timur","SMA","-8.0724350","111.9092617"
"20521729","SMAN GRUJUGAN","JL. JEMBER SUMBER PANDAN","Prop. Jawa Timur","SMA","-8.0022000","113.7838000"
"20504496","SMAS MUHAMMADIYAH 1 BOJONEGORO","JL. DR. SETYOBUDI NO. 3","Prop. Jawa Timur","SMA","-7.1556000","111.8748000"
"20506256","SMAS NU CENTINI LAREN","DS.CENTINI-LAREN","Prop. Jawa Timur","SMA","-7.0245000","112.2238000"
"69861085","SMA AL MUBAROK","Jl. Sudomo Desa Jambewangi Kec. Sempu","Prop. Jawa Timur","SMA","-8.3014970","114.1492310"
"20555828","SMAS ISLAM WALISONGO","JL. BARAT PASAR BRANGKAL NO.460","Prop. Jawa Timur","SMA","-7.5232000","112.4137000"
"20548722","SMAS MAARIF MAMBAUL ULUM PUCUK","JL.RONGGOPATI NO.56","Prop. Jawa Timur","SMA","-7.1182000","112.2776000"
"69880763","SMA SABILUSH SHOLIHIN","JL. RAYA PEDENG","Prop. Jawa Timur","SMA","-7.0790890","112.7440670"
"20539852","SMAS AN NUR TEMPEH","Jln. Belakang Masjid Besar Darussalam Tempeh","Prop. Jawa Timur","SMA","-8.2073000","113.1733000"
"69855671","SMA ANNIDHAMIYAH","Jl. Sumber Kaljannah Dusun Jeppon","Prop. Jawa Timur","SMA","-6.9138000","113.6355000"
"20509314","SMAN 1 SUKOMORO","DS. KEDUNGGUWO","Prop. Jawa Timur","SMA","-7.6224000","111.3747000"
"69856217","SMA PEMBANGUNAN JAYA 2","KAWASAN TAMAN VANCOUVER BLOK J1 No.01","Prop. Jawa Timur","SMA","-7.3968830","112.7279150"
"20532217","SMAN 17 SURABAYA","JL. RUNGKUT ASRI TENGAH YKP","Prop. Jawa Timur","SMA","-7.3275000","112.7753000"
"20549624","SMAS NATIONAL IMMERSION SENIOR HIGH","UKEL 39","Prop. Jawa Timur","SMA","-7.8631000","111.4821000"
"20551889","SMAS AL IN AM","JL. RAYA GAPURA","Prop. Jawa Timur","SMA","-6.9775000","113.9505000"
"69896282","SMAN 1 DUKUN","Jl. Raya Mentaras Dukun","Prop. Jawa Timur","SMA","-6.9984960","112.4700850"
"20566152","SMAS ASSYABROWIYAH","JL. PP MIFTAHUL ULUM DERBING","Prop. Jawa Timur","SMA","-6.9512000","113.3446000"
"69758428","SMAS RAUDLATUL AMIEN","JL. RAYA KETAPANG NO.9","Prop. Jawa Timur","SMA","-6.9064000","113.3104000"
"20540061","SMAS KATHOLIK UNTUNG SURAPATI SIDOARJO","JL. UNTUNG SURAPATI SIDOARJO","Prop. Jawa Timur","SMA","-7.4476000","112.7215000"
"20577741","SMAS ISLAM TERPADU","NGLINGI NGASEM","Prop. Jawa Timur","SMA","-7.1913000","111.7613000"
"20500476","SMAN 1 MENGANTI","JL. RAYA BOTENG","Prop. Jawa Timur","SMA","-7.2679000","112.5626000"
"20531148","SMAS ISLAM YASI","JL. RAYA KARBUNGOH NO.17","Prop. Jawa Timur","SMA","-7.1581000","112.7818000"
"20555363","SMAS AL MULTAZAM","JL. RAYA KEPUHANYAR NO.24","Prop. Jawa Timur","SMA","-7.5434000","112.5393000"
"20511002","SMAN 2 NGADIROJO","DESA WONOKARTO","Prop. Jawa Timur","SMA","-8.1460000","111.3524000"
"20531156","SMAS AL KHATIBIYAH","JL. KH. ACHMAD DAHLAN","Prop. Jawa Timur","SMA","-7.2086000","113.0315000"
"20511952","SMAN 1 PLEMAHAN","JL. PLK GG I BOGOKIDUL PLEMAHAN","Prop. Jawa Timur","SMA","-7.7158000","112.1297000"
"69857712","SMAS MANGGALA SAKTI","Jl. Sumurmojo, RT 002 RW 003 Desa Dadapan Kecamatan Solokuro","Prop. Jawa Timur","SMA","-6.9282910","112.2981330"
"20532373","SMAS DHARMA WANITA SURABAYA","JL. KENDANGSARI V","Prop. Jawa Timur","SMA","-7.3250000","112.7463000"
"20523825","SMAN 1 TANGGUL","JL. PEMANDIAN  16","Prop. Jawa Timur","SMA","-8.1537000","113.4589000"
"20552091","SMA SABILUL HUDA","DESA LANCAR","Prop. Jawa Timur","SMA","-7.1246000","113.5943000"
"20506334","SMAS NUSANTARA 1 DEKET","JL. RAYA DEKET KULON - DEKET","Prop. Jawa Timur","SMA","-7.1106000","112.4283000"
"69873971","SMA SABILUL MUTTAQIEN","SADULANG BESAR SAPEKEN","Prop. Jawa Timur","SMA","-7.0073590","115.5234290"
"20532232","SMAN 21 SURABAYA","JL. ARGOPURO 11 - 15","Prop. Jawa Timur","SMA","-7.2599000","112.7298000"
"20534304","SMAS KARTANEGARA KEDIRI","JL. IR. SUTAMI 27","Prop. Jawa Timur","SMA","-7.8144000","112.0341000"
"20500479","SMAN 1 GRESIK","JL. ARIF RAHMAN HAKIM NO. 1 GRESIK","Prop. Jawa Timur","SMA","-7.1681000","112.6533000"
"20503415","SMA NEGERI 1 JOMBANG","JL. BUPATI RAA. SOEROADININGRAT NO. 8 JOMBANG","Prop. Jawa Timur","SMA","-7.5560000","112.2339000"
"69756316","SMAS AL KHOZIN","DUSUN SABUNGAN TIMUR","Prop. Jawa Timur","SMA","-7.0496000","113.2084000"
"20517782","SMAS TRI MURTI 01 PAKISAJI","Jl. Garuda No. 81","Prop. Jawa Timur","SMA","-8.0723000","112.5902000"
"20546520","SMAS ISLAM MIFTAHUL ULUM JATIURIP","JL. SIMPANG TIGA","Prop. Jawa Timur","SMA","-7.7987000","113.3929000"
"20517821","SMAS PGRI KEPANJEN","JL. ADI WALUYO NO. 30 KEPANJEN","Prop. Jawa Timur","SMA","-8.1234400","112.5710650"
"20554882","SMAN 1 BALEN","JL.RAYA SOBONTORO","Prop. Jawa Timur","SMA","-7.1946000","111.9448000"
"20532147","SMAS KAWUNG 1 SURABAYA","JL. PARANG KLITIK NO.2","Prop. Jawa Timur","SMA","-7.2374000","112.7304000"
"69877300","SMA TERPADU AL MUBAROKAH","JL. Pesantren 188","Prop. Jawa Timur","SMA","-7.5325110","112.7121570"
"20500455","SMAS NAHDATUL ULAMA 2","JL. AKIM KAYAT VII /  NO 49","Prop. Jawa Timur","SMA","-7.1600000","112.6489000"
"20538325","SMAN 1 TANJUNGANOM","JL. PANGLIMA SUDIRMAN 84","Prop. Jawa Timur","SMA","-7.6486000","112.0073000"
"20517731","SMAN 1 NGANTANG","JL. JALAN RAYA 253 NGANTANG","Prop. Jawa Timur","SMA","-7.8785000","112.3797000"
"20532108","SMAS WACHID HASYIM 1 SURABAYA","JL. SIDOTOPO  WETAN BARU NO.37","Prop. Jawa Timur","SMA","-7.2330000","112.7599000"
"20525851","SMAS PGRI 10 GLENMORE","JL. RAYA PASAR","Prop. Jawa Timur","SMA","-8.3050000","114.0520000"
"20517729","SMAN 1 GONDANGLEGI","JL.KETAWANG 2 GONDANGLEGI","Prop. Jawa Timur","SMA","-8.1377000","112.6442000"
"20506305","SMAS KHOZAINUL ULUM KALITENGAH","JL. BOJOASRI RT.02/RW.01  DESA BOJOASRI","Prop. Jawa Timur","SMA","-7.0442000","112.4083000"
"20523820","SMAS PLUS AL HASAN PANTI","TEROPONG BINTANG 01-02","Prop. Jawa Timur","SMA","-8.1260000","113.6337000"
"20546531","SMAS WALI SONGO","JL. SUKAPURA","Prop. Jawa Timur","SMA","-7.7848000","113.1692000"
"20552088","SMA ISLAM MIFTAHUL ULUM","DS. KERTAGENA TENGAH","Prop. Jawa Timur","SMA","-7.0825000","113.5925000"
"69754592","SMAS ISLAM NURUL HUDA","JL. RENGGANIS KALIANAN KRUCIL  PROBOLINGGO","Prop. Jawa Timur","SMA","-7.9365000","113.5285000"
"20539315","SMAS KARYA PEMBANGUNAN KWADUNGAN","JL. RAYA KWADUNGAN","Prop. Jawa Timur","SMA","-7.5121000","111.5168000"
"69753913","SMAS DARUT TAUHID","Dsn. Paserean Desa Buduran","Prop. Jawa Timur","SMA","-6.9639000","112.8488000"
"20523803","SMAS PGRI KASIYAN","JL.KENCONG 05","Prop. Jawa Timur","SMA","-8.3134000","113.4835000"
"20500662","SMAS AL MUNIROH","JL. PENDIDIKAN NO. 01 PANGKAH WETAN","Prop. Jawa Timur","SMA","-6.9194000","112.5570000"
"20523824","SMAN RAMBIPUJI","JL. DURIAN 30","Prop. Jawa Timur","SMA","-8.3101000","113.5065000"
"20533621","SMAS KRISTEN KALAM KUDUS","JL. PROF. MOH. YAMIN 47","Prop. Jawa Timur","SMA","-7.9901000","112.6320000"
"20505014","SMAN 1 PARENGAN","JL. RAYA BOJONEGORO-JATIROGO KM.19 SUKOREJO PARENGAN","Prop. Jawa Timur","SMA","-7.0509000","111.8184000"
"20539726","SMA PGRI 2 JOMBANG","JL. KH. Ahmad Dahlan No. 23","Prop. Jawa Timur","SMA","-7.5545000","112.2316000"
"69881315","SMA ISLAM AL-QODIR","DUSUN JABON, DESA DRENGES, KERTOSONO","Prop. Jawa Timur","SMA","-7.6256000","112.0749140"
"20506317","SMAS MUHAMMADIYAH 8 SUKODADI","JL.RADEN WIJAYA NO.19 SUKODADI","Prop. Jawa Timur","SMA","-7.0943000","112.3225000"
"20522669","SMAS ISLAM BANYUGLUGUR","Jl. Raya Kalianget KM. 153 Banyuglugur","Prop. Jawa Timur","SMA","-7.7383000","113.6645000"
"20540072","SMAS WACHID HASYIM 2","JL. RAYA NGELOM 86","Prop. Jawa Timur","SMA","-7.3500000","112.6910000"
"20517818","SMAS NAHDLATUL ULAMA KEPANJEN","JL.PB. SUDIRMAN NO.227 NGADILANGKUNG","Prop. Jawa Timur","SMA","-8.1106020","112.5770200"
"20501865","SMAS YPM 2 PANJUNAN","JL. RAYA PANJUNAN - SUKODONO","Prop. Jawa Timur","SMA","-7.3838820","112.6782640"
"20517732","SMAN 1 PAGAK","JL.RAYA KAHURIPAN 4","Prop. Jawa Timur","SMA","-8.2691000","112.4544000"
"20500451","SMAS SEMEN GRESIK","JL. VETERAN GRESIK","Prop. Jawa Timur","SMA","-7.1786000","112.6504000"
"20551879","SMAS NAHDATUL ULAMA","JL. INTAN NO. 7","Prop. Jawa Timur","SMA","-7.0086000","113.8590000"
"20536295","SMAN 4 PROBOLINGGO","JL. SLAMET RIYADI","Prop. Jawa Timur","SMA","-7.7652000","113.2028000"
"20540068","SMAS SENOPATI SEDATI","JL. SENOPATI NO. 2","Prop. Jawa Timur","SMA","-7.3962000","112.7627000"
"20577218","SMAN 1 KEPOHBARU","Jln. Hayam Wuruk, No. 50, Kepoh, Kepohbaru, Bojonegoro","Prop. Jawa Timur","SMA","-7.3302000","112.0085000"
"20540048","SMAS ANTARTIKA","JL. SIWALANPANJI NO. 6","Prop. Jawa Timur","SMA","-7.4319000","112.7265000"
"20521745","SMAN 1 PUJER","JL. RAYA BONDOWOSO NO.01 PUJER","Prop. Jawa Timur","SMA","-7.9575000","113.8708000"
"20517730","SMAN 1 KEPANJEN","JL. A. YANI NO. 48 KEPANJEN","Prop. Jawa Timur","SMA","-8.1245000","112.5720000"
"20500475","SMAN 1 SANGKAPURA","JL. WIYATAMANDALA NO. 10","Prop. Jawa Timur","SMA","-5.8478000","112.6660000"
"20531227","SMAN 3 BANGKALAN","JL. RE. MARTA DINATA 54","Prop. Jawa Timur","SMA","-7.0494000","112.7311000"
"20531155","SMAS ATTHOLHAWIYAH","JL. PP. SUMURNANGKA PO. BOX 05 MODUNG","Prop. Jawa Timur","SMA","-7.1816000","112.9565000"
"60726472","SMAS AL ARIFIN","DUSUN LANGGARSARI","Prop. Jawa Timur","SMA","-7.2112000","113.3348000"
"20542501","SMAN 1 TUGU","JL. LAPANGAN BARAT NGLONGSOR","Prop. Jawa Timur","SMA","-8.0488000","111.6573000"
"20534746","SMAS TAMAN SISWA","JL. TAMAN SISWA NO. 30","Prop. Jawa Timur","SMA","-7.4654000","112.4394000"
"20513139","SMAS K ST AUGUSTINUS TANJUNGANOM","JL. A. YANI 138-140","Prop. Jawa Timur","SMA","-7.6343000","112.0169000"
"20528662","SMAN 1 SAMPANG","JL. JAKSA AGUNG SUPRAPTO  73","Prop. Jawa Timur","SMA","-7.1848000","113.2379000"
"20517795","SMAS DIPONEGORO DAMPIT","JL. SEMERU SELATAN NO. 07 DAMPIT","Prop. Jawa Timur","SMA","-8.2120000","112.7495000"
"20532092","SMAS SASANA BHAKTI","JL. JAGALAN NO. 132 -136","Prop. Jawa Timur","SMA","-7.2408000","112.7390000"
"20541240","SMAN 1 KASIMAN","JL. RAYA KEDEWAN NO. 15","Prop. Jawa Timur","SMA","-7.1103000","111.6226000"
"20540305","SMA PRIMAGANDA","JL.KH.M.YAQUB HUSEIN DIWEK","Prop. Jawa Timur","SMA","-7.6303000","112.2881000"
"20562214","SMAS ISLAM ZAINUL HIKAM","JL.PAHLAWAN II No.86","Prop. Jawa Timur","SMA","-7.8354000","113.2223000"
"20577418","SMAS ISLAM SALAFIYAH","JL. DS SRESEH","Prop. Jawa Timur","SMA","-7.2206669","113.1488764"
"20541242","SMAN 1 SUMBERREJO","JL. RAYA SUMBEREJO NO. 131","Prop. Jawa Timur","SMA","-7.1723000","112.0192000"
"20510140","SMAS MERDEKA PONOROGO","JL. PACAR 30","Prop. Jawa Timur","SMA","-7.8727850","111.4803366"
"20529968","SMAN 1 ARJASA","Jl. Raya Bujutan Arjasa","Prop. Jawa Timur","SMA","-6.8610000","115.2928000"
"20523846","SMAN MUMBULSARI","JL. DR. SOEBANDI 62","Prop. Jawa Timur","SMA","-8.2630000","113.7476000"
"20517834","SMAS ISLAM DIPONEGORO WAGIR","JL. RAYA GONDOWANGI NO.144","Prop. Jawa Timur","SMA","-8.0087000","112.5806000"
"20541248","SMAS PGRI KEDUNGADEM","JL. RAYA DROKILO","Prop. Jawa Timur","SMA","-7.2908000","112.0472000"
"69923010","SMAS AL-MASJIDIYAH","Dusun Bangka","Prop. Jawa Timur","SMA","-6.9227250","113.1723270"
"20536818","SMAN 2 BATU","JL. HASANUDIN JUNREJO","Prop. Jawa Timur","SMA","-7.9061000","112.5540000"
"20511954","SMAN 1 PAPAR","JL. RAYA  382 JANTI,PAPAR","Prop. Jawa Timur","SMA","-7.7304000","112.0848000"
"20527251","SMAN 5 PAMEKASAN","JL. RAYA KOWEL","Prop. Jawa Timur","SMA","-7.1430150","113.4859130"
"20522672","SMAS IBRAHIMY SITUBONDO","Jl. Ijen No. 01","Prop. Jawa Timur","SMA","-7.7066000","114.0142000"
"20534745","SMAS PGRI 2","JL. JOKO TOLE NO. 6","Prop. Jawa Timur","SMA","-7.4603000","112.4409000"
"20535048","SMAS TAMAN MADYA","JL. A. YANI NO. 46","Prop. Jawa Timur","SMA","-8.0940000","112.1839000"
"20532163","SMAS MUHAMMADIYAH 2","PUCANG ANOM 91 SURABAYA","Prop. Jawa Timur","SMA","-7.2839000","112.7592000"
"69753914","SMAS DARUT TAUHID","JL. RAYA KATOL BARAT","Prop. Jawa Timur","SMA","-6.9973200","112.9656650"
"20502725","SMAN 1 NGORO","JL. CANDI JOLOTUNDO","Prop. Jawa Timur","SMA","-7.5696000","112.5907000"
"20549280","SMAS MARDI UTOMO","JL. RAYA TAROKAN KALIRONG, TAROKAN","Prop. Jawa Timur","SMA","-7.7339460","111.9530570"
"20576078","SMA NURUL FALAH","PASANGGAR","Prop. Jawa Timur","SMA","-7.0136000","113.4535000"
"20505013","SMAN 1 RENGEL","JL. RAYA BANJARAGUNG RENGEL","Prop. Jawa Timur","SMA","-7.0262000","112.0270000"
"20538324","SMAN 1 PATIANROWO","JALAN RAYA PG LESTARI","Prop. Jawa Timur","SMA","-7.5756000","112.1106000"
"69859774","SMA HANG TUAH 5","Jl. M. Ridwan No.7","Prop. Jawa Timur","SMA","-7.4803000","112.7102000"
"20503630","SMA AVICENNA JOMBANG","JL. SOEKARNO HATTA 174 B","Prop. Jawa Timur","SMA","-7.5392000","112.2525000"
"20514351","SMAN 1 GARUM","JL. RAYA BENCE GARUM","Prop. Jawa Timur","SMA","-8.0794000","112.2408000"
"20532087","SMAS SANTA MARIA","JL. RAYA DARMO 49","Prop. Jawa Timur","SMA","-7.2837000","112.7406000"
"69900126","SMA ISLAM AL-ISHLAH","DESA BAKIYONG","Prop. Jawa Timur","SMA","-7.0439040","113.6588680"
"20540051","SMAS DARUSSALAMAH","JL. KYAI MOJO NO.10","Prop. Jawa Timur","SMA","-7.4147000","112.5833000"
"20546554","SMAS INSAN KAMIL BANCAR","JL. RAYA BOGOREJO NO. 15 BANCAR","Prop. Jawa Timur","SMA","-6.8128000","111.7647000"
"20502674","SMAS MUHAMMADIYAH 2 MOJOSARI","Jl. Pahlawan No. 52","Prop. Jawa Timur","SMA","-7.5257000","112.5601000"
"20551643","SMA BUDI UTOMO PERAK","GADINGMANGU PERAK","Prop. Jawa Timur","SMA","-7.5755000","112.1614000"
"20519302","SMAN 1 GONDANGWETAN","JL. RAYA BROMO 33 KARANG SENTUL GONDANGWETAN","Prop. Jawa Timur","SMA","-7.7111000","112.9002000"
"20511965","SMAN 2 PARE","JL. PAHLAWAN KUSUMA BANGSA NO. 28 PARE","Prop. Jawa Timur","SMA","-7.7590000","112.1761000"
"20517814","SMAS ISLAM AL-HIKMAH BULULAWANG","JL. RAYA TANJUNGSARI NO. 150","Prop. Jawa Timur","SMA","-8.0966000","112.6583000"
"20549069","SMAS JAWAAHIRUL HIKMAH","Ds. Besuki, Kec. Besuki","Prop. Jawa Timur","SMA","-8.2449000","111.7865000"
"20508493","SMAN 1 WIDODAREN","JL. DR. RAJIMAN NO.30","Prop. Jawa Timur","SMA","-7.3796000","111.2133000"
"20532169","SMAS MARDI SIWI","JL. TAMBAKSARI 1 /10","Prop. Jawa Timur","SMA","-7.2506000","112.7562000"
"20546522","SMAS MUHAMMADIYAH 3 PROBOLINGGO","JL. SEBAUNG - GENDING","Prop. Jawa Timur","SMA","-7.8155000","113.3192000"
"20505056","SMAS KATOLIK SANTO YUSUF TUBAN","JL. MANUNGGAL NO. 14 SUKOLILO TUBAN","Prop. Jawa Timur","SMA","-6.8954744","112.0590597"
"20500660","SMAS AL FURQON","WEDOROANOM DRIYOREJO","Prop. Jawa Timur","SMA","-7.3263000","112.6086000"
"20577541","SMAS SURYA BUANA","JL. CANDI IV KARANGBESUKI SUKUN","Prop. Jawa Timur","SMA","-7.9447000","112.6085000"
"20521708","SMAN TAMANAN","JL. SUKOWONO  108","Prop. Jawa Timur","SMA","-8.0184000","113.8217000"
"20503627","SMA DIPONEGORO","JL. REJOAGUNG NO.87 PLOSO","Prop. Jawa Timur","SMA","-7.4567000","112.2257000"
"20533634","SMAS KATOLIK FRATERAN","Jl. JAKSA AGUNG SUPRAPTO No.21","Prop. Jawa Timur","SMA","-7.9699000","112.6288000"
"20503619","SMA PATRIOT PETERONGAN","JL.KOL.H.ISMAIL 17 PETERONGAN","Prop. Jawa Timur","SMA","-7.5369000","112.2768000"
"69888338","SMA MERLION SCHOOL","Jl. HR.Muhammad No. 371","Prop. Jawa Timur","SMA","-7.2793260","112.7026120"
"69882345","SMA SPINS INTERACTIONAL SCHOOL SURABAYA","Jl. KARANGAN PDAM No. 24,Wiyung, Surabaya","Prop. Jawa Timur","SMA","-7.3172080","112.6969740"
"20502676","SMAS YPD DAWARBALNDONG","JL. Yon Jarot Subiantoro No. 28","Prop. Jawa Timur","SMA","-7.3310000","112.4223000"
"20554673","SMAS MISBAHUL ULUM","JL. MERAK No. 40","Prop. Jawa Timur","SMA","-7.7108000","114.0024000"
"20532216","SMAS YPPI 2 SURABAYA","JL. KAPASARI 126 - 128","Prop. Jawa Timur","SMA","-7.2771000","112.7712000"
"69754596","SMA ISLAM SYARIF HIDAYATULLAH","Jl. PP. Bisyril Arifin","Prop. Jawa Timur","SMA","-7.8067000","113.5065000"
"20529954","SMAN 1 SUMENEP","JL. PAYUDAN TIMUR  1","Prop. Jawa Timur","SMA","-7.0179000","113.8754000"
"20542495","SMAN 1 DONGKO","JL. RAYA DONGKO NO. 99","Prop. Jawa Timur","SMA","-8.1816000","111.5784000"
"20517793","SMAS DHARMA WIRAWAN 02 BULULAWANG","JL. KORAMIL 17 BII","Prop. Jawa Timur","SMA","-8.0701000","112.6416000"
"20554394","SMAS MUHAMMADIYAH 1 TUBAN","JL. GAJAH MADA NO.11 GEDONGOMBO SEMANDING","Prop. Jawa Timur","SMA","-6.9046000","112.0627000"
"20500472","SMA NAHDLATUL ULAMA 1","JL. RADEN SANTRI V/22 GRESIK","Prop. Jawa Timur","SMA","-7.1553000","112.6549000"
"20500462","SMAS MUHAMMADIYAH 3","JL. RAYA BUNGAH KM.17 GRESIK","Prop. Jawa Timur","SMA","-7.0518000","112.5747000"
"69728199","SMAS AL ISLAMI","JL. RAYA KARA","Prop. Jawa Timur","SMA","-7.0930000","113.2044000"
"20527158","SMAN 1 GALIS","JL. RAYA KONANG","Prop. Jawa Timur","SMA","-7.1646580","113.5362740"
"20576902","SMAS ISLAM AL-AZHAAR","JL. PAHLAWAN 1","Prop. Jawa Timur","SMA","-8.0504417","111.9128833"
"20523848","SMAN 2 TANGGUL","JL. SALAK 126","Prop. Jawa Timur","SMA","-8.1688000","113.4519000"
"20532376","SMAS BINA BANGSA","JL. SIWALANKERTO UTARA II / 7","Prop. Jawa Timur","SMA","-7.3361000","112.7329000"
"20532133","SMAS GLORIA","JL. Raya Sukomanunggal Jaya 25A","Prop. Jawa Timur","SMA","-7.2709000","112.6952000"
"20534743","SMAS MUHAMMADIYAH","JL. BRAWIJAYA - SINOMAN VI / 24","Prop. Jawa Timur","SMA","-7.4796000","112.4302000"
"20525833","SMAS IBRAHIMY WONGSOREJO","JL.BIMO NO,1 SIDODADI","Prop. Jawa Timur","SMA","-7.9456490","114.3957100"
"20509319","SMAN 1 KAWEDANAN","JL. RAYA GENENGAN","Prop. Jawa Timur","SMA","-7.6842000","111.4277000"
"20515473","SMAS 45 BANDUNG","Jl. Raya Suruhan Kidul","Prop. Jawa Timur","SMA","-8.1703000","111.7932000"
"20501703","SMAN 1 WARU","JL. BRANTAS BARITO WISTROP","Prop. Jawa Timur","SMA","-7.3551000","112.7589000"
"20534747","SMAS TARUNA NUSA HARAPAN","JL. LETKOL SUMARJO NO. 67 MR","Prop. Jawa Timur","SMA","-7.4642000","112.4363000"
"20555618","SMAS TUNAS HARAPAN","Jl. KH. Moh. Dahlan Parseh","Prop. Jawa Timur","SMA","-7.0931000","112.7595000"
"20506316","SMAS MUHAMMADIYAH 7 GLAGAH","JL. RAYA GLAGAH NO. 21","Prop. Jawa Timur","SMA","-7.0598000","112.4922000"
"20571207","SMAS UNGGULAN AL HIDAYAH","Jl. Raya Mojosari - Pacet Gg. Mbah Gepuk","Prop. Jawa Timur","SMA","-7.4230000","112.3594000"
"20532247","SMAN 4 SURABAYA","JL. Mayjen Prof. DR. Moestopo No. 04","Prop. Jawa Timur","SMA","-7.2655000","112.7551000"
"20504498","SMAS PGRI PADANGAN","JL. DR. SUTOMO","Prop. Jawa Timur","SMA","-7.1647000","111.6105000"
"20579334","SMAS AL-KHOZINY","DSN. BINDUNG","Prop. Jawa Timur","SMA","-7.0619000","113.2182000"
"20558929","SMAS CENDEKIA","JL. RAYA LINGKAR TIMUR","Prop. Jawa Timur","SMA","-7.4627000","112.7490000"
"20506335","SMAS NUSANTARA 2 BRONDONG","DS.BRENGKOK-BRONDONG","Prop. Jawa Timur","SMA","-6.8966000","112.2387000"
"20532395","SMAS KARTIKA WIJAYA","JL. KARAH NO. 182","Prop. Jawa Timur","SMA","-7.3089000","112.7144000"
"20519327","SMAS AL- MURSYIDIN","KELURAHAN SUMBERGEDANG PANDAAN","Prop. Jawa Timur","SMA","-7.6467000","112.6803000"
"20517840","SMAS KHOIRUDDIN GONDANGLEGI","JL. MURCOYO I GONDANGLEGI","Prop. Jawa Timur","SMA","-8.1786000","112.6413000"
"20540047","SMAS AL ISLAMIYAH","Jl. Putat Utara N0. 25","Prop. Jawa Timur","SMA","-7.5039000","112.7318000"
"20538326","SMAN 2 NGANJUK","JL. ANJUK LADANG NO. 9 NGANJUK","Prop. Jawa Timur","SMA","-7.6200000","111.8978000"
"20509321","SMAN 1 BARAT","JL. PASAR LEGI BARAT","Prop. Jawa Timur","SMA","-7.5532000","111.4539000"
"20501698","SMAN 1 WONOAYU","JL. RAYA PAGERNGUMBUK","Prop. Jawa Timur","SMA","-7.4304000","112.6173000"
"20509316","SMAN 1 PARANG","JL. RAYA PARANG 27","Prop. Jawa Timur","SMA","-7.7500000","111.3449000"
"20503408","SMA NEGERI MOJOAGUNG","JL. JANTI NO.18  MOJOAGUNG","Prop. Jawa Timur","SMA","-7.5735000","112.3325000"
"20532231","SMAN 20 SURABAYA","JL. MEDOKAN SEMAMPIR","Prop. Jawa Timur","SMA","-7.3076000","112.7896000"
"20531253","SMAN 1 TANJUNG BUMI","JL. RAYA MACAJAH  22","Prop. Jawa Timur","SMA","-6.8907000","113.0587000"
"20538391","SMAS PGRI LENGKONG","DS. JATIPUNGGUR, KEC. LENGKONG","Prop. Jawa Timur","SMA","-7.5268000","112.0740000"
"20500658","SMAS BAHRUL ULUM","JL. KH.WAHID HASYIM NO.17","Prop. Jawa Timur","SMA","-6.9538000","112.5032000"
"69755340","SMAS ASSUBHAN","Jl. Brawijaya Gg. Pesantren Dusun Kalisat RT/RW 008/002","Prop. Jawa Timur","SMA","-7.7549000","113.1650000"
"20523802","SMAS PANCASILA AMBULU","JL. RONGGOLAWE 5","Prop. Jawa Timur","SMA","-8.3398000","113.6086000"
"20523814","SMAS BAITUL ARQOM","JL. KARANG DUREN NO. 32","Prop. Jawa Timur","SMA","-8.2735000","113.5335000"
"20549326","SMAS KATOLIK SEMINARI GARUM","JL. MERDEKA TIMUR 4-6 GARUM","Prop. Jawa Timur","SMA","-8.0742000","112.2261000"
"20531154","SMAS DARUL HIKMAH","JL. RAYA LANGKAP BURNEH","Prop. Jawa Timur","SMA","-7.0623000","112.7810000"
"20532156","SMAS MUJAHIDIN","JL. TANJUNG PERAK BARAT NO. 275","Prop. Jawa Timur","SMA","-7.2204000","112.7318000"
"20511859","SMAS KALIJOGO","DS.SIDOMULYO KEC.WATES KAB.KEDIRI","Prop. Jawa Timur","SMA","-7.8672000","112.0834000"
"20539811","SMAN 1 NGRONGGOT","DS. TANJUNGKALANG, NGRONGGOT","Prop. Jawa Timur","SMA","-7.7040000","112.0460000"
"20523844","SMAN 1 JEMBER","Jl. Letjen Panjaitan No. 55","Prop. Jawa Timur","SMA","-8.1787000","113.7074000"
"69953327","SMAS SEKAR WANGI","Dusun Komis","Prop. Jawa Timur","SMA","-7.0422200","113.2500480"
"20546517","SMAS ADDASUQI","JL.PP ADDASUQI","Prop. Jawa Timur","SMA","-7.8281000","113.3006000"
"69786590","SMAS DARUT TAUHID","JL. MELATI No. 521","Prop. Jawa Timur","SMA","-7.0097000","113.8602000"
"20532263","SMAN 9 SURABAYA","JL. WIJAYA KUSUMA  48","Prop. Jawa Timur","SMA","-7.2575000","112.7502000"
"20523796","SMAS MUHAMMADIYAH 2 WULUHAN","JL. AMBULU 4","Prop. Jawa Timur","SMA","-8.3401000","113.5555000"
"20540050","SMAS BUDI UTOMO PRAMBON","JL. RAYA TEMU","Prop. Jawa Timur","SMA","-7.4477000","112.5706000"
"69831503","SMA KRISTEN ANAK BANGSA","Manyar Kartika Timur No.6 Surabaya","Prop. Jawa Timur","SMA","-7.2901100","112.7662300"
"20549446","SMAS MUHAMMADIYAH 4 BALONG","JL. PEMUDA NO. 11","Prop. Jawa Timur","SMA","-7.9571626","111.4305864"
"20554398","SMAN 1 KENDURUAN","JL. BLORA NO 8, DESA SIDOMUKTI KENDURUAN","Prop. Jawa Timur","SMA","-6.9088000","111.6332000"
"69754597","SMAS NURUL HASYIMI","DESA RANDUTATAH PAITON PROBOLINGGO","Prop. Jawa Timur","SMA","-7.7182000","113.4694000"
"60730338","SMAS NURUL JADID","JL. TAMAN PAHLAWAN PLANGGARAN","Prop. Jawa Timur","SMA","-6.9172000","113.0076000"
"20505009","SMAN 1 TUBAN","JL. WR. SUPRATMAN NO. 2 TUBAN","Prop. Jawa Timur","SMA","-6.9014200","112.0688517"
"69727602","SMAS AL-IZZAH BATU","JL. INDRAGIRI GG. PANGKUR NO. 78, SUMBEREJO, BATU, JAWA TIMUR","Prop. Jawa Timur","SMA","-7.8578000","112.5083000"
"20507731","SMAN PILANGKENCENG","JL. RAYA PILANGKENCENG NO 15","Prop. Jawa Timur","SMA","-7.4909000","111.6636000"
"20540074","SMAS WACHID HASYIM 4","JL. KOL. SUGIONO NO. 87","Prop. Jawa Timur","SMA","-7.3559000","112.7355000"
"20514350","SMAN 1 KADEMANGAN","JL. KRESNA 29","Prop. Jawa Timur","SMA","-8.1483000","112.1461000"
"20532368","SMA BUDI SEJATI SURABAYA","JL. JAGIR WONOKROMO NO. 112 Surabaya","Prop. Jawa Timur","SMA","-7.3031000","112.7492000"
"20532143","SMAS KATOLIK KARITAS III","JL. SIMPANG DPU VII / 11","Prop. Jawa Timur","SMA","-7.2790000","112.6851000"
"69867954","SMAS ISLAM AL - FALAH","Jl. Desa Bringin Tambelangan","Prop. Jawa Timur","SMA","-7.0502190","113.1442510"
"69815343","SMA ISLAM MIFTAHUL ULUM GUNUNG GENI","JL. LEPAAN","Prop. Jawa Timur","SMA","-7.8619000","113.2949000"
"20538322","SMAN 1 LOCERET","JL. DR. SUTOMO LOCERET","Prop. Jawa Timur","SMA","-7.6658000","111.8837000"
"20507734","SMAN 1 JIWAN","JL. DANDANG GENDIS","Prop. Jawa Timur","SMA","-7.5970000","111.4803000"
"20583919","SMAS AL - AZHAR","LENGKONG BRAGUNG","Prop. Jawa Timur","SMA","-7.0220000","113.6685000"
"60725397","SMA DARUS SALAM","DESA BUKEK","Prop. Jawa Timur","SMA","-7.1825920","113.4599270"
"20549428","SMA NEGERI 1 MARON","JL. DESA MARON WETAN","Prop. Jawa Timur","SMA","-7.8438000","113.3569000"
"20510154","SMAN 1 NGRAYUN","JL. JENDRAL SUDIRMAN","Prop. Jawa Timur","SMA","-8.0872000","111.4596000"
"69905424","SMAS TERPADU MIFTAHUL ULUM","Dusun Sloros","Prop. Jawa Timur","SMA","-7.0275290","113.1641190"
"69905423","SMAS AL ITTIHAD","Dusun Bindang Timur","Prop. Jawa Timur","SMA","-7.0361190","113.2491360"
"20500460","SMAS MUHAMMADIYAH 5","JL. RAYA PADANGBANDUNG BO 08","Prop. Jawa Timur","SMA","-7.2228000","112.5576000"
"20529970","SMAN 1 GAPURA","JL. RAYA GAPURA KM. 9","Prop. Jawa Timur","SMA","-6.9969000","113.9494000"
"20508476","SMAS MA ARIF NGAWI","JL. A. YANI NO. 99","Prop. Jawa Timur","SMA","-7.4174000","111.4431000"
"20558808","SMAS MAMBA UNNUR","JL.WAKHID HASYIM III","Prop. Jawa Timur","SMA","-8.1046000","112.6322000"
"20502728","SMAN 1 TRAWAS","JL. JOLOTUNDO NO. 2","Prop. Jawa Timur","SMA","-7.6434000","112.5976000"
"20517832","SMAS ISLAM AL IKHLASH KASEMBON","JL. RAYA NO.87 SUKOSARI","Prop. Jawa Timur","SMA","-7.7948000","112.3350000"
"20514372","SMAS PEMUDA KESAMBEN","JL. A YANI NO. 46 KESAMBEN","Prop. Jawa Timur","SMA","-8.1455000","112.3619000"
"20533655","SMAS KATOLIK SANTA MARIA","JL. RAYA LANGSEP 41","Prop. Jawa Timur","SMA","-7.9796000","112.6142000"
"20500448","SMAS UMAR MAS UD","JL. KAWEDANAN 02","Prop. Jawa Timur","SMA","-5.8337000","112.6142000"
"20510153","SMAN 1 PULUNG","JL. JAYENGRONO 36 PULUNG","Prop. Jawa Timur","SMA","-7.8808000","111.6108000"
"20570824","SMAS NURUL HIDAYAH","Jl. Tobai Tengah","Prop. Jawa Timur","SMA","-6.9811000","113.3682000"
"20529930","SMAS AL IHSAN","Jl. Simpang Kayuaro No. 01 Kangayan","Prop. Jawa Timur","SMA","-6.9143000","115.5593000"
"69829359","SMAS JADID AR-ROHMAN BRONDONG","JL. Simpang Poros No 48 RT 01 RW 02","Prop. Jawa Timur","SMA","-6.9214000","112.2399000"
"20521731","SMAN 1 SUKOSARI","JL. KAWAH IJEN-SUKOSARI","Prop. Jawa Timur","SMA","-7.9420000","113.9626000"
"20538323","SMAN 1 PACE","JL. SRIGADING 1","Prop. Jawa Timur","SMA","-7.6818000","111.9374000"
"20506339","SMAS PGRI 1 KALITENGAH","DS.DIBEE- KALITENGAH","Prop. Jawa Timur","SMA","-6.9997000","112.3868000"
"20564395","SMAS MUHAMMADIYAH 4","JL.RAYA KEBUNAN NO 10 GAYAM","Prop. Jawa Timur","SMA","-7.1606000","114.3243000"
"20506293","SMAS MA`ARIF 2 BRONDONG","Jl. Pendidikan No.01 Dusun Cumpleng Desa Brengkok Kecamatan Brondong","Prop. Jawa Timur","SMA","-6.8814000","112.2390000"
"20517736","SMAN 1 TUMPANG","JL. KAMBOJA NO. 10 MALANGSUKO","Prop. Jawa Timur","SMA","-7.9993000","112.7582000"
"20520022","SMAN 1 KRAKSAAN","JL. IMAM BONJOL 13 KRAKSAAN","Prop. Jawa Timur","SMA","-7.7638000","113.4240000"
"20523830","SMAN UMBULSARI","JL. PB. SUDIRMAN 129","Prop. Jawa Timur","SMA","-8.2554000","113.4263000"
"20532406","SMAS HANG TUAH 1 SURABAYA","JL. IKAN LUMBA-LUMBA NO. 27","Prop. Jawa Timur","SMA","-7.2310000","112.7225000"
"20523800","SMAS NURIS JEMBER","JL. PANGANDARAN 48","Prop. Jawa Timur","SMA","-8.1389000","113.7377000"
"20504495","SMAS AHMAD YANI 2 BAURENO","JL. RAYA 29 A BAURENO","Prop. Jawa Timur","SMA","-7.1326000","112.0936000"
"69753943","SMAS ISLAM TERPADU AL HAROMAIN","DS. BATUKERBUY","Prop. Jawa Timur","SMA","-6.9075000","113.5903000"
"69761904","SMAS INFORMATIKA","DESA KENDABAN","Prop. Jawa Timur","SMA","-7.0712000","112.8715000"
"20571633","SMA PLUS ZAINUDDIN","JL. DEMPO BARAT","Prop. Jawa Timur","SMA","-6.8978000","113.6097000"
"20533622","SMAS KERTANEGARA","JL. CENGGER AYAM 1/5","Prop. Jawa Timur","SMA","-7.9459000","112.6311000"
"20502724","SMAN 1 MOJOSARI","Jl. Pemuda No. 55 Mojosari Kab. Mojokerto","Prop. Jawa Timur","SMA","-7.5090000","112.5604000"
"20521445","SMAN KLAKAH","JL. RAYA KLAKAH","Prop. Jawa Timur","SMA","-7.9816000","113.2503000"
"20531153","SMAS ISLAM ANNAFIIYAH","JL.KH. NAFI`I 11 BATUKAPAH KAMPAK GEGER","Prop. Jawa Timur","SMA","-6.9834667","112.9231700"
"20541247","SMAS PGRI KANOR","JL. RAYA PRIGI","Prop. Jawa Timur","SMA","-7.0992000","112.0301000"
"20551905","SMAS NAHDLATUL ATHFAL","JL. PANCOR LOMAER","Prop. Jawa Timur","SMA","-7.1115000","113.0969000"
"20532157","SMAS NUR HIDAYAH","JL. JERUK NO. 1 LAKARSANTRI","Prop. Jawa Timur","SMA","-7.3061000","112.6483000"
"20551881","SMAS PLUS MIFTAHUL ULUM","JL. PESANTREN TERATE","Prop. Jawa Timur","SMA","-7.0096000","113.8520000"
"20531149","SMAS ULUL ALBAB","JL. K.H. BAIHAQI NUNG GUNUNG","Prop. Jawa Timur","SMA","-7.0904000","113.1103000"
"69812058","SMA NAHDATUL ULAMA","SAKALA SAPEKEN","Prop. Jawa Timur","SMA","-6.9413000","116.2472000"
"20542500","SMA NEGERI 1 TRENGGALEK","JL. SOEKARNO - HATTA NO.13","Prop. Jawa Timur","SMA","-8.0593000","111.7082000"
"20523843","SMAN ARJASA","JL. SULTAN AGUNG 64","Prop. Jawa Timur","SMA","-8.1186000","113.7482000"
"20523847","SMAN 2 JEMBER","JL. JAWA 16","Prop. Jawa Timur","SMA","-8.1695000","113.7139000"
"69880584","SMA ISLAM AN NIDHOMIYAH","Jl. Stadion II/17B Pamekasan","Prop. Jawa Timur","SMA","-7.1592950","113.4885620"
"20532107","SMAS SHAFTA SURABAYA","JL. RAYA LONTAR  177 B SURABAYA","Prop. Jawa Timur","SMA","-7.2840000","112.6662000"
"20540307","SMA A WAHID HASYIM TEBUIRENG","JL.IRIAN JAYA NO.10 TEBUIRENG","Prop. Jawa Timur","SMA","-7.6095000","112.2383000"
"20570413","SMAN 1 TOSARI","Jl. Masjid Besar Al-Mujahiddin No.7","Prop. Jawa Timur","SMA","-7.8898510","112.8992340"
"20549614","SMAS DARUL MUSTOFA","JL. KH. MOH. CHOLIL 1","Prop. Jawa Timur","SMA","-7.0465000","112.7881000"
"20534125","SMAN 1 MADIUN","JL. MASTRIP 19 MADIUN","Prop. Jawa Timur","SMA","-7.6326000","111.5315000"
"20554162","SMAS ISLAM AL FATAH","JL.PAKISAN PECALONGAN RT05/01 SUKOSARI","Prop. Jawa Timur","SMA","-7.9550000","113.9374000"
"69775767","SMAS MIFTAHUL ULUM LANGGAR ANYAR","BANYUPELLE","Prop. Jawa Timur","SMA","-7.0805000","113.4073000"
"69929106","SMA PUTRA AL AZHAR","Jalan Raya Sidogiri Km 1","Prop. Jawa Timur","SMA","-7.6363000","112.8649000"
"20504499","SMAS PGRI SUMBERARUM","JL. SINGOYUDO SUMBERARUM No. 1092 Kec. DANDER","Prop. Jawa Timur","SMA","-7.2635000","111.8697000"
"20577808","SMAS ISLAM AL - HUSEN","PONDOK PESANTREN AL - HUSEN","Prop. Jawa Timur","SMA","-7.0913000","113.5412000"
"20536282","SMAS ISLAM PROBOLINGGO","JL. DIPONEGORO NO. 2","Prop. Jawa Timur","SMA","-7.7490000","113.2106000"
"20515451","SMAS VETERAN REJOTANGAN","JL. REJOTANGAN","Prop. Jawa Timur","SMA","-8.1241000","112.0812000"
"20551898","SMAS TARBIYATUS SHIBYAN","JL. RAYA DUNGKEK","Prop. Jawa Timur","SMA","-6.9990000","114.0373000"
"60728379","SMAS AL-FURQON","JL. CEMPAKA PETTONG","Prop. Jawa Timur","SMA","-7.0556000","112.8770000"
"69888549","SMA ASH-SHAHIHIYAH","Jl. KH. Af`al Pertiga Rosep","Prop. Jawa Timur","SMA","-7.1390000","113.0481000"
"20532381","SMAS ANTARTIKA","JL. BANYU URIP KIDUL II / 37","Prop. Jawa Timur","SMA","-7.2744000","112.7238000"
"69888461","SMAS NURUL JANNAH","Jl. Desa Poreh","Prop. Jawa Timur","SMA","-7.1473430","113.2695540"
"20500655","SMAS DARUL ULUM DRIYOREJO","JL. MOJOSARIREJO DRIYOREJO","Prop. Jawa Timur","SMA","-7.3475000","112.5558000"
"20525868","SMAS TAMAN SISWA GENTENG","JL.DIPONEGORO NO.16","Prop. Jawa Timur","SMA","-8.3663000","114.1465000"
"20527231","SMAN 1 PADEMAWU","JL. RAYA MANDALA","Prop. Jawa Timur","SMA","-7.1896000","113.5232000"
"20541226","SMAS MUHAMMADIYAH 4 SUGIHWARAS","JL RAYA SUGIHWARAS NO 660","Prop. Jawa Timur","SMA","-7.2968000","111.9544000"
"20500458","SMAS MUHAMMADIYAH 7 PANCENG","JL. SENDANGAGUNG NO 28","Prop. Jawa Timur","SMA","-6.9210000","112.4367000"
"69775768","SMA AL HASANI","PALENGAAN LAOK","Prop. Jawa Timur","SMA","-7.0677000","113.4161000"
"20511858","SMAS MARDI TRESNO PARE","JL. PB. SUDIRMAN NO. 27 PARE","Prop. Jawa Timur","SMA","-7.7665000","112.1902000"
"20532104","SMAS PGRI 3","JL. KR. EMPAT BESAR 133","Prop. Jawa Timur","SMA","-7.2518000","112.7739000"
"20535052","SMAN 3 BLITAR","JL. BENGAWAN SOLO","Prop. Jawa Timur","SMA","-8.0921000","112.1477000"
"20549360","SMAS NURUL HUDA PORONG","JL. MASJID. NO.4 PORONG","Prop. Jawa Timur","SMA","-7.5183000","112.6710000"
"20554532","SMAS ISLAM THORIQUL HUDA SOKO","Dusun Losari RT 04 RW 05","Prop. Jawa Timur","SMA","-7.1138000","111.9631000"
"20540299","SMA PGRI KESAMBEN","DESA CARANGREJO  KESAMBEN","Prop. Jawa Timur","SMA","-7.4970000","112.3384000"
"69899790","SMA TAUFIQUR RAHMAN","DESA LONGOS","Prop. Jawa Timur","SMA","-6.9973000","113.9314000"
"20540065","SMAS PERSATUAN TULANGAN","JL. RAYA KEPADANGAN","Prop. Jawa Timur","SMA","-7.4805000","112.6438000"
"20501867","SMAS WACHID HASYIM 1","JL. SIDOARJO NO.241","Prop. Jawa Timur","SMA","-7.4173000","112.5846000"
"20546526","SMAS ISLAM SIROJUL UMMAH","JL. RY. MAYJEN WIDODO","Prop. Jawa Timur","SMA","-7.8439000","113.4753000"
"20531145","SMAN 1 BLEGA","JL. RAYA KEPANG - ROSEP","Prop. Jawa Timur","SMA","-7.1281000","113.0590000"
"20573117","SMAS ISLAM NURUL JADID","JL. DSN ROPO DAYA","Prop. Jawa Timur","SMA","-6.9034000","113.4432000"
"20519283","SMAS PGRI SUKOREJO","GLAGAH SARI - BELAKANG POLSEK SUKOREJO","Prop. Jawa Timur","SMA","-7.7199000","112.7202000"
"20552089","SMAS NURUL ULUM","DESA KARANG MANGGIS","Prop. Jawa Timur","SMA","-7.0709000","113.4428000"
"20534127","SMAS TAMAN BAKTI MADIUN","JL.  JENDRAL  SUDIRMAN NO.8","Prop. Jawa Timur","SMA","-7.6318000","111.5280000"
"20532128","SMAS TRI TUNGGAL 1","JL. RANGKA VI / 55-57","Prop. Jawa Timur","SMA","-7.2467000","112.7657000"
"69786924","SMA NURUL USMANI","Kamp. Congaban Lombang Dajah","Prop. Jawa Timur","SMA","-7.1329000","113.0135000"
"20541217","SMAS ISLAM ALFATTAH KALITIDU","JL. RAYA BOJONEGORO CEPU NO 223","Prop. Jawa Timur","SMA","-7.1354000","111.8070000"
"69759021","SMA MAMBAUL ULUM","TEBUL TIMUR","Prop. Jawa Timur","SMA","-7.0310000","113.5098000"
"20506322","SMA WALI SONGO","Desa Sukobendu","Prop. Jawa Timur","SMA","-7.2133550","112.3155020"
"20566553","SMAS AS SALAM","DS.CEN LECEN","Prop. Jawa Timur","SMA","-7.0446000","113.5990000"
"20549647","SMAS AL RIFAIE GONDANGLEGI","JL. RAYA KETAWANG NO.1 GONDANGLEGI","Prop. Jawa Timur","SMA","-8.1393000","112.6418000"
"20510152","SMAN 1 SAMBIT","JL. PONOROGO - TRENGGALEK","Prop. Jawa Timur","SMA","-7.9820000","111.5352000"
"20532236","SMAN 16 SURABAYA","JL.  PRAPEN","Prop. Jawa Timur","SMA","-7.3101000","112.7596000"
"20523799","SMAS MUHAMMADIYAH 3 JEMBER","JL. MASTRIP","Prop. Jawa Timur","SMA","-8.1574000","113.7137000"
"20510149","SMAN 1 SLAHUNG","JL. RAYA BUNGKAL NO. 24","Prop. Jawa Timur","SMA","-8.0074000","111.4224000"
"20573482","SMAS MANBAIL HUDA JENU","JL. MASJID MIFTAHUL HUDA KALIUNTU JENU","Prop. Jawa Timur","SMA","-6.8274800","112.0067467"
"69787073","SMAS CITRA BERKAT","Jl.RAYA BUKIT PALMA NO. 2 CITRALAND UTARA","Prop. Jawa Timur","SMA","-7.2528000","112.6304000"
"20510156","SMAN 1 JETIS","SUKOWATI","Prop. Jawa Timur","SMA","-7.9466400","111.4872367"
"20532152","SMAS KRISTEN YBPK","JL. LUNTAS NO.33","Prop. Jawa Timur","SMA","-7.2646000","112.7556000"
"20549899","SMAS ISLAM GUMUKMAS","JL. SULTAN AGUNG 16","Prop. Jawa Timur","SMA","-8.3109000","113.4227000"
"69815395","SMA AL - IKHWAN","LESONG DAYA","Prop. Jawa Timur","SMA","-6.9609000","113.4993000"
"20525830","SMAS 17 AGUSTUS 1945 B WANGI","JL.ADI SUCIPTO NO.26","Prop. Jawa Timur","SMA","-8.2295120","114.3633870"
"20503409","SMA NEGERI KESAMBEN","JL.BALAI DESA CARANG REJO NO.3","Prop. Jawa Timur","SMA","-7.4974000","112.3445000"
"20575418","SMA NEGERI 1 SUMBERASIH","JL.RAYA PROBOLINGGO-SURABAYA KM 08","Prop. Jawa Timur","SMA","-7.7408000","113.1347000"
"20532144","SMAS KATOLIK SANTO YUSUP","JL. KEBRAON I BARAT","Prop. Jawa Timur","SMA","-7.3374000","112.6992000"
"20542503","SMA NEGERI 2 TRENGGALEK","JL. SOEKARNO - HATTA","Prop. Jawa Timur","SMA","-8.0711000","111.7161000"
"20549021","SMAS ISLAM MODO","JL.RAYA BABAT JOMBANG NGUWOK MODO","Prop. Jawa Timur","SMA","-7.1410000","112.1635000"
"20532154","SMAS MUHAMMADIYAH 7","JL. SUTOREJO 98-100","Prop. Jawa Timur","SMA","-7.2612000","112.7891000"
"20514353","SMAS PGRI TALUN","JL. DR. SOETOMO NO. 1A TALUN","Prop. Jawa Timur","SMA","-8.0789000","112.3045000"
"20546532","SMAS ZAINUL HASAN 1","JL. GENGGONG","Prop. Jawa Timur","SMA","-7.7885000","113.3755000"
"20521730","SMAN 1 BONDOWOSO","JL. CURAHDAMI 1294","Prop. Jawa Timur","SMA","-7.9143000","113.8085000"
"20502672","SMAS ISLAM DIPONEGORO","Jl. Raya Gondang No. 28","Prop. Jawa Timur","SMA","-7.4402000","112.3894000"
"20532384","SMAS ATTARBIYAH","JL. RAYA HANG TUAH NO. 7","Prop. Jawa Timur","SMA","-7.2055000","112.7454000"
"20514349","SMAN 1 KESAMBEN","JL. BROMO KOTAK POS 14 KESAMBEN","Prop. Jawa Timur","SMA","-8.1439000","112.3656000"
"20509377","SMAS PANCA BHAKTI MAGETAN","JL. MERAPI NO. 19 MAGETAN","Prop. Jawa Timur","SMA","-7.6554000","111.3149000"
"20539030","SMAN 4 TUBAN","JL. MONDOKAN TUBAN","Prop. Jawa Timur","SMA","-6.8769252","112.0240638"
"20519299","SMAN 1 PANDAAN","JL. DR. SUTOMO SUMBERGEDANG PANDAAN","Prop. Jawa Timur","SMA","-7.6548000","112.6828000"
"20500654","SMAS HIDAYATUS SALAM","JL. BANYU BIRU","Prop. Jawa Timur","SMA","-6.9666000","112.4348000"
"69938144","SMA AFIFIYAH","Jl. Masjid Sabilulhuda","Prop. Jawa Timur","SMA","-7.1023000","113.6623000"
"20577514","SMAS PGRI SENDANG","Dsn.Bakalan","Prop. Jawa Timur","SMA","-7.9461000","111.8346000"
"20501860","SMAS KATOLIK UNTUNG SUROPATI KRIAN","JL. KI HAJAR DEWANTARA 35 KRIAN","Prop. Jawa Timur","SMA","-7.4066000","112.5832000"
"20500656","SMAS DARUL ISLAM","JL. DR. SETIA BUDHI  NO.5 GRESIK","Prop. Jawa Timur","SMA","-7.1564000","112.6572000"
"69899828","SMA ISLAM AL MIZAN","Jl. Raya Candi  Lontar No.106 Surabaya","Prop. Jawa Timur","SMA","-7.2698000","112.6710000"
"20540304","SMA NEGERI PLANDAAN","JL.BANGSRI NO.38 PLANDAAN JOMBANG","Prop. Jawa Timur","SMA","-7.4667000","112.1855000"
"20510148","SMAN 1 SOOKO","Jl. Raya Pulung Sooko","Prop. Jawa Timur","SMA","-7.9096000","111.6588000"
"20536816","SMAS PGRI BATU","JL. IMAM BONJOL III / 9 BATU","Prop. Jawa Timur","SMA","-7.8782000","112.5299000"
"20522638","SMAN 2 SITUBONDO","JL. ANGGREK NO. 1","Prop. Jawa Timur","SMA","-7.7021000","113.9954000"
"20546527","SMAS SYECH ABD QODIR ZAELANI","DS. JOGOSARI 10","Prop. Jawa Timur","SMA","-7.7684000","113.4285000"
"69948340","SMAS TAHFIDZ ASSAIDIYAH","Jl. KH. Hasyim Asyari No. 42","Prop. Jawa Timur","SMA","-7.1958000","113.2561000"
"20540060","SMAS KRISTEN PETRA 4","JL. MONGINSIDI NO.100","Prop. Jawa Timur","SMA","-7.4504000","112.7233000"
"20532248","SMAN 5 SURABAYA","JL. KUSUMA BANGSA  21","Prop. Jawa Timur","SMA","-7.2567990","112.7500670"
"20536288","SMAN 1 PROBOLINGGO","JL. SOEKARNO HATTA 137","Prop. Jawa Timur","SMA","-7.7503000","113.2013000"
"20565684","SMAS PGRI MOJOSARI","Jl. K.H. Wahid Hasyim No. 4","Prop. Jawa Timur","SMA","-7.4991000","112.5604000"
"20523809","SMAS 06 MAARIF BANGSALSARI","Jl. Mawar Gg. Al- Kholily","Prop. Jawa Timur","SMA","-8.2124000","113.5022000"
"20539721","SMA MIFTAHUL ULUM","DERO KEDUNGBETIK","Prop. Jawa Timur","SMA","-7.4847000","112.2882000"
"20540073","SMAS WACHID HASYIM 3","JL. H. SYUKUR NO. 4","Prop. Jawa Timur","SMA","-7.3792000","112.7620000"
"20532141","SMAS KHADIJAH","JL. A. YANI NO. 2-4","Prop. Jawa Timur","SMA","-7.3053000","112.7355000"
"20548665","SMAS ISLAM SIMONGAGROK","Jl. Yon Isa Idris No. 46","Prop. Jawa Timur","SMA","-7.3302000","112.3611000"
"20523838","SMAS SATYA DHARMA","JL. PUGER 20","Prop. Jawa Timur","SMA","-8.2781000","113.5341000"
"20532122","SMAS TANWIR SURABAYA","JL. SEKOLAHAN NO.41","Prop. Jawa Timur","SMA","-7.2483000","112.7120000"
"20519286","SMAS MUHAMMADIYAH 2 BANGIL","JL. ALUN - ALUN TIMUR NO. 2 KERSIKAN BANGIL","Prop. Jawa Timur","SMA","-7.5975000","112.7855000"
"20532238","SMAN 14 SURABAYA","JL. PERUM YKP  TENGGILIS MEJOYO","Prop. Jawa Timur","SMA","-7.3153000","112.7655000"
"20540168","SMAS MUHAMMADIYAH 4 SONGGON","JL RAYA SRAGI PERTAPAN","Prop. Jawa Timur","SMA","-8.2325000","114.1692000"
"20554395","SMAN 1 PLUMPANG","Jl. Raya Pakah - Plumpang","Prop. Jawa Timur","SMA","-6.9915000","112.1134000"
"69916703","SMA TERPADU INSAN HANIFA","JL. RAYA GULUK-GULUK BATAAL BARAT","Prop. Jawa Timur","SMA","-7.0449320","113.6962000"
"20549499","SMAS CIPUTRA","JL. PURI WIDYA KENCANA CITRALAND","Prop. Jawa Timur","SMA","-7.2936000","112.6515000"
"20523835","SMAN BALUNG","JL. PB. SUDIRMAN 126","Prop. Jawa Timur","SMA","-8.2865000","113.5311000"
"20519301","SMAN 1 GRATI","JL. RAYA SUMURWARU 32 SUMBER ANYAR NGULING","Prop. Jawa Timur","SMA","-7.7138000","113.0186000"
"20500478","SMAN 1 KEDAMEAN","JL. RAYA SLEMPIT KEDAMEAN","Prop. Jawa Timur","SMA","-7.3245000","112.5131000"
"69938142","SMA ISLAM NURUR RAHMAH","JL. PP. NURUR RAHMAH LEGUNG","Prop. Jawa Timur","SMA","-7.0455540","113.6586860"
"69881318","SMA ISLAM AT - TUGHNIYAH","MONCEK TENGAH","Prop. Jawa Timur","SMA","-7.0664000","113.7401000"
"69948430","SMA  IT AL HIKMAH","Jl. Kh. Agus Salim No 10- 11 Tanggung Garum","Prop. Jawa Timur","SMA","-8.0610025","112.2274377"
"20542502","SMAN 2 KARANGAN","JL PALEM RAJA  1","Prop. Jawa Timur","SMA","-8.0814000","111.6582000"
"20541253","SMAS PGRI SUMBEREJO","JL. RAYA  SUMBERREJO NO.132","Prop. Jawa Timur","SMA","-7.1727000","112.0202000"
"20540172","SMAS PGRI 2 SRONO","JL. RAYA SRONO - ROGOJAMPI NO.48","Prop. Jawa Timur","SMA","-8.3965000","114.2732000"
"20537014","SMAS RADEN FATAH","JL. KESAMBEN WETAN DRIYOREJO","Prop. Jawa Timur","SMA","-7.3513000","112.6175000"
"20532088","SMAS KATOLIK ST CAROLUS","JL. JEMUR ANDAYANI XXI","Prop. Jawa Timur","SMA","-7.3309000","112.7376000"
"20555645","SMAS AL MUKHTAR","DESA BIRA TENGAH","Prop. Jawa Timur","SMA","-6.9153000","113.3907000"
"20577274","SMAS NURUL HIKMAH","BLUMBUNGAN","Prop. Jawa Timur","SMA","-7.1133000","113.5015000"
"20549387","SMAS DARUL ROHMAH LAREN","DS.LAREN","Prop. Jawa Timur","SMA","-6.9771000","112.2952000"
"20537011","SMAN 1 KEBOMAS","JL.DR WAHIDIN SUDIRO HUSODO PERUM ALAM BUKIT RAYA BLOK A6 NO 8","Prop. Jawa Timur","SMA","-7.1631000","112.6042000"
"69725965","SMAS ISLAM MIFTAHUL ULUM OPO OPO","JL. PP. MIFTAHUL ULUM DESA OPO-OPO KREJENGAN  PROBOLINGGO","Prop. Jawa Timur","SMA","-7.8265000","113.4148000"
"20501870","SMAS PUTRA BANGSA","JL. RAYA PENAMBANGAN","Prop. Jawa Timur","SMA","-7.4094000","112.5315000"
"20540071","SMAS UNGGALA","JL. SEKARDANGAN","Prop. Jawa Timur","SMA","-7.4650000","112.7250000"
"20517838","SMAS ISLAM NU PUJON","JL. BRIGJEN ABDUL MANAN WIJAYA 13","Prop. Jawa Timur","SMA","-7.8388000","112.4596000"
"20540170","SMAS NU GOMBENGSARI","JL.SUMBERWARU NO.05","Prop. Jawa Timur","SMA","-8.0159000","114.3362000"
"69921763","SMA MAARIF 2 PAMEKASAN","JL. PP. AL HIKMAH PANAAN PALENGAAN PAMEKASAN","Prop. Jawa Timur","SMA","-7.0329550","113.4197410"
"20541228","SMAN 1 BAURENO","JL. Ahmad Yani No. 554B","Prop. Jawa Timur","SMA","-7.1305000","112.1025000"
"20515432","SMAN 1 KALIDAWIR","JL. RAYA NGUBALAN","Prop. Jawa Timur","SMA","-8.1733000","111.9977000"
"20534382","SMAN 8 KEDIRI","JL. PAHLAWAN KUSUMA BANGSA  77","Prop. Jawa Timur","SMA","-7.8164000","112.0278000"
"20519298","SMAN 1 PURWOSARI","JL. PEGADAIAN IB PURWOSARI","Prop. Jawa Timur","SMA","-7.7676000","112.7433000"
"20500483","SMAS MUHAMMADIYAH 8","JL. RAYA MOROWUDI NO. 1 CERME","Prop. Jawa Timur","SMA","-7.2521000","112.5600000"
"20541220","SMAS ISLAM TEMAYANG","JL. RAYA TEMAYANG KM 27","Prop. Jawa Timur","SMA","-7.3329000","111.9096000"
"20503631","SMA ABI HUROIROH","GLAGAHAN PERAK JOMBANG","Prop. Jawa Timur","SMA","-7.5713000","112.1810000"
"20559022","SMAS YBPK PUJIHARJO TIRTOYUDO","JL.GEREJA 469","Prop. Jawa Timur","SMA","-8.3666000","112.8818000"
"69888669","SMA RIYADUL ULUM","JL. DESA LANAS LUMUTAN","Prop. Jawa Timur","SMA","-7.9258730","113.8238830"
"20579307","SMAS AR-RAUDHAH","JL. RAYA BANCARAN SEBANEH BANGKALAN","Prop. Jawa Timur","SMA","-7.0060000","112.7711000"
"20532230","SMAN 2 SURABAYA","JL. WIJAYAKUSUMA  48","Prop. Jawa Timur","SMA","-7.2566870","112.7494960"
"20554188","SMAS AS SYUJA I RAMBIPUJI","JL.KELAPA 7","Prop. Jawa Timur","SMA","-8.2218540","113.5926940"
"69774784","SMAS ISLAM NURUL JADID","DESA PANGLEGUR","Prop. Jawa Timur","SMA","-7.1860350","113.4712800"
"20519282","SMAS SEJAHTERA PRIGEN","JL. RAYA NO. 25 PRIGEN","Prop. Jawa Timur","SMA","-7.6809000","112.6409000"
"20534122","SMAN 3 MADIUN","RING ROAD BARAT","Prop. Jawa Timur","SMA","-7.6067000","111.5155000"
"20506298","SMAS MUHAMMADIYAH 1 BABAT","JL. RAYA 180","Prop. Jawa Timur","SMA","-7.1010000","112.1676000"
"20552087","SMA HIDAYATUN NAJAH","JL. KH. MOH. NURUDDIN NO. 04","Prop. Jawa Timur","SMA","-7.1549000","113.4464000"
"20573098","SMAS DARUZ ZUBAD","Jl. Dsn. Mangkon Utara","Prop. Jawa Timur","SMA","-6.9591000","112.8539000"
"20517739","SMAN 1 LAWANG","JL. PRAMUKA NO. 152","Prop. Jawa Timur","SMA","-7.8503000","112.6701000"
"20511956","SMAN 1 MOJO","JL.TAMBANGAN NO.16 DS.MELATI KEC.MOJO","Prop. Jawa Timur","SMA","-7.8935000","111.9677000"
"69876156","SMA NAHDATUL ULAMA 1 BONDOWOSO","JL. KH. AGUSSALIM 85 KOMPLEK PERKANTORAN NU","Prop. Jawa Timur","SMA","-7.9106000","113.8266000"
"20511010","SMAN 2 PACITAN","JL. H. KUSNAN NO. 9","Prop. Jawa Timur","SMA","-8.2073150","111.1351867"
"20505037","SMAS MUHAMMADIYAH 2 PALANG","Jl. Gresik Desa Karangagung Kec. Palang","Prop. Jawa Timur","SMA","-6.9002000","112.1619000"
"20517828","SMAS SUNAN KALIJOGO JABUNG","JL. AHMAD YANI  KEMANTREN JABUNG","Prop. Jawa Timur","SMA","-7.9492000","112.7489000"
"20536830","SMAS KATOLIK YOS SUDARSO BATU","JL. PANGLIMA SUDIRMAN NO. 63 BATU","Prop. Jawa Timur","SMA","-7.8695000","112.5185000"
"20551882","SMAS RAUDLATUL ULUM","JL. RAYA KAPEDI NO. 03","Prop. Jawa Timur","SMA","-7.1139000","113.7253000"
"69788550","SMA RAUDLATUL AMIEN","JL. PELABUHAN BATU PAYUNG","Prop. Jawa Timur","SMA","-6.9277000","115.5442000"
"20551894","SMAS SAYYID YUSUF","JL.ASTA SAYYID YUSUF NO. 10","Prop. Jawa Timur","SMA","-7.0660000","113.9421000"
"20532137","SMAS KRISTEN PETRA 5","JL. JEMUR ANDAYANI XVII / 2","Prop. Jawa Timur","SMA","-7.3301000","112.7372000"
"20510134","SMAN 1 BADEGAN","JL. KIAGENG PUNUK 2","Prop. Jawa Timur","SMA","-7.8869000","111.3812000"
"20532403","SMAS GIKI 2","JL. RAYA GUBENG 45 SURABAYA","Prop. Jawa Timur","SMA","-7.2739000","112.7472000"
"20506327","SMAN 1 LAMONGAN","JL. VETERAN 41 LAMONGAN","Prop. Jawa Timur","SMA","-7.1195320","112.4226230"
"20532096","SMAS YP PRATICA","JL. PUCANG ADI NO. 128 - 130","Prop. Jawa Timur","SMA","-7.2833000","112.7596000"
"20525862","SMAN 1 CLURING","JL.HUZAINI  BENCULUK","Prop. Jawa Timur","SMA","-8.4371900","114.2236540"
"20509315","SMAN 1 PLAOSAN","JL. RAYA SARANGAN","Prop. Jawa Timur","SMA","-7.6648000","111.2644000"
"20551891","SMAS MUHAMMADIYAH 3 ARJASA","JL. RAYA ANGON ANGON","Prop. Jawa Timur","SMA","-6.8558000","115.2920000"
"20511962","SMAS PSM PLEMAHAN","JL. BLK","Prop. Jawa Timur","SMA","-7.7145000","112.1279000"
"69881051","SMAS AL - MUHAJIRIN","Dusun Arnih Timur Gunung Rancak","Prop. Jawa Timur","SMA","-6.9983000","113.3133000"
"20564423","SMAS NAHDLATUL ULAMA","JL.MASJID BAITUR RAHIEM","Prop. Jawa Timur","SMA","-6.8893000","113.7376000"
"20504488","SMAN 1 KALITIDU","JL. RAYA NGASEM NO. 458 KALITIDU","Prop. Jawa Timur","SMA","-7.1391000","111.7648000"
"20547807","SMAS ULUL ALBAB CANDIPURO","JL.KH.WAHID HASYIM CANDIPURO","Prop. Jawa Timur","SMA","-8.1935000","113.0750000"
"20534750","SMAN 3","JL. PEMUDA NO. 33","Prop. Jawa Timur","SMA","-7.4625000","112.4385000"
"20531147","SMAN 1 AROSBAYA","JL. RAYA AROSBAYA NO. 1","Prop. Jawa Timur","SMA","-6.9512000","112.8257000"
"20510146","SMAN 3 PONOROGO","JL. LAKS. YOS SUDARSO","Prop. Jawa Timur","SMA","-7.8824967","111.4599400"
"69754599","SMAS ISLAM SUMBERASIH","JL. PESANTREN, NO. 07","Prop. Jawa Timur","SMA","-7.7943000","113.1691000"
"20531146","SMAN 1 BANGKALAN","JL. PEMUDA KAFFA 10","Prop. Jawa Timur","SMA","-7.0298000","112.7588000"
"20532405","SMAS GRACIA","JL. GUBENG POJOK  15","Prop. Jawa Timur","SMA","-7.2648000","112.7517000"
"69957195","SMA NURUL HUDA","JL. H. ZAINAL ARIFIN NO. 15 NYABAKAN TIMUR","Prop. Jawa Timur","SMA",".0000000",".0000000"
"20500464","SMAS MUHAMMADIYAH 9","JL. SABILILLAH NO. 2","Prop. Jawa Timur","SMA","-6.9174000","112.5579000"
"20546516","SMAS AL KANIFIIN","DS. KARANGPRANTI","Prop. Jawa Timur","SMA","-7.7754000","113.3518000"
"20541229","SMAN 1 DANDER","JL. RAYA DANDER KM. 2 DANDER","Prop. Jawa Timur","SMA","-7.2584000","111.8569000"
"20537429","SMA PLUS MIFTAHUL ULUM","Dsn. TORONAN BARA LEKE","Prop. Jawa Timur","SMA","-7.1207000","113.4935000"
"69944913","SMA LUKMANUL HAKIM","DESA SADULANG","Prop. Jawa Timur","SMA","-7.1815610","115.7865800"
"20552007","SMAN 1 PACET","JL. RAYA PANDAN","Prop. Jawa Timur","SMA","-7.6115000","112.5290000"
"69772636","SMAN 1 BALONGPANGGANG","Jl. Raya Tanah Landean, Balongpanggang","Prop. Jawa Timur","SMA","-7.2986600","112.4290910"
"69774571","SMAS IT DARUT TAQWA","JL. SIDO MUKTI RT 01 RW 05 DUKUH DESAN","Prop. Jawa Timur","SMA","-7.8185000","111.5221000"
"20511011","SMAN 1 PACITAN","JL. LETJEND. SUPRAPTO NO. 49","Prop. Jawa Timur","SMA","-8.2052383","111.0928683"
"20500453","SMAS PGRI 1","JL. PANGLIMA SUDIRMAN 145 B","Prop. Jawa Timur","SMA","-7.0330000","112.5656000"
"20515470","SMAS PGRI 1 TULUNGAGUNG","JL.MAYJEN SOEPRAPTO 294 A","Prop. Jawa Timur","SMA","-8.0648533","111.9132117"
"60726177","SMAS ASY-SYAAFIIYAH","Jl. Diniyah No. 295","Prop. Jawa Timur","SMA","-7.5084000","112.5642000"
"20508478","SMAS KARYA PEMBANGUNAN PARON","JL. RAYA PARON NGAWI NO. 30","Prop. Jawa Timur","SMA","-7.4329000","111.3998000"
"20577740","SMAS ISLAM NU MALO","DS. KEMIRI NO 100 KEMIRI MALO","Prop. Jawa Timur","SMA","-7.2964000","112.0165000"
"69824451","SMA DARUL ULUM","TAMIDUNG BATANG-BATANG","Prop. Jawa Timur","SMA","-6.9295860","113.9672130"
"20532148","SMAS KAWUNG 2 SURABAYA","JL. RAYA SIMOGUNUNG","Prop. Jawa Timur","SMA","-7.2706000","112.7115000"
"20503618","SMA PGRI 1 JOMBANG","JL. PATIMURA V / 73 JOMBANG","Prop. Jawa Timur","SMA","-7.5656000","112.2957000"
"20515430","SMAN 1 KEDUNGWARU","JL. DR. WAHIDIN SUDIRO HUSODO 12","Prop. Jawa Timur","SMA","-8.0553633","111.9104550"
"20517843","SMAS MAHAPUTRA AMPELGADING","JL. BALI NO. 37-38 TIRTOMARTO AMPELGADING","Prop. Jawa Timur","SMA","-8.2385000","112.8789000"
"20517784","SMAS AMPELGADING","JL. RAYA TIRTOMARTO NO. 6","Prop. Jawa Timur","SMA","-8.2350000","112.8780000"
"20546552","SMAS ULUL AL ABAB","JL. BEBEKAN MASJID 1-2 B","Prop. Jawa Timur","SMA","-7.3417000","112.7005000"
"69786332","SMA ISLAM TERPADU AL USWAH","Jl.Medokan Semampir Indah No.127 Surabaya","Prop. Jawa Timur","SMA","-7.2899000","112.7520000"
"69859740","SMA ISLAM SABILILLAH","JL. IKAN KAKAP 1-B","Prop. Jawa Timur","SMA","-7.9416830","112.6107040"
"20568411","SMAS DZANNURAIN","JL.KH.ABDURRAHMAN WAHID","Prop. Jawa Timur","SMA","-6.9148000","113.1395000"
"69812074","SMAS Islam Nurul Latif","Desa Kerang","Prop. Jawa Timur","SMA","-7.9357000","113.9372000"
"20501866","SMAS YAYASAN TAMAN","JL. SATRIA NO. 24","Prop. Jawa Timur","SMA","-7.3465000","112.7041000"
"20551885","SMAS ISLAM DARUNNAJAH","JL. KM. HUSNI NAWAWI","Prop. Jawa Timur","SMA","-7.0142000","113.7144000"
"69830668","SMA ISLAM INSAN CENDEKIA BAITUL IZZAH","JL. WILIS NO. 46 KRAMAT","Prop. Jawa Timur","SMA","-7.6083030","111.9210240"
"69895684","SMA TERPADU AL ISHLAH","JL. MASJID AL MUHARROR NO. 24 PRAMBONTERGAYANG SOKO","Prop. Jawa Timur","SMA","-7.1154850","111.9476000"
"20541218","SMAS ISLAM KLEPEK","JL. RAYA KLEPEK","Prop. Jawa Timur","SMA","-7.2613000","111.9280000"
"20555831","SMAS FULL DAY SUNAN AMPEL BANGOREJO","JL. SAMBIREJO TAMANSURUH BANGOREJO","Prop. Jawa Timur","SMA","-8.4795630","114.1766120"
"20566374","SMAS DHARMA WIRAWAN XII","JL.RAYA SIDODADI","Prop. Jawa Timur","SMA","-8.3840000","112.6555000"
"20535050","SMAN 1 BLITAR","JL. A. YANI  112","Prop. Jawa Timur","SMA","-8.1009000","112.1810000"
"20507719","SMAS MUHAMMADIYAH 2 GEGER","JL. LAPANGAN UTERAN","Prop. Jawa Timur","SMA","-7.7228000","111.5391000"
"69775756","SMAS NURUL HIDAYAH 2 ","Jl. Tapaan","Prop. Jawa Timur","SMA","-6.9623000","113.1781000"
"60725368","SMAS AL HIDAYAH","JL. SERABI TIMUR MODUNG","Prop. Jawa Timur","SMA","-7.1843000","113.0284000"
"20529972","SMAN 1 KALIANGET","JL. BY PASS KERTASADA","Prop. Jawa Timur","SMA","-7.0351000","113.9053000"
"69943801","SMA ISLAM PLUS NURUL KAROMAH","DESA BUDDAGAN","Prop. Jawa Timur","SMA","-7.1572220","113.4933930"
"20542498","SMAN 1 MUNJUNGAN","JL. TERUSAN SOLODIPO","Prop. Jawa Timur","SMA","-8.3015000","111.5695000"
"20552072","SMAS MANCENGAN DARUSSALAM","JL. MASJID ROUDLOTUL JANNAH","Prop. Jawa Timur","SMA","-7.1933000","112.9566000"
"20510135","SMAN 1 BABADAN","JL. PERIKANAN","Prop. Jawa Timur","SMA","-7.8164000","111.4970000"
"20548723","SMAS MUHAMMADIYAH 10 SUGIO","Jl. Raya  Sugio - Kedungpring KM.1 DESA KARANGSAMBIGALIH KECAMATAN SUGIO","Prop. Jawa Timur","SMA","-7.1619000","112.2784000"
"20501705","SMAN 1 TAMAN","JL. Sawunggaling 2","Prop. Jawa Timur","SMA","-7.3636000","112.6798000"
"20534391","SMAS SULTAN AGUNG","JL. RAUNG V / 9","Prop. Jawa Timur","SMA","-7.8280000","111.9967000"
"20546521","SMAS MUHAMMAD SHODIQ","JL. AL HABIB HUSEIN","Prop. Jawa Timur","SMA","-7.8288000","113.3709000"
"20517733","SMAN 1 SINGOSARI","JL. KI HAJAR DEWANTORO 1","Prop. Jawa Timur","SMA","-7.9227000","112.6570000"
"20539254","SMAS HIDAYATUL UMMAH","JL. MULYOREJO NO.92","Prop. Jawa Timur","SMA","-7.2645000","112.7810000"
"20575437","SMAS KRISTEN DIAN SAKTI","DS. PAGERWOJO KESAMBEN","Prop. Jawa Timur","SMA","-8.1329000","112.3782000"
"20535044","SMAS KATOLIK DIPONEGORO","JL. DIPONEGORO NO. 32","Prop. Jawa Timur","SMA","-8.0970000","112.1756000"
"20575417","SMAS SA ADAH NIZHAMUL ISLAM","DS. PEGALANGAN KIDUL","Prop. Jawa Timur","SMA","-7.8542000","113.3474000"
"69946584","SMAS MODERN AL RIFA IE GONDANGLEGI","JL. RAYA KETAWANG NO. 02 RT.05 RW.01","Prop. Jawa Timur","SMA","-8.1374000","112.6416000"
"20519289","SMAS MA ARIF SUKOREJO","JL. Sumbergareng Sukorejo","Prop. Jawa Timur","SMA","-7.6941000","112.7082000"
"20515468","SMAS PGRI 5 TULUNGAGUNG","JL.KH.ABDUL FATAH 86","Prop. Jawa Timur","SMA","-8.0543017","111.8943550"
"20551645","SMAN 1 PAITON","JL. PAKUNIRAN PAITON","Prop. Jawa Timur","SMA","-7.7213000","113.5089000"
"20506337","SMAS PERSATUAN KEDUNGPRING","JL. BASUKI RAHMAT NO.17-19","Prop. Jawa Timur","SMA","-7.1832000","112.1972000"
"20533661","SMAN 10","JL. DANAU GRATI  NO. 1","Prop. Jawa Timur","SMA","-7.9742000","112.6602000"
"60726733","SMA NURUL JADID","JL. PP NURUL JADID","Prop. Jawa Timur","SMA","-6.9942000","113.4593000"
"20502675","SMAS PGRI GEDEG","JL. RAYA GEDEG 77","Prop. Jawa Timur","SMA","-7.4560000","112.3983000"
"20532170","SMAS MARYAM","JL. MANYAR SAMBONGAN 119","Prop. Jawa Timur","SMA","-7.2813000","112.7615000"
"20533615","SMAS SHALAHUDIN","JL.JAKSA AGUNG SUPRAPTO 10","Prop. Jawa Timur","SMA","-7.9700000","112.6323000"
"20532142","SMAS KERTAJAYA","JL. JUWINGAN NO. 1 B","Prop. Jawa Timur","SMA","-7.2789000","112.7504000"
"20579417","SMA AL - MIFTAH 2","JL. MASARAN REK KERREK","Prop. Jawa Timur","SMA","-7.0800000","113.4351000"
"20522655","SMAN 1 ASEMBAGUS","JL. AWAR - AWAR NO. 999","Prop. Jawa Timur","SMA","-7.7657000","114.2246000"
"20519279","SMAS TRI DHARMA PURWODADI","JL. RAYA PAREREJO PURWODADI","Prop. Jawa Timur","SMA","-7.8047000","112.7179000"
"20532378","SMAS AL AZHAR SURABAYA","JL. PASAREAN BEJI  1","Prop. Jawa Timur","SMA","-7.2421000","112.6119000"
"69921085","SMA AL ROSYID","JL. 1/3 BATU AMPAR KLAMPOK","Prop. Jawa Timur","SMA","-7.1209530","113.4073080"
"20520822","SMAS KRISTEN MGR S LUMAJANG","JL. DIPONEGORO NO. 63 LUMAJANG","Prop. Jawa Timur","SMA","-8.1335000","113.2287000"
"20546978","SMAN 1 KEREK","Jl. Raya Kerek-Montong","Prop. Jawa Timur","SMA","-6.9098000","111.8837000"
"20552085","SMA AL ISLAMIYAH","JL.RAYA TEJA BARAT","Prop. Jawa Timur","SMA","-7.1634380","113.4526170"
"20519287","SMAS WALISONGO GEMPOL","JL. CEMPAKA PUTIH 8 GEMPOL","Prop. Jawa Timur","SMA","-7.5484000","112.7005000"
"69855651","SMAS NURUL ANWAR","Desa Lar-Lar","Prop. Jawa Timur","SMA","-6.9686510","113.2311140"
"20508480","SMAN 1 NGAWI","JL A. YANI NO. 45 NGAWI","Prop. Jawa Timur","SMA","-7.4196000","111.4419000"
"20523817","SMAS ISLAM JEMBER","JL. KYAI MOJO No. 39","Prop. Jawa Timur","SMA","-8.1839000","113.6816000"
"20523836","SMAN 3 JEMBER","JL. JEND BASUKI RAHMAT 26","Prop. Jawa Timur","SMA","-8.2019000","113.6967000"
"20500663","SMAS ALKARIMI","JL.GARUDA NO. 44 TEBUWUNG DUKUN","Prop. Jawa Timur","SMA","-6.9725000","112.4482000"
"20541249","SMAS PGRI NGAMBON","JL. RAYA 113 NGAMBON","Prop. Jawa Timur","SMA","-7.2873000","111.7653000"
"69958426","SMA MAMBAUL ULUM","JL. AL MASYHUR DUSUN GARUK","Prop. Jawa Timur","SMA",".0000000",".0000000"
"69757344","SMAS HAYATUL ISLAM","DS. KARANGREN","Prop. Jawa Timur","SMA","-7.8304000","113.4273000"
"20501706","SMAN 1 SIDOARJO","JL. JENGGOLO NO. 1 Sidoarjo","Prop. Jawa Timur","SMA","-7.4351000","112.7216000"
"69761936","SMAS NOUN","JL. RAYA MASJID AL AMIN","Prop. Jawa Timur","SMA","-7.0301000","113.4293000"
"69815478","SMAS AL - HIDAYAH","Dsn. Mandala Ds. Tobai Barat","Prop. Jawa Timur","SMA","-6.9738000","113.3477000"
"20549199","SMAN 1 SRESEH","JL. RAYA NOREH","Prop. Jawa Timur","SMA","-7.2274810","113.1033410"
"20536829","SMAS MUHAMMADIYAH 3 BATU","JL. CEMARA KIPAS NO. 122","Prop. Jawa Timur","SMA","-7.8515000","112.5256000"
"20525836","SMAS MUHAMMADIYAH 2 GENTENG","JL. JEMBER KM. 2 SETAIL","Prop. Jawa Timur","SMA","-8.3616000","114.1335000"
"20515452","SMAS PGRI KALANGBRET","JL.PAPANDAYAN NO.12","Prop. Jawa Timur","SMA","-8.0583000","111.8657000"
"20532260","SMAN 6 SURABAYA","JL. GUBERNUR SURYO 11","Prop. Jawa Timur","SMA","-7.2634130","112.7444230"
"20541215","SMAS DARUL ULUM 6 BAURENO","JL. KANOR NO. 626 KM 1 BAURENO","Prop. Jawa Timur","SMA","-7.1220000","112.0883000"
"69861154","SMA ISLAM DARUN NAJAH","DESA BADUNG PROPPO","Prop. Jawa Timur","SMA","-7.1289000","113.3708000"
"20532162","SMAS MUHAMMADIYAH 3 SURABAYA","JL. GADUNG III / 7","Prop. Jawa Timur","SMA","-7.3068000","112.7391000"
"20534754","SMAS THOMAS AQUINO","JL. NIAGA NO. 15","Prop. Jawa Timur","SMA","-7.4667000","112.4344000"
"20533617","SMAS TAMAN HARAPAN","JL. MAJAPAHIT NO. 1","Prop. Jawa Timur","SMA","-7.9787000","112.6327000"
"20540165","SMAS AL HIKMAH MUNCAR","JL.ABDUL MANAN KM.02","Prop. Jawa Timur","SMA","-8.4873000","114.3319000"
"20532388","SMAS INTENSIF TARUNA PEMBANGUNAN","JL. DUKUH MENANGGAL XII / 4","Prop. Jawa Timur","SMA","-7.3445000","112.7216000"
"20571319","SMAS TAHFID DARUL ULUM","JL. PONPES BANYUANYAR","Prop. Jawa Timur","SMA","-7.0865000","113.4676000"
"20554194","SMAS ASSULTHONIYAH","JL. KH SULTHON 01","Prop. Jawa Timur","SMA","-7.7713000","113.1765000"
"20506300","SMAS MUHAMMADIYAH 2 ","JL. H. M. JA`FAR ADENAN NO. 05 DUSUN KEBONSARI DESA BLIMBING","Prop. Jawa Timur","SMA","-6.8756000","112.3400000"
"20506328","SMAN 1 MANTUP","JL. BALONGPANGGANG-MANTUP DESA TUGU KECAMATAN MANTUP","Prop. Jawa Timur","SMA","-7.2701000","112.3695000"
"20532129","SMA NATION STAR ACADEMY","JL. DHARMAHUSADA INDAH BARAT VI / I","Prop. Jawa Timur","SMA","-7.2768000","112.7716000"
"69893228","SMA ISLAM RAUDLATUL MUSTARSYIDIN","JL. LUNGGUSARI NO. 12","Prop. Jawa Timur","SMA","-8.0146320","114.0518000"
"69760884","SMAS AL ANWARI","PP. Al-Anwari Antatar Tanah Merah Laok","Prop. Jawa Timur","SMA","-7.1054000","112.8710000"
"20501700","SMAN 4 SIDOARJO","JL. RAYA SUKO","Prop. Jawa Timur","SMA","-7.4468000","112.6852000"
"20507728","SMAN 2 MEJAYAN","JL. P. SUDIRMAN NO. 58","Prop. Jawa Timur","SMA","-7.5486000","111.6680000"
"20546977","SMAN 1 BANCAR","JL. RAYA BANCAR NO. 113 BANCAR","Prop. Jawa Timur","SMA","-6.7885000","111.7842000"
"20532168","SMAS MAHARDHIKA SURABAYA","JL. BARATA JAYA XII / 1","Prop. Jawa Timur","SMA","-7.3027000","112.7604000"
"20513137","SMAS MUHAMMADIYAH 2 KERTOSONO","JL. MURIA 8 A KERTOSONO","Prop. Jawa Timur","SMA","-7.5933000","112.1081000"
"20540174","SMAS PGRI SILIRAGUNG","JL.SLAMET RIYADI","Prop. Jawa Timur","SMA","-8.5526000","114.1117000"
"20549475","SMAN 1 BESUK","JL. RAYA BAGO TROMOL POS 04","Prop. Jawa Timur","SMA","-7.8279000","113.4952000"
"69833713","SMA ISLAM NURUL KHALIL","JL. PAKISAN","Prop. Jawa Timur","SMA","-7.9243960","113.8446250"
"20505054","SMAS MIGAS SENORI","Jl. Raya Pertamina Desa Banyuurip Kec. Senori","Prop. Jawa Timur","SMA","-7.0650000","111.6969000"
"69820644","SMAS AZ - ZAIN","Jl. Desa Jelgung","Prop. Jawa Timur","SMA","-6.9999000","113.2795000"
"20521710","SMAN 3 BONDOWOSO","JL. SUPRIADI NO. 50","Prop. Jawa Timur","SMA","-7.9180000","113.8343000"
"20525854","SMAN 1 GENTENG","Jln. KH. Wahid Hasyim","Prop. Jawa Timur","SMA","-8.3531880","114.1459430"
"20538330","SMAN 1 BERBEK","DS.SENDANGBUMEN","Prop. Jawa Timur","SMA","-7.6441000","111.8699000"
"20540293","SMA DARUL ULUM 3 PETERONGAN","Jl. Rejoso Peterongan Jombang","Prop. Jawa Timur","SMA","-7.5455000","112.2788000"
"69919595","SMA XIN ZHONG","Jl.Kalisari Selatan No.5 Pakuwon City","Prop. Jawa Timur","SMA","-7.2722000","112.8102000"
"20510139","SMAS MUHAMMADIYAH 1 PONOROGO","JL. BATORO KATONG 6B","Prop. Jawa Timur","SMA","-7.8624350","111.4762083"
"20532375","SMAS BINA TARUNA","JL. GADUNG 17-19","Prop. Jawa Timur","SMA","-7.3075000","112.7387000"
"20528645","SMAS FADHILATUL QUR AN","Dusun Tengghinah","Prop. Jawa Timur","SMA","-6.9012000","113.2841000"
"20506255","SMAN 1 SUKODADI","Jl. Pandu No. 32 Sukodadi","Prop. Jawa Timur","SMA","-7.1019000","112.3224000"
"20511862","SMAS GAJAH MADA PUNCU","JL.RAYA BIRO","Prop. Jawa Timur","SMA","-7.8090000","112.2485000"
"20506257","SMAS NAHDLATUL ULAMA  ","Jalan Brawijaya no. 27  DESA SUKOMALO KECAMATAN KEDUNGPRING","Prop. Jawa Timur","SMA","-7.1441000","112.2079000"
"20532233","SMAN 22 SURABAYA","JL. BALAS KLUMPRIK WIYUNG","Prop. Jawa Timur","SMA","-7.3060000","112.7614000"
"20532377","SMAS BARUNAWATI","JL. PERAK BARAT  173","Prop. Jawa Timur","SMA","-7.2202000","112.7323000"
"20574736","SMAS AL MASHURIYAH","JL. DS TOBAI BARAT","Prop. Jawa Timur","SMA","-6.9727000","113.3355000"
"20509320","SMAN 1 KARAS","JL. RAYA KENDAL","Prop. Jawa Timur","SMA","-7.5772000","111.4064000"
"20528661","SMAN 1 TORJUN","JL. RAYA TORJUN","Prop. Jawa Timur","SMA","-7.1571000","113.2007000"
"20521749","SMAS ISLAM PUJER","JL. RAYA PUJER NO 15 KEJAYAN","Prop. Jawa Timur","SMA","-7.9688000","113.8795000"
"20534389","SMAN 1 KEDIRI","JL. VETERAN 1","Prop. Jawa Timur","SMA","-7.8116000","112.0030000"
"69907299","SMAS eLKISI","Dusun Kemuning","Prop. Jawa Timur","SMA","-7.5176130","112.5675260"
"69900100","SMA MUHAMMADIYAH 10","SMA MUHAMMADIYAH 10","Prop. Jawa Timur","SMA","-7.2579000","112.7407000"
"20532131","SMAS KATOLIK FRATERAN","JL. KEPANJEN NO. 8","Prop. Jawa Timur","SMA","-7.2415000","112.7363000"
"60730064","SMAS WAHID HASYIM","Jl. Masjid Minhajul Abidin","Prop. Jawa Timur","SMA","-7.6173000","112.4358000"
"20539314","SMAS KARYA PEMBANGUNAN NGAWI","JL. A. YANI 546","Prop. Jawa Timur","SMA","-7.4241000","111.4385000"
"20506313","SMAS HASYIM ASY`ARI 1 PUCUK","Jln. Raya Pucuk Babat NO. 1 Lamongan","Prop. Jawa Timur","SMA","-7.1046000","112.2714000"
"20506294","SMAS MAARIF NU SOLOKURO","DS.BANYUBANG","Prop. Jawa Timur","SMA","-6.9423000","112.4135000"
"20540064","SMAS MUHAMMADIYAH 2","JL. MOJOPAHIT NO. 666 B","Prop. Jawa Timur","SMA","-7.4659000","112.7169000"
"20506330","SMAS RAUDLATUL MUTA`ALIMIN","JL. Raya Gembong DUSUN Tegalrejo DESA Datinawong","Prop. Jawa Timur","SMA","-7.1027000","112.2200000"
"69753172","SMAS ISLAM AL-ALY","JL.MASJID NO 19","Prop. Jawa Timur","SMA","-7.1282000","111.7858000"
"69938150","SMA ISLAM AR-RAUDHAH","JL. LINGKAR BARAT NO. 08","Prop. Jawa Timur","SMA","-7.0149810","113.8141390"
"20532150","SMAS KEMALA BHAYANGKARI 2","JL. GRESIK NO. 39","Prop. Jawa Timur","SMA","-7.2347000","112.7159000"
"20532366","SMAS AL IRSYAD","JL. SULTAN ISKANDAR MUDA NO.46","Prop. Jawa Timur","SMA","-7.2127000","112.7369000"
"20506306","SMAS AL AMIN PACIRAN","JL. RAYA DEANDLES NO. 113  DESA TUNGGUL","Prop. Jawa Timur","SMA","-6.8748000","112.3740000"
"20549261","SMAS ISLAM WALI SONGO","RAYA KARANG PENANG OLOH","Prop. Jawa Timur","SMA","-6.9783000","113.3701000"
"20566159","SMAS DARUTTAWWABIN","JL. RAYA MANGANTI KARANGTURI","Prop. Jawa Timur","SMA","-7.2499000","112.5948000"
"20525599","SMAN 1 WONGSOREJO","JLN. RAYA SITUBONDO","Prop. Jawa Timur","SMA","-8.0354000","114.4167000"
"20542504","SMAS PGRI MUNJUNGAN","JL. MUNJUNGAN WATULIMO","Prop. Jawa Timur","SMA","-8.3033000","111.5798000"
"20525864","SMAS PGRI PURWOHARJO","JL.JAJAG NO.7","Prop. Jawa Timur","SMA","-8.4703000","114.2240000"
"20560633","SMAS SOERJO ALAM NGAJUM","JL. SEMBON DURENAN","Prop. Jawa Timur","SMA","-8.0621000","112.5208000"
"20505036","SMAS MUHAMMADIYAH 3 BANCAR","JL. DESA TERGAMBANG BANJARJO BANCAR","Prop. Jawa Timur","SMA","-6.8011000","111.7244000"
"69931908","SMA SABILUTH THOYYIB","Jl. Cemara X No. 2 Bugul Lor","Prop. Jawa Timur","SMA","-7.6448000","112.9170000"
"20534748","SMAN 1","JL. IRIAN JAYA NO. 1","Prop. Jawa Timur","SMA","-7.4842320","112.4350790"
"20532158","SMA PAMARDI PUTRA","JL. DUKUH PAKIS NO. 40","Prop. Jawa Timur","SMA","-7.2925000","112.7118000"
"20539029","SMAN 1 SOKO","JL RAYA DESA MENTORO SOKO","Prop. Jawa Timur","SMA","-7.1158000","111.9323000"
"20533652","SMAN 6","JL. MAYJEND SUNGKONO 58","Prop. Jawa Timur","SMA","-8.0104000","112.6435000"
"20515427","SMAN 1 REJOTANGAN","JL. RAYA BUNTARAN","Prop. Jawa Timur","SMA","-8.1082000","112.0396000"
"20525835","SMAS MUHAMMADIYAH 1 BANYUWANGI","JL. JAKSA AGUNG SUPRAPTO NO.60","Prop. Jawa Timur","SMA","-8.2163430","114.3636670"
"20503412","SMA NEGERI BANDARKEDUNGMULYO","Jl. Raya Bandarkedungmulyo Jombang","Prop. Jawa Timur","SMA","-7.5892000","112.1314000"
"69773548","SMAN 1 LUMBANG","DESA PANDITAN KEC.LUMBANG KAB.PASURUAN","Prop. Jawa Timur","SMA","-7.8608000","112.9807000"
"20520021","SMAN 1 LECES","JL. RAYA LECES - PROBOLINGGO","Prop. Jawa Timur","SMA","-7.8721000","113.2487000"
"20517790","SMAS DARUL QUR-AN","JL PESANTREN NO. 190 WATUGEDE SINGOSARI","Prop. Jawa Timur","SMA","-7.9007000","112.6679000"
"20508472","SMAN 1 JOGOROGO","JL. RAYA JOGOROGO","Prop. Jawa Timur","SMA","-7.5153000","111.2631000"
"20519291","SMAS YAYASAN PANDAAN","JL. PAHLAWAN SUNARYO PANDAAN","Prop. Jawa Timur","SMA","-7.6515000","112.7015000"
"20547254","SMAS PGRI GONDANG","JL. Pugeran-Jethak","Prop. Jawa Timur","SMA","-7.6134000","112.4834000"
"20507732","SMAN 1 NGLAMES","JL RAYA NGLAMES","Prop. Jawa Timur","SMA","-7.5763000","111.5441000"
"20540057","SMAS ISLAM PERLAUNGAN","JL. BERBEK I NO. 2","Prop. Jawa Timur","SMA","-7.3487000","112.7601000"
"20532089","SMAS KATOLIK SANTO HENDRIKUS","JL. ARIEF RAHMAN HAKIM 40-44","Prop. Jawa Timur","SMA","-7.2899000","112.7779000"
"20551902","SMAS MAMBAUL ULUM","JL. RAYA PERUMNAS TUNJUNG","Prop. Jawa Timur","SMA","-7.0144000","112.8015000"
"20519331","SMAS 45 PURWODADI","JL. BUK KEMANTEN SEMAMBUNG CAPANG PURWODADI","Prop. Jawa Timur","SMA","-7.8506000","112.7812000"
"20503410","SMA NEGERI KABUH","JL RAYA TANJUNGWADUNG 40  KABUH","Prop. Jawa Timur","SMA","-7.3988000","112.2087000"
"69786255","SMAS DARUS SUADA AL AHAD","Jl. Bunten Timur","Prop. Jawa Timur","SMA","-6.9379000","113.3026000"
"20536281","SMAS SETIA PROBOLINGGO","JL.SLAMET RIYADI","Prop. Jawa Timur","SMA","-7.7668000","113.2085000"
"69812077","SMA ISTIQLAL","Jl. SDN Sumber Centeng No.35","Prop. Jawa Timur","SMA","-7.7822000","113.5108000"
"20532380","SMAS ANAJIYAH","JL. SIDOSERMO IV / 7","Prop. Jawa Timur","SMA","-7.3295000","112.7364000"
"20527240","SMAS MUHAMMADIYAH","JL. P. TRUNOJOYO VI/68","Prop. Jawa Timur","SMA","-7.1712650","113.4825000"
"20519284","SMAS MUHAMMADIYAH 4 GEMPOL","JL. RAYA 146A GEMPOL","Prop. Jawa Timur","SMA","-7.5513000","112.6996000"
"20527235","SMAN 1 WARU","JL. RAYA WARU","Prop. Jawa Timur","SMA","-6.9367000","113.5601000"
"20522640","SMAN 1 SITUBONDO","JL. PB. SUDIRMAN NO. 5A","Prop. Jawa Timur","SMA","-7.7084200","113.9940330"
"20541221","SMAS K IGN SLAMET RIYADI","JL. UNTUNG SUROPATI NO. 61","Prop. Jawa Timur","SMA","-7.1583000","111.8784000"
"20551883","SMA ISLAM NURUL YAQIN","JL. BINDARA SAOD IX / 05","Prop. Jawa Timur","SMA","-7.0446000","113.7546000"
"69888642","SMA PROGRESIF BUMI SHALAWAT","JL. Kiai Dasuki No.1","Prop. Jawa Timur","SMA","-7.4634000","112.7217000"
"20552452","SMAS TRI BAKTI WONOREJO","JL. RADEN WIJAYA NO. 1 SUDAN WONOREJO","Prop. Jawa Timur","SMA","-7.7365000","112.7799000"
"20532145","SMA KATOLIK ST.LOUIS 1","JL. POLISI ISTIMEWA No.7","Prop. Jawa Timur","SMA","-7.2802000","112.7432000"
"20573265","SMA PLUS MIFTAHUL ULUM SUMUR TENGAH","Jl. Sumur Tengah Palengaan Laok","Prop. Jawa Timur","SMA","-7.0636000","113.4047000"
"20517796","SMAS HASANUDDIN WAJAK","JL. COKROAMINOTO NO.42 WAJAK","Prop. Jawa Timur","SMA","-8.1053000","112.7344000"
"20532135","SMAS KRISTEN PETRA 1","JL. Lingkar Dalam Barat Perum Graha Famili Surabaya","Prop. Jawa Timur","SMA","-7.2817000","112.6965000"
"20532140","SMAS KR CITA HATI","JL. KEJAWAN PUTIH BARAT 28-30","Prop. Jawa Timur","SMA","-7.2794000","112.8085000"
"20551904","SMAS AL IHSANI","JL. DS. SENDANG DAJAH","Prop. Jawa Timur","SMA","-7.1159000","112.7805000"
"69799871","SMA ISLAM ASSIROJ","JL. POROS TENGAH NO 1","Prop. Jawa Timur","SMA","-7.1026000","114.3078000"
"20506342","SMAS PGRI MODO","JL. RAYA MODO NO.134 DESA PULE KECAMATAN MODO","Prop. Jawa Timur","SMA","-7.2387000","112.1563000"
"20546534","SMAN 1 SUKAPURA","JL. PASAR SAYUR NO. 47A","Prop. Jawa Timur","SMA","-7.8853000","113.0481000"
"20503416","SMA NEGERI JOGOROTO","JL. RAYA JOGOROTO 75 B","Prop. Jawa Timur","SMA","-7.5924000","112.2708000"
"20584068","SMA PLUS NAHDLATUL WATHAN","DS. PALESANGGAR","Prop. Jawa Timur","SMA","-7.0673000","113.4807000"
"20501874","SMAS MUHAMMADIYAH 3","JL. RAYA KENONGO","Prop. Jawa Timur","SMA","-7.4853000","112.6515000"
"20517844","SMAS TAMAN MADYA DONOMULYO","JL. RAYA NO. 191 DONOMULYO  TELP.(0341)881087","Prop. Jawa Timur","SMA","-8.2952000","112.4258000"
"20520027","SMAS UNGGULAN HAF-SA Z H","JL. RAYA CONDONG","Prop. Jawa Timur","SMA","-7.7872000","113.3759000"
"20535049","SMAS YP KOTAMADYA","JL. TANJUNG  NO. 1","Prop. Jawa Timur","SMA","-8.1026000","112.1559000"
"20532242","SMAN 1 SURABAYA","JL. WIJAYAKUSUMA  48","Prop. Jawa Timur","SMA","-7.2574000","112.7492000"
"20522643","SMAN 1 KAPONGAN","JL. RAYA BANYUWANGI","Prop. Jawa Timur","SMA","-7.6901000","114.0890000"
"20517737","SMAN 1 TUREN","JL. MAYJEN. PANJAITAN NO. 65 TUREN","Prop. Jawa Timur","SMA","-8.1839000","112.6800000"
"20503417","SMA YPM 3 SUMOBITO","JL. KAUMAN 19 SUMIBOTO","Prop. Jawa Timur","SMA","-7.5210000","112.3430000"
"69880782","SMA AN-NUR NH","dusun seccang desa pakong","Prop. Jawa Timur","SMA","-7.1830280","113.0345940"
"20506336","SMAS PANCA MARGA 1 LAMONGAN","JL. SUNAN GIRI 41 KELURAHAN tumenggungan","Prop. Jawa Timur","SMA","-7.1161000","112.4079000"
"20547805","SMAS AL MAISAROH RANDUAGUNG","DESA SALAK","Prop. Jawa Timur","SMA","-8.0266000","113.3124000"
"20510147","SMAN 2 PONOROGO","JL. PACAR 24","Prop. Jawa Timur","SMA","-7.8716967","111.4788767"
"20517826","SMAS PLUS DARUSSALAM","JL. ANJASMORO III C/7","Prop. Jawa Timur","SMA","-7.8219000","112.6900000"
"20506343","SMA NEGERI 1 NGIMBANG","Jl. Raya Kecamatan Ngimbang, Desa Sendangrejo","Prop. Jawa Timur","SMA","-7.2992460","112.2156570"
"20508470","SMAN 1 KEDUNGGALAR","JL. RAYA SOLO KM. 12 TRINIL-NGAWI 63254","Prop. Jawa Timur","SMA","-7.3917000","111.3588000"
"20551896","SMA NURUL JADID","JL. BATU PUTIH NO.24","Prop. Jawa Timur","SMA","-6.9479000","113.9948000"
"20503406","SMA NEGERI PLOSO","JL. RAYA  230 PLOSO","Prop. Jawa Timur","SMA","-7.4427000","112.2246000"
"20517794","SMAS DIPONEGORO TUMPANG","JL. TUNGGUL AMETUNG 18","Prop. Jawa Timur","SMA","-8.0050000","112.7637000"
"20538392","SMAS PGRI PACE","Jl. Sigading","Prop. Jawa Timur","SMA","-7.6839000","111.9256000"
"20514393","SMAS I HASANUDIN KESAMBEN","JL. STASIUN KESAMBEN","Prop. Jawa Timur","SMA","-8.1489000","112.3653000"
"20517831","SMAS ISLAM AL-MAARIF SINGOSARI","JL. MASJID NO. 28","Prop. Jawa Timur","SMA","-7.8920000","112.6650000"
"69848985","SMA BAYT AL-HIKMAH","Jl. Patiunus 25 Krampyangan","Prop. Jawa Timur","SMA","-7.6731000","112.9077000"
"20533637","SMAS WISNUWARDHANA","JL. DANAU SENTANI 99","Prop. Jawa Timur","SMA","-7.9709000","112.6690000"
"20562213","SMAS ISLAM IRTIQOIYAH","DS. SENTONG","Prop. Jawa Timur","SMA","-7.7902000","113.3980000"
"69873972","SMA SURABAYA EUROPEAN SCHOOL","Pakuwon Golf and Family Club, Villa Bukit Regency, Pakuwon Indah Surabaya","Prop. Jawa Timur","SMA","-7.2942000","112.6660000"
"69954464","SMAS IT TAHFIDZ AL IMAN","Dusun Genengan RT. 01 RW. 06","Prop. Jawa Timur","SMA","-7.4941570","112.4361280"
"20583980","SMAS RAUDLATUL FALAH","JLN. SAMPEAN BARU NO. 03","Prop. Jawa Timur","SMA","-7.9182000","114.0267000"
"20510137","SMAS PEMBERDAYAAN BANGSA","DS. BAOSAN KIDUL","Prop. Jawa Timur","SMA","-8.1372000","111.4087000"
"20534386","SMAN 4 KEDIRI","JL. SERSAN SUHARMAJI XI/52","Prop. Jawa Timur","SMA","-7.8540000","112.0070000"
"69904665","SMA NU NURUL FALAH","Jln. Sumberjeding Kepundungan Srono","Prop. Jawa Timur","SMA","-8.3693000","114.2277000"
"20554825","SMAS AL AZIZ","JL.PP.SUMBER GEDANG","Prop. Jawa Timur","SMA","-7.0364000","113.3974000"
"69925738","SMA ISLAM PAGERUNGAN BESAR","DESA PAGERUNGAN BESAR","Prop. Jawa Timur","SMA","-6.9583000","115.9079000"
"20533619","SMAS WASKITA DHARMA","JL. SAWOJAJAR V/28","Prop. Jawa Timur","SMA","-7.9789770","112.6536420"
"69888823","SMA BINA BANGSA SCHOOL","Jl. A. Yani Utara, Perum Riverside Blok AA No 1","Prop. Jawa Timur","SMA","-7.9555500","112.6478360"
"20519323","SMAS DARUT TAQWA PURWOSARI","Jl. PESANTREN NGALAH NO. 16 SENGONAGUNG PURWOSARI, PASURUAN","Prop. Jawa Timur","SMA","-7.7582000","112.7290000"
"69929553","SMA AL HUDA BOARDING SCHOOL","JL. LETDA SUCIPTO TUBAN","Prop. Jawa Timur","SMA","-6.8927673","112.0345412"
"20503418","SMA A WAHID HASYIM 4 GUDO","JL.RAYA 8 GUDO","Prop. Jawa Timur","SMA","-7.6277000","112.1905000"
"20508482","SMAN 1 SINE","JL. RAYA SINE","Prop. Jawa Timur","SMA","-7.5085000","111.1678000"
"69888743","SMA MUTIARA DT","JL. RAYA ASEM JAJAR NO. 01 SEPULU","Prop. Jawa Timur","SMA","-6.9366120","112.9572670"
"20501722","SMAN 1 PORONG","JL. BHAYANGKARI NO.12","Prop. Jawa Timur","SMA","-7.5382000","112.6901000"
"20500459","SMAS MUHAMMADIYAH 6","JL. RAYA KEDUNGPRING NO. 21","Prop. Jawa Timur","SMA","-7.2682000","112.4451000"
"69752156","SMAS ISLAM RAUDLATUL KHAIR","Krandon Timur","Prop. Jawa Timur","SMA","-7.7920000","113.3414000"
"20506326","SMA NEGERI 1 KEMBANGBAHU","Jl. Raya Mantup, Dsn. Pelang, Ds. Pelang, Kec. Kembangbahu","Prop. Jawa Timur","SMA","-7.2305000","112.3767000"
"20566155","SMAS ISLAM ALHIDAYAH","JL. UDANG WINDU NO. 67","Prop. Jawa Timur","SMA","-8.1864000","113.6532000"
"20534392","SMAS PAWYATAN DAHA KEDIRI","BALOWERTI II /37 A","Prop. Jawa Timur","SMA","-7.8093000","112.0133000"
"20506296","SMAS MA`ARIF SARIREJO","JL. RAYA GEMPOLTUKMLOKO NO. 23  DESA GEMPOLTUKMLOKO","Prop. Jawa Timur","SMA","-7.1911000","112.4520000"
"20525861","SMAN 1 ROGOJAMPI","JL. ALI SAKTI NO.2","Prop. Jawa Timur","SMA","-8.3206000","114.2928000"
"20532398","SMAS HANG TUAH 4 SURABAYA","JL. BOGOWONTO NO. 18","Prop. Jawa Timur","SMA","-7.2882000","112.7342000"
"69786587","SMA MAARIF DARUL ULUM","Desa Brengkok","Prop. Jawa Timur","SMA","-6.9055000","112.2228000"
"20566343","SMAS MIMI SURABAYA","JL. BUKIT TELAGA GOLF TO 2/1-2 SURABAYA","Prop. Jawa Timur","SMA","-7.3000000","112.6505000"
"20506311","SMA DR. MUSTA`IN ROMLY","Jl. Ponpes RM NO.102 Payaman Solokuro Lamongan","Prop. Jawa Timur","SMA","-6.9198000","112.3502000"
"20549657","SMAN JENGGAWAH","JL. TEMPUREJO NO. 76","Prop. Jawa Timur","SMA","-8.2759000","113.6537000"
"20554535","SMAN 1 BESUKI","JL. GUNUNG IJEN NO.09 BESUKI","Prop. Jawa Timur","SMA","-7.7357000","113.6902000"
"20506291","SMAN 1 PACIRAN","JL. RY KANDANGSEMANGKON","Prop. Jawa Timur","SMA","-6.8730000","112.3100000"
"69786333","SMA Muhammadiyah 9","Jl. Gogor Kali No. 11-12","Prop. Jawa Timur","SMA","-7.3064000","112.7067000"
"20549787","SMAS SUNAN AMPEL","JL.PONPES DARUSSALAM","Prop. Jawa Timur","SMA","-7.0618000","112.7872000"
"20511959","SMAN 1 KANDANGAN","JL. HAYAM WURUK NO.96 KANDANGAN","Prop. Jawa Timur","SMA","-7.7458000","112.2768000"
"20541254","SMAS TARUNA BHAKTI GONDANG","JL.RAYA GONDANG DS. GONDANG","Prop. Jawa Timur","SMA","-7.3923000","111.8716000"
"69880744","SMA TERPADU DARUT TAUHID","Patemon","Prop. Jawa Timur","SMA","-7.8113470","113.4033850"
"20533631","SMAS ISLAM BAITURROHMAH","JL. CILIWUNG  NO. 61","Prop. Jawa Timur","SMA","-7.9540000","112.6448000"
"20538390","SMAS PGRI GONDANG","JL. BAMBANG YUWONO GANG JEPUN","Prop. Jawa Timur","SMA","-7.5237000","111.9536000"
"20519292","SMAS KRISTEN BAITHANI TOSARI","JL. TLOGOSARI TOSARI","Prop. Jawa Timur","SMA","-7.9009000","112.8287000"
"60726350","SMAS PLUS AL FATIMAH","JL PONDOK BAMBU NO 1 SUKOREJO","Prop. Jawa Timur","SMA","-7.1644000","111.8938000"
"20534753","SMAS MAYJEN SUNGKONO","JL. IRIAN JAYA NO. 4","Prop. Jawa Timur","SMA","-7.4736620","112.4164790"
"20538328","SMAN 1 SUKOMORO","DS. SUMENGKO, SUKOMORO","Prop. Jawa Timur","SMA","-7.6215000","111.9364000"
"20533632","SMAS ISLAM MA ARIF","JL. SEGAWE  9","Prop. Jawa Timur","SMA","-8.0027000","112.6091000"
"20549465","SMAN 1 BULULAWANG","JL. RAYA BULULAWANG","Prop. Jawa Timur","SMA","-8.0719000","112.6422000"
"20520817","SMAS MATARAM TEMPURSARI","JL. MASJID NO. 5 TEMPURSARI","Prop. Jawa Timur","SMA","-8.2922000","112.9724000"
"20546529","SMA TARUNA DRA. ZULAEHA","JL. RAYA LECES NO. A.3 LECES","Prop. Jawa Timur","SMA","-7.8505000","113.2294000"
"20555801","SMAS ISLAM ROUDLOTUL ULUM","Jl. Diponegoro 19 Dinoyo","Prop. Jawa Timur","SMA","-7.6250000","112.4737000"
"69757251","SMA ISLAM AN-NUR","JL. KM CHOLIL ANWAR","Prop. Jawa Timur","SMA","-6.9452000","113.6030000"
"20522642","SMAN 1 PANARUKAN","Jalan Baluran No. 4","Prop. Jawa Timur","SMA","-7.7245000","113.9985000"
"69901430","SMAS DHARMA TANJUNG","Jl. PM. Al - Miftah","Prop. Jawa Timur","SMA","-7.2057740","113.3410170"
"20519288","SMAS MA ARIF PANDAAN","JL. RAYA JOGOSARI NO. 92 PANDAAN","Prop. Jawa Timur","SMA","-7.6558000","112.6936000"
"20542505","SMA NEGERI 1 BENDUNGAN","JL. RAYA TRENGGALEK - BENDUNGAN KM. 12","Prop. Jawa Timur","SMA","-7.9657000","111.6932000"
"20515431","SMAN 1 KAUMAN","JL. SOEKARNO HATTA NO. 67","Prop. Jawa Timur","SMA","-8.0638000","111.8696000"
"20500450","SMAS SUNAN GIRI","JL. RAYA SUNAN GIRI NO 16","Prop. Jawa Timur","SMA","-7.2927000","112.5870000"
"20549257","SMAS DARUL MUHKLISHIN","JL. RAYA GUNUNG MADDAH","Prop. Jawa Timur","SMA","-7.1828000","113.2756000"
"20508471","SMAN 1 KARANGJATI","JL. RAYA CARUBAN NGAWI","Prop. Jawa Timur","SMA","-7.4486000","111.5811000"
"20549022","SMAS KOSGORO SAMBENG","JL. RAYA SAMBENG NO.01","Prop. Jawa Timur","SMA","-7.3004000","112.2707000"
"20519281","SMAS SYARIF HIDAYATULLAH","JL. Krawan Rt.03 Rw.05","Prop. Jawa Timur","SMA","-7.7092000","112.9828000"
"69906188","SMA MIFTAHUL JANNAH","Jl. DESA BAKEYONG","Prop. Jawa Timur","SMA","-7.0453000","113.6228000"
"20522656","SMAS MUHAMMADIYAH I PANJI","JL. BASUKI RAHMAD NO. 221","Prop. Jawa Timur","SMA","-7.6998000","114.0149000"
"20506315","SMAS 1 SIMANJAYA  SEKARAN","JL. PONPES AL FATTAH DESA SIMAN KECAMATAN SEKARAN","Prop. Jawa Timur","SMA","-7.0767000","112.3108000"
"20533654","SMAS K KOLESE ST YUSUP","JL. SIMPANG BOROBUDUR 1 MALANG","Prop. Jawa Timur","SMA","-7.9395000","112.6388000"
"20571688","SMAS AL KHAIRIYAH","JL.Panglima Sudirman Sumberlele Kraksaan","Prop. Jawa Timur","SMA","-7.7510000","113.4303000"
"20504478","SMAN 2 BOJONEGORO","JL. HOS COKROAMINOTO 09","Prop. Jawa Timur","SMA","-7.1685000","111.8689000"
"20514392","SMAS I HASANUDIN WATES","JL. HASANUDIN WATES NO. 20-21","Prop. Jawa Timur","SMA","-8.2584000","112.3784000"
"20574095","SMAS ISLAM WASILATUL HUDA","JL.RAYA NGASEM NO .231 DUKOHKIDUL","Prop. Jawa Timur","SMA","-7.1142000","111.7091000"
"20532149","SMAS KEMALA BHAYANGKARI 1 SURABAYA","JL. AHMAD YANI NO. 30 -32","Prop. Jawa Timur","SMA","-7.3305000","112.7308000"
"20532125","SMAS TAMIRIYAH SURABAYA","JL. INDRAPURA NO. 2","Prop. Jawa Timur","SMA","-7.2432000","112.7355000"
"20541315","SMAS AL FALAH","JL. KETINTANG MADYA NO. 81","Prop. Jawa Timur","SMA","-7.3130000","112.7238000"
"20521747","SMAS ISLAM TLOGOSARI","JL. KH. ALI MAKSUM NO.63/69 - SULEK","Prop. Jawa Timur","SMA","-7.9910000","113.9442000"
"20504476","SMAN 1 SUGIHWARAS","JALAN RAYA 56 SUGIHWARAS","Prop. Jawa Timur","SMA","-7.3184000","111.9455000"
"20500465","SMAS YASMU","JL. KYAI SAHLAN I NO. 24","Prop. Jawa Timur","SMA","-7.1206000","112.6026000"
"20539276","SMAN 1 KWADUNGAN","JL. RAYA NGAWI - KWADUNGAN KM 15","Prop. Jawa Timur","SMA","-7.5010000","111.5040000"
"69927116","SMA I SIRAJUL AKHYAR","ALASMALANG","Prop. Jawa Timur","SMA","-7.1318760","114.5482020"
"20542492","SMAS ISLAM WATULIMO","JL. Pantai Prigi Gg. Masjid Jami","Prop. Jawa Timur","SMA","-8.2400000","111.7034000"
"69843546","SMA 45 GRESIK","Jl. Raya Jatirembe No. 09 Benjeng","Prop. Jawa Timur","SMA","-7.1824000","112.5092000"
"20538394","SMAN 1 KERTOSONO","JL. PANGLIMA SUDIRMAN 10 KERTOSONO","Prop. Jawa Timur","SMA","-7.6012000","112.0959000"
"69853535","SMA ISLAM NURUS SHOBAH","DESA TAMBAK SARI RUBARU","Prop. Jawa Timur","SMA","-6.9575310","113.8090880"
"20519285","SMAS MUHAMMADIYAH 3 PANDAAN","JL. PAHLAWAN SUNARYO 256 PANDAAN","Prop. Jawa Timur","SMA","-7.6481000","112.7057000"
"20552090","SMA AL WAROQOT","JL. RAYA PAKONG","Prop. Jawa Timur","SMA","-7.1060000","113.5037000"
"20534388","SMAN 2 KEDIRI","JL. VETERAN  7","Prop. Jawa Timur","SMA","-7.8119000","111.9994000"
"20500661","SMAS AL AZHAR MENGANTI","JL. RAYA MENGANTI KRAJAN 474","Prop. Jawa Timur","SMA","-7.2935000","112.5852000"
"69830102","SMAS UNGGULAN DARUL HIKMAH NGIMBANG","Desa Purwokerto","Prop. Jawa Timur","SMA","-7.3050950","112.1865250"
"69865942","SMA AL MUHAFIZHOH","JL. SUNGAI HULU TIMUR BLITAR","Prop. Jawa Timur","SMA","-8.0831500","112.1488990"
"20517792","SMAS DHARMA WANITA 1 BULULAWANG","JL. RAYA BAKALAN 120 BULULAWANG","Prop. Jawa Timur","SMA","-8.1135000","112.6640000"
"20506340","SMAS PGRI 1 LAMONGAN","Jl.Veteran 9A Banjar Mendalan Lamongan","Prop. Jawa Timur","SMA","-7.1166000","112.4235000"
"20511860","SMAS KADIRI KRAS","DS.KRAS KEC.KRAS KAB.KEDIRI","Prop. Jawa Timur","SMA","-7.9506000","111.9650000"
"20539241","SMAS TAMAN SISWA SAMBI KEREP","JL. LEMPUNG MULYO 1A","Prop. Jawa Timur","SMA","-7.2641000","112.6735000"
"20537013","SMAS NUSANTARA BUNGAH","JL. MERDEKA NO. 05 MOJOPURO BUNGAH","Prop. Jawa Timur","SMA","-7.0350000","112.5281000"
"20525865","SMAS PGRI RONGGOJAMPI","JL. LURAH MUI ROGOJAMPI","Prop. Jawa Timur","SMA","-8.3206000","114.3150000"
"60725637","SMAS KR CITA HATI WEST CAMPUS","JL. BUKIT GOLF L2 / 1, Citraland","Prop. Jawa Timur","SMA","-7.2795000","112.8083000"
"20577343","SMAS AR-ROHMAH PUTRI BOARDING SCHOOL DAU","JL. RAYA JAMBU 01 SEMANDING","Prop. Jawa Timur","SMA","-7.9264000","112.5746000"
"20584069","SMAS PLUS NURUL FALAH","BATU BINTANG","Prop. Jawa Timur","SMA","-6.9317000","113.4935000"
"69934211","SMA DDI AIR HIDUP KERAMIAN","DESA KERAMIAN","Prop. Jawa Timur","SMA","-5.5691140","114.4092250"
"20520827","SMAS MUHAMMADIYAH 1 LUMAJANG","JL. BRANTAS NO. 07 LUMAJANG","Prop. Jawa Timur","SMA","-8.1316000","113.2314000"
"20522671","SMAS IBRAHIMY SUKOREJO","JL. KHR SYAMSUL ARIFIN","Prop. Jawa Timur","SMA","-7.7520000","114.2749000"
"20534317","SMA KATOLIK ST. AUGUSTINUS","Jl. Veteran No. 3","Prop. Jawa Timur","SMA","-7.8122000","112.0019000"
"69930486","SMA AL-MUQODDASAH","Mahad Al-Muqoddasah","Prop. Jawa Timur","SMA","-7.9265180","111.5001790"
"20546525","SMAS ISLAM RADEN FATAH","JL. KRAMAT RT 07 RW 03","Prop. Jawa Timur","SMA","-7.8414000","113.3211000"
"20525858","SMAN 1 MUNCAR","JL.TAPANREJO","Prop. Jawa Timur","SMA","-8.4451000","114.3124000"
"69734439","SMAS DARUL HIDAYAH","DUSUN GUJING","Prop. Jawa Timur","SMA","-6.9283000","113.2965000"
"20555093","SMAS MISBAHUL ULUM JELBUK","JL. PB SUDIRMAN 16","Prop. Jawa Timur","SMA","-8.0589000","113.7698000"
"69938434","SMA ZAINUSSALIM","DESA GADU BARAT","Prop. Jawa Timur","SMA","-7.0206810","113.7175570"
"69954713","SMA DARUL HIKMAH","Jl. Yos Sudarso","Prop. Jawa Timur","SMA","-7.7575720","113.4251770"
"20535043","SMAS MUHAMMADIYAH","JL. COKROAMINOTO NO. 3","Prop. Jawa Timur","SMA","-8.0980000","112.1701000"
"20509318","SMAN 1 MAGETAN","JL. MONGINSIDI 24 MAGETAN","Prop. Jawa Timur","SMA","-7.6555000","111.3167000"
"20579489","SMAS DARUL FALAH","DUSUN SUMBER BULU","Prop. Jawa Timur","SMA","-7.0026000","113.2372000"
"69904899","SMA ISLAM BAITURRAHMAN","JL. RAYA KETUPAT RAAS","Prop. Jawa Timur","SMA","-7.1376000","114.4957000"
"69754595","SMAS IT KYAI SEKAR AL AMRI","JL. KYAI SEKAR NO.126 DESA SUMBER KEDAWUNG","Prop. Jawa Timur","SMA","-7.9065000","113.3439000"
"20531226","SMAS ISLAM NURUL AMANAH","Jl. Raya Tragah No. 9","Prop. Jawa Timur","SMA","-7.0700000","112.8126000"
"20534120","SMAN 5 MADIUN","JL. MASTRIP 29 MADIUN","Prop. Jawa Timur","SMA","-7.6325000","111.5286000"
"20519330","SMAS ADVENT PURWODADI","JL. RAYA PAREREJO PURWODADI","Prop. Jawa Timur","SMA","-7.8105000","112.7226000"
"20532404","SMAS GIKI 3 SURABAYA","JL. KLAMPIS JAYA II","Prop. Jawa Timur","SMA","-7.2874000","112.7756000"
"20520024","SMA NEGERI 1 DRINGU","JL. YOS SUDARSO NO. 139","Prop. Jawa Timur","SMA","-7.7550000","113.2385000"
"20523815","SMAS BIMA AMBULU","JL. PENDIDIKAN 11","Prop. Jawa Timur","SMA","-8.3436000","113.6116000"
"20531186","SMAN 1 KWANYAR","JL. RAYA DLEMER  2","Prop. Jawa Timur","SMA","-7.1535000","112.8630000"
"20506320","SMAS WACHID HASYIM MADURAN","Jalan Raya No.32 Parengan Kecamatan Maduran Kabupaten Lamongan","Prop. Jawa Timur","SMA","-6.9850000","112.2845000"
"20523801","SMAS PAHLAWAN JEMBER","JL. SLAMET RIYADI NO. 64","Prop. Jawa Timur","SMA","-8.1485000","113.7217000"
"20534106","SMAS COKROAMINOTO MADIUN","JL. JEND. SUDIRMAN15 B","Prop. Jawa Timur","SMA","-7.6319000","111.5273000"
"20517829","SMAS MUHAMMADIYAH 2 SUMBERPUCUNG","JL. JEND. SUDIRMAN 193","Prop. Jawa Timur","SMA","-8.1560000","112.4777000"
"20560083","SMAS BABUL KHAIRAT LAWANG","JL. NGAMARTO I/426 LAWANG","Prop. Jawa Timur","SMA","-7.8617000","112.6808000"
"20520819","SMAN 3 LUMAJANG","JL. JEND. PANJAITAN NO. 79 LUMAJANG","Prop. Jawa Timur","SMA","-8.1353000","113.2163000"
"69947274","SMA BASTREN DARUL FATIHIN","Dsn. Tegalrejo RT 002 RW 003 Ds. Badas, Kec. Badas","Prop. Jawa Timur","SMA","-7.6938000","112.2003000"
"20506321","SMAS WAHID HASYIM MODEL KARANGGENENG","Ds. Sumberwudi Kec. Karanggeneng","Prop. Jawa Timur","SMA","-7.0017000","112.3642000"
"69820645","SMAS ULUL MAQAM","Jl. Desa Gunung Kesan","Prop. Jawa Timur","SMA","-6.9890000","113.3512000"
"20517837","SMAS ISLAM KEPANJEN","JL. DIPONEGORO NO.152 KEPANJEN","Prop. Jawa Timur","SMA","-8.1330000","112.5817000"
"20501846","SMAN 1 KREMBUNG","JL. RAYA KECAMATAN","Prop. Jawa Timur","SMA","-7.5118000","112.6252000"
"69883441","SMA ISLAM","Jl. Raya Karang Anyar","Prop. Jawa Timur","SMA","-7.1394280","113.0157640"
"20540296","SMA KOSGORO 2","KUDU","Prop. Jawa Timur","SMA","-7.4325000","112.3095000"
"20521461","SMAN 1 YOSOWILANGUN","JL. RAYA KEBON SARI YOSOWILANGUN","Prop. Jawa Timur","SMA","-8.2284000","113.2941000"
"69880982","SMA BINA INSAN MANDIRI","DESA BARON TIMUR, NGANJUK","Prop. Jawa Timur","SMA","-7.6030050","112.0479420"
"20536280","SMAS SUNAN GIRI PROBOLINGGO","JL.PROF. DR. HAMKA 54 A","Prop. Jawa Timur","SMA","-7.7841000","113.1810000"
"20519326","SMAS AL AZHAR PRIGEN","JL. SEKARJOHO  PRIGEN","Prop. Jawa Timur","SMA","-7.6654000","112.6466000"
"20520823","SMAS TRISULA TEMPUSARI","JL. TRISULA NO. 1 TEMPUREJO TEMPUSARI","Prop. Jawa Timur","SMA","-8.3006000","112.9535000"
"20533626","SMAS ARDJUNO","JL. RT SOERJO 37","Prop. Jawa Timur","SMA","-7.9707000","112.6461000"
"20517734","SMAN 1 SUMBERMANJING","JL.TAMBAKASRI","Prop. Jawa Timur","SMA","-8.0938000","112.7332000"
"20577746","SMAS MANARUL QUR`AN (BOARDING SCHOOOL)  ","JL. PASAR LAMA I PACIRAN","Prop. Jawa Timur","SMA","-6.8732000","112.3384000"
"20525857","SMAN GLENMORE","JL. RS BHAKTI HUSADA","Prop. Jawa Timur","SMA","-8.2949000","114.0306000"
"69763271","SMAS PLUS DARMA SISWA","JL. KUSUMA 14-22 KEC. WARU","Prop. Jawa Timur","SMA","-7.3486000","112.7608000"
"20515450","SMAN 1 BOYOLANGU","JL. KI MANGUN SARKORO","Prop. Jawa Timur","SMA","-8.0874700","111.9019033"
"20555098","SMAS PLUS NURUL QURAN RAMBIPUJI","JL. NURUL QUR AN 1","Prop. Jawa Timur","SMA","-8.2280000","113.5858000"
"20501861","SMAS MUHAMMADIYAH 1 TAMAN","JL. RAYA KETEGAN NO. 35","Prop. Jawa Timur","SMA","-7.3472000","112.7018000"
"20519303","SMAN 1 BANGIL","JL. BADER NO. 3 KALIREJO BANGIL","Prop. Jawa Timur","SMA","-7.5829000","112.7928000"
"20519321","SMAS ISLAM YAKIN TUTUR","JL. GAJAH MADA 26 WONOSARI TUTUR","Prop. Jawa Timur","SMA","-7.8970000","112.8186000"
"20542506","SMAN 1 KAMPAK","JL. RAYA BENDOAGUNG NO. 92","Prop. Jawa Timur","SMA","-8.1756000","111.6630000"
"20501849","SMAS AL AHMAD","JL. RAYA MOJOSANTREN KRIAN","Prop. Jawa Timur","SMA","-7.4025000","112.5875000"
"69755339","SMAS AL HAMIDY","DUSUN NANGGER","Prop. Jawa Timur","SMA","-6.9775000","113.3145000"
"20511953","SMAN 1 PARE","JL. PAHLAWAN  KUSUMA BANGSA 41 PARE","Prop. Jawa Timur","SMA","-7.7637000","112.1833000"
"20510141","SMAS HUDAYA PONOROGO","JL. Bhayangkara Gang II / 19","Prop. Jawa Timur","SMA","-7.8693583","111.4657367"
"20584015","SMAS UNGGULAN AMANATUL UMMAH ","JL. SIWALANKERTO UTARA II NO. 33 SURABAYA","Prop. Jawa Timur","SMA","-7.3351000","112.7394000"
"20532219","SMAN 19 SURABAYA","JL. KEDUNG COWEK NO. 390","Prop. Jawa Timur","SMA","-7.2222000","112.7779000"
"20532134","SMAS KALAM KUDUS","JL. RAYA KUPANG JAYA NO.135-136","Prop. Jawa Timur","SMA","-7.2742000","112.7004000"
"20525587","SMAN 1 TEGALDLIMO","JL. WIJAYA KUSUMA NO.1","Prop. Jawa Timur","SMA","-8.4959000","114.2814000"
"20515434","SMAN 1 CAMPURDARAT","JL. POPOH INDAH","Prop. Jawa Timur","SMA","-8.2057000","111.8253000"
"69756891","SMAS ISLAM NURUR RIYADLAH","DESA ALAS TENGAH","Prop. Jawa Timur","SMA","-7.7449000","113.4813000"
"20502721","SMAN 1 GEDEG","JL. PENDIDIKAN 55","Prop. Jawa Timur","SMA","-7.4549000","112.3985000"
"20500659","SMAS ASSAADAH BUNGAH","JL. RAYA BUNGAH NO 01","Prop. Jawa Timur","SMA","-7.0529000","112.5741000"
"20515428","SMAN 1 PAKEL","DESA DUWET","Prop. Jawa Timur","SMA","-8.1691000","111.8276000"
"69756322","SMAS ALAM INSAN MULIA","JL.MEDOKAN SEMAMPIR INDAH 99-101 SURABAYA","Prop. Jawa Timur","SMA","-7.3025000","112.7791000"
"20525834","SMAS MIFTAHUL ULUM KABAT","JL.PEMANDIAN  ANTOGAN","Prop. Jawa Timur","SMA","-8.3033000","114.3053000"
"20514348","SMAN 1 PONGGOK","JL. RAYA GEMBONGAN PONGGOK","Prop. Jawa Timur","SMA","-7.9982000","112.1027000"
"20566349","SMAN 4 SAMPANG","JL. KRAMAT II KARANG DALEM SAMPANG 69214","Prop. Jawa Timur","SMA","-7.1873000","113.2401000"
"20500466","SMAS YPI DARUSSALAM","JL. PASAR GG PERWIRA NO. 09 CERME LOR","Prop. Jawa Timur","SMA","-7.2271000","112.5670000"
"20553944","SMA A WAHID HASYIM PERAK","GADINGMANGU PERAK","Prop. Jawa Timur","SMA","-7.5720000","112.1608000"
"20542491","SMAS HASAN MUNAHIR","JL.RAYA KARANGAN-SURUH","Prop. Jawa Timur","SMA","-8.0974000","111.6481000"
"69754598","SMAS NURUL HASAN","DS. KRAMAT","Prop. Jawa Timur","SMA","-7.9251000","113.3144000"
"69759003","SMAS AL HAYYAN","Jl. LPI. Al-Hayyan No. 01 Bandungan Karduluk Pragaan Sumenep","Prop. Jawa Timur","SMA","-7.0869000","113.6943000"
"20539031","SMAN BANGILAN","JL. RAYA BANGILAN NO. 38 BANJARWORO BANGILAN","Prop. Jawa Timur","SMA","-6.9474000","111.7224000"
"69774800","SMAS AT TAUFIQIYAH","Jl. RAYA BATOKABAN","Prop. Jawa Timur","SMA","-7.0252217","113.0085117"
"69877294","SMA ALASYARY AL KHOZINY","JL. Taman Safari Indonesia II WATUAGUNG","Prop. Jawa Timur","SMA","-7.7372000","112.6822000"
"69919096","SMAS ISLAM DARUT TAUHID","Dusun Rung Nunggak","Prop. Jawa Timur","SMA","-7.0046850","113.2861460"
"20563924","SMAS MAJAPAHIT 1 TROWULAN","JL. SYEH JUMADIL KUBRO","Prop. Jawa Timur","SMA","-7.5713000","112.3815000"
"69786485","SMAS ISLAM KHAIRIYAH","DESA BATUR","Prop. Jawa Timur","SMA","-7.8771000","113.4989000"
"20532399","SMAS GALUH HANDAYANI","Jl. Manyar Sambongan 87-89","Prop. Jawa Timur","SMA","-7.2814000","112.7598000"
"69859742","SMAS MIFTAHUL ULUM AL-BAIDOWI","Jln. Desa Pamolaan","Prop. Jawa Timur","SMA","-7.1562690","113.3416480"
"20546530","SMAS TUNAS LUHUR","JL. RAYA KOTA ANYAR - SUMBERANYAR, PAITON","Prop. Jawa Timur","SMA","-7.7264000","113.5246000"
"69881365","SMA NEGERI 1 MALO","JL. Batik Madrim No. 1","Prop. Jawa Timur","SMA","-7.1075000","111.7378000"
"69945279","SMA ISLAM SUNAN BONANG","Jl. Sunan Bonang No.09","Prop. Jawa Timur","SMA","-7.7416520","114.1411170"
"20521711","SMAN 2 BONDOWOSO","JL. LETJ. SUPRAPTO NO. 153","Prop. Jawa Timur","SMA","-7.9219000","113.8196000"
"20529937","SMA ANNUQAYAH ","JL.  BUKIT LANCARAN","Prop. Jawa Timur","SMA","-7.0496000","113.6823000"
"20533614","SMAS PGRI 6","JL. S. SUPRIADI 48","Prop. Jawa Timur","SMA","-8.0071000","112.6208000"
"20523839","SMAS SULTAN AGUNG PUGER","JL. MOCH. SROEDJI 16","Prop. Jawa Timur","SMA","-8.3213000","113.4785000"
"20506325","SMA NEGERI 1 KEDUNGPRING","JL. RAYA MAYANGKARA 11","Prop. Jawa Timur","SMA","-7.1867000","112.2094000"
"20522639","SMAN 1 SUBOH","JL. PAWIYATAN NO. 04","Prop. Jawa Timur","SMA","-7.7311000","113.7267000"
"20540056","SMAS ISLAM SIDOARJO","JL. PAHLAWAN III SIDOARJO","Prop. Jawa Timur","SMA","-7.4515000","112.7113000"
"20501702","SMAN 2 SIDOARJO","JL. LINGKAR BARAT GADING FAJAR 2","Prop. Jawa Timur","SMA","-7.4615000","112.7038000"
"20501701","SMAN 3 SIDOARJO","JL. DR. WAHIDIN NO. 130","Prop. Jawa Timur","SMA","-7.4624000","112.7226000"
"20532172","SMAS KRISTEN PETRA 3","JL. KALIANYAR 43","Prop. Jawa Timur","SMA","-7.2494000","112.7476000"
"20504479","SMAN 3 BOJONEGORO","JL. MONGINSIDI NO. 9 BOJONEGORO","Prop. Jawa Timur","SMA","-7.1644000","111.8842000"
"20519290","SMAS YADIKA BANGIL","JL.BADER NO. 9 KALIREJO BANGIL","Prop. Jawa Timur","SMA","-7.5855000","112.7916000"
"20577229","SMA VITA","JL. ARIF RAHMAN HAKIM 189-191","Prop. Jawa Timur","SMA","-7.2713000","112.7811000"
"20528647","SMAS ISLAM ASSIROJIYAH","R. AHMAD NO. 1","Prop. Jawa Timur","SMA","-7.1197000","113.2833000"
"20500477","SMAN 1 MANYAR","JL. KAYU RAYA PONGANGAN INDAH MANYAR GRESIK","Prop. Jawa Timur","SMA","-7.1444000","112.6110000"
"69816266","SMAS MAMBAUR RAHMAH","Dusun Angsanah Barat","Prop. Jawa Timur","SMA","-7.0128000","113.3696000"
"20506303","SMAS MAZRA`ATUL ULUM PACIRAN","JL. MASJID BAITUL GHAFUR NO.127 DUSUN JETAK DESA PACIRAN KECAMATAN PACIRAN","Prop. Jawa Timur","SMA","-6.8726000","112.3439000"
"20511003","SMAN TULAKAN","DESA BUNGUR, KECAMATAN TULAKAN, KABUPATEN PACITAN, PROPINSI JAWA TIMUR","Prop. Jawa Timur","SMA","-8.1701433","111.2786117"
"69815435","SMA ISLAM NURUL HIDAYAH","JL. PANGARANGAN DESA PANAONGAN","Prop. Jawa Timur","SMA","-6.9070000","113.6540000"
"20509317","SMAN 1 MAOSPATI","JL. RAYA MAOSPATI-MAGETAN  NO. 999","Prop. Jawa Timur","SMA","-7.5961000","111.4250000"
"69912062","SMAS ISLAM TARBIYATUL ATHFAL","Dusun Planggaran","Prop. Jawa Timur","SMA","-7.0245900","113.1642260"
"20534116","SMAS SANTO BONAVENTURA","JL. DIPONEGORO 45 MADIUN","Prop. Jawa Timur","SMA","-7.6237000","111.5262000"
"20538327","SMAN 3 NGANJUK","JL. BENGAWAN SOLO NO. 109","Prop. Jawa Timur","SMA","-7.5823000","111.9039000"
"20523810","SMAS 10 NOPEMBER","JL. KH. DEWANTARA 29","Prop. Jawa Timur","SMA","-8.1253000","113.8141000"
"20546533","SMAN 1 GENDING","JL. RAYA SEBAUNG - GENDING","Prop. Jawa Timur","SMA","-7.8136000","113.3182000"
"20537426","SMA ASSAIFIYAH SYAFI IYAH","JL. RAYA TAMBERU ALIF","Prop. Jawa Timur","SMA","-6.8985000","113.4981000"
"20511005","SMAN PUNUNG","JL. RAYA SOLO NO. 27","Prop. Jawa Timur","SMA","-8.1496000","111.0233000"
"20548344","SMA PLUS BUSTANUL ULUM PUGER","JL.KH. ABDL YAQIN 1-5","Prop. Jawa Timur","SMA","-8.3052000","113.4643000"
"20532127","SMAS TRI KARYA SURABAYA","JL. LEMPUNG PERDANA NO. 2","Prop. Jawa Timur","SMA","-7.2641000","112.6695000"
"20540294","SMA DARUL ULUM 2 UNGGULAN BPPT","Pondok Pesantren Darul Ulum Rejoso Peterongan Jombang","Prop. Jawa Timur","SMA","-7.5455000","112.2787000"
"20523795","SMAS MIN QU GUMUKMAS","JL. MAYANGAN 3","Prop. Jawa Timur","SMA","-8.3181000","113.4009000"
"69787152","SMAS ISLAM ASSYAFIIYAH","JL. GUNUNG MALANG 1","Prop. Jawa Timur","SMA","-7.0177000","113.7408000"
"20521458","SMAN 1 PASIRIAN","JL. RAYA CONDRO NO. 333","Prop. Jawa Timur","SMA","-8.2269000","113.1333000"
"20511961","SMAN 1 GROGOL","JL.RAYA GRINGGING 16 SONOREJO GROGOL","Prop. Jawa Timur","SMA","-7.7500000","111.9710000"
"20508481","SMAN 1 NGRAMBE","DESA CEPOKO NGRAMBE","Prop. Jawa Timur","SMA","-7.4623000","111.2151000"
"20558304","SMAN 1 KRUCIL","JL. DEWI RENGGANIS 968 Krucil Probolinggo","Prop. Jawa Timur","SMA","-7.9430000","113.4757000"
"20573205","SMAS INTAN PERMATA HATI","JL. RAYA KEDUNG BARUK 112 - 114","Prop. Jawa Timur","SMA","-7.3073000","112.8023000"
"20500461","SMAS MUHAMMADIYAH 4 SIDAYU","Jl. Telaga Rambit No. 34 Purwodadi Sidayu Gresik 61153","Prop. Jawa Timur","SMA","-6.9897000","112.5584000"
"20500480","SMAN 1 DRIYOREJO","JL. RAYA TENARU DRIYOREJO","Prop. Jawa Timur","SMA","-7.3537000","112.6266000"
"20540306","SMA ISLAM SUNAN AMPEL","SEBLAK JOMBANG","Prop. Jawa Timur","SMA","-7.5953000","112.2388000"
"20523845","SMAN 1 KENCONG","JL. KARTINI 8 KENCONG","Prop. Jawa Timur","SMA","-8.2905000","113.3911000"
"20517738","SMAN 1 DAMPIT","JL. GUNUNG JATI 1138 DAMPIT","Prop. Jawa Timur","SMA","-8.2102000","112.7662000"
"20510142","SMAS BAKTI PONOROGO","JL. BOTOROKATONG","Prop. Jawa Timur","SMA","-7.8613700","111.4769500"
"20536278","SMAS KATOLIK MATER DEI","JL.PANJAITAN NO. 62 B","Prop. Jawa Timur","SMA","-7.7449000","113.2101000"
"20542507","SMAN 1 PANGGUL","JL. P.SUDIRMAN 87 PANGGUL","Prop. Jawa Timur","SMA","-8.2506000","111.4530000"
"20542494","SMAS MUHAMMADIYAH 2 WATULIMO","JL. RAYA PANTAI PRIGI","Prop. Jawa Timur","SMA","-8.2314000","111.7117000"
"20564432","SMA ISLAM ANWARUL HIDAYAH","GAMBU-GAMBU TIMUR","Prop. Jawa Timur","SMA","-6.8555270","115.4227680"
"20541244","SMAS ISLAM NURUL ULUM","JL.RAYA GAYAM NO. 60 GAYAM","Prop. Jawa Timur","SMA","-7.1756000","111.7156000"
"20504489","SMAN 1 GONDANG","JL. RAYA BETEK GONDANG","Prop. Jawa Timur","SMA","-7.4046000","111.8705000"
"20540069","SMAS TPI GEDANGAN","JL. R. KANJENG JIMAT","Prop. Jawa Timur","SMA","-7.3878000","112.7296000"
"20549024","SMA NEGERI 3 LAMONGAN","JALAN TANJUNG NO. 01 LAMONGAN","Prop. Jawa Timur","SMA","-7.1129000","112.3888000"
"20502727","SMAN 1 SOOKO","JL. R. AKHMAD BASUNI NO. 361","Prop. Jawa Timur","SMA","-7.4978000","112.4231000"
"20537288","SMAN 1 KARANGREJO","JL. RAYA KARANGREJO - SENDANG","Prop. Jawa Timur","SMA","-7.9969000","111.8940000"
"69787149","SMAS ISLAM TERPADU AL-HIKMAH","JL. TORJEK KANGAYAN","Prop. Jawa Timur","SMA","-6.9136000","115.4926000"
"69754764","SMAS ISLAM TERPADU RIYADUL ULUM","DUSUN SAWAH","Prop. Jawa Timur","SMA","-7.0486000","113.5487000"
"20502671","SMAS ISLAM DAHLAN SYAFII","Jl. Raya Pekukuhan No. 28 - 30","Prop. Jawa Timur","SMA","-7.5228000","112.5658000"
"20503413","SMA NEGERI 3 JOMBANG","JL. DR. SUTOMO  75 JOMBANG","Prop. Jawa Timur","SMA","-7.5517000","112.2307000"
"20507726","SMAN 1 GEGER","Jl. Raya Uteran","Prop. Jawa Timur","SMA","-7.7277940","111.5323310"
"20511960","SMAN 1 GURAH","JL.BALONGSARI NO.3 DS.GURAH KEC.GURAH","Prop. Jawa Timur","SMA","-7.8136000","112.0870000"
"69888847","SMA MUHAMMAD CHENGHO","JL.RAYA DUNGKEK","Prop. Jawa Timur","SMA","-6.9697230","114.0694860"
"20519280","SMAS TAMAN MADYA PRIGEN","JL. RAYA NO. 48 PRIGEN","Prop. Jawa Timur","SMA","-7.6802000","112.6411000"
"20548842","SMAS PLUS MIFTAHUL ULUM","JL.GUNUNG RAUNG 7","Prop. Jawa Timur","SMA","-8.0372000","113.9171000"
"69774857","SMAS ISLAM AR ROHMAH","Desa Plaosan Kecamatan Krucil","Prop. Jawa Timur","SMA","-7.9317000","113.5778000"
"69899564","SMA ISLAM TERPADU MA ARIF BANDAR","Dsn Jambu RT 01 RW 10","Prop. Jawa Timur","SMA","-7.9630000","111.2321000"
"20501871","SMAS PGRI 1 SIDOARJO","JL. BALAI DESA RT. 4 RW. 2","Prop. Jawa Timur","SMA","-7.4398000","112.7281000"
"20520023","SMAN 1 GADING","JL. RAYA CONDONG","Prop. Jawa Timur","SMA","-7.8683120","113.3736740"
"20503621","SMA MUHAMMADIYAH 2 MOJOAGUNG","JL RAYA JANTI  16 MOJOAGUNG","Prop. Jawa Timur","SMA","-7.5497000","112.3347000"
"69849923","SMA SURABAYA INTERCULTURAL SCHOOL","JL. SEKOLAH INTERNASIONAL, CITRA RAYA","Prop. Jawa Timur","SMA","-7.2902160","112.6491890"
"69947991","SMAIT ASSALAM","Jalan Paras Rejo RT 01/ RW 01","Prop. Jawa Timur","SMA","-7.6845550","112.8863640"
"20501862","SMAN 1 GEDANGAN","JL. RAYA SEDATI KM.2","Prop. Jawa Timur","SMA","-7.3873000","112.7415000"
"20529936","SMAS AL MUQRI PRENDUAN","JL. SIMPANG TIGA PRENDUAN","Prop. Jawa Timur","SMA","-7.0929000","113.6926000"
"69888529","SMA NURUD DZOLAM","DESA CAMPOR","Prop. Jawa Timur","SMA","-7.0782167","113.1116900"
"20536817","SMAN 1 BATU","JL. KH. AGUS SALIM 57 BATU","Prop. Jawa Timur","SMA","-7.8791000","112.5278000"
"20527236","SMAN 2 PAMEKASAN","JL. JOKOTOLE NO. 234","Prop. Jawa Timur","SMA","-7.1625000","113.4966000"
"20532124","SMAS TARUNA SURABAYA","JL. KALIRUNGKUT MEJOYO I / 2","Prop. Jawa Timur","SMA","-7.3193000","112.7690000"
"20523819","SMAS KARTIKA IV-2 JEMBER","JL. KH. WACHID HASJIM NO. 14","Prop. Jawa Timur","SMA","-8.1773000","113.6998000"
"20555368","SMAS RIJAN","Jl. Hayam Wuruk No. 22","Prop. Jawa Timur","SMA","-7.6634000","112.5366000"
"20540046","SMAS AL ISLAM KRIAN","JL. KYAI MOJO NO.14","Prop. Jawa Timur","SMA","-7.4164000","112.5833000"
"20521457","SMAN 1 KUNIR","JALAN SUMBERSARI NO.1 KUNIR","Prop. Jawa Timur","SMA","-8.2140000","113.2228000"
"20529969","SMAN 1 BLUTO","JL. RAYA BLUTO","Prop. Jawa Timur","SMA","-7.1141000","113.8041000"
"20525855","SMAN 1 GIRI","JL. H.O.S. COKROAMINOTO NO. 38","Prop. Jawa Timur","SMA","-8.2128420","114.3495030"
"20502673","SMAS MANBAUL ULUM","Jl. KH Mansyur No. 06 Japanan Kemlagi","Prop. Jawa Timur","SMA","-7.4230000","112.3969000"
"20540300","SMA PGRI PETERONGAN","JL.BALAIDESA MOROSUNGGINGAN","Prop. Jawa Timur","SMA","-7.5267000","112.2727000"
"69863307","SMA KRISTEN IPH 2","Pattimura 2, Plaza Segi 8, SBY","Prop. Jawa Timur","SMA","-7.2769000","112.6968000"
"20532451","SMAS 17 AGUSTUS 1945","JL. SEMOLOWARU NO. 45","Prop. Jawa Timur","SMA","-7.2979000","112.7676000"
"20533627","SMAS DARUL ULUM AGUNG","JL. MAYJEN SUNGKONO 9","Prop. Jawa Timur","SMA","-8.0246000","112.6429000"
"20523828","SMAN AMBULU","JL. CANDRADIMUKA 42","Prop. Jawa Timur","SMA","-8.3506000","113.6067000"
"20532402","SMAS GIKI 1 SURABAYA","JL. DUKUH KUPANG UTARA I / 2","Prop. Jawa Timur","SMA","-7.2760000","112.7111000"
"20566552","SMA AL HAMIDY","Jl. Raya Pakong KM. 13","Prop. Jawa Timur","SMA","-7.0687000","113.5234000"
"20540173","SMAS PGRI TEGALDLIMO","JL. P DIPONEGORO","Prop. Jawa Timur","SMA","-8.5167000","114.2877000"
"20549684","SMAS YPD TRAWAS","Jl. Dr. Saleh No. 5","Prop. Jawa Timur","SMA","-7.6656000","112.5957000"
"69902004","SMAS AL RAUDLAH","Dusun Gading Daya","Prop. Jawa Timur","SMA","-7.0035480","113.3630070"
"20503623","SMA MADINATUL ULUM TEMBELANG","MOJOKRAPAK TEMBELANG","Prop. Jawa Timur","SMA","-7.5117000","112.2301000"
"69822832","SMAS AL - AFLAH","Jl. Desa Banjar","Prop. Jawa Timur","SMA","-7.0339000","113.2091000"
"20531151","SMAS PGRI 2 BANGKALAN","JL. SOEKARNO HATTA 52","Prop. Jawa Timur","SMA","-7.0506000","112.7334000"
"20538396","SMAN 1 REJOSO","JL. YOS SUDARSO","Prop. Jawa Timur","SMA","-7.5535000","111.8704000"
"69786621","SMA ISLAM AL-UTSMANI","Dusun Beddian","Prop. Jawa Timur","SMA","-7.9942000","113.8443000"
"20523816","SMAS DIPONEGORO PANTI","JL. KEPUTREN SUCI","Prop. Jawa Timur","SMA","-8.1416000","113.6322000"
"69753987","SMAS UNGGULAN HARAPAN UMMAT","Dusun Tambaksuruh","Prop. Jawa Timur","SMA","-7.5434000","112.4373000"
"20532245","SMAN 12 SURABAYA","JL. SEMEMI BENOWO","Prop. Jawa Timur","SMA","-7.2424790","112.6364940"
"69928533","SMA AL KARIMAH","DESA BATUBINTANG","Prop. Jawa Timur","SMA","-6.9121110","113.4795850"
"20509322","SMAN 2 MAGETAN","JL. TRIPANDITA NO. 2 MAGETAN","Prop. Jawa Timur","SMA","-7.6401000","111.3308000"
"20554399","SMAN 1 MONTONG","JL. RAYA TANGGULANGIN Km 1 MONTONG","Prop. Jawa Timur","SMA","-6.9587417","111.8808717"
"20502698","SMAS KARYA GEDEG","Jl. Raya Ngares No. 147","Prop. Jawa Timur","SMA","-7.5440000","112.4770000"
"20525832","SMAS DARUSSALAM","JL.PON.PES DARUSSALAM","Prop. Jawa Timur","SMA","-8.4498000","114.0988000"
"20546519","SMAS ISLAM MIFTAHUL ARIFIN","JL. RAYA BANTARAN NO. 39","Prop. Jawa Timur","SMA","-7.8572000","113.1812000"
"20535452","SMAS SHALAHUDDIN","JL. DR. WAHIDIN SUDIROHUSODO NO 45","Prop. Jawa Timur","SMA","-7.6557000","112.9046000"
"20529965","SMAS TAHFIDZ AL AMIEN","JL. RAYA PRENDUAN","Prop. Jawa Timur","SMA","-7.0853000","113.6856000"
"69786945","SMA AD-DAMANHURI","JL. DORO AGUNG DESA KOMPOL","Prop. Jawa Timur","SMA","-6.9663333","112.8812183"
"20510151","SMAN 1 SAMPUNG","JL. RAYA SAMPUNG","Prop. Jawa Timur","SMA","-7.8081000","111.3673000"
"20503624","SMA KRISTEN YPBK MOJOWARNO","JL. MERDEKA 92 MOJOWARNO","Prop. Jawa Timur","SMA","-7.6348000","112.3018000"
"20564168","SMAS TERPADU AL MAARIF","JL. JAYA MAKMUR","Prop. Jawa Timur","SMA","-7.1924000","113.1649000"
"20573071","SMA KRISTEN. MASA DEPAN CERAH","JL. DIAMOND HILL DH 1/11 CITRALAND SURABAYA","Prop. Jawa Timur","SMA","-7.2732000","112.6575000"
"20523794","SMAS KRISTEN ADHIWIYATA","JL. LETJEN SUPRAPTO XVIII/21","Prop. Jawa Timur","SMA","-8.1891000","113.7000000"
"69877298","SMA NAHDLATUN NASYIIN IV","PASANGGAR","Prop. Jawa Timur","SMA","-7.0367730","113.4686510"
"20508469","SMAN 1 KENDAL","JL. RAYA NGAWI - KENDAL KM.32","Prop. Jawa Timur","SMA","-7.5732990","111.2929600"
"20511955","SMAN 1 NGADILUWIH","JL. PUSKESMAS BRANGGAHAN NGADILUWIH","Prop. Jawa Timur","SMA","-7.9161000","111.9949000"
"20508494","SMAS KARYA PEMBANGUNAN KEDUNGGALAR","JL.Slamet Riyadi  No. 36 KEDUNGGALAR","Prop. Jawa Timur","SMA","-7.4220000","111.3061000"
"20523821","SMAS AL AZHAR JEMBER","JL. W. MONGINSIDI Gg. PESANTREN NO. 94 KAUMAN MUKTISARI","Prop. Jawa Timur","SMA","-8.2064000","113.7010000"
"20525860","SMAN PURWOHARJO","JL. SLAMET COKRO","Prop. Jawa Timur","SMA","-8.4777000","114.2289000"
"20532237","SMAN 15 SURABAYA","JL.  MENANGGAL SELATAN NO. 103","Prop. Jawa Timur","SMA","-7.3410000","112.7187000"
"20540171","SMAS NU KALIBARU","JL JEMBER 269 NO. 269","Prop. Jawa Timur","SMA","-8.2886000","113.9793000"
"20510133","SMAN 1 BALONG","JL. KEMAJUAN NO. 8","Prop. Jawa Timur","SMA","-7.9599858","111.4429526"
"20548721","SMAS UNGGULAN BPPT AL FATTAH","JL. PONPES AL-FATTAH SIMAN","Prop. Jawa Timur","SMA","-7.0460000","112.2865000"
"20535465","UPT SMA NEGERI 2 PASURUAN","JL. PANGLIMA SUDIRMAN 163","Prop. Jawa Timur","SMA","-7.6609000","112.8946000"
"20532392","SMAS LIL WATON","JL. WONOKUSUMO TENGAH 53 A","Prop. Jawa Timur","SMA","-7.2214000","112.7519000"
"69830123","SMA AL MIFTAH 4","CAMPOR","Prop. Jawa Timur","SMA","-7.0936000","113.3892000"
"20534409","SMAS K PETRA KEDIRI","JL. MEDANG KAMULAN 48","Prop. Jawa Timur","SMA","-7.8130000","112.0273000"
"20507725","SMAN 1 DOLOPO","JL. SULUK DOLOPO","Prop. Jawa Timur","SMA","-7.7645000","111.5332000"
"20570238","SMAS ASSHOMADIYAH","JL. KH. MAKKY SYARBINI 107","Prop. Jawa Timur","SMA","-7.0542000","112.7913000"
"20562423","SMA NEGERI 1 KURIPAN","JL. RAYA  KURIPAN","Prop. Jawa Timur","SMA","-7.8902000","113.1364000"
"20520805","SMAS ISLAM LUMAJANG","JL. KAPTEN KYAI ILYAS NO. 11 LUMAJANG","Prop. Jawa Timur","SMA","-8.1327000","113.2209000"
"20515433","SMAN 1 GONDANG","JL. RAYA GONDANG","Prop. Jawa Timur","SMA","-8.0760000","111.8439000"
"20541250","SMAS PGRI NGASEM","JL. RAYA NGASEM NO.038","Prop. Jawa Timur","SMA","-7.2489000","111.7675000"
"20503438","SMA PGRI PERAK","JL. RAYA PERAK","Prop. Jawa Timur","SMA","-7.5873000","112.1661000"
"69952892","SMA ISLAM AR ROFIIYAH","Jl. Letjen MT Haryono","Prop. Jawa Timur","SMA","-7.7666000","113.4073000"
"20555364","SMAS ISLAM MIFTAAHUSSURUR","JL.RAYA KINTELAN 87","Prop. Jawa Timur","SMA","-7.5357000","112.4307000"
"20533641","SMAN 9 Malang","JL. PUNCAK BOROBUDUR 1","Prop. Jawa Timur","SMA","-7.9361000","112.6253000"
"20527241","SMAS AL MIFTAH 1","JL RAYA PALENGAAN KM. 11 PAMEKASAN","Prop. Jawa Timur","SMA","-7.0733000","113.4778000"
"20510144","SMAN 1 BUNGKAL","JL. AHMAD YANI 21","Prop. Jawa Timur","SMA","-7.9861000","111.4533000"
"20506323","SMA NEGERI 1 BLULUK","JL. RAYA SUKORAME-BLULUK NO. 01","Prop. Jawa Timur","SMA","-7.3144000","112.1306000"
"20584065","SMA PGRI LARANGAN","JL. RAYA SUMENEP KM 15","Prop. Jawa Timur","SMA","-7.1381000","113.5879000"
"20534119","SMAN 6 MADIUN","JL. SUHUD NOSINGO 1","Prop. Jawa Timur","SMA","-7.6336000","111.5298000"
"20528660","SMAN 2 SAMPANG","JL. MANGKUBUMI 36","Prop. Jawa Timur","SMA","-7.2096000","113.2343000"
"20562424","SMAS ISLAM TERPADU ULIL ALBAB","Jl. Raya Brumbungan lor Kec. Gending","Prop. Jawa Timur","SMA","-7.7870000","113.3401000"
"20573137","SMAS NURUSSHALEH","JL. H. ZIYADY ALIMUDDIN 9","Prop. Jawa Timur","SMA","-6.9906792","113.0059418"
"20549327","SMAS MAMBA US SHOLIHIN","JL. ANJASMORO PO BOX 02","Prop. Jawa Timur","SMA","-8.0640000","112.1462000"
"20501699","SMAN OLAH RAGA SIDOARJO","JL. DESA PAGER WOJO SIDOARJO","Prop. Jawa Timur","SMA","-7.4388000","112.7030000"
"20508475","SMAS MUHAMMADIYAH 1 NGAWI","JL. KH. AHMAD DAHLAN NO.26","Prop. Jawa Timur","SMA","-7.4127000","111.4470000"
"20551724","SMAN 1 SUTOJAYAN","JL. DIPONEGORO NO. 103 SUTOJAYAN","Prop. Jawa Timur","SMA","-8.1681000","112.2055000"
"20511004","SMAN 1 TEGALOMBO","JL.BULUSARI NO.1","Prop. Jawa Timur","SMA","-8.0377293","111.3530528"
"20577790","SMAS KHAIRUL ULUM","Jl. Raya Tambelangan","Prop. Jawa Timur","SMA","-7.0617000","113.1659000"
"20502722","SMAN 1 GONDANG","JL. RAYA PUGERAN NO. 61","Prop. Jawa Timur","SMA","-7.6119000","112.4826000"
"20537428","SMA MIFTAHUL ANWAR","Pon-Pes Miftahul Anwar Klompek Indah","Prop. Jawa Timur","SMA","-7.0952000","113.5286000"
"20541241","SMAN 1 KEDUNGADEM","JL. RINGINANOM NO. 1 KEDUNGADEM","Prop. Jawa Timur","SMA","-7.2908000","112.0472000"
"20531130","SMAN 1 KAMAL","JL. RAYA TELANG NO. 02 KAMAL","Prop. Jawa Timur","SMA","-7.1243000","112.7132000"
"69762625","SMAS ISLAM TAJUNG SARI","JL. PONPES TAJUNG SARI","Prop. Jawa Timur","SMA","-7.7377000","113.1276000"
"20551893","SMA ISLAM AL-FANISA","JL. RAYA BRAKAS NO.02","Prop. Jawa Timur","SMA","-7.1439000","114.5562000"
"20529967","SMAN 1 AMBUNTEN","JL. RAYA AMBUNTEN","Prop. Jawa Timur","SMA","-6.8945000","113.7440000"
"20534121","SMAN 4 MADIUN","JL. SERAYU NO. 80 MADIUN","Prop. Jawa Timur","SMA","-7.6471000","111.5254000"
"69948627","SMA TERPADU BUMI DARUN NAJAH","JL. Semeru Raya 125 RT. 03 RW. 10, Dusun Asem Rajeh","Prop. Jawa Timur","SMA","-7.6545090","113.0295780"
"20532235","SMAN 3 SURABAYA","Jl. Memet Sastrowiryo Komplek TNI AL, Kenjeran","Prop. Jawa Timur","SMA","-7.2422000","112.7896000"
"20541272","SMA PGRI 1 PLOSO","JL. BRANTAS 4 PLOSO","Prop. Jawa Timur","SMA","-7.4540000","112.2304000"
"20534764","SMAS ISLAM BRAWIJAYA","JL. RAYA SURODINAWAN","Prop. Jawa Timur","SMA","-7.4682580","112.4244380"
"20500474","SMAN 1 SIDAYU","JL. PAHLAWAN NO. 6 SIDAYU","Prop. Jawa Timur","SMA","-6.9984000","112.5641000"
"69883214","SMA PLUS AR RAHMAT","JL. UNTUNG SUROPATI NO 48 BOJONEGORO","Prop. Jawa Timur","SMA","-7.1583000","111.8784000"
"69958331","SMA NEGERI 2 KRAKSAAN","Asembakor","Prop. Jawa Timur","SMA","-7.7449294","113.4576777"
"20523840","SMAS UNGGULAN BPPT DARUS SHOLAH JEMBER","JL. MOH. YAMIN 25","Prop. Jawa Timur","SMA","-8.1924000","113.6859000"
"69760883","SMAS MIFTAHUL ULUM","JL. KH. Abd. Aziz Bengkok 01 Pangeraan","Prop. Jawa Timur","SMA","-7.0234400","112.9828783"
"69831957","SMA NURUL HIDAYAH","JL. ABDUL AZIZ","Prop. Jawa Timur","SMA","-7.8302810","113.8054980"
"20525837","SMAS MUHAMMADIYAH 3 GENTENG","JL.GAJAH MADA NO.185","Prop. Jawa Timur","SMA","-8.3628000","114.1521000"
"20503411","SMA NEGERI BARENG","SOEKARNO-HATTA","Prop. Jawa Timur","SMA","-7.6611000","112.2956000"
"20500473","SMAN 1 WRINGINANOM","JL. RAYA SEMBUNG WRINGINANOM","Prop. Jawa Timur","SMA","-7.3664000","112.5082000"
"69830707","SMAS ISLAM BABUS SALAM","Jl. Desa Pasarenan","Prop. Jawa Timur","SMA","-7.0598320","113.2957840"
"20533618","SMAS WAHID HASYIM","JL. MAYJEN HARYONO XXI/30","Prop. Jawa Timur","SMA","-7.9371000","112.6083000"
"69841142","SMA AL FATTAH","Jl Sidoagung No.109 Singosari","Prop. Jawa Timur","SMA","-7.8876000","112.6655000"
"69812073","SMAS Islam Nurul Huda","Jl. Pemandian Tasnan 598","Prop. Jawa Timur","SMA","-7.9702000","113.8300000"
"20533667","SMAN 4","JL. TUGU UTARA I NO. 1","Prop. Jawa Timur","SMA","-7.9764000","112.6343000"
"20571619","SMAS A YUDA NEGARA","JL. KIAI ABDULLAH PAORAMPAK","Prop. Jawa Timur","SMA","-7.0411000","112.7883000"
"69900694","SMA ISLAM DURENAN","Jl. Kota Baru No. 17 RT. 06 RW. 02","Prop. Jawa Timur","SMA","-8.1121000","111.8203000"
"20532370","SMAS DAPENA 1 SURABAYA","JL. SUMATRA 112-114","Prop. Jawa Timur","SMA","-7.2747000","112.7448000"
"20539373","SMAS DARUL ULUM NYAMPLONG","JL. KH. ABD. FATTAH NYAMPLONG","Prop. Jawa Timur","SMA","-7.7502000","114.2914000"
"20534307","SMAS BRAWIJAYA KEDIRI","JL. AHMAD YANI 8","Prop. Jawa Timur","SMA","-7.8154000","112.0303000"
"69725923","SMAS MAARIF 1 PAMEKASAN","JL. SIMPANG TIGA NO. 21","Prop. Jawa Timur","SMA","-7.1869570","113.3990720"
"20540055","SMAS DHARMA WANITA 6","JL. H.SYUKUR VI RT 25 RW 11 DSN.BONO","Prop. Jawa Timur","SMA","-7.3730000","112.7515000"
"69947931","SMA ISLAM PLUS HIDAYATUT THULLAB","Dsn. Petuk Kec. Semen Kab. Kediri","Prop. Jawa Timur","SMA","-7.8475000","111.9738000"
"20533610","SMAS LABORATORIUM UM","JL. BROMO 16","Prop. Jawa Timur","SMA","-7.9771000","112.6264000"
"20532261","SMAN 7 SURABAYA","JL. NGAGLIK  27 - 29","Prop. Jawa Timur","SMA","-7.2483580","112.7523290"
"20534126","SMAS TAMAN MADYA","JL. KALIMANTAN NO.1 MADIUN","Prop. Jawa Timur","SMA","-7.6271000","111.5231000"
"20525856","SMAN 1 GLAGAH","JL. MELATI NO. 1 BANYUWANGI","Prop. Jawa Timur","SMA","-8.2108430","114.3478280"
"69852821","SMA PGRI CLURING","Jl. Raya Cluring No. 1B Cluring","Prop. Jawa Timur","SMA","-8.4309000","114.2173000"
"69904634","SMA AL MAJIDIYAHPALDUDING","Dusun Bunut Desa Plakpak Kec. Pegantenan","Prop. Jawa Timur","SMA","-7.0991000","113.4733000"
"20573250","SMAN 1 BATUAN","JL. RAYA BATUAN","Prop. Jawa Timur","SMA","-7.0057000","113.8367000"
"20529951","SMA MIFTAHUL ULUM ","Jl.Kepala desa.tambagung ares","Prop. Jawa Timur","SMA","-6.9092000","113.7438000"
"20532243","SMAN 10 SURABAYA","JL. JEMUR SARI I / 28","Prop. Jawa Timur","SMA","-7.3205640","112.7406720"
"20503628","SMA DARUL ULUM TAPEN","TAPEN KUDU","Prop. Jawa Timur","SMA","-7.4338000","112.2921000"
"20521713","SMAN 1 TAPEN","JL. RAYA CINDOGO NO.2 TAPEN","Prop. Jawa Timur","SMA","-7.8740000","113.9144000"
"20523797","SMAS MUHAMMADIYAH 1 RAMBIPUJI","JL. GAJAH MADA 61","Prop. Jawa Timur","SMA","-8.2058000","113.6091000"
"20540066","SMAS PGRI 5 SIDOARJO","JL. JENGGOLO III / 57A SDA","Prop. Jawa Timur","SMA","-7.4430000","112.7214000"
"20534309","SMAS AL ANWAR","JL. SERSAN BAHRUN 100","Prop. Jawa Timur","SMA","-7.7785000","111.9972000"
"20533607","SMAS NASIONAL","JL. S. SUPRIADI  50","Prop. Jawa Timur","SMA","-8.0061000","112.6207000"
"20529952","SMAS MUHAMMADIYAH 1 SUMENEP","JL. URIP SUMOHARJO NO.14","Prop. Jawa Timur","SMA","-7.0149000","113.8704000"
"60726756","SMAS PUTERI ATTANWIR","JL. PEMUDA BARU NO. 14","Prop. Jawa Timur","SMA","-7.1991000","113.2493000"
"20554401","SMAS SELAMAT PAGI BATU","JL. RAYA PANDANREJO NO 2 BATU","Prop. Jawa Timur","SMA","-7.8650000","112.5335000"
"20517841","SMAS KRISTEN YBPK SUMBER MANJING","JL. RAYA SITIARJO","Prop. Jawa Timur","SMA","-8.3727000","112.6793000"
"20523829","SMAN PLUS SUKOWONO","JL. Sumberkalong","Prop. Jawa Timur","SMA","-8.0838000","113.8227000"
"20510138","SMAS MUHAMMADIYAH 3 JETIS PONOROGO","Jl. Jenderal Sudirman No.72","Prop. Jawa Timur","SMA","-7.9316383","111.4747367"
"20517798","SMAS AL MUNAWARIYYAH BULULAWANG","JL. RAYA SUDIMORO 09 BULULAWANG","Prop. Jawa Timur","SMA","-8.1256000","112.6763000"
"20549350","SMAN PAKUSARI","JL. PB. SUDIRMAN 120","Prop. Jawa Timur","SMA","-8.1733000","113.7849000"
"20517833","SMAS ISLAM AN-NUURU TIRTOYUDO","JL. PESANTREN NO. 21 TIRTOYUDO","Prop. Jawa Timur","SMA","-8.2502460","112.8179020"
"69725967","SMAS MIFTAHUL HASANAIN","JL. KH. SYADULLAH DESA RAWAN KREJENGAN  PROBOLINGGO","Prop. Jawa Timur","SMA","-7.8114000","113.4038000"
"20533608","SMAS MUHAMMADIYAH 1","JL. BRIGJEN S. RIADI 134","Prop. Jawa Timur","SMA","-7.9651000","112.6280000"
"20566554","SMAS ISLAM DEMPO TIMUR","JL. MASJID TAMAN SARI DEMPO TIMUR","Prop. Jawa Timur","SMA","-6.9184430","113.6222590"
"20508492","SMAN 2 NGAWI","JL. A. YANI NGAWI","Prop. Jawa Timur","SMA","-7.4420000","111.4384000"
"20577503","SMAS SUNAN AMPEL","DS. PUNJUL","Prop. Jawa Timur","SMA","-7.9850000","111.8865000"
"20549025","SMAS TASHWIRUL AFKAR SARIREJO","Jl. Wijaya Kusuma No.35","Prop. Jawa Timur","SMA","-7.1467000","112.4437000"
"60724833","SMAS ISLAM ATTAROQQI TSANI","JL. RAYA PANGILEN","Prop. Jawa Timur","SMA","-7.1363300","113.2386670"
"20551651","SMAN 1 TONGAS","JL. RAYA LUMBANG","Prop. Jawa Timur","SMA","-7.7368000","113.1033000"
"20575415","SMAS ISLAM ULUL ALBAB","Jl. Pekalen Gg. Kusuma","Prop. Jawa Timur","SMA","-7.8597000","113.3515000"
"69901424","SMAN 1 OMBEN","Jl Bahari - Rapa Daya","Prop. Jawa Timur","SMA","-7.0953000","113.3003000"
"20532136","SMAS KRISTEN PETRA 2 SURABAYA","JL. MANYAR TIRTOASRI RAYA 1 - 3","Prop. Jawa Timur","SMA","-7.2848000","112.7684000"
"20536844","SMAS ISLAM BATU","JL. MUSTARI NO. 07 BATU","Prop. Jawa Timur","SMA","-7.8756000","112.5234000"
"20549198","SMAS HIDAYATUL MUHTADIN","JL. EMPU RONGGO II/11 Dusun Ombul","Prop. Jawa Timur","SMA","-7.1949000","113.1797000"
"20500454","SMAS NUSANTARA BALONGPANGGANG","JL. BRAWIJAYA  NO. 01 KEDUNGPRING BALONGPANGGANG","Prop. Jawa Timur","SMA","-7.2738000","112.4470000"
"20546556","SMAN 1 GRABAGAN","JL. RAYA PASAR WAGE NO. 1 GRABAGAN TUBAN","Prop. Jawa Timur","SMA","-7.0126000","111.9835000"
"20565902","SMAS NURUL HARAMAIN","KASENGAN","Prop. Jawa Timur","SMA","-6.9780000","113.8434000"
"20532164","SMAS KUSUMA NEGARA","JL. RAYA MASTRIP NO. 45 A SURABAYA","Prop. Jawa Timur","SMA","-7.3240000","112.7077000"
"20552151","SMA TERPADU ABUL FAIDL","JL.MASJID SUNAN AMPEL NO.1 WONODADI","Prop. Jawa Timur","SMA","-8.0490000","111.9941000"
"20529964","SMAN 1 LENTENG","JL. RAYA PAYUDAN","Prop. Jawa Timur","SMA","-7.0404000","113.7564000"
"69788566","SMA AL-ASY ARIYAH MUSA","KAMP. MANCENGAN BARAT DESA LANGPANGGANG","Prop. Jawa Timur","SMA","-7.1931000","112.9564000"
"69755783","SMAS BAHRUL MAGHFIROH","JL.JOYO AGUNG ATAS NO.2","Prop. Jawa Timur","SMA","-7.9383000","112.5934000"
"69855413","SMAN 1 BANYUATES","Jln. Trapang Desa Duwek Buter, Banyuates- Sampang","Prop. Jawa Timur","SMA","-6.8992000","113.1369000"
"20510145","SMAN 1 JENANGAN","JL. RAYA NGEBEL","Prop. Jawa Timur","SMA","-7.8085000","111.5503000"
"69932739","SMA SIROJUL ARIFIN","Jl. KH. Ali Badawi","Prop. Jawa Timur","SMA","-7.7987190","113.4172160"
"20542497","SMAN 1 KARANGAN","JL. RAYA TRENGGALEK  PONOROGO KM.3","Prop. Jawa Timur","SMA","-8.0557000","111.6878000"
"20504500","SMAN 1 BOJONEGORO","JL. PANGLIMA SUDIRMAN NO. 28 BOJONEGORO 62111","Prop. Jawa Timur","SMA","-7.1521000","111.8803000"
"60724726","SMAS AL HASYIMI ","Jl. Desa Kalidandan - Pakuniran - Probolinggo","Prop. Jawa Timur","SMA","-7.7947000","113.5704000"
"20523822","SMAS PLUS DARUL HIKMAH JEMBER","JL.YOS SUDARSO 114 KERANJINGAN SUMBERSARI JEMBER","Prop. Jawa Timur","SMA","-8.2006000","113.7341000"
"20520821","SMAN 1 LUMAJANG","JL. JEND. A. YANI NO. 7 LUMAJANG","Prop. Jawa Timur","SMA","-8.1192000","113.2287000"
"20519328","SMAS AL - MA HADUL ISLAMI BEJI","JL. RAYA PANDAAN BANGIL BEJI","Prop. Jawa Timur","SMA","-7.6154000","112.7532000"
"20502668","SMAS AL HIDAYAH","JL. Jenderal Sudirman No. 68","Prop. Jawa Timur","SMA","-7.5681000","112.4836000"
"20517787","SMAS BABUSSALAM PAGELARAN","JL. KH. HASYIM ASYARI BANJAREJO PAGELARAN MALANG","Prop. Jawa Timur","SMA","-8.1801000","112.6162000"
"20523818","SMAS ISLAM MAYANG","JL. RAUNG 103","Prop. Jawa Timur","SMA","-8.1767000","113.7979000"
"20501868","SMAS TPI PORONG","JL. KANAL GEMPOL SAMPURNO PORONG","Prop. Jawa Timur","SMA","-7.5431000","112.6956000"
"20517822","SMAS PGRI LAWANG","JL. INDRO KILO SELATAN NO. 1A BEDALI","Prop. Jawa Timur","SMA","-7.8523000","112.6924000"
"69754416","SMAS PLUS AL AMANAH","BALONGSUMBER","Prop. Jawa Timur","SMA","-7.1719000","111.8512000"
"69786486","SMAS DARUL ULUM","DESA PEDAGANGAN","Prop. Jawa Timur","SMA","-7.9293000","113.3272000"
"20522081","SMAS MIFTAHUL ULUM","JL. MASTRIP 17/6 BUNDER - PANCORAN","Prop. Jawa Timur","SMA","-7.9545000","113.8049000"
"20517819","SMAS PGRI 1 KROMENGAN","JL. DR. SUTOMO NO. 1 KROMENGAN","Prop. Jawa Timur","SMA","-8.1283000","112.4912000"
"20554263","SMAS MAARIF NU NURIS JATIREJO KUNIR","JL. PESANTREN JATIREJO KUNIR NO. 21","Prop. Jawa Timur","SMA","-8.2412000","113.2197000"
"20500558","SMAS MAARIF NU BENJENG","JL. RAYA BENJENG 414 BULUREJO BENJENG","Prop. Jawa Timur","SMA","-7.2634000","112.4950000"
"20532112","SMAS WIDYA DARMA","JL. KETINTANG NO.147-151 SURABAYA","Prop. Jawa Timur","SMA","-7.3089000","112.7300000"
"20507729","SMAN 1 WUNGU","JL. Raya Kare 156 Kecamatan Wungu Kabupaten Madiun Jawa Timur","Prop. Jawa Timur","SMA","-7.6906000","111.6288000"
"20523806","SMAS K SATYA CENDIKA","JL. MOJOPAHIT BLOK X - 16","Prop. Jawa Timur","SMA","-8.1937000","113.6643000"
"20531228","SMAN 2 BANGKALAN","JL. SOEKARNO HATTA NO 18","Prop. Jawa Timur","SMA","-7.0471000","112.7353000"
"20511963","SMAS MUHAMMADIYAH 1 PARE","JL.MAYJEN MAS ISMAN NO.1, TULUNGREJO","Prop. Jawa Timur","SMA","-7.7752000","112.1683000"
"69938510","SMA WAHIDIYAH KEPANJEN","Jl. HM. Sun an No.5 Penarukan Kepanjen","Prop. Jawa Timur","SMA","-8.1343000","112.5758000"
"20529966","SMA YAS A","JL. KARTINI VI NO.04","Prop. Jawa Timur","SMA","-7.0037000","113.8678000"
"20506331","SMAS PGRI NGIMBANG","JL. RAYA NGIMBANG DESA SENDANGREJO KECAMATAN NGIMBANG","Prop. Jawa Timur","SMA","-7.2960000","112.2153000"
"20575416","SMAS DARUL MUKHLASIN","JL. RAYA TEGALSIWALAN","Prop. Jawa Timur","SMA","-7.8455000","113.2556000"
"20517727","SMAS K YOS SUDARSO KEPANJEN","JL. KAWI NO. 44, KEPANJEN","Prop. Jawa Timur","SMA","-8.1304000","112.5668000"
"69734055","SMAS AS - SUHUF","JL. RAYA KRAMAT","Prop. Jawa Timur","SMA","-7.2179180","113.4064380"
"20540049","SMAS AVISENA JABON","JL. KEDUNGCANGKRING","Prop. Jawa Timur","SMA","-7.5502000","112.7128000"
"20523804","SMAS PGRI KENCONG","JL. KERINCI 01","Prop. Jawa Timur","SMA","-8.2733000","113.3665000"
"20511006","SMAN 1 NGADIROJO","Desa Hadiluwih NO.39 Kec.Ngadirojo Kab.Pacitan","Prop. Jawa Timur","SMA","-8.2312000","111.3079000"
"20515471","SMAS KATOLIK ST THOMAS AQUINO","JL.DR.WAHIDIN SUDIRO HUSODO 83","Prop. Jawa Timur","SMA","-8.0552667","111.9126600"
"20525850","SMAS PGRI GIRI BANYUWANGI","JL. HOS COKROAMINOTO","Prop. Jawa Timur","SMA","-8.2125900","114.3482420"
"20506308","SMAS AL - KAUTSAR SEKARAN","JL. Komplek Al-Kautsar Manyar","Prop. Jawa Timur","SMA","-7.0606000","112.2530000"
"20549086","SMAS MA ARIF JOMBANG","JL. KI HAJAR DEWANTARA 11 Jombang desa Jombang","Prop. Jawa Timur","SMA","-8.2631000","113.3496000"
"20552082","SMAS KOSGORO ","JL. SEMBOJA NO.1 DUSUN NGRAPAH DESA SEWOR","Prop. Jawa Timur","SMA","-7.3433000","112.1128000"
"20532151","SMA KATOLIK ST LOUIS 2","JL. TIDAR 117 - 119","Prop. Jawa Timur","SMA","-7.2570000","112.7245000"
"69880252","SMA NURUL HASAN","DESA SABUNTAN","Prop. Jawa Timur","SMA","-6.9770210","115.6138490"
"69938163","SMA ISLAM AL-ANWAR","DESA PAYUDAN DALEMAN","Prop. Jawa Timur","SMA","-7.0583640","113.6628370"
"20532382","SMAS ATMA WIDYA","JL. KAPASARI 3-5","Prop. Jawa Timur","SMA","-7.2477000","112.7498000"
"20506302","SMAS MUHAMMADIYAH 5 KARANGGENENG","JL. RAYA KARANGGENENG NO. 30  DESA KARANGGENENG KECAMATAN KARANGGENENG","Prop. Jawa Timur","SMA","-6.9917000","112.3719000"
"20540059","SMAS KEMALA BHAYANGKARI 4","JL. LETJEN SUTOYO NO. 1","Prop. Jawa Timur","SMA","-7.3544000","112.7896000"
"20534384","SMAN 6 KEDIRI","JL. NGASINAN 52","Prop. Jawa Timur","SMA","-7.8529000","112.0224000"
"20517799","SMAS A YANI SUMBERPUCUNG","JL. RAYA 48 NGEBRUK","Prop. Jawa Timur","SMA","-8.1493000","112.5184000"
"20502699","SMAN 1 BANGSAL","Jalan Desa Peterongan","Prop. Jawa Timur","SMA","-7.5169000","112.4875000"
"20517785","SMAS AN NUR BULULAWANG","JL. RAYA BULULAWANG","Prop. Jawa Timur","SMA","-8.0843000","112.6401000"
"20525859","SMAN PESANGGARAN","Jl. Pesanggaran 50","Prop. Jawa Timur","SMA","-8.5586000","114.1010000"
"69928539","SMA ISLAM TAMPOJUNG TENGGINA","DESA TAMPOJUNG TENGGINA","Prop. Jawa Timur","SMA","-6.9372800","113.5434320"
"69892331","SMA AN-NURONIYAH","JL. KH. MOH. KHOLIL Gg.IV.No. 37","Prop. Jawa Timur","SMA","-7.0317000","112.7461000"
"69829177","SMAS TERPADU DARUR ROJA","Jl. KH. Wahid Hasyim No. 01 Selokajang","Prop. Jawa Timur","SMA","-8.1018000","112.0843000"
"20549389","SMAS NAHDLATUL ULAMA MODO","JL.RAYA MODO NO.59","Prop. Jawa Timur","SMA","-7.2386000","112.1539000"
"69754593","SMAS NURUL IMAN","DUSUN RANON","Prop. Jawa Timur","SMA","-7.8616000","113.4080000"
"20532262","SMAN 8 SURABAYA","JL. SULTAN ISKANDAR MUDA NO. 42","Prop. Jawa Timur","SMA","-7.2242440","112.7422470"
"69953659","SMAS AL - ARIFIN CANGAK","Dusun Cangak","Prop. Jawa Timur","SMA","-6.9031060","113.3992830"
"20551745","SMAS MANDIRI KADEMANGAN","JL. BIMA 44 KADEMANGAN","Prop. Jawa Timur","SMA","-8.1464000","112.1455000"
"20554164","SMAS NURUL MARIFAH","Jl. Raya Curahdami","Prop. Jawa Timur","SMA","-7.9066000","113.7963000"
"20532115","SMAS YP 17 SURABAYA","JL. SIDOTOPO WETAN 112","Prop. Jawa Timur","SMA","-7.2273000","112.7581000"
"20535464","UPT SMA NEGERI 1 PASURUAN","JL. SOEKARNO HATTA 40","Prop. Jawa Timur","SMA","-7.6376000","112.9039000"
"20529963","SMAN 1 MASALEMBU","JL. TANJUNG BATU","Prop. Jawa Timur","SMA","-5.5702000","114.4109000"
"20539237","SMAS KR PIRNGADI","JL. PIRNGADI 12 - 14","Prop. Jawa Timur","SMA","-7.2523000","112.7336000"
"20509323","SMAN 3 MAGETAN","JL. RAYA SARANGAN 45 MAGETAN","Prop. Jawa Timur","SMA","-7.6539000","111.2992000"
"20549506","SMAN 1 KAUMAN","DS. CARAT KEC. KAUMAN PONOROGO","Prop. Jawa Timur","SMA","-7.8641000","111.4106000"
"20535454","SMAS KATOLIK MGR SOEGIJAPRANATA","JL. PANGLIMA SUDIRMAN 64","Prop. Jawa Timur","SMA","-7.6530000","112.8990000"
"69859741","SMAS ISLAM AL - MUDHHARIYAH","Dusun Somber Telor","Prop. Jawa Timur","SMA","-6.9658410","113.2702490"
"20517827","SMAS RAUDLATUL ULUM GONDANGLEGI","JL. SUNAN AMPEL NO. 2 B, PUTUKREJO","Prop. Jawa Timur","SMA","-8.1267000","112.6322000"
"20532218","SMAN 18 SURABAYA","JL. BIBIS KARAH SAWAH NO. 9","Prop. Jawa Timur","SMA","-7.3124000","112.7136000"
"20504480","SMAN 4 BOJONEGORO","JL. AKBP M. SUROKO NO. 30","Prop. Jawa Timur","SMA","-7.1498000","111.8830000"
"20525600","SMAN 2 GENTENG","JL.PANDAN KEMBIRITAN","Prop. Jawa Timur","SMA","-8.3684000","114.1955000"
"69877299","SMA SUNAN BONANG","DSN BEJAWAN","Prop. Jawa Timur","SMA","-7.6726260","112.8365940"
"20562211","SMAN 1 SUMBER","JL.RAYA TEMPURAN","Prop. Jawa Timur","SMA","-7.9423000","113.1148000"
"20528663","SMAN 1 KEDUNGDUNG","JL. RAYA KEDUNGDUNG","Prop. Jawa Timur","SMA","-7.0932000","113.2499000"
"20508477","SMAS KARYA PEMBANGUNAN JOGOROGO","BRUBUH, JOGOROGO","Prop. Jawa Timur","SMA","-7.5136000","111.2650000"
"69937528","SMA MAARIF 3 PAMEKASAN","KOMPLEK PP NURUL ULUM BATU KALANGAN","Prop. Jawa Timur","SMA","-7.1166950","113.4043900"
"20554487","SMAS CHARIS","JL. TELAGA BODAS 1 - 3","Prop. Jawa Timur","SMA","-7.9634000","112.6003000"
"20523823","SMAN KALISAT","JALAN KI HAJAR DEWANTARA 42","Prop. Jawa Timur","SMA","-8.1253000","113.8144000"
"20534749","SMAN 2","JL. RAYA IJEN NO. 09","Prop. Jawa Timur","SMA","-7.4572000","112.4448000"
"20525863","SMAN 1 BANYUWANGI","JL. IKAN TONGKOL","Prop. Jawa Timur","SMA","-8.2287280","114.3711120"
"20579488","SMAS AL MIFTAH","JL. PONPES SUMBER KEBUN","Prop. Jawa Timur","SMA","-6.9048020","113.3671360"
"20532167","SMAS LUQMAN AL HAKIM","JL. KEJAWAN PUTIH TAMBAK VI/1","Prop. Jawa Timur","SMA","-7.2760000","112.8017000"
"20569026","SMAS ISLAM MIFTHAHUL HUDA SENDANGREJO","DS.SENDANGREJO RT.03 RW.01","Prop. Jawa Timur","SMA","-7.2283000","111.8471000"
"20533640","SMAN 8","JL. VETERAN 37","Prop. Jawa Timur","SMA","-7.9571000","112.6170000"
"20536296","SMAN 3 PROBOLINGGO","JL. JERUK 66-68","Prop. Jawa Timur","SMA","-7.8027000","113.2109000"
"20551884","SMAS SABILUL HUDA","JL. KH.SYARBINI","Prop. Jawa Timur","SMA","-7.0186000","113.7024000"
"20532387","SMAS DR SOETOMO","JL. SEMOLOWARU NO. 9","Prop. Jawa Timur","SMA","-7.2988000","112.7643000"
"20503626","SMA ISLAM MOJOPAHIT","JL. INPRES 25 MOJODUWUR","Prop. Jawa Timur","SMA","-7.6393000","112.3243000"
"20549767","SMAS AL BAKRIYAH","JL.RAYA LOMAER","Prop. Jawa Timur","SMA","-7.1112000","113.1019000"
"20507717","SMAN 1 DAGANGAN","JL. Gerilya No. 7","Prop. Jawa Timur","SMA","-7.7105000","111.5520000"
"69955069","SMAS FAIDLON NUJUM","Dusun Karang Aor","Prop. Jawa Timur","SMA","-7.2012160","113.2420510"
"69862429","SMA PUNCAK DARUSSALAM","JL. PUNCAK DARUSSALAM DESA POTOAN DAYA","Prop. Jawa Timur","SMA","-7.0782040","113.4732220"
"69923012","SMAS DARUT TAUHID AL MALIKY","Jl. Ponpes Darut Tauhid","Prop. Jawa Timur","SMA","-7.1710210","113.1681450"
"20532400","SMAS GARUDA SURABAYA","JL. MANUKAN WASONO GANG LEBAR","Prop. Jawa Timur","SMA","-7.2719000","112.6651000"
"69886256","SMA AL-MURSYIDIYAH","DUSUN GRESIK DESA TLOKOH","Prop. Jawa Timur","SMA","-7.0065217","113.1092483"
"20538395","SMAN 1 PRAMBON","JL. A. YANI 1 SUGIHWARAS PRAMBON","Prop. Jawa Timur","SMA","-7.6810000","112.0074000"
"20562426","SMAS ISLAM MIFTAHUL AFKAR","JL. WALISONGO","Prop. Jawa Timur","SMA","-7.7461000","113.4282000"
"20532161","SMAS MUHAMMADIYAH 4 SURABAYA","JL. KEMLATEN BARU NO. 43","Prop. Jawa Timur","SMA","-7.3311000","112.7043000"
"20533665","SMAN 3","JL. SULTAN AGUNG UTARA NO. 7","Prop. Jawa Timur","SMA","-7.9759000","112.6354000"
"20503620","SMA PANCASILA","JL. WINDU 9 MOJOWARNO","Prop. Jawa Timur","SMA","-7.6403000","112.3008000"
"69725225","SMAS AL-HIDAYAH","DESA LOMBANG DAJAH, BLEGA","Prop. Jawa Timur","SMA","-7.1387000","112.9886000"
"20500653","SMAS ISLAM DUDUK SAMPEYAN","JL. MASJID JAMI 242","Prop. Jawa Timur","SMA","-7.1523000","112.5191000"
"20549833","SMAS EMPAT LIMA 1","JL. UTARA LAPANGAN","Prop. Jawa Timur","SMA","-7.1856000","112.1974000"
"20514344","SMAN 1 TALUN","JL RAYA KAWERON TALUN","Prop. Jawa Timur","SMA","-8.0817000","112.3046000"
"69756264","SMAS IHYAUL IMAN","DS. RENTENG","Prop. Jawa Timur","SMA","-7.8773000","113.4499000"
"20501848","SMAS DHARMA WANITA 2","JL. RAYA TARIK","Prop. Jawa Timur","SMA","-7.4615000","112.5159000"
"20506299","SMAS MUHAMMADIYAH 11 LAREN","DESA BRANGSI","Prop. Jawa Timur","SMA","-6.9750000","112.3658000"
"20540070","SMAS TRIBAKTI","JL. KALITENGAH","Prop. Jawa Timur","SMA","-7.5102000","112.7095000"
"69874373","SMA KRISTEN ELYON","Jl. Raya Sukomanunggal Jaya No. 33 A Surabaya","Prop. Jawa Timur","SMA","-7.2621870","112.6995810"
"20501869","SMAS R RAHMAT","JL.  RAYA BALONGBENDO","Prop. Jawa Timur","SMA","-7.4117000","112.5365000"
"20541224","SMAS MUHAMMADIYAH 2 SUMBERREJO","JL. KOMP. MASJID AT - TAQWA","Prop. Jawa Timur","SMA","-7.1781000","112.0002000"
"20564425","SMA TIQ RAUDLATUL MUHIBBIN","JL. KARANG DAJA","Prop. Jawa Timur","SMA","-6.8543000","115.3127000"
"20562203","SMAN 1 BANTARAN","JL. RAYA TEMPURAN NO.139","Prop. Jawa Timur","SMA","-7.8445000","113.1782000"
"20532408","SMAS ADVENT","JL. ANJASMORO NO. 12","Prop. Jawa Timur","SMA","-7.2588000","112.7308000"
"20539851","SMAN SENDURO","JL. RAYA SENDURO","Prop. Jawa Timur","SMA","-8.1020000","113.1037000"
"20535457","SMAS ISLAM","JL. KH. ABDUL KHAMID 98 B PASURUAN","Prop. Jawa Timur","SMA","-7.6436000","112.9008000"
"20506309","SMAS DARUL ULUM SUGIO","JL. PONPES DARUL ULUM MEDALI","Prop. Jawa Timur","SMA","-7.1994000","112.2853000"
"69786946","SMA RAUDLATUL ULUM","JL. ASAM RAYA KOTALON BATAH TIMUR","Prop. Jawa Timur","SMA","-7.1754000","112.9090000"
"20540166","SMAS BHAKTI NEGARA","JL.RAYA PURWOHARJO  NO.22","Prop. Jawa Timur","SMA","-8.4597000","114.2345000"
"20566557","SMAS SABILUL IHSAN","JL.JALMAK TEJA TIMUR","Prop. Jawa Timur","SMA","-7.1722000","113.4668000"
"69841143","SMA NU AL FUDLOLI","Jl. Raya Ganjaran No. 06 Gondanglegi","Prop. Jawa Timur","SMA","-8.1450820","112.6148130"
"69877296","SMA ISLAM DARUL KAROMAH","DUSUN BICABBI","Prop. Jawa Timur","SMA","-7.1193000","113.5431000"
"20540167","SMAS KATOLIK HIKMAH MANDALA","JL. JAKSA AGUNG SUPRAPTO NO.74","Prop. Jawa Timur","SMA","-8.2163130","114.3610350"
"20554539","SMAS BRAWIJAYA SMART SCHOOL","JL. CIPAYUNG NO. 10 MALANG","Prop. Jawa Timur","SMA","-7.9546000","112.6164000"
"20549256","SMAS BUSTANUS SYUBBAN","GUNUNG KESAN","Prop. Jawa Timur","SMA","-6.9107000","113.3037000"
"20505006","SMAS NURUL ANWAR MONTONG","JL. PAKEL-SUMURGUNG NO. 15 MONTONG","Prop. Jawa Timur","SMA","-6.9600300","111.8979300"
"20529971","SMAN 1 GAYAM","Jl. Raya Banasem","Prop. Jawa Timur","SMA","-7.1542000","114.3095000"
"20534387","SMAN 3 KEDIRI","JL. MAUNI 88","Prop. Jawa Timur","SMA","-7.8323000","112.0441000"
"20549260","SMAS NAZHATUT THULLAB","JL. RAYA PRAJJAN","Prop. Jawa Timur","SMA","-7.1983000","113.3217000"
"20522670","SMAS ISLAM AL ISHLAH BESUKI","JL. JAWA NO. 54 BESUKI","Prop. Jawa Timur","SMA","-7.7313000","113.6899000"
"20542496","SMAN 1 DURENAN","JL. RAYA KENDAL REJO NO. 82","Prop. Jawa Timur","SMA","-8.1202000","111.7933000"
"20502726","SMAN 1 PURI","JL. JAYANEGARA NO.2","Prop. Jawa Timur","SMA","-7.4828000","112.4397000"
"20551897","SMAS AL IFTITAHIYAH","JL. SOMBER TOMBET BATUPUTIH","Prop. Jawa Timur","SMA","-6.9143000","113.9244000"
"20506292","SMA NEGERI 1 BABAT","JL. SUMOWIHARJO 1 BABAT","Prop. Jawa Timur","SMA","-7.1086000","112.1715000"
"69880767","SMA NURUL HUDA","DESA TRAMOK","Prop. Jawa Timur","SMA","-6.9693033","113.0228967"
"20538319","SMAS MUHAMMADIYAH 1 NGANJUK","JL. PANGLIMA SUDIRMAN 10 NGANJUK","Prop. Jawa Timur","SMA","-7.5993000","111.9030000"
"20505008","SMAN 2 TUBAN","JL. DR. WAHIDIN SUDIROHUSODO NO. 869 SIDOREJO TUBAN","Prop. Jawa Timur","SMA","-6.9007833","112.0481350"
"20540169","SMAS NU GENTENG","JL. K.H. HASYIM ASYARI NO.157","Prop. Jawa Timur","SMA","-8.3525930","114.1629850"
"20540058","SMAS KEMALA BHAYANGKARI 3","JL. BHAYANGKARI NO. 36 C","Prop. Jawa Timur","SMA","-7.5408000","112.6936000"
"20554163","SMA NU NURUL HIKMAH","JL. RAYA PANCUR","Prop. Jawa Timur","SMA","-7.8170000","113.9806000"
"20523793","SMAS 2 DIPONEGORO WULUHAN","JL. PAHLAWAN  186","Prop. Jawa Timur","SMA","-8.3282000","113.5474000"
"20531152","SMAS MAARIF","JL.KH. ACHMAD MARZUKI 30","Prop. Jawa Timur","SMA","-7.0274000","112.7419000"
"20517836","SMAS ISLAM KARANGPLOSO","JL. PANGLIMA BESAR SUDIRMAN KARANGPLOSO N0. 77","Prop. Jawa Timur","SMA","-7.8961000","112.5935000"
"20523827","SMAN 5 JEMBER","Jalan Semangka 4","Prop. Jawa Timur","SMA","-8.1350000","113.7231000"
"20527237","SMAN 3 PAMEKASAN","JL. PINTU GERBANG 37","Prop. Jawa Timur","SMA","-7.1521720","113.4754450"
"20501873","SMAS MUHAMMADIYAH 4","JL. RAYA LAJUK","Prop. Jawa Timur","SMA","-7.5285000","112.6766000"
"20532132","SMA KRISTEN DHARMA MULYA","JL. RAYA DUKUH KUPANG BARAT 32","Prop. Jawa Timur","SMA","-7.2796000","112.7088000"
"20502669","SMAS 45 PACET","JL. PACET - TRAWAS NO.21","Prop. Jawa Timur","SMA","-7.6688000","112.5427000"
"69849409","SMA NURUL MUTTAQIN ALBAROKHAH","JL. NURUL MUTTAQIN 39 MALANG","Prop. Jawa Timur","SMA","-8.0221900","112.6535540"
"20510136","SMAS PGRI 1 PONOROGO","JL. ASTROKORO 39","Prop. Jawa Timur","SMA","-7.8671150","111.4573933"
"20549721","SMAS AL HIKMAH SURABAYA","JL. KEBON SARI ELVEKA V","Prop. Jawa Timur","SMA","-7.3242000","112.7202000"
"20505007","SMAN 3 TUBAN","JL. MANUNGGAL 14 GEDONGOMBO SEMANDING","Prop. Jawa Timur","SMA","-6.9048000","112.0804000"
"20510150","SMAN 1 PONOROGO","JL. BUDI UTOMO 1 PONOROGO","Prop. Jawa Timur","SMA","-7.8637000","111.4946000"
"20503622","SMA MUHAMMADIYAH 1 JOMBANG","JL. DR. SUTOMO NO. 13 JOMBANG","Prop. Jawa Timur","SMA","-7.5533000","112.2330000"
"20513141","SMAS K ST AUGUSTINUS NGANJUK","JL. WILIS KOTAK POS 20 NGANJUK","Prop. Jawa Timur","SMA","-7.6110000","111.9154000"
"20571842","SMAS NURUL HIDAYAH","JL.KH.FADHOL 524","Prop. Jawa Timur","SMA","-7.7779000","113.1869000"
"20506332","SMAS NU 1 MODEL ","Jl. Sukodadi-Karanggeneng No. 76 Desa Sungelebak  Kecamatan Karanggeneng","Prop. Jawa Timur","SMA","-7.0380000","112.3492000"
"69815463","SMA AL FATH","DESA PATEREMAN","Prop. Jawa Timur","SMA","-7.2056000","113.0403000"
"20540375","SMAS KYAI AGENG BASYARIYAH","JL EMPU NURYO NO 1","Prop. Jawa Timur","SMA","-7.7000000","111.5523000"
"20505057","SMAS ISLAMIYAH SENORI","Jl. Prawiro Sadir No.04 Jatisari Senori","Prop. Jawa Timur","SMA","-7.0168000","111.7239000"
"20541246","SMAS PGRI 1 BOJONEGORO","JL. ARIEF RAHMAN HAKIM NO. 02 BJN","Prop. Jawa Timur","SMA","-7.1711000","111.8781000"
"69929905","SMAS SITI AMINAH","Dusun Bunga Manis Bistah","Prop. Jawa Timur","SMA","-7.1403830","113.2574720"
"20533638","SMAS KATOLIK COR YESU","JL. JA. SUPRAPTO 55","Prop. Jawa Timur","SMA","-7.9678000","112.6329000"
"69774631","SMA AL-ITSBATIYAH DARUL ULUM BANYUANYAR","Dsn. Ponpes Banyuanyar","Prop. Jawa Timur","SMA","-7.0767000","113.4648000"
"20566556","SMA PLUS AL KAUTSAR","JL.BONOROGO 153","Prop. Jawa Timur","SMA","-7.1580000","113.4982000"
"20534115","SMAS PSM KOTA MADIUN","JL. PANGLIMA SUDIRMAN 90 B","Prop. Jawa Timur","SMA","-7.6305000","111.5228000"
"20547806","SMAS BUSTANUL ULUM RANUYOSO","JL. Wisata Ranubedali","Prop. Jawa Timur","SMA","-7.9184000","113.2520000"
"20561783","SMA MARGIE","JL. KUWUKAN NO.24A GRAHA NATURA","Prop. Jawa Timur","SMA","-7.2809000","112.6560000"
"69786790","SMA AN NUR","PP Miftahul Ulum Taman Baru","Prop. Jawa Timur","SMA","-7.1142000","113.4699000"
"69877340","SMA MAARIF NU MIFTAHUL ULUM","JL. CUKURGULING KULON","Prop. Jawa Timur","SMA","-7.7849830","112.9787120"
"20583918","SMAS PUTERA BANGSA","Jl. Raya Cellong","Prop. Jawa Timur","SMA","-6.9705000","115.3473000"
"20503414","SMA NEGERI 2 JOMBANG","JL. DR WAHIDIN S .1 JOMBANG","Prop. Jawa Timur","SMA","-7.5517000","112.2269000"
"20501872","SMAS PANCA BHAKTI","JL. JIMBARAN KULON 12","Prop. Jawa Timur","SMA","-7.4404000","112.6296000"
"69901944","SMAS AL-QORNAIN","Jl. KH. Choiruddin Tobelinger","Prop. Jawa Timur","SMA","-6.9208080","113.1740970"
"20536831","SMAS ISLAM HASYIM ASY ARI BATU","JL. SEMERU 22 B BATU","Prop. Jawa Timur","SMA","-7.8702000","112.5283000"
"69900606","SMA MAMBAUL HIKMAH","Dsn Kerten","Prop. Jawa Timur","SMA","-7.4854000","111.3851000"
"20537427","SMAS BUSTANUL MUBTADIN","JL. RAYA PROPPO","Prop. Jawa Timur","SMA","-7.1232000","113.4154000"
"20503407","SMA NEGERI NGORO","JL.KAWI 6 NGORO","Prop. Jawa Timur","SMA","-7.6902000","112.2649000"
"20573214","SMAN 1 BUBULAN","JL. RAYA BUBULAN NOMOR 135","Prop. Jawa Timur","SMA","-7.3287000","111.8132000"
"20537425","SMA AL AMIEN","JL. PINTU GERBANG NO 171 BUGIH PAMEKASAN","Prop. Jawa Timur","SMA","-7.1398230","113.4764820"
"20517711","SMAS WIDYA DHARMA TUREN","JL. MAYOR DAMAR 167 TUREN","Prop. Jawa Timur","SMA","-8.1702000","112.7055000"
"20508474","SMAS MUHAMMADIYAH 2 NGAWI","DS. KEDUNGGUDEL, WIDODAREN","Prop. Jawa Timur","SMA","-7.4387000","111.2133000"
"20502670","SMAS ISLAM ROUDLOTUN NASYIIN","JL. PENDIDIKAN NO.05","Prop. Jawa Timur","SMA","-7.4295000","112.3729000"
"20532120","SMAS SURYO NUGROHO SURABAYA","JL. BENDUL MERISI NO. 156","Prop. Jawa Timur","SMA","-7.3059000","112.7410000"
"20552084","SMA AL FALAH","JL. PP. AL FALAH SUMBER GAYAM","Prop. Jawa Timur","SMA","-7.0952000","113.5637000"
"20521460","SMAN 1 TEMPEH","JL. RAYA TEMPEH","Prop. Jawa Timur","SMA","-8.2106000","113.1702000"
"20533639","SMAN 7","JL. CENGGER AYAM I/14","Prop. Jawa Timur","SMA","-7.9450000","112.6289000"
"20528659","SMAN 3 SAMPANG","JL. DIPONEGORO 50","Prop. Jawa Timur","SMA","-7.1112000","113.2623000"
"20523807","SMAS ST PAULUS","JL. TRUNOJOYO 22C","Prop. Jawa Timur","SMA","-8.1741000","113.7019000"
"20521748","SMA ISLAM RA`IYATUL HUSNAN","JL. RAYA WRINGIN","Prop. Jawa Timur","SMA","-7.8188000","113.7601000"
"20517830","SMAS MAARIF LAWANG","JL. MH. THAMRIN NO. 8 LAWANG","Prop. Jawa Timur","SMA","-7.8390000","112.6986000"
"20511008","SMAS MUHAMMADIYAH PACITAN","JL. GAJAH MADA NO. 20","Prop. Jawa Timur","SMA","-8.1980800","111.1071567"
"20538321","SMAN 1 NGANJUK","JL. KAPT. KASIHIN HS NO.4 CANGKRINGAN NGANJUK","Prop. Jawa Timur","SMA","-7.6009000","111.8890000"
"20533613","SMAS PANJURA","JL. KELUD 9","Prop. Jawa Timur","SMA","-7.9805000","112.6260000"
"20525867","SMAS SULTAN AGUNG ROGOJAMPI","JL. KH. HASYIM ASHARI 03","Prop. Jawa Timur","SMA","-8.3116000","114.2959000"
"20525601","SMAN DARUSSHOLAH SINGOJURUH","JL. GUMIRIH NO.39","Prop. Jawa Timur","SMA","-8.3155000","114.2317000"
"20536843","SMAS IMMANUEL BATU","JL. WUKIR NO. 1 BATU","Prop. Jawa Timur","SMA","-7.8783000","112.5354000"
"69932757","SMA BABUL KHAIRAT","Dusun Kertosari RT 02 RW 03","Prop. Jawa Timur","SMA","-7.7904000","112.7410000"
"20520824","SMAS PGRI YOSOWILANGUN","JL. Barat Pasar Yosowilangun","Prop. Jawa Timur","SMA","-8.2337000","113.3088000"
"20533628","SMA IBNU SINA","JL. LA.  ADI SUCIPTO 334 B","Prop. Jawa Timur","SMA","-7.9485000","112.6582000"
"20519300","SMAN 1 KEJAYAN","JL. KABUPATEN SLADI KEJAYAAN","Prop. Jawa Timur","SMA","-7.7036000","112.8738000"
"69907701","SMA Zainal Abidin","Brani Kulon","Prop. Jawa Timur","SMA","-7.8882000","113.3367000"
"20525872","SMAN 1 BANGOREJO","JL. BHAYANGKARA NO. 67","Prop. Jawa Timur","SMA","-8.4849950","114.1403650"
"20538320","SMAS MUHAMMADIYAH 3 WARUJAYENG","JL. RAYA KEDIRI","Prop. Jawa Timur","SMA","-7.6368000","112.0160000"
"20520816","SMAS KRISTEN YBPK TEMPURSARI","JL. GEREJA NO. 42 TEMPURSARI","Prop. Jawa Timur","SMA","-8.2894000","112.9771000"
"20506312","SMAS EMPAT LIMA 1 BABAT","JL. RAYA BEDAHAN NO. 89  DESA BEDAHAN KECAMATAN BABAT","Prop. Jawa Timur","SMA","-7.1003000","112.1844000"
"20533611","SMAS KRISTEN SETYA BUDI","JL. PISANG KIPAS 58","Prop. Jawa Timur","SMA","-7.9436000","112.6180000"
"20554380","SMAS ROUDLOTUL MUSTHOFA","Jl. Semeru No. 19 Penanggal","Prop. Jawa Timur","SMA","-8.1407000","113.0361000"
"20517786","SMAS AR ROHMAH DAU","JL. RAYA APEL NO. 61","Prop. Jawa Timur","SMA","-7.9179000","112.5754000"
"20541407","SMAS AL - YASINI KRATON","JL. PONDOK PESANTREN TERPADU","Prop. Jawa Timur","SMA","-7.6935000","112.8240000"
"20554166","SMAS ISLAM DARUL FIKRI","JL JATISARI-WRINGIN NO.1","Prop. Jawa Timur","SMA","-7.8293000","113.7530000"
"20554268","SMAS ARROHMANIYAH","JL. OMBUL - BERINGIN","Prop. Jawa Timur","SMA","-7.0562000","113.1484000"
"20551903","SMAS IBNU SHOLEH","JL. DS. TENGGINAH","Prop. Jawa Timur","SMA","-6.9928000","112.8356000"
"20539242","SMA TERPADU YPP NURUL HUDA","JL. SENCAKI 64","Prop. Jawa Timur","SMA","-7.2325000","112.7482000"
"69888816","SMA NEGERI 1 BANYUPUTIH","Jl. Baluran Indah","Prop. Jawa Timur","SMA","-7.9207000","114.3942000"
"20560315","SMAN 4 BANGKALAN","JL. RAYA PERTAHANAN 4","Prop. Jawa Timur","SMA","-7.0209000","112.7636000"
"20553941","SMAS DARUL ULUM","PONCOL MAGETAN","Prop. Jawa Timur","SMA","-7.7292000","111.2578000"
"20540045","SMAS AL FATAH","JL. BANJARSARI","Prop. Jawa Timur","SMA","-7.4125000","112.7395000"
"20500481","SMAN 1 CERME","JL. RAYA CERME LOR 176 CERME","Prop. Jawa Timur","SMA","-7.2266000","112.5569000"
"69830514","SMA ISLAM KOTA BLITAR","JL. KOLONEL SUGIONO","Prop. Jawa Timur","SMA","-8.0833640","112.1864080"
"20536279","SMAS TAMAN MADYA PROBOLINGGO","JL. SUROYO 8 PROBOLINGGO","Prop. Jawa Timur","SMA","-7.7516000","113.2146000"
"20503862","SMA MISYKAT AL ANWAR","JL.GERIYA 52 KWARON, DIWEK","Prop. Jawa Timur","SMA","-7.6054000","112.2347000"
"20511861","SMAS ISLAM GURAH","JL. KRAMAT NO.380 RT 002  / RW 004 GURAH","Prop. Jawa Timur","SMA","-7.8095000","112.0888000"
"20527238","SMAN 4 PAMEKASAN","JL. PINTU GERBANG NO. 39A","Prop. Jawa Timur","SMA","-7.1512350","113.4758150"
"20520815","SMAS JENDERAL SUDIRMAN LUMAJANG","JL. MAHAKAM NO. 07 LUMAJANG","Prop. Jawa Timur","SMA","-8.1396000","113.2321000"
"20532401","SMAS GEMA 45","JL. MAYJEND SUNGKONO NO. 106","Prop. Jawa Timur","SMA","-7.2901000","112.7210000"
"20506329","SMAS SUNAN DRAJAT SUGIO","JALAN RAYA SUGIO NO. 397 DESA SUGIO KECAMATAN SUGIO","Prop. Jawa Timur","SMA","-7.1572000","112.2934000"
"20537010","SMAS MUHAMMADIYAH 2","JL. KUALA  41 SANGKAPURA","Prop. Jawa Timur","SMA","-5.8444000","112.6592000"
"20521746","SMAS MUHAMMADIYAH BONDOWOSO","JL. MAYJEN PANJAITAN NO.48","Prop. Jawa Timur","SMA","-7.9227000","113.8210000"
"20505016","SMAS TARBIYATUL ULLUM RENGEL","JL. DIPONEGORO NO. 07 DESA PEKUWON RENGEL","Prop. Jawa Timur","SMA","-7.0737000","111.9735000"
"20505010","SMAN 1 TAMBAKBOYO","JL. RAYA SOBONTORO TAMBAKBOYO","Prop. Jawa Timur","SMA","-6.8006000","111.8637000"
"20574581","SMAN MODEL TERPADU","JL. RAYA SUKOWATI NO. 00","Prop. Jawa Timur","SMA","-7.1760000","111.9069000"
"20538393","SMAN 1 GONDANG","JL. RAYA GONDANG NGANJUK","Prop. Jawa Timur","SMA","-7.5255000","111.9450000"
"69942299","SMAS PESANTREN TERPADU ROUDLOTUL HUDA","Dusun Karangsari","Prop. Jawa Timur","SMA","-7.4976670","112.4180290"
"69934583","SMA NAZHATUT THOLIBIN","Jl. Ky. Jamal Hasibi","Prop. Jawa Timur","SMA","-7.8388000","113.3033000"
"20534383","SMAN 7 KEDIRI","JL. PENANGGUNGAN 4","Prop. Jawa Timur","SMA","-7.8135000","112.0001000"
"20549237","SMAS ROUDLATUT THULLAB","JL. JEMBER 17","Prop. Jawa Timur","SMA","-8.3284000","114.0874000"
"20535453","SMAS MUHAMMADIYAH 1","JL. IR.H. JUANDA NO. 54","Prop. Jawa Timur","SMA","-7.6497000","112.9195000"
"20529938","SMA ISLAM BAITURRAHMAH","JL. RAYA GANDING","Prop. Jawa Timur","SMA","-7.0385000","113.7024000"
"69786206","SMAS DARUL AKHLAQ","Dusun Kramat","Prop. Jawa Timur","SMA","-7.7590000","113.1525000"
"20532113","SMAS WIJAYA PUTRA","JL. BENOWO","Prop. Jawa Timur","SMA","-7.2441000","112.6322000"
"20532389","SMAS IPIEMS","JL MENUR NO. 125","Prop. Jawa Timur","SMA","-7.2859000","112.7631000"
"20517839","SMAS JENDERAL SUDIRMAN KALIPARE","JL. JEND. SUDIRMAN NO. 31 KALI PARE","Prop. Jawa Timur","SMA","-8.2456000","112.4249000"
"20522641","SMAN 1 PANJI","JL. ARGOPURO NO.1A","Prop. Jawa Timur","SMA","-7.7041960","114.0154230"
"20534306","SMAS DIPONEGORO","JL. RAUNG 37","Prop. Jawa Timur","SMA","-7.8322000","111.9957000"
"20511950","SMAN 1 PUNCU","DS. ASMOROBANGUN KEC.PUNCU","Prop. Jawa Timur","SMA","-7.8400000","112.2617000"
"20523813","SMAS ARGOPURO PANTI","JL.LAPANGAN NO.39","Prop. Jawa Timur","SMA","-8.1667000","113.6273000"
"20504477","SMAN 1 NGRAHO","JL. RAYA NGRAHO NO. 60 NGRAHO","Prop. Jawa Timur","SMA","-7.2267000","111.5580000"
"69878254","SMA DARUT TAQWA","Jl. PP Darut Taqwa","Prop. Jawa Timur","SMA","-7.7892490","113.5294720"
"20500463","SMAS MUHAMMADIYAH 1 GRESIK","JL. KH. KHOLIL NO.90 GRESIK","Prop. Jawa Timur","SMA","-7.1498000","112.6555000"
"20511864","SMAS DHARMA WANITA PARE","JL. JEND A. YANI NO.1  PARE","Prop. Jawa Timur","SMA","-7.7688000","112.1967000"
"20511958","SMAN 1 KANDAT","JL. RAYA PULE NO.71,DS.PULE,KC.KANDAT","Prop. Jawa Timur","SMA","-7.8995000","112.0339000"
"20520818","SMAN CANDIPURO","JL.Jenderal Sudirman No.61, Candipuro","Prop. Jawa Timur","SMA","-8.1974000","113.0826000"
"69906318","SMA ZAINUR RIDLA","DESA NONGGUNONG","Prop. Jawa Timur","SMA","-7.0897630","114.3356650"
"20534308","SMAS AR RISALAH","JL. AULA MUKTAMAR 2","Prop. Jawa Timur","SMA","-7.8174000","111.9913000"
"69870673","SMAS RAUDLATUT THULLAB","Jl. Desa Pandiyangan","Prop. Jawa Timur","SMA","-6.9625040","113.2740480"
"20531150","SMAS SAIDIYAH","JL. AERMATA BUDURAN AROSBAYA","Prop. Jawa Timur","SMA","-6.9476000","112.8549000"
"20532138","SMAS KATOLIK SANTA AGNES","JL. MENDUT NO. 7","Prop. Jawa Timur","SMA","-7.2577000","112.7549000"
"20552086","SMA AL MUNIRI","Jl. Raya Sumenep","Prop. Jawa Timur","SMA","-7.1421000","113.5365000"
"20549904","SMAS PGRI BLULUK","JL.RAYA SUKORAME BLULUK","Prop. Jawa Timur","SMA","-7.2760000","112.1341000"
"20534393","SMAS MUHAMMADIYAH","JL. PENANGGUNGAN 5","Prop. Jawa Timur","SMA","-7.8133000","112.0010000"
"20551895","SMA AT TA AWUN","JL. AIR TAWAR NO.02","Prop. Jawa Timur","SMA","-6.9053000","114.0304000"
"20532391","SMAS ISLAM KARTIKA SURABAYA","JL.  KALIANAK TIMUR GG. LEBAR NO. 11","Prop. Jawa Timur","SMA","-7.2312000","112.7115000"
"69757428","SMAS NABAWI MAFTAHUL ULUM","JL. KH. IMAM BUKHORI NO. 31","Prop. Jawa Timur","SMA","-8.1327240","112.1743660"
"20554397","SMAN 5 TUBAN","JL. RAYA BEKTIHARJO SEMANDING","Prop. Jawa Timur","SMA","-6.9351000","112.0570000"
"20564673","SMAS 10 NOPEMBER","Jl. Ahmad Yani No. 25","Prop. Jawa Timur","SMA","-7.3999000","112.4285000"
"20502720","SMAN 1 DAWARBLANDONG","JL. JON DJAROT  SUBIANTORO","Prop. Jawa Timur","SMA","-7.3314000","112.4215000"
"20514347","SMAN 1 SRENGAT","JL. RAYA BAGELENAN SRENGAT","Prop. Jawa Timur","SMA","-8.0656000","112.0919000"
"20533630","SMAS ISLAM","JL. RA. KARTINI 2","Prop. Jawa Timur","SMA","-7.9695000","112.6345000"
"20525873","SMAN SRONO","JL.RAYA WONOSOBO","Prop. Jawa Timur","SMA","-8.3716000","114.2915000"
"20540292","SMA DARUL ULUM 1 PETERONGAN","JL. REJOSO DESA PETERONGAN JOMBANG","Prop. Jawa Timur","SMA","-7.5446000","112.2754000"
"69882373","SMA AL AZHAR","DESA PASESEH","Prop. Jawa Timur","SMA","-6.9156430","113.0313280"
"69945516","SMA IRSYADUL MUBTADIIN","Jl. Jumitro","Prop. Jawa Timur","SMA","-7.8323820","113.4210860"
"20549258","SMAS DARUSSYAHID","JL. MERAPI NO 8 SAMPANG","Prop. Jawa Timur","SMA","-7.1962000","113.2517000"
"20506318","SMAS MUHAMMADIYAH 9 ","JL. EMBONG SEPUR GG. III NO.5 DESA SEDAYULAWAS","Prop. Jawa Timur","SMA","-6.8882000","112.2558000"
"20533620","SMAS WIDYA GAMA","JL. BOROBUDUR 12","Prop. Jawa Timur","SMA","-7.9398000","112.6376000"
"20500457","SMAS NU 3","JL. JOHAR NO. 2 B GEMPOL BENJENG","Prop. Jawa Timur","SMA","-7.2110000","112.4754000"
"20502723","SMAN 1 KUTOREJO","JL. LAPANGAN NO.2","Prop. Jawa Timur","SMA","-7.3827000","112.4038000"
"20517815","SMAS ISLAM AL-HIKMAH TAJINAN","JL. RAYA NO. 127 TAJINAN","Prop. Jawa Timur","SMA","-8.0511000","112.6872000"
"20549262","SMAN 1 KETAPANG","JL. RAYA BANYUATES - KETAPANG","Prop. Jawa Timur","SMA","-6.8973000","113.2409000"
"20551892","SMAS DDI MASALEMBU","JL. PENDIDIKAN NO 1 AMBULUNG","Prop. Jawa Timur","SMA","-7.1285000","114.7750000"
"20520825","SMAS PGRI TEMPEH","JL. DIPONEGORO NO.15 TEMPEH","Prop. Jawa Timur","SMA","-8.2047000","113.1779000"
"20574675","SMAN 4 BLITAR","Jl. Melati No. 49","Prop. Jawa Timur","SMA","-8.1054410","112.1634090"
"20519324","SMAS CANDRA WIDYA PANDAAN","JL. A. YANI NO. 70 PETUNG ASRI PANDAAN","Prop. Jawa Timur","SMA","-7.6549000","112.6921000"
"20540175","SMAS RAUDLATULSALAM GLENMORE","JL.P.B.SUDIRMAN","Prop. Jawa Timur","SMA","-8.2836000","114.1026000"
"20520806","SMAS DARUL ULUM TEMPEH","JL. HASANUDIN NO. 29","Prop. Jawa Timur","SMA","-8.1732000","113.2217000"
"69816265","SMAS ISLAM SUNAN GIRI","Dusun Dubaja","Prop. Jawa Timur","SMA","-7.0038000","113.3728000"
"20517820","SMAS PGRI GEDANGAN","JL. KARTINI NO. 366 GEDANGAN","Prop. Jawa Timur","SMA","-8.3081000","112.6565000"
"20540053","SMAS DHARMA WANITA 3","JL. SIDOARJO","Prop. Jawa Timur","SMA","-7.4158000","112.5716000"
"20549068","SMAS DIPONEGORO TULUNGAGUNG","JL.JAKSA AGUNG SUPRAPTO","Prop. Jawa Timur","SMA","-8.0640167","111.9022050"
"20506324","SMA NEGERI 1 KARANGBINANGUN","JL. DESA WINDU NO. 23","Prop. Jawa Timur","SMA","-7.0252000","112.4856000"
"20505015","SMAN 1 JATIROGO","JL. RAYA BADER NO. 20 JATIROGO","Prop. Jawa Timur","SMA","-6.8697000","111.6552000"
"20500482","SMAS YPM 4 DRIYOREJO","JL. SUMPUT DRIYOREJO","Prop. Jawa Timur","SMA","-7.3541000","112.6031000"
"20523841","SMAS WIYATA MANDALA","Jl. Mh. Thamrin 35 Ajung Wetan","Prop. Jawa Timur","SMA","-8.1739000","113.7029000"
"20549259","SMAS ISLAM HIDAYATUT THULLAB","JL. PP. HIDAYATUT THULLAB","Prop. Jawa Timur","SMA","-7.0330000","113.2984000"
"20525866","SMAS PLUS DARUL HIKMAH GAMBIRAN","JL.TEGALSARI GEMBOLO","Prop. Jawa Timur","SMA","-8.4516000","114.1774000"
"20519305","SMAS KR BAITHANI TUTUR","JL. RAYA PUTUK NONGKOJAJAR TUTUR","Prop. Jawa Timur","SMA","-7.9009000","112.8287000"
"20527230","SMAS WACHID HASYIM","JL. Parteker No. 1","Prop. Jawa Timur","SMA","-7.1641270","113.4797080"
"69773543","SMAS ISLAM DARUL ULUM","Jln. Mambulu Barat","Prop. Jawa Timur","SMA","-7.0485000","113.1355000"
"20540217","SMAS TAMAN MADYA","JL. SERAYU UTARA 14","Prop. Jawa Timur","SMA","-7.9618000","112.6417000"
"20548655","SMAN 1 TIRIS","Desa Ranuagung","Prop. Jawa Timur","SMA","-7.9691000","113.3970000"
"20564058","SMAS AL MIFTAH SUMBERBARU","JL.WARINGIN 75","Prop. Jawa Timur","SMA","-8.0443000","113.3668000"
"20535474","UPT SMA NEGERI 4 PASURUAN","JL. HASANUDIN NO. 76","Prop. Jawa Timur","SMA","-7.6396000","112.9005000"
"20536949","SMAS POMOSDA TANJUNGANOM","JL. KH. WACHID HASYIM 312","Prop. Jawa Timur","SMA","-7.6385000","112.0367000"
"20533625","SMAS KRISTEN 2 YPK JATIM","JL. Kelud No. 14 Malang","Prop. Jawa Timur","SMA","-7.9747000","112.6256000"
"20523808","SMAS 4 MA ARIF PERINTIS","JL. KH. ABD RAHMAN 31","Prop. Jawa Timur","SMA","-8.3005000","113.6761000"
"20549644","SMAS ISLAM AL WAHID KEPUNG","JL. HARINJING 169 A KEPUNG","Prop. Jawa Timur","SMA","-7.8086000","112.2741000"
"20534385","SMAN 5 KEDIRI","JL. SELOMANGLENG 2","Prop. Jawa Timur","SMA","-7.8098000","111.9802000"
"20517817","SMAS NAHDLATUL ULAMA PAKIS","JL. H. MUSTOFA 108 PAKIS","Prop. Jawa Timur","SMA","-7.9602000","112.7147000"
"20566350","SMAN 1 SENORI","JL. RAYA SIDOHARJO KM 07","Prop. Jawa Timur","SMA","-7.0490000","111.7519000"
"69761935","SMAS RAUDLATUL JANNAH","JL.TAPOSAN PALENGAAN DAYA","Prop. Jawa Timur","SMA","-7.0158000","113.4280000"
"20564429","SMAS TOHA PRAKTIKA","GILIGENTING","Prop. Jawa Timur","SMA","-7.1883000","113.8997000"
"20525853","SMAN 1 GAMBIRAN","JL.SRIWIJAYA NO.11","Prop. Jawa Timur","SMA","-8.4348000","114.1714000"
"20549683","SMAS ISLAM YKHS","JL.RAYA SEPULUH 1","Prop. Jawa Timur","SMA","-6.8983000","112.9653000"
"69762621","SMAS UNGGULAN NURUL FATA","JL. KH. MOH. SAID SEKAR ANYAR ROMBUH","Prop. Jawa Timur","SMA","-7.0708000","113.4380000"
"20523826","SMAN 4 JEMBER","JL. HAYAM WURUK 145","Prop. Jawa Timur","SMA","-8.1872000","113.6606000"
"20532118","SMAS TRI MURTI SURABAYA","JL. GUBERNUR SURYO  3","Prop. Jawa Timur","SMA","-7.2627000","112.7426000"
"20535475","UPT SMA NEGERI 3 PASURUAN","JL. SIMPANG SLAMET RIYADI NO. 144","Prop. Jawa Timur","SMA","-7.6487000","112.8871000"
"69947051","SMA Negeri 3","Jl. Joko Bundu","Prop. Jawa Timur","SMA","-7.8348000","112.5290000"
"69857710","SMA TRENSAINS TEBUIRENG","DESA JOMBOK","Prop. Jawa Timur","SMA","-7.6838000","112.2211000"
"69775757","SMAS DARUR ROSYAD","Jln. Pasar Bungkak","Prop. Jawa Timur","SMA","-7.0667000","113.1227000"
"20533664","SMAN 2","JL. LAKS. MARTADINATA  84","Prop. Jawa Timur","SMA","-7.9915000","112.6340000"
"69929483","SMAIT BAITUL ULUM","Tempel Legok Gempol","Prop. Jawa Timur","SMA","-7.5541000","112.6908000"
"20511007","SMAN 1 NAWANGAN","JL. PAKIS BARU NO.47","Prop. Jawa Timur","SMA","-7.9454000","111.1984000"
"20506301","SMAS MUHAMMADIYAH 3 MADURAN","Jl. Raya no. 34 Parengan","Prop. Jawa Timur","SMA","-6.9829000","112.2854000"
"69931541","SMA AR-ROSYIDAH","Jl. Kawi no.24 B Magetan","Prop. Jawa Timur","SMA","-7.6438200","111.3548820"
"20517813","SMAS ISLAM AHMAD YANI NGANTANG","JL. RAYA NO.03 SUMBERAGUNG","Prop. Jawa Timur","SMA","-7.8485000","112.3724000"
"20521712","SMAN 1 TENGGARANG","Jl. Raya Situbondo - Tenggarang No. 96","Prop. Jawa Timur","SMA","-7.9115510","113.8485160"
"20577809","SMAS AL - MIFTAH 3","JL. BAROKEM DAYA","Prop. Jawa Timur","SMA","-6.9838000","113.4320000"
"69790724","SMA DARUL HADITS","KAMP. TEREM","Prop. Jawa Timur","SMA","-6.9616000","112.9367000"
"20505018","SMAS PGRI 1 TUBAN","JL. AKBP SUROKO NO. 21 TUBAN","Prop. Jawa Timur","SMA","-6.9021167","112.0633550"
"20534105","SMAS MUHAMMADIYAH 1 MADIUN","JL. MASTRIP 18 MADIUN","Prop. Jawa Timur","SMA","-7.6325000","111.5322000"
"20551880","SMA SUNAN AMPEL","JL. RAYA MANDING 38","Prop. Jawa Timur","SMA","-6.9929000","113.8661000"
"20564427","SMAS TANWIRUL HIJAH","JL. KALIMAS CANGKRENG","Prop. Jawa Timur","SMA","-7.0404000","113.7999000"
"20533653","SMAN 5","JL. TANIMBAR 24","Prop. Jawa Timur","SMA","-7.9890000","112.6263000"
"20541225","SMAS MUHAMMADIYAH 3 KEDUNGADEM","JL. GAJAH MADA NO. 1","Prop. Jawa Timur","SMA","-7.3029000","112.0467000"
"20517728","SMAN 1 BANTUR","JL. RAYA REJOSARI BANTUR","Prop. Jawa Timur","SMA","-8.2756000","112.5992000"
"20521459","SMAN 1 PRONOJIWO","JL. AHMAD YANI PRONOJIWO","Prop. Jawa Timur","SMA","-8.2036000","112.9416000"
"20532244","SMAN 11 SURABAYA","PERUMNAS TANDES NO.1 Manukan Tandes Surabaya","Prop. Jawa Timur","SMA","-7.2621430","112.6608300"
"20506295","SMAS MAARIF NU NURUL HUDA PUCUK","JL.KH.KHOLIL NO.14","Prop. Jawa Timur","SMA","-7.0704000","112.2957000"
"20579322","SMAS DARUL MUNIR","JL. KLAMPIS BARAT","Prop. Jawa Timur","SMA","-6.8952000","112.9024000"
"20546976","SMAN WIDANG","JL. RAYA COMPRENG NO. 01 WIDANG","Prop. Jawa Timur","SMA","-7.0244000","112.1451000"
"20506254","SMA NEGERI 2 LAMONGAN","JL. VETERAN NO. 01 LAMONGAN","Prop. Jawa Timur","SMA","-7.1147000","112.4233000"
"20549269","SMAS PGRI PURI","Jl. Rajasanegara No. 28","Prop. Jawa Timur","SMA","-7.4932000","112.4370000"
"20501784","SMAN 1 KRIAN","JL. SUNANDAR PS NO.  5","Prop. Jawa Timur","SMA","-7.4019000","112.5782000"
"20541243","SMAN 1 TAMBAKREJO","JL. RAYA TAJI NGAMBON","Prop. Jawa Timur","SMA","-7.2678000","111.6159000"
"20505055","SMAS MAARIF 45 PLUMPANG","Jl. Masjid No. 07 Plumpang","Prop. Jawa Timur","SMA","-7.0186000","112.0604000"
"20514371","SMAS PGRI SRENGAT","DS.KENDALREJO SRENGAT","Prop. Jawa Timur","SMA","-8.0677000","112.0918000"
"20562215","SMAS ZAINUL HASAN 2 KRUCIL","Jln. PONPES ZAHA 2 TAMBELANG","Prop. Jawa Timur","SMA","-7.9642000","113.4876000"
"20533660","SMAN 1","JL. TUGU UTARA  1","Prop. Jawa Timur","SMA","-7.9769000","112.6348000"
"20529953","SMA PGRI SUMENEP","JL. KH. MANSYUR NO.43","Prop. Jawa Timur","SMA","-7.0165000","113.8790000"
"69889115","SMA PLUS NURUD DHALAM","JL K.MOH.RUSLAN NO.126 Ds. BERINGIN KEC.DASUK","Prop. Jawa Timur","SMA","-6.9280590","113.8050960"
"20507730","SMAN 1 SARADAN","JL RAYA SARADAN","Prop. Jawa Timur","SMA","-7.5528000","111.6995000"
"20574701","SMAS QUEEN AL FALAH","Pondok Pesantren Queen Al Falah","Prop. Jawa Timur","SMA","-7.9292000","111.9541000"
"69786941","SMA NEGERI 1 KOKOP","JL. RAYA BATOKOROGAN","Prop. Jawa Timur","SMA","-6.9362000","113.0274000"
"20506297","SMAS MUHAMMADIYAH 6 ","PP KARANGASEM MUHAMMADIYAH DESA PACIRAN KECAMATAN PACIRAN","Prop. Jawa Timur","SMA","-6.8757000","112.3400000"
"20549023","SMAS MUHAMMADIYAH 4 ","JL. KH. AHMAD DAHLAN  41 KELURAHAN JETIS","Prop. Jawa Timur","SMA","-7.1231000","112.4193000"
"20529962","SMAN 1 SAPEKEN","JL. RAYA SAPEKEN NO.33","Prop. Jawa Timur","SMA","-7.1644000","115.8147000"
"20525838","SMAS PGRI 6 GENTENG","K.H. WAHID HASYIM","Prop. Jawa Timur","SMA","-8.3562330","114.1476780"
"20570825","SMAS KRISTEN GLORIA 2 SURABAYA","JL. KALISARI SELATAN 1 NO. 3 PAKUWON CITY SURABAYA","Prop. Jawa Timur","SMA","-7.2726000","112.8095000"
"20535051","SMAN 2 BLITAR","JL. CILIWUNG NO. 396","Prop. Jawa Timur","SMA","-8.0726000","112.1737000"
"20540054","SMAS DHARMA WANITA 4","JL. KALIJATEN","Prop. Jawa Timur","SMA","-7.3507000","112.6946000"
"69952952","SMA JAC","JL. Puncak Permai Utara III / 9-11","Prop. Jawa Timur","SMA","-7.2709080","112.6412450"
"69859773","SMAS ISLAM BUSTANUS SHIBYAN","Jl. Desa Bulmatet - Karangpenang","Prop. Jawa Timur","SMA","-7.0085070","113.3973270"
"20540211","SMAS ADVENT DWI ABDI","JL. TERUSAN RAYA DIENG 31","Prop. Jawa Timur","SMA","-7.9708000","112.6035000"
"20525831","SMAS AL KAUTSAR","JL. PANDAN NO. 360","Prop. Jawa Timur","SMA","-8.3642000","114.2048000"
"20517816","SMAS MUHAMMADIYAH 1 KEPANJEN","JL. KH.A. DAHLAN 34 KEPANJEN","Prop. Jawa Timur","SMA","-8.1324000","112.5754000"
"20532246","SMAN 13 SURABAYA","JL. LIDAH KULON LAKARSANTRI","Prop. Jawa Timur","SMA","-7.3072000","112.6628000"
"20579490","SMAS ISLAM MIFTAHUL ULUM","Jl. Banjar Talela Dusun Gung Dalem","Prop. Jawa Timur","SMA","-7.1990000","113.2985000"
"69888791","SMA Nurul Ulum Al Hasani","DESA REK KERREK","Prop. Jawa Timur","SMA","-7.0926920","113.4326560"
"20503599","SMA PGRI MEGALUH","JL. HIRODINOTO 3 MEGALUH","Prop. Jawa Timur","SMA","-7.4924000","112.1721000"
"20500657","SMAS BANI HASYIM","JL. BANI HASYIM NO 01 LENGKONG CERME","Prop. Jawa Timur","SMA","-7.2511000","112.5204000"
"20531144","SMAS AL HIKAM","Jalan Raya Perumnas Tonjung Burneh No.1","Prop. Jawa Timur","SMA","-7.0363000","112.7869000"
"20540176","SMAS TARBIYATUL MURIDIN SRONO","JL.MAYOR SUPONO","Prop. Jawa Timur","SMA","-8.3526000","114.2399000"
"20527232","SMAN 1 PAKONG","JL.RAYA SUMBER BINTANG 24","Prop. Jawa Timur","SMA","-7.0297000","113.5427000"
"20508473","SMAS PGRI 1 NGAWI","JL.A.YANI","Prop. Jawa Timur","SMA","-7.4403000","111.4384000"
"20534390","SMAS WAHIDIYAH","JL. KH. WAHID HASYIM. PONPES KEDUNGLO","Prop. Jawa Timur","SMA","-7.8214000","112.0077000"
"20506310","SMAS DARUSSALAM LAREN","Jl. KH. DAHLAN RT 01 RW 01 DESA BULUBRANGSI KECAMATAN LAREN","Prop. Jawa Timur","SMA","-6.9590000","112.3549000"
"20505019","SMAS MUALLIMIN TUBAN","JL. MANUNGGAL NO. 12 SUKOLILO TUBAN","Prop. Jawa Timur","SMA","-6.9008583","112.0783300"
"20506240","SMA NEGERI 1 SEKARAN","JL. TELAGA NO. 07 DESA BULUTENGGER KECAMATAN SEKARAN","Prop. Jawa Timur","SMA","-7.1075000","112.2961000"
"20554820","SMAS FAVORIT NU TEGALDLIMO","JL.K.H.ROFI I NO.15","Prop. Jawa Timur","SMA","-8.5485000","114.3018000"
"69759019","SMA AL ANSHARIYAH","Jl. Raya Pamoroh","Prop. Jawa Timur","SMA","-7.0763000","113.5196000"
"69900362","SMA MAWAR SHARON CHRISTIAN SCHOOL","Jl. Raya Ngagel 123","Prop. Jawa Timur","SMA","-7.2729000","112.7310000"
"69888779","SMA DARUL QORORI","DUSUN LENTENG DESA SERABI BARAT","Prop. Jawa Timur","SMA","-7.1748100","112.9612710"
"20506307","SMAS ISLAM TERPADU AL AZHAR BRONDONG","JL.EMBONG SEPUR NO.342","Prop. Jawa Timur","SMA","-6.8871000","112.2719000"
"20520826","SMAS PGRI 1 LUMAJANG","JL. KOLONEL SUWANDI NO.34 LUMAJANG","Prop. Jawa Timur","SMA","-8.1204000","113.2320000"
"20500452","SMAS PGRI KEDAMEAN","JL. KEDAMEAN","Prop. Jawa Timur","SMA","-7.3240000","112.5614000"
"69893000","SMA AL - QODIRI","Desa Pakondang","Prop. Jawa Timur","SMA","-6.9580360","113.7454480"
"20551899","SMAS MUHAMMADIYAH","JL. KH MOH KHOLIL 31","Prop. Jawa Timur","SMA","-7.0303000","112.7460000"
"20541227","SMAS MUHAMMADIYAH 7 KEPOHBARU","JL. RAYA 640 SIDOMUKTI","Prop. Jawa Timur","SMA","-7.2208000","112.0945000"
"20533635","SMAS KATOLIK ST ALBERTUS","JL. TALANG NO.1","Prop. Jawa Timur","SMA","-7.9690000","112.6189000"
"20542499","SMAN 1 PULE","JL. RAYA JOMBOK GG SIDEM NO. 3","Prop. Jawa Timur","SMA","-8.1029000","111.5711000"
"69925739","SMA NU NURUL HAJAR","Desa Banraas Kec. Dungkek Kab. Sumenep","Prop. Jawa Timur","SMA","-6.9880480","114.0722950"
