"schoolId","schoolName","schoolAddress","province","school_level","lat","long"
"10110251","SMAS AL NURA LHOKSUKON","JL. COT GIREK NO.7","Prop. Aceh","SMA","4.9928000","97.3921000"
"10110901","SMAN 3 SIMEULUE BARAT","JL. AMA UMPUL","Prop. Aceh","SMA","2.4484000","96.3039000"
"10107963","SMAN 3 KUALA","JL.KEUCHIK INTAN PD. PAYANGAN","Prop. Aceh","SMA","4.0496000","96.2704000"
"10100572","SMAN 1 GLUMPANG TIGA","JL. BANDA ACEH - MEDAN KM. 129,8","Prop. Aceh","SMA","5.2481090","96.0122780"
"10100569","SMAN 1 BANDAR BARU","JL. BANDA ACEH - MEDAN KM 135 LUENG PUTU","Prop. Aceh","SMA","5.1852000","96.0815000"
"10110554","SMA NEGERI 2 TANAH JAMBO AYE","JL. T. CHIK DITUNONG PANTON LABU KEC.TANAH JAMBO AYE KAB.ACEH UTARA","Prop. Aceh","SMA","4.8598000","97.4533000"
"10100195","SMA NEGERI 1 INGIN JAYA","JL. TGK. COT MALEM","Prop. Aceh","SMA","5.5004300","95.3770917"
"10107157","SMAS SYAKIRAH","JL. BAKTI","Prop. Aceh","SMA","4.2258000","98.0644000"
"10105621","SMAN 3 LHOKSEUMAWE","JL. PEUTUA MALEM HAGU BARAT LAUT LSM","Prop. Aceh","SMA","5.1984890","97.1326800"
"10104525","SMA NEGERI 1 BLANGPEGAYON","JL. BLANGBENGKIK","Prop. Aceh","SMA","3.9692170","97.3349620"
"10101309","SMA NEGERI 1 MATANG KULI","JL. BABUSSALAM PUTRA","Prop. Aceh","SMA","5.0209000","97.2939000"
"10107086","SMA NEGERI 1 JULI","Jl. Gayo Km. 10 Beunyot","Prop. Aceh","SMA","5.1907000","96.7292000"
"69874011","SMA UNGGUL HIDAYATUL ILMI","Jl. Pulo Paya - KeudeeTrumon Sigleng","Prop. Aceh","SMA","2.8685180","97.6315060"
"10104315","SMAN 2 PATRA NUSA MANYAK PAYED","JL. MEDAN - BANDA ACEH KM-452 KAMPUNG BUKIT PANJANG DUA","Prop. Aceh","SMA","4.4063000","98.0389000"
"10107194","SMAN 10 FAJAR HARAPAN BANDA ACEH","JL. FAJAR HARAPAN ATEUK JAWO","Prop. Aceh","SMA","5.5355000","95.3270000"
"10113243","SMAN 6 DARUL MAKMUR","PULO TENGAH","Prop. Aceh","SMA","3.9920000","96.5703000"
"69759157","SMA NEGERI 1 PIRAK TIMU","JLN. CUT MEUTIA","Prop. Aceh","SMA","4.9944500","97.2756810"
"10103103","SMAN 1 LAWE ALAS","JL. CINGKAM MERANGGUN","Prop. Aceh","SMA","3.4196000","97.8233000"
"69874009","SMA NEGERI TRUMON TENGAH","Jl. Tapaktuan - Medan","Prop. Aceh","SMA","2.9039220","97.6521440"
"10103030","SMAN 1 KUTACANE","JL. INSKANDAR MUDA KUTACANE","Prop. Aceh","SMA","3.4664000","97.8257000"
"10101876","SMAN 1 IDI RAYEUK","JL. MEDAN - BANDA ACEH","Prop. Aceh","SMA","4.9400000","97.7790000"
"69888594","SMA SWASTA MANARUL ISLAM","Jl. Medan Banda Aceh","Prop. Aceh","SMA","4.1442000","98.0668000"
"10111595","SMA NEGERI 1 PANTON REE","JL.MEULABOH - TUTUT KM. 39","Prop. Aceh","SMA","4.4940000","96.2175000"
"69833370","SMAN 2 MADAT","Desa Blang Awe","Prop. Aceh","SMA","5.1404000","97.4800000"
"69947570","SMA SWASTA NURUL ISLAM","Jln. Banda Aceh - Medan","Prop. Aceh","SMA","5.1979000","96.5873000"
"69874080","SMA TERPADU AHLUSSUNNAH WALJAMAAH","Jln. Blang Mancung/Lr.Pesantren, Ds. Kebun Baru Kec. Wih Pesam","Prop. Aceh","SMA","4.7273770","96.7892970"
"10101186","SMA NEGERI 1 LANGKAHAN","JL. IRIGASI LANGKAHAN KM. 11,5","Prop. Aceh","SMA","5.0160000","97.4632000"
"10112863","SMAN 1 BIREM BAYEUN","JL. AIR TERJUN","Prop. Aceh","SMA","4.4060000","97.8872000"
"60726151","SMAN 1 DARUL FALAH","JL ULEE GAJAH DESA BUKET TUFAH","Prop. Aceh","SMA","4.9805000","97.6586000"
"10105619","SMAN 1 LHOKSEUMAWE","JL. DARUSSALAM","Prop. Aceh","SMA","5.1875640","97.1470980"
"10104269","SMAN 2 KEJURUAN MUDA","JL. MEDAN BANDA ACEH","Prop. Aceh","SMA","4.2703000","98.0598000"
"10104679","SMAS DARUL FALAH SEUNAGAN","JL. NASIONAL NO.1 JEURAM","Prop. Aceh","SMA","4.2303000","96.3065000"
"10110257","SMAS DARUL HIJRAH","JL. B.ACEH-MEDAN KM. 19","Prop. Aceh","SMA","5.5396000","95.6292000"
"69943660","SMA TERPADU RAUDHATUL ULUM","Jalan Tutue Ara - Keude Parek","Prop. Aceh","SMA","5.2271000","96.2907000"
"10111836","SMAN 7 LHOKSEUMAWE","JL. RANCONG","Prop. Aceh","SMA","5.2228770","97.0535070"
"10101180","SMAS RUHUL ISLAM","Jl. Exxon Mobil Cluster III","Prop. Aceh","SMA","4.9990000","97.1853000"
"10113405","SMA TERPADU BUSTANUL ULUM","JL. KKA BUNTUL KEMUMU","Prop. Aceh","SMA","4.7332000","96.8906000"
"10105387","SMAN 4 BANDA ACEH","JL. PANGLIMA NYAK MAKAM","Prop. Aceh","SMA","5.5851530","95.3321260"
"10101311","SMA NEGERI 1 KUTA MAKMUR","JL. BULOH BLANG ARA","Prop. Aceh","SMA","5.0871880","97.0300390"
"10102291","SMAS MUHAMMADIYAH 5 TAKENGON","JL. SENGEDA","Prop. Aceh","SMA","4.6350583","96.8528167"
"69946252","SMAN TITI BARO","JL.PEUDAWA - SEUNEUBOK KUYUN","Prop. Aceh","SMA","4.9538312","97.7492937"
"69726917","SMA NEGERI 2 KUTA MAKMUR","ALUE MBANG SIDO MULYO","Prop. Aceh","SMA","5.0334000","96.9982000"
"10102785","SMAN 1 SAWANG","JL. Tapaktuan-Blang Pidie","Prop. Aceh","SMA","3.3991000","97.0957000"
"69939943","SMA SWASTA AL FHATTANI","Gampong Matang Ben","Prop. Aceh","SMA","5.0713660","97.2890340"
"69889024","SMA Swasta Islam Zulkifliyah","Jln. Banda Aceh - Medan","Prop. Aceh","SMA","5.0287000","96.4048000"
"10110365","SMAN 1 PEUDAWA","JL. MEDAN - BANDA ACEH KM.383","Prop. Aceh","SMA","4.8757000","97.8448000"
"10108059","SMAN 2 KUALA","JL. MEULABOH - TAPAK TUAN","Prop. Aceh","SMA","4.0886000","96.2750000"
"10101872","SMAN 1 SIMPANG ULIM","JL. BANDA ACEH-MEDAN KM. 399","Prop. Aceh","SMA","5.0847000","97.5266000"
"10112848","SMA NEGERI 3 PEUSANGAN","Jl. T. Sulaiman, Balee Seutuy","Prop. Aceh","SMA","5.1462000","96.7039000"
"10104864","SMA NEGERI 1 ACEH BARAT DAYA","JL. PENDIDIKAN NO. 92 BLANGPIDIE","Prop. Aceh","SMA","3.7431000","96.8379000"
"10104048","SMAN 1 SINGKOHOR","JL. TONGKOL NO. 558","Prop. Aceh","SMA","2.4215000","97.8399000"
"60726437","SMA NEGERI 2 ALAFAN","JL. TGK. MOHD. AMINTAS","Prop. Aceh","SMA","2.8958000","95.7911000"
"10100177","SMA NEGERI 1 LEUPUNG","JL. TEUKU UMAR KM.19","Prop. Aceh","SMA","5.4357000","95.2417000"
"10108046","SMAN 4 KEJURUAN MUDA","JL. ALUR MERANTI","Prop. Aceh","SMA","4.2298000","98.0640000"
"10111326","SMAS PLUS MUHAMMADIYAH","JL. TEUKU UMAR","Prop. Aceh","SMA","2.6564000","97.9994000"
"10102259","SMAN 6 TAKENGON","JL. ANGKUP - RUSIP ANTARA","Prop. Aceh","SMA","4.6355750","96.7150950"
"69896284","SMA DARUSSAADAH PIJAY","Gp. Reudeup","Prop. Aceh","SMA","5.2459780","96.1471420"
"10102794","SMAN 1 BAKONGAN","JL. SKEP KEUDE BAKONGAN","Prop. Aceh","SMA","2.9281000","97.4817000"
"10104529","SMA NEGERI 1 KUTAPANJANG","JL.ABDL.HAMID NO.99 KUTAPANJANG","Prop. Aceh","SMA","4.0203540","97.2811030"
"10113045","SMAN 1 JANGKA BUYA","JL.JANGKA BUYA","Prop. Aceh","SMA","5.2222000","96.3215000"
"10107931","SMA NEGERI 3 UNGGUL SIGLI","Jln.Lingkar Blang Paseh","Prop. Aceh","SMA","5.3704000","95.9650000"
"10113367","SMA SWASTA RAUDHATUL JANNAH","Jln. Syeh Hamzah Fansyuri","Prop. Aceh","SMA","2.6775910","98.0284550"
"10110280","SMA NEGERI 1 PINING","JL.LADIA GALASKA - PINING - LUKUP SERBEJADI KM. 42","Prop. Aceh","SMA","4.0610000","97.4489000"
"10101909","SMAN 1 PANTEE BIDARI","JL.  TEUPIN BATEE MNS.  TUNONG","Prop. Aceh","SMA","5.0068000","97.5975000"
"10103096","SMAN 1 BAMBEL","JL. MEDAN - KUTACANE RIKIT BUR","Prop. Aceh","SMA","3.4370000","97.8824000"
"60724680","SMA NEGERI 1 MESIDAH ","Jl. Jamur Atu","Prop. Aceh","SMA","4.6566000","97.1145000"
"10110894","SMAN 1 ALAFAN","JL. LINGKAR SIMEULUE","Prop. Aceh","SMA","2.8249000","95.7464000"
"10105059","SMA NEGERI 1 PANGA","JL. HARUN GADENG NO.04 KEUDE PANGA","Prop. Aceh","SMA","4.5389922","95.7225860"
"10107492","SMAS BINA BANGSA","COT GEUNDRET","Prop. Aceh","SMA","5.5087550","95.4004167"
"10113050","SMA NEGERI 2 BANDAR DUA","JL ULEE GLE BARAT GP BLANG KUTA","Prop. Aceh","SMA","5.2118000","96.2933000"
"10113124","SMA PLUS MARYAM BINTI IBRAHIM","JL. B. ACEH - MEDAN KM. 20","Prop. Aceh","SMA","5.3273000","95.4513000"
"10105395","SMAS METHODIST","JL.POCUT BAREN NO.3","Prop. Aceh","SMA","5.5620000","95.3218000"
"10107282","SMAN 1 SYIAH UTAMA","Samar Kilang Blang Panu","Prop. Aceh","SMA","4.7233000","97.0016000"
"10110351","SMAS AL AZHAR","JL. KOMPLEK PELAJAR BABUSSALAM","Prop. Aceh","SMA","3.4820000","97.8128000"
"10107101","SMA NEGERI 3 BIREUEN","Jalan Putro Bungsu","Prop. Aceh","SMA","5.1986000","96.8834000"
"10107092","SMA NEGERI 1 PEUSANGAN","Jn. Banda Aceh - Medan Matangglumpangdua","Prop. Aceh","SMA","5.1955000","96.8018000"
"10107084","SMA NEGERI 1 GANDAPURA","JL. B. ACEH - MEDAN LAPANG TIMU","Prop. Aceh","SMA","5.2453000","96.8601000"
"10113239","SMAN 3 SEUNAGAN","KUTA PAYA","Prop. Aceh","SMA","4.1524000","96.3839000"
"69773568","SMA NEGERI 1 DARUL HIKMAH","Jl. UPT III Patek","Prop. Aceh","SMA","4.8310203","95.5164439"
"10105184","SMA NEGERI 1 PERMATA","Jln. Syiah Kuala Wih Tenang Uken","Prop. Aceh","SMA","4.7614000","96.9626000"
"10102727","SMAN 2 KLUET UTARA","JL. DATUK CHINDE - Kuala Bau","Prop. Aceh","SMA","3.0939000","97.3136000"
"10112426","SMAN 17 TAKENGON","JL. TAKENGON-ANGKUP","Prop. Aceh","SMA","4.5986800","96.7958433"
"10110729","SMAS TERPADU DARUL MUHAJIRIN","JL. KEUDE SIMPANG EMPAT - SP. KEURAMAT","Prop. Aceh","SMA","5.0869940","97.1117040"
"10113353","SMA NEGERI 3 BUKIT","JL. PAM TIRTA BENGI","Prop. Aceh","SMA","4.6928000","96.8257000"
"10107099","SMA NEGERI 2 PEUSANGAN","JL. B. ACEH - MEDAN","Prop. Aceh","SMA","5.1226000","96.6957000"
"10108240","SMAS ISLAM TGK. CHIK DI BEUREU-EH","JL. BANDA ACEH - MEDAN KM. 124","Prop. Aceh","SMA","5.2824000","95.9975000"
"10105620","SMAN 2 LHOKSEUMAWE","JL. STADION TUNAS BANGSA MON GEUDONG","Prop. Aceh","SMA","5.1712000","97.1397000"
"10113619","SMA NEGERI 1 INDRA JAYA","Jalan T. Umar Lama","Prop. Aceh","SMA","5.0590385","95.3359661"
"10111869","SMA NEGERI 1 GEUREUDONG PASE","JL. PUNTEUT - MBANG KM.20","Prop. Aceh","SMA","4.8918000","96.8871000"
"69857708","SMA ISLAM DARUL MUTA ALLIMIN","Jln. Banda Aceh Medan KM. 313","Prop. Aceh","SMA","5.0989000","97.3518000"
"69822416","SMA DAYAH PERBATASAN MINHAJUSSALAM","JL. TEUKU UMAR NO 17","Prop. Aceh","SMA","2.7741970","98.0708810"
"10110364","SMAN 1 NURUSSALAM","JL.ULEE ATEUNG BAGOK","Prop. Aceh","SMA","5.0225000","97.6670000"
"20211558","SMAS MUHAMMADIYAH","Jl. Teuku Umar No. 1","Prop. Aceh","SMA","5.1833220","97.1489070"
"10113429","SMA NEGERI 3 INDRAPURI","Jln. Sultan Alaidin Mahmudsyah Km.2  Indrapuri","Prop. Aceh","SMA","5.3446000","95.4681000"
"10102514","SMA NEGERI 1 SUNGAI MAS","JL. Meulaboh - Tutut Km.62","Prop. Aceh","SMA","4.5185000","96.1165000"
"10107498","SMAN 2 SEULIMEUM","DESA ATEUK LAMTEUBA","Prop. Aceh","SMA","5.5107000","95.6031000"
"10110740","SMA SWASTA DARUL ABRAR","JL. Banda Aceh - Meulaboh Km. 143","Prop. Aceh","SMA","4.6651000","95.5732000"
"10107196","SMA NEGERI 12 BANDA ACEH","JL.KUTA BARO","Prop. Aceh","SMA","5.5835290","95.3246700"
"69946702","SMA SWASTA KLUET TIMUR","Jl. Pendidikan, Gampong Pucuk Lembang, Kluet Timur","Prop. Aceh","SMA","3.1458690","97.4095700"
"10100565","SMAN 2 INDRAJAYA","JLN. BLUEK GLE CUT - JABAL GHAFUR","Prop. Aceh","SMA","5.2866000","95.9242000"
"10112168","SMA NEGERI 2 LANGKAHAN","JL. EXXON MOI LUBOK PUSAKA","Prop. Aceh","SMA","4.8625000","97.4734000"
"10110562","SMA NEGERI 2 MEULABOH","JL. SISINGAMANGARAJA LAPANG","Prop. Aceh","SMA","4.1761000","96.1376000"
"10110816","SMA TGK. CHIEK EUMPE AWEE","Komplek Pesantren Tgk. Chiek Eumpe Awee, Atong","Prop. Aceh","SMA","5.4879450","95.4650700"
"10102311","SMAN 3 TAKENGON","JL. TAKENGON - ISAQ KM. 6","Prop. Aceh","SMA","4.6056815","96.8154552"
"10110605","SMA NEGERI 2 KAWAY XVI","JL. MEULABOH - TUTUT","Prop. Aceh","SMA","4.3084000","96.1991000"
"10100540","SMAN 1 SAKTI","JL. TANGSE KM. 06","Prop. Aceh","SMA","5.2509000","95.9416000"
"10100541","SMAN 1 SIGLI","JL. BANDA ACEH MEDAN KM. 115","Prop. Aceh","SMA","5.3576000","95.9619000"
"69874008","SMA NEGERI KOTA BAHAGIA","Jl. Panglima Gadeng","Prop. Aceh","SMA","2.9756300","97.5068520"
"10110569","SMAS NUSA BANGSA","JL. MEDAN - B. ACEH NO. 4","Prop. Aceh","SMA","5.1564000","97.3256000"
"69948028","SMA Negeri 3 Karang Baru","Paya Tampah","Prop. Aceh","SMA","4.3316730","98.0718510"
"69775748","SMA NEGERI 2 TEUPAH SELATAN","Desa Lataling","Prop. Aceh","SMA","2.4523000","96.4643000"
"10100556","SMAS CHIK DITIRO SIGLI","KOMPLEK PELAJAR TIJUE JL.BANDA ACEH MEDAN KM.115 KAB.PIDIE","Prop. Aceh","SMA","5.3582000","95.9626000"
"10105623","SMAN 5 LHOKSEUMAWE","JL. SP. BULOH KM 03 CUNDA","Prop. Aceh","SMA","5.1731890","97.1232770"
"10107919","SMAS SUKMA BANGSA","Jln. Medan - Banda Aceh Desa Panggoi Kec. Muara Dua","Prop. Aceh","SMA","5.1949750","97.1130380"
"10102502","SMA NEGERI 1 KAWAY XVI","JL. MEULABOH - TUTUT KM.14","Prop. Aceh","SMA","4.2279000","96.1715000"
"10108271","SMAS DARUL MUKHLISIN","JL. FAMILI","Prop. Aceh","SMA","4.2818000","98.0485000"
"10103326","SMAN 1 SINABANG","JL. PAHLAWAN","Prop. Aceh","SMA","2.4818000","96.3747000"
"10104848","SMA NEGERI 3 ACEH BARAT DAYA","JL. LETKOL BB. JALAL","Prop. Aceh","SMA","3.7301000","96.8039000"
"10110348","SMAN 2 BADAR","JL. KUTACANE-JONGAR","Prop. Aceh","SMA","3.4405000","97.8241000"
"10110701","SMA NEGERI 1 WOYLA TIMUR","JL. BLANG MEE - SEURADEK KM. 07","Prop. Aceh","SMA","4.4425000","96.1414000"
"10105384","SMAS GRANADA PGRI","JL.T CHIK DIPINENG NO. 3","Prop. Aceh","SMA","5.5654000","95.3433000"
"10111952","SMA NEGERI 1 TRIPE JAYA","JL. HAZAMA","Prop. Aceh","SMA","4.0535000","97.1099000"
"69946581","SMA NEGERI KELUANG","Jl. Banda Aceh - Meulaboh Km.73","Prop. Aceh","SMA","5.1225485","95.3382567"
"10110338","SMAN 4 KUALA","JL. Kuala Tuha - Lamie Km. 10 Kode Pos. 23661","Prop. Aceh","SMA","3.9754290","96.3161950"
"10113351","SMA Negeri Unggul Darussalam Labuhan Haji","Jln. Ujung Batu","Prop. Aceh","SMA","3.4990000","97.2160000"
"10107932","SMA SUKMA BANGSA KABUPATEN PIDIE","JLN. PINEUNG - KOTA BAKTI","Prop. Aceh","SMA","5.3093000","95.9560000"
"10106277","SMA NEGERI 2 SEUNUDDON","JL. BLANG GLUMPANG","Prop. Aceh","SMA","5.1803000","97.3689000"
"10100574","SMAN 1 KEMBANG TANJONG","JL. TANAH LAPANG","Prop. Aceh","SMA","5.3053000","96.0626000"
"10101877","SMAN 1 JULOK","JL. ALUE IE MIRAH","Prop. Aceh","SMA","5.0309000","97.6235000"
"10100571","SMAN 1 GEUMPANG","DESA BANGKEH","Prop. Aceh","SMA","4.8560000","96.2108000"
"69948027","SMA Negeri 1 Sekerak","Dusun Tani","Prop. Aceh","SMA","4.3216000","97.8514000"
"69939938","SMA SWASTA AS SUNNAH","Gampong Matang Lada","Prop. Aceh","SMA","5.2142790","97.4295050"
"10101176","SMA NEGERI 1 COT GIREK","JL. KOMPLEK PENDIDIKAN NO. 1","Prop. Aceh","SMA","4.9697000","97.3729000"
"10105604","SMAN MODAL BANGSA ARUN","Jalan Bontang, Komplek Perumahan PT. Arun NGL","Prop. Aceh","SMA","5.2107900","97.0562980"
"10105388","SMAN 3 BANDA ACEH","JL. TGK.H. DAUD BEUREUEH","Prop. Aceh","SMA","5.5610000","95.3313000"
"10110255","SMA NEGERI 2 MEUREUBO","JL. ISKANDAR MUDA NO. 1","Prop. Aceh","SMA","4.1386000","96.2115000"
"10107090","SMA NEGERI 1 PEUDADA","JL. MEDAN - BANDA ACEH KM 209 PULO ARA PEUDADA","Prop. Aceh","SMA","5.1900000","96.5869000"
"10107197","SMAN 9 BANDA ACEH","KOMPLEK STADION HARAPAN BANGSA","Prop. Aceh","SMA","5.5251480","95.3255360"
"10102261","SMAN 5 TAKENGON","JL.KIHAJAR DEWANTARA","Prop. Aceh","SMA","4.3772767","96.7577650"
"69762597","SMAS SAFINATUSSALAMAH","JL. ACEH SINGKIL - SIBOLGA","Prop. Aceh","SMA","2.2702000","98.0292000"
"69948194","SMA Negeri 1 Tenggulun","Jalan Sumber Rejo","Prop. Aceh","SMA","4.0099270","97.9886000"
"10100181","SMA NEGERI 1 KUTA BARO","JL. Blang  bintang lama km, 11,5","Prop. Aceh","SMA","5.5305000","95.4062000"
"69768295","SMAS ULUMUL ISLAM","JLN. ULEE GLE GAMPONG SAMAKUROK","Prop. Aceh","SMA","5.0493000","97.3382000"
"10110559","SMAN 1 INDRA MAKMU","JL. PTPN 1 AFD 1 JRU","Prop. Aceh","SMA","5.0334000","97.6229000"
"10110895","SMAN 1 SALANG","JL. TGK. HAMZAH","Prop. Aceh","SMA","2.6724000","95.7947000"
"10108058","SMAN 1 DARUL MAKMUR","JL. NASIONAL ALUE BILIE","Prop. Aceh","SMA","3.9866000","96.4970000"
"10110683","SMA SWASTA BINA GENERASI BANGSA","JL. DR. SUTOMO","Prop. Aceh","SMA","4.1333000","96.1283000"
"10105733","SMA MUHAMMADIYAH LANGSA","JL. WR SUPRATMAN NO.7 LANGSA","Prop. Aceh","SMA","4.4645000","97.9435000"
"10104042","SMAN 1 PULAU BANYAK","JL. LINGKAR PULAU BALAI","Prop. Aceh","SMA","2.3111000","97.4049000"
"10105381","SMAS KARTIKA XIV-I","JL.NYAK ADAM KAMIL IV","Prop. Aceh","SMA","5.5434000","95.3205000"
"10107093","SMA NEGERI 1 PEUSANGAN SELATAN","JL. TGK. BALE","Prop. Aceh","SMA","5.0401000","96.6853000"
"10105389","SMAN 1 BANDA ACEH","JL. PROF. A. MAJID IBRAHIM I","Prop. Aceh","SMA","5.5763000","95.3209000"
"10103097","SMAN 1 BADAR","JL. GULO. No. 151 Mbacang Kumbang","Prop. Aceh","SMA","3.5296000","97.7839000"
"69901468","SMA Swasta Uswatun Hasanah","Jln. Blang Mee Duson Putro Room","Prop. Aceh","SMA","5.1178880","97.2131700"
"10102731","SMAN 1 KLUET TIMUR","JL. UTAMA PAYA DAPUR","Prop. Aceh","SMA","3.2454000","97.4500000"
"69874081","SMA TERPADU BUSTANUL ARIFIN 2","Jln. KKA - Rembele","Prop. Aceh","SMA","4.7332000","96.8558000"
"10104272","SMAN 1 MANYAK PAYED","JL. MEDAN - BANDA ACEH","Prop. Aceh","SMA","4.3994000","98.0768000"
"10102788","SMAN 1 PASIE RAJA","JL. TAPAKTUAN - MEDAN KM 16 LADANG TUHA","Prop. Aceh","SMA","2.5503000","97.6707000"
"69774763","SMAN 18 TAKENGON","JL. TAKENGON - BLANG KEJEREN","Prop. Aceh","SMA","4.4699083","96.8770233"
"10104528","SMA NEGERI 1 BLANGKEJEREN","JL. TGK H.M. LUDDIN KM. 01, BUSTANUSSALAM, BLANGKEJEREN","Prop. Aceh","SMA","4.0053180","97.3411900"
"10102730","SMAN 1 TRUMON","Jln.Teuku Raja Husen Keude trumon","Prop. Aceh","SMA","2.8284752","97.6244943"
"10104837","SMA NEGERI 8 ACEH BARAT DAYA","JL. BUSTANUL ALIYAH","Prop. Aceh","SMA","3.7756000","96.9767000"
"69786603","SMAS DARUL AITAMI","Jl. Nasional Meulabo - Tapak Tuan KM. 5","Prop. Aceh","SMA","4.1533000","96.1619000"
"10104863","SMA NEGERI 4 ACEH BARAT DAYA","JL. NASIONAL BLANGPIDIE - MEULABOH","Prop. Aceh","SMA","3.8019000","96.7757000"
"69874007","SMA NEGERI 2 MEUKEK","Jl.Tapaktuan - Blang Pidie Desa Kutabuloh II Meukek","Prop. Aceh","SMA","3.4714000","97.0557000"
"10108101","SMA NEGERI 1 PAYA BAKONG","JL. KEBUN PIRAK DESA BLANG GUNCI","Prop. Aceh","SMA","4.9538000","97.1813000"
"10104547","SMA NEGERI SERIBU BUKIT","JL. KUTAPANJANG-BLANGPEGAYON","Prop. Aceh","SMA","3.9847100","97.3080330"
"10107271","SMAS TERPADU BUSTANUL ARIFIN","JL. REDELONG PONDOK BARU","Prop. Aceh","SMA","4.7332000","96.8906000"
"10102723","SMAS SIRAJUL IBAD","JL. TAPAKTUAN - BLANG PIDIE","Prop. Aceh","SMA","3.3656000","97.2335000"
"10101904","SMAN 1 RANTAU SELAMAT","JL. MESJID NO. 2 BAYEUN","Prop. Aceh","SMA","4.6410000","97.8655000"
"10108102","SMA NEGERI 1 SIMPANG KEURAMAT","JL. PASE II DESA PAYA TEUNGOH","Prop. Aceh","SMA","5.1911510","96.9372420"
"10110571","SMA SWASTA BABUL MAGHFIRAH","JL. PASAR COT KEUEUNG","Prop. Aceh","SMA","5.5560000","95.4016000"
"10110349","SMAN 1 LAWE BULAN","JL. MANUNGGAL","Prop. Aceh","SMA","3.5066000","97.8217000"
"10111954","SMAN PERSENEG 4 TANAH JAMBO AYE","JL JAMBO AYE UTARA","Prop. Aceh","SMA","4.8672000","97.4500000"
"10105396","SMAN 7 BANDA ACEH","JL. Krueng Jambo Aye No. 1","Prop. Aceh","SMA","5.5348000","95.3087000"
"10110529","SMA NEGERI UNGGUL TUNAS BANGSA","JL. NASIONAL, KOMPLEK SEKOLAH BANTUAN KOREA SELATAN","Prop. Aceh","SMA","3.7436000","96.7970000"
"10108216","SMA NEGERI 3 CITRA BANGSA TANAH JAMBOAYE","JL. T. UMAR RAWANG ITEK - PANTON LABU","Prop. Aceh","SMA","5.1108000","97.4521000"
"10107965","SMAN 2 BEUTONG","JL. NASIONAL KM. 1 BEUTONG","Prop. Aceh","SMA","4.2339000","96.5005000"
"10100550","SMAN 2 BANDAR BARU","JL. BANDA ACEH - MEDAN KM 137","Prop. Aceh","SMA","5.2569000","96.0754000"
"10107513","SMAN 10 TAKENGON","JL. BERAWANG GADING","Prop. Aceh","SMA","4.5823583","96.7010783"
"69845478","SMA NEGERI 2 SAMADUA","Jl. Tapaktuan - Blang Pidie  Km 13","Prop. Aceh","SMA","3.3086110","97.1496330"
"60726436","SMA NEGERI 4 SIMEULUE BARAT","JL. LINGKAR SIMEULUE","Prop. Aceh","SMA","2.6909000","95.9777000"
"69949037","SMA Negeri 5 Simeulue Barat","Jln. Lingkar Simeulue","Prop. Aceh","SMA","2.5699170","96.0760010"
"10107152","SMAN 2 BENDAHARA","JL. TELAGA MUKU","Prop. Aceh","SMA","4.4342000","98.1445000"
"10100185","SMA NEGERI 1 DARUL IMARAH","JL. SOEKARNO HATTA KM.3","Prop. Aceh","SMA","5.5147167","95.3309500"
"10105340","SMAN 8 BANDA ACEH","JL. TGK. CHIK DIPINEUNG RAYA","Prop. Aceh","SMA","5.5664000","95.3444000"
"10104847","SMA NEGERI 5 ACEH BARAT DAYA","JL. NASIONAL NO. 2","Prop. Aceh","SMA","3.6687000","96.9045000"
"10107309","SMAS FATIH BILINGUAL SCHOOL","JL. SULTAN MALIKUL SALEH NO. 103","Prop. Aceh","SMA","5.5338000","95.3188000"
"10100139","SMA NEGERI 1 LEMBAH SEULAWAH","JL. BANDA ACEH-MEDAN KM.57,5","Prop. Aceh","SMA","5.3701000","95.6831000"
"10104852","SMA NEGERI 11 ACEH BARAT DAYA","JL. CUT ALOH","Prop. Aceh","SMA","3.7241000","96.8472000"
"10100559","SMAN 1 MUTIARA","JL. BANDA ACEH MEDAN KM. 125","Prop. Aceh","SMA","5.2739000","95.9859000"
"10112849","SMAN 2 SERUWAY","JL. PURWODADI","Prop. Aceh","SMA","4.3532000","98.2121000"
"10107491","SMAS ABULYATAMA","JL. BLANG BINTANG LAMA KM. 8,5","Prop. Aceh","SMA","5.5345000","95.3897000"
"10101192","SMA NEGERI 1 TANAH LUAS","JL.DESA AMPEH","Prop. Aceh","SMA","5.0728000","97.2626000"
"10100558","SMAN 1 PADANG TIJI","JL. BANDA ACEH MEDAN KM. 97","Prop. Aceh","SMA","5.3954000","95.8040000"
"10100573","SMAN 1 INDRAJAYA","JL. CALEUE-GAROT","Prop. Aceh","SMA","5.3237000","95.9294000"
"10107926","SMAN 1 SEUNAGAN","JL. T. BEN NO. 1 JEURAM","Prop. Aceh","SMA","4.2300000","96.3081000"
"10110635","SMAN 1 ARONGAN LAMBALEK","JL. MEULABOH - BANDA ACEH KM. 30","Prop. Aceh","SMA","4.2976000","95.9647000"
"10107277","SMAN 2 BANDAR","JL. BLANG JORONG","Prop. Aceh","SMA","4.7503000","96.9262000"
"10104273","SMAN 1 KEJURUAN MUDA","JL. RANTAU","Prop. Aceh","SMA","4.3008000","98.0830000"
"69925253","SMA SWASTA NURUL FATA","Jl. Cinta Maju - Kong Bur Kec. Blangpegayon","Prop. Aceh","SMA","3.9820000","97.3048000"
"10101312","SMA NEGERI 2 DEWANTARA","JL. MASJID JABAL NUR BTN ARON PALOH LADA","Prop. Aceh","SMA","5.2488000","97.0073000"
"10105398","SMAN 5 BANDA ACEH","JL. HAMZAH FANSURI NO.3","Prop. Aceh","SMA","5.5587000","95.3496000"
"10102728","SMAN 1 KLUET TENGAH","JL. KOTA FAJAR MANGGAMAT","Prop. Aceh","SMA","3.4408000","97.3477000"
"10107089","SMA NEGERI 1 PANDRAH","JL. B. ACEH - MEDAN KM 189  PANDRAH","Prop. Aceh","SMA","5.1865000","96.4618000"
"10111870","SMAN 3 KLUET UTARA","Jln. Tgk. M. Saleh","Prop. Aceh","SMA","3.1436000","97.3859000"
"10102529","SMA NEGERI 3 MEULABOH","JL. BAKTI PEMUDA GIP LAPANG","Prop. Aceh","SMA","4.1767000","96.1358000"
"10112862","SMAN 16 TAKENGON","JL. LUKUP SABUN","Prop. Aceh","SMA","4.6817717","96.7976383"
"10105043","SMA NEGERI 1 CALANG","JL. TEUKU UMAR DESA GAMPONG BLANG","Prop. Aceh","SMA","4.6408435","95.5882842"
"10105042","SMA NEGERI 1 TEUNOM","Jalan Pendidikan No. 1","Prop. Aceh","SMA","4.4685000","95.8039000"
"69948026","SMA Negeri 1 Bandar Pusaka","Pantai Cempa","Prop. Aceh","SMA","4.2945000","97.8536000"
"10103092","SMAN 1 LAWE SIGALA-GALA","JL. KUTACANE - MEDAN","Prop. Aceh","SMA","3.2922000","97.9662000"
"10108057","SMAN 2 DARUL MAKMUR","SUKAMULIA SEUNEUAM","Prop. Aceh","SMA","3.9527000","96.5341000"
"10107154","SMAN 3 KEJURUAN MUDA","JL. Sapta Jaya Dusun Cempaka","Prop. Aceh","SMA","4.2611000","98.1265000"
"10101183","SMA NEGERI 1 NISAM","JL. COT MAMBONG KM 8 KEUDE.AMPLAH","Prop. Aceh","SMA","5.0572000","96.8602000"
"10105405","SMAS SAFIAFUDDIN","JL.POCUT BAREN NO.79","Prop. Aceh","SMA","5.5862000","95.3338000"
"69773523","SMAN 1 TANOH ALAS","JL. ENGKRAN SALIM PINIM","Prop. Aceh","SMA","3.2942000","97.8157000"
"69948198","SMA TERPADU NURUL HUDA","Jln. KKA Bale - Buntul","Prop. Aceh","SMA","4.8232790","96.9572900"
"10100563","SMAN 1 PEUKAN BARO","JL. BANDA ACEH MEDAN KM. 121","Prop. Aceh","SMA","5.3072000","95.9628000"
"10102248","SMAN 2 TAKENGON","JL. UJUNG TEMETAS","Prop. Aceh","SMA","4.6457800","96.8410933"
"10111680","SMAN 1 TEUPAH BARAT","JL. TGK. DIUJUNG","Prop. Aceh","SMA","2.5094000","96.1776000"
"10110367","SMAN UNGGUL ACEH TIMUR","JL. BANDA ACEH - MEDAN KM. 431","Prop. Aceh","SMA","4.5435000","97.9314000"
"10110262","SMA NEGERI 1 PANTE CEUREUMEN","JL. MEULABOH - PANTE CEUREUMEN","Prop. Aceh","SMA","4.4788000","96.3700000"
"10110609","SMA NEGERI 1 MEUREUBO","JL. H. Dariah Paya Peunaga Km. 6","Prop. Aceh","SMA","4.1391000","96.1707000"
"10113638","SMA NEGERI 2 LAWE BULAN","Jl. Kandang Mbelang Mandiri-Lawe Kulok","Prop. Aceh","SMA","3.4867000","97.8386000"
"10100191","SMAN 1 LHOONG","JL. B.ACEH-MEULABOH KM.53","Prop. Aceh","SMA","5.2140000","95.2694000"
"10110281","SMA NEGERI 1 BLANGJERANGO","JL. DUSUN COMEK NO. 03 KP. PENOSAN KEC. BLANGJERANGO","Prop. Aceh","SMA","4.0151350","97.2601710"
"10102505","SMA NEGERI 1 MEULABOH","JL. IMAM BONJOL NO. 1 MEULABOH","Prop. Aceh","SMA","4.1568000","96.1290000"
"10110530","SMA NEGERI UNGGUL HARAPAN PERSADA","JL. Nasional Padang Meurantee","Prop. Aceh","SMA","3.7407000","96.8005000"
"10110489","SMA NEGERI 2 SAMPOINIET","JL. LIGAN PANTE PURBA","Prop. Aceh","SMA","4.8793000","95.4798000"
"69775747","SMA NEGERI 3 SIMEULUE TENGAH","Jln. Tgk. Diujung Kec. Simeulue Tengah Kab. Simeulue Prop. Aceh","Prop. Aceh","SMA","2.5908000","95.9996000"
"10104701","SMAN 2 SEUNAGAN","JL. KEUDE LINTEUNG NO.79","Prop. Aceh","SMA","4.3913000","96.4048000"
"10111943","SMA NEGERI 1 JEUNIEB","JL. BANDA ACEH - MEDAN SP. MTB KM. 191","Prop. Aceh","SMA","5.1860000","96.5023000"
"10104878","SMA NEGERI 7 ACEH BARAT DAYA","JL. NASIONAL BLANGPIDIE - MEULABOH","Prop. Aceh","SMA","3.9029000","96.6995000"
"10113258","SMAN 2 UNGGUL ALI HASJMY","JL. B. ACEH - MEDAN KM. 22","Prop. Aceh","SMA","5.4206000","95.4273000"
"69816807","SMA NEGERI 2 KUTA BARO","JL. PS. COT KEUENG","Prop. Aceh","SMA","5.5544000","95.4031000"
"10103099","SMAS PANTI HARAPAN","LAWE DESKY","Prop. Aceh","SMA","3.3056000","97.9582000"
"10104530","SMA NEGERI 1 RIKIT GAIB","JL. H. ALI UMAR NO.01 RIKIT GAIB","Prop. Aceh","SMA","4.1034000","97.2522000"
"10100183","SMA NEGERI 2 LHOKNGA","JL. TEUKU UMAR KM. 11","Prop. Aceh","SMA","5.4899000","95.2589000"
"10112901","SMAS DARUSS ADAH","JL. KEUDE GEUREUBAK-JAMBO REUHAT","Prop. Aceh","SMA","4.8924000","97.6949000"
"69899743","SMA ULUMUL QURAN","Jln. Tijue - Cot Teungoh","Prop. Aceh","SMA","5.3390000","95.9404000"
"10100577","SMAS DARUSSA ADAH","Jl. Banda Aceh - Medan Km. 133 - 134","Prop. Aceh","SMA","5.5142000","95.8256000"
"10104271","SMAN 1 SERUWAY","JL. GEDUNG BIARA","Prop. Aceh","SMA","4.3449000","98.1759000"
"10104051","SMAN 1 SIMPANG KANAN","JL. PENDIDIKAN LIPAT KAJANG ATAS","Prop. Aceh","SMA","2.4375630","97.9882920"
"10110366","SMAN 1 PEUNARON","Jln. Pendidikan No.2 Gampong Bukit Tiga Kec. Peunaron","Prop. Aceh","SMA","4.6144000","97.6579000"
"10100186","SMA NEGERI 1 KRUENG BARONA JAYA","JL. T. ISKANDAR KM. 5","Prop. Aceh","SMA","5.5479261","95.3659988"
"10107280","SMA NEGERI 2 PINTU RIME GAYO","JL. TAKENGON-BIREUEN","Prop. Aceh","SMA","4.7578000","96.7886000"
"10101191","SMA NEGERI 1 SAWANG","JL. SAWANG KM. 15 KABUPATEN ACEH UTARA","Prop. Aceh","SMA","5.2077150","96.9397440"
"10101182","SMA NEGERI 1 MEURAH MULIA","JL. EXXON MOBIL MNS. MESJID","Prop. Aceh","SMA","5.0722570","97.2136860"
"69726918","SMA NEGERI 1 BANDA BARO","Jln. KKA Km.09 Alue Keurinyai Kec. Banda Baro","Prop. Aceh","SMA","5.1875000","96.9617000"
"10104040","SMA NEGERI 1 SIMPANG KIRI","JL. SYEH ABDUL RAUF NO. 1","Prop. Aceh","SMA","2.6461000","97.9986000"
"10103325","SMAN 1 SIMEULUE TENGAH","JL. Tgk. Diujung","Prop. Aceh","SMA","2.5923000","95.9645000"
"10110706","SMAS ISLAM AL-MUJADDID","JL. BANDARA MAIMUN SALEH","Prop. Aceh","SMA","5.8845180","95.3389500"
"10111344","SMAN 1 IDI TUNONG","JL. PAYA GABOH","Prop. Aceh","SMA","4.9212000","97.7320000"
"10107281","SMAS TERPADU SEMAYOEN NUSANTARA","JL. EMPUN SEMAYOEN","Prop. Aceh","SMA","4.7188000","96.7930000"
"10106291","SMAN 13 BANDA ACEH","JL. LAMPOH KUTA NO. 2E GAMPONG JAWA","Prop. Aceh","SMA","5.5730000","95.3199000"
"10107824","SMAN 11 TAKENGON","JL. SOEKARNO - HATTA NO.1. Kampung Merah Pupuk, Kecamatan Atu Lintang","Prop. Aceh","SMA","4.4639117","96.7832350"
"10113651","SMAN 2 IDI","JLN. BANDA ACEH - MEDAN Km. 365 Kec. Idi Rayeuk","Prop. Aceh","SMA","4.9202000","97.7313000"
"69907803","SMA SUKMA ALMUBARAKAH","Jln. Exxon Mobil Simpang Rumah Cut Mutia","Prop. Aceh","SMA","5.0165000","97.2560000"
"69934208","SMA SWASTA TERPADU BUSTANUL ARIFIN","Jl. Kutapanjang - Terangun","Prop. Aceh","SMA","4.0153490","97.2707820"
"10101190","SMA NEGERI 1 SYAMTALIRA ARON","JL. BANDA ACEH - MEDAN KM. 287","Prop. Aceh","SMA","5.1006000","97.2514000"
"10101881","SMAN 1 PEUREULAK","JL. PASIR PUTIH","Prop. Aceh","SMA","4.7379000","97.8647000"
"10100545","SMAN 1 DELIMA","JL. B. ACEH - MEDAN 112","Prop. Aceh","SMA","5.3785900","95.9107870"
"10104526","SMAS SHALAHUDDIN","JL. H.M. IDRIS DARGA NO.1","Prop. Aceh","SMA","4.0072850","97.3357550"
"10105735","SMA N 1 LANGSA","JL. JENDERAL A YANI","Prop. Aceh","SMA","4.4854000","97.9538000"
"10105342","SMAS INSHAFUDDIN","JL. TANGGUL NO. 3","Prop. Aceh","SMA","5.5704000","95.3342000"
"69947949","SMA TERPADU HAQQUL MUBIN","Jln. Wonosari - Tansaran Bidin","Prop. Aceh","SMA","4.6997275","96.9617253"
"69848999","SMA NEGERI 1 JEUMPA","Jalan Makam Raja Jeumpa","Prop. Aceh","SMA","5.2091140","96.6631310"
"69948100","SMA Negeri 3 Manyak Payed","Seuneubok Cantek","Prop. Aceh","SMA","4.4245442","98.0740856"
"10105399","SMAN 2 BANDA ACEH","JL. TWK. HASYIM BANTA MUDA","Prop. Aceh","SMA","5.5922000","95.3387000"
"69944036","SMA AL QUR AN AR-RAUDHAH","Jl. Buloh Blang Ara, KM. 05","Prop. Aceh","SMA","5.1180090","97.1177510"
"10113242","SMAN 5 DARUL MAKMUR","ALUE RAMBOT","Prop. Aceh","SMA","4.1447000","96.7175000"
"10104851","SMA NEGERI 10 ACEH BARAT DAYA","JL. NASIONAL BLANGPIDIE - MEULABOH KM. 21","Prop. Aceh","SMA","3.8279000","96.7579000"
"69830443","SMA SWASTA DARUL IHSAN","Komplek Yayasan Darul Ihsan Ulee Madon","Prop. Aceh","SMA","5.2422970","96.9602930"
"10111681","SMAN 1 TEUPAH SELATAN","Jln. Sinabang-Batu Berlayar Km. 42","Prop. Aceh","SMA","2.4006000","96.4730000"
"10107274","SMA NEGERI 1 PINTU RIME GAYO","JL. TAKENGON - BIREUEN","Prop. Aceh","SMA","4.7415000","96.7638000"
"10100564","SMAN 1 TANGSE","JL. TANGSE - GEUMPANG","Prop. Aceh","SMA","4.9945000","95.9105000"
"10112893","SMAS BINA BANGSA","MUARA SITULEN","Prop. Aceh","SMA","3.3009440","97.9557010"
"10102509","SMA NEGERI 1 WOYLA","JL. MEULABOH - KUALA BHE LR. TGK. DISARAH","Prop. Aceh","SMA","4.3858000","96.0531000"
"10111679","SMAN 1 TELUK DALAM","JL. LINGKAR SIMEULUE","Prop. Aceh","SMA","2.6281000","96.1164000"
"10105171","SMA NEGERI 2 TIMANG GAJAH","JL. MEKAR AYU - SUKA DAMAI","Prop. Aceh","SMA","4.8434000","96.7198000"
"10111320","SMA NEGERI 1 LONGKIB","DARUL AMAN","Prop. Aceh","SMA","2.5454170","97.8075860"
"10103071","SMAN PERISAI KUTACANE","JL. KUMBANG INDAH","Prop. Aceh","SMA","3.4963000","97.6215000"
"69955275","SMA BP AN-NAHLA","Jln. Cut Mutia No. 335 Komplek Perumahan Bukit Indah","Prop. Aceh","SMA","5.1759410","97.1222420"
"69948029","SMA Negeri 1 Rantau","Kebun Rantau","Prop. Aceh","SMA","4.3030644","98.1198590"
"10107100","SMA NEGERI 2 SAMALANGA","JLN. TANJUNGAN - SAMALANGA","Prop. Aceh","SMA","5.2113000","96.3506000"
"10100179","SMA NEGERI 1 PULO ACEH","JL. RAJA KANDANG","Prop. Aceh","SMA","5.6152000","95.1446000"
"10110796","SMAS AL HIDAYAH","JL. T. NYAK MAN","Prop. Aceh","SMA","4.2108000","98.0679000"
"10103091","SMAN 2 KUTACANE","JL. KOMP. PELAJAR BABUSSALAM","Prop. Aceh","SMA","3.4651000","97.8247000"
"10105622","SMAN 4 LHOKSEUMAWE","JL. SP. KEURAMAT DESA COT GIREK KANDANG","Prop. Aceh","SMA","5.1392750","97.1285450"
"10102284","SMAN 7 TAKENGON","JL. TAKENGON - BINTANG","Prop. Aceh","SMA","4.5905267","97.0093117"
"10103100","SMAS DARUL IMAN","JL. KELAPA GADING - LAWE SUMUR NO 10","Prop. Aceh","SMA","3.4591000","97.8454000"
"10110354","SMAS PELITA NUSANTARA","JL. KUTACANE  - MEDAN KM. 25","Prop. Aceh","SMA","3.2919000","97.9659000"
"10107495","SMAS MALEM PUTRA 2","Jl. Bintara No 2A Japakeh","Prop. Aceh","SMA","5.4940017","95.3108650"
"10107091","SMA NEGERI 1 PEULIMBANG","JL. BANDA ACEH - MEDAN KM 196","Prop. Aceh","SMA","5.1876000","96.5239000"
"10107310","SMAS LAB SCHOOL","JL. KUTA INONG BALE","Prop. Aceh","SMA","5.5746000","95.3656000"
"10110817","SMA NEGERI 2 PULO ACEH","DESA BLANG SITUNGKOH","Prop. Aceh","SMA","5.6702000","95.0955000"
"69786208","SMAN PULAU BANYAK BARAT","JL.BANDAHARO ASANTOLA","Prop. Aceh","SMA","2.1893000","97.2361000"
"69947303","SMA SWASTA LAWE SAWAH","Gampong Lawe Sawah","Prop. Aceh","SMA","3.1330595","97.5018401"
"10113240","SMA NEGERI 1 SUKA MAKMUE","JL. TGK PUTIK KOMPLEK PERKANTORAN SUKA MAKMUE","Prop. Aceh","SMA","4.1502000","96.3228000"
"60726233","SMAN 1 BANDA ALAM","JL PEUTUA BUGEH","Prop. Aceh","SMA","4.8959000","97.8397000"
"10107085","SMA NEGERI 1 JANGKA","JL.DESA JANGKA ALUE U","Prop. Aceh","SMA","5.2519000","96.7920000"
"69922862","SMA SWASTA RAUDHATUL HASANAH","Semadam","Prop. Aceh","SMA","3.4030440","97.8973770"
"10100542","SMAN 1 SIMPANG TIGA","JL. SIGLI KB. TANJONG KM. 6,5","Prop. Aceh","SMA","5.3492000","95.9917000"
"10113256","SMA NEGERI 1 DARUSSALAM","Lambaro Angan","Prop. Aceh","SMA","5.5000000","95.4805000"
"10110355","SMA NEGERI BABUL RAHMAH","JL. Kuta Lang -lang -  Salim Pipit","Prop. Aceh","SMA","3.1376000","97.9116000"
"10104038","SMAN 1 SINGKIL UTARA","JL. SINGKIL - RIMO KM. 17 GOSONG TELAGA","Prop. Aceh","SMA","2.2847120","97.9196650"
"10100190","SMA NEGERI 1 MESJID RAYA","JL. IE SEU UM KM 0,5 KRUENG RAYA","Prop. Aceh","SMA","5.5811000","95.5196000"
"10108044","SMAN 2 TAMIANG HULU","JL. SEI SERBA","Prop. Aceh","SMA","4.2322000","97.9210000"
"10107493","SMAN 3 SEULIMEUM","JL.BANDA ACEH-LEUNGAH","Prop. Aceh","SMA","5.5713000","95.6682000"
"69946884","SMA DARUSSAADAH LANGIEN","Jalan Lueng Putu-Jijiem KM.1","Prop. Aceh","SMA","5.1716040","96.0848200"
"10107104","SMA SWASTA AL-MUSLIM PEUSANGAN","JL.SINAR PEUSANGAN MATANG GLUMPANG DUA","Prop. Aceh","SMA","5.1142000","96.6867000"
"10107102","SMA NEGERI 1 KUALA","Jl. Hj. Ummi Salamah","Prop. Aceh","SMA","5.2181000","96.7014000"
"10108074","SMAN 1 GLUMPANG BARO","DESA GAROT SEUKEE","Prop. Aceh","SMA","5.2786000","96.0467000"
"10100570","SMAN 1 BANDAR DUA","JL. BANDA ACEH - MEDAN","Prop. Aceh","SMA","5.1980300","96.3191220"
"10105386","SMA NEGERI 15 ADIDARMA","JL. PELANGI NO. 23","Prop. Aceh","SMA","5.5943000","95.3424000"
"10107494","SMA ISLAM AL-FALAH","JL.LUBUK-SEUNEULOP","Prop. Aceh","SMA","5.4899500","95.3903933"
"10104862","SMA NEGERI 2 ACEH BARAT DAYA","JL. TR. ISKANDAR NO. 2","Prop. Aceh","SMA","3.6173250","96.9048580"
"10101174","SMA NEGERI 1 LHOKSUKON","JL. BANDA ACEH - MEDAN LHOKSUKON","Prop. Aceh","SMA","4.9840000","97.4120000"
"10100554","SMAN 1 KEUMALA","JL. KEUMALA-TANGSE KM. 12","Prop. Aceh","SMA","5.2357000","95.8923000"
"10105736","SMA N 2 LANGSA","JL. JEND. A. YANI KM. 4","Prop. Aceh","SMA","4.4572000","97.9998000"
"10104044","SMA NEGERI 1 SULTAN DAULAT","JL. DARULMAKMUR NO.1","Prop. Aceh","SMA","2.7497670","97.9267700"
"60726439","SMA NEGERI 2 TELUK DALAM","JL. NYAK ALI KM. 01","Prop. Aceh","SMA","2.6112000","96.2371000"
"69822495","SMA AL-ATHIYAH","Jl. Tgk. Daud Beureueh Lr. Metro Lr. E","Prop. Aceh","SMA","5.5554000","95.3452000"
"10108201","SMAN 2 GUNUNG MERIAH","JL. ANGGREK KEMUNING NO. 16","Prop. Aceh","SMA","2.4238000","97.9273000"
"10100553","SMAN 2 SIGLI","JL. LINGKAR KEUNIREE","Prop. Aceh","SMA","5.3751000","95.9500000"
"10110353","SMAS TUNGGAL ALAS","JL. MEDAN-KUTACANE KM 30","Prop. Aceh","SMA","3.2506000","97.6549000"
"10101875","SMAN 1 DARUL AMAN","JL. MEDAN - BANDA ACEH","Prop. Aceh","SMA","4.9939000","97.7119000"
"10107087","SMA NEGERI 1 KUTABLANG","JL. PAYA NIE KUTABLANG KM.235","Prop. Aceh","SMA","5.2071000","96.8333000"
"69822414","SMA NEGERI 2 SIMPANG KIRI","JALAN BELIMBING NO 18","Prop. Aceh","SMA","2.6798000","97.9340000"
"10100192","SMAN 1 LHOKNGA","JL. TEUKU UMAR KM. 14","Prop. Aceh","SMA","5.4743000","95.2447000"
"69875551","SMA UNGGUL DARUSSAADAH KLUET RAYA","Jl. Tapaktuan Medan KM 23","Prop. Aceh","SMA","3.1487790","97.2990740"
"10101306","SMA NEGERI 1 SEUNUDDON","JL. ULEE RUBEK","Prop. Aceh","SMA","5.1846000","97.4317000"
"10102741","SMAS INSAN MADANI","JL. NASIONAL  TAPAKTUAN - MEULABOH KM. 31","Prop. Aceh","SMA","3.4571630","97.0597060"
"10105406","SMAS T NYAK ARIF","JL. SUDIRMAN VIII NO. 49","Prop. Aceh","SMA","5.5726000","95.3268000"
"10110564","SMA NEGERI 1 BUBON","JL. MEULABOH - KUALA BHEE","Prop. Aceh","SMA","4.2315000","96.0107000"
"10110461","SMAS NURUL ISLAM","JL. IRIGASI KRUENG PASEE KUDEE KARIENG","Prop. Aceh","SMA","5.0962000","97.2069000"
"10105732","SMA JAYA LANGSA","JL. JEND. A. YANI","Prop. Aceh","SMA","4.4708570","97.9348450"
"10102722","SMA NEGERI 1 LABUHAN HAJI","JL. PASAR PENDIDIKAN LABUHAN HAJI","Prop. Aceh","SMA","3.4879000","97.1654000"
"10107925","SMA NEGERI 1 JAYA","JL. Teuku Umar Km. 81 Lamno","Prop. Aceh","SMA","5.0868000","95.3630000"
"10110488","SMA NEGERI 1 SAMPOINIET","JL. TEUKU UMAR DESA LHOK KRUET","Prop. Aceh","SMA","4.8778307","95.3984428"
"10105272","SMAN 2 SABANG","JL. TINJAU ALAM","Prop. Aceh","SMA","5.8739430","95.3288180"
"10111578","SMAS JABAL NUR JADID","JL. NASIONAL","Prop. Aceh","SMA","3.6148000","96.9410000"
"10104039","SMAN 1 SINGKIL","JL. UTAMA NO. 2","Prop. Aceh","SMA","2.2841320","97.7970250"
"69896698","SMA TERPADU DARUSSAADAH","Jln. pondok Baru - Ramung Simpang Kala Tenang","Prop. Aceh","SMA","4.7809070","96.9273170"
"10103090","SMAN 2 LAWE SIGALAGALA","JL. KUTACANE-MEDAN KM.31,5","Prop. Aceh","SMA","3.2900000","97.9798000"
"10100194","SMA NEGERI 1 KOTA JANTHO","JL.T. PANGLIMA NYAK MAKAM NO. 1","Prop. Aceh","SMA","5.3056000","95.5907000"
"10101181","SMA NEGERI 2 LHOKSUKON","JL. DIPONEGORO III BUKIT HAGU","Prop. Aceh","SMA","4.9835000","97.4122000"
"10100576","SMAN 1 MUARA TIGA","JL. SP. BEUTONG LAWEUENG","Prop. Aceh","SMA","5.5066000","95.8514000"
"69760847","SMAN 1 MILA","JL. METAREUM-LALA","Prop. Aceh","SMA","5.2522000","95.8518000"
"10113064","SMAN 2 TEUPAH BARAT","JL. TGK. DIUJUNG KM. 32 LAAYON, SINABANG 23891","Prop. Aceh","SMA","2.4681000","96.2302000"
"10110352","SMAS PERMATA","JL.AHMAD YANI KUTACANE","Prop. Aceh","SMA","3.4688000","97.8141000"
"10105731","SMA CUT NYAK DHIEN","JL. JEND A. YANI","Prop. Aceh","SMA","4.4729170","97.9636940"
"10110576","SMA NEGERI 3 PUTRA BANGSA","JL. BANDA ACEH - MEDAN KM.300 LHOKSUKON","Prop. Aceh","SMA","4.9678000","97.4223000"
"69861153","SMA BABUL ISTIQAMAH","JL LETKOL BB DJALAL GANG PESANTREN NO 1 A","Prop. Aceh","SMA","3.8088440","96.7707220"
"10108199","SMAS MUHAMMADIYAH GUNUNG MERIAH","JLN. CUT MEUTIA DESA TULAAN","Prop. Aceh","SMA","2.3909600","97.9673950"
"10102732","SMAN 1 KLUET UTARA","JL. TGK CHIK KILAT FAJAR - KOTA FAJAR","Prop. Aceh","SMA","3.0874000","97.3411000"
"10110632","SMAN BUNGA BANGSA","JL. NASIONAL LAMIE","Prop. Aceh","SMA","4.0004000","96.4867000"
"10107095","SMA NEGERI 1 SAMALANGA","Jl. Mesjid Samalanga","Prop. Aceh","SMA","5.1929000","96.4083000"
"10102726","SMAN 1 TRUMON TIMUR","JL.TAPAKTUAN-SUBULUSSALAM","Prop. Aceh","SMA","2.8162840","97.8609650"
"10103352","SMAN 1 SIMEULUE BARAT","JL. Tgk.Ismail.No.01 Kec.Simeulue Barat","Prop. Aceh","SMA","2.8250000","95.8705000"
"10102793","SMAN 2 TAPAKTUAN","JL. T. BEN MAHMUD NO. 109 TAPAKTUAN","Prop. Aceh","SMA","3.2633000","97.1696000"
"10110604","SMA IT AL FITYAN","Jln. Ir. M. Taher Lr. Lawee Ds. Reuloh","Prop. Aceh","SMA","5.5171000","95.3439283"
"10105394","SMAS KATOLIK","JL.SULTAN ISKANDAR MUDA 31","Prop. Aceh","SMA","5.5478000","95.3144000"
"10100188","SMA NEGERI 1 SEULIMEUM","JL. BANDA ACEH-MEDAN KM. 41","Prop. Aceh","SMA","5.3688120","95.5673730"
"10107964","SMAN 1 KUALA","JL. NASIONAL UJONG FATIHAH","Prop. Aceh","SMA","4.1182000","96.3132000"
"10113602","SMAN 2 RANTAU SELAMAT","Jln. Bayeun Alue Punti Km Simpang IV Desa Alue Punti Kecamatan Rantau Selamat","Prop. Aceh","SMA","4.6050000","97.8171000"
"10104524","SMA NEGERI 1 PUTRI BETUNG","JL.BLANGKEJERAN-KUTACANE KM 45","Prop. Aceh","SMA","3.7338000","97.5734000"
"10102738","SMA SWASTA TARBIYAH","JL. GUNUNG CUT","Prop. Aceh","SMA","3.4469000","97.0770000"
"10112852","SMA SWASTA TAUTHIAH ARONGAN","JL. PENDIDIKAN NO.7","Prop. Aceh","SMA","5.2001000","96.3730000"
"10107088","SMA NEGERI 1 MAKMUR","JL. SP. LEUBU - ULEE GLE KM.7,5","Prop. Aceh","SMA","5.1567000","96.8686000"
"10107275","SMA NEGERI 2 BUKIT","JL. SIMPANG TERITIT - PONDOK BARU","Prop. Aceh","SMA","4.6827000","96.8464000"
"10100180","SMAN 1 MONTASIK","JL. MONTASIK COT GOH","Prop. Aceh","SMA","5.4697700","95.4048033"
"10102729","SMAN 1 TAPAKTUAN","JL. JENDRAL SUDIRMAN NO. 5 TAPAKTUAN","Prop. Aceh","SMA","3.2542000","97.1778000"
"10101189","SMA NEGERI 1 TANAH PASIR","JL. CUT NYAK ASIAH DESA KEUTAPANG","Prop. Aceh","SMA","5.1386000","97.2622000"
"10113631","SMAN SEMADAM","JL. SIMPANG SEMADAM - LAWE KINGA KM. 3","Prop. Aceh","SMA","3.3888000","97.8759000"
"10107192","SMA SWASTA MUSLIMAT SAMALANGA","JL.MESJID RAYA KM. 1,4 GP.PUTOH","Prop. Aceh","SMA","5.2032000","96.3531000"
"10105407","SMAS MUHAMMADIYAH","Jl. Ujung Batee","Prop. Aceh","SMA","5.5377000","95.3100000"
"10100557","SMAN 1 PEUKAN PIDIE","DESA BLANG KULA","Prop. Aceh","SMA","5.3839000","95.9380000"
"10107933","SMAN 1 PANTERAJA","JL. BANDA ACEH - MEDAN. KM. 143. POS.24185. PANTERAJA","Prop. Aceh","SMA","5.2652000","96.1595000"
"10113048","SMAN 14 BANDA ACEH","JL. RAMA SETIA/PENDIDIKAN","Prop. Aceh","SMA","5.5591000","95.3101000"
"10100551","SMAN 2 MEUREUDU","JL. BANDA ACEH-MEDAN KM 161","Prop. Aceh","SMA","5.1256000","96.1060000"
"10101903","SMAS PLUS NURUL ULUM","JL. MEDAN - B.ACEH KM. 394","Prop. Aceh","SMA","4.7295000","97.8422000"
"10113599","SMAN 16 BANDA ACEH","JL. PROF. ALI HASYIMI, GAMPONG ILIE, ULEE KARENG","Prop. Aceh","SMA","5.5448000","95.3453000"
"10101177","SMA NEGERI 1 BAKTIYA","JL. ALUE ANOE ALUE IE PUTEH","Prop. Aceh","SMA","5.1282000","97.3906000"
"10110462","SMA NEGERI 1 BAKTIYA BARAT","JL. MEDAN - BANDA ACEH LR. PENDIDIKAN","Prop. Aceh","SMA","5.1191000","97.3626000"
"10108217","SMAS GLOBAL PERINTIS","GAMPONG BAYI","Prop. Aceh","SMA","4.9899000","97.2011000"
"10100575","SMAN 1 MEUREUDU","JL. ISKANDAR MUDA","Prop. Aceh","SMA","5.0174860","96.2540440"
"10104043","SMAN 1 GUNUNG MERIAH","JL. RAHMAT KP. SUKA MAKMUR","Prop. Aceh","SMA","2.3710500","97.9541080"
"10113409","SMAS PLUS AMAL","JL. BANDA ACEH - MEDAN","Prop. Aceh","SMA","4.8578000","97.8998000"
"10105273","SMAN 1 SABANG","JL. T.NYAK ARIEF","Prop. Aceh","SMA","5.8974070","95.3282180"
"10104883","SMA NEGERI 9 ACEH BARAT DAYA","JL. H.HANAFIAH SANANY NO. 2","Prop. Aceh","SMA","3.7993000","97.1031000"
"10110903","SMAN 2 SIMEULUE BARAT","JL . NUSANTARA NO. 02 DESA SIGULAI KEC. SIMEULUE BARAT","Prop. Aceh","SMA","2.7819000","95.9591000"
"10104046","SMAN 1 DANAU PARIS","JL. ISKANDAR MUDA-BISKANG","Prop. Aceh","SMA","2.2653000","98.0362000"
"69899606","SMA ISLAM SWASTA MIFTAHUL ILMI","Desa Paya Ketenggar","Prop. Aceh","SMA","4.4048000","98.0231000"
"10104274","SMAN 1 KARANG BARU","JL. DESA MEDANG ARA","Prop. Aceh","SMA","4.3376000","98.0746000"
"60726435","SMA NEGERI 4 TEUPAH SELATAN","JL. SINABANG-LABUHAN BAJAU KM 32","Prop. Aceh","SMA","2.3417000","96.4393000"
"10102283","SMAN 8 TAKENGON UNGGUL","JL. PERTAMINA - KEBET","Prop. Aceh","SMA","4.6303183","96.8367500"
"10105385","SMAS CUT MUTIA BANDA ACEH","JL. TGK. CHIK DITIRO","Prop. Aceh","SMA","5.5512000","95.3258000"
"10110879","SMAN 2 SINABANG","JL. BARU","Prop. Aceh","SMA","2.4766000","96.3708000"
"10105404","SMAS AL MISBAH","JL.PROF A. MASJID IBRAHIM","Prop. Aceh","SMA","5.5503000","95.3115000"
"69950369","SMA ISLAM SWASTA IHDAL ULUM AL AZIZIYAH","Jln. Arongan Km.I","Prop. Aceh","SMA","5.0882064","96.3790213"
"10102771","SMA NEGERI 1 SAMADUA","JL. TAPAKTUAN MEULABOH KM 08","Prop. Aceh","SMA","3.3087000","97.1467000"
"10107514","SMAN 9 TAKENGON","JL. SP. IV REJEWALI","Prop. Aceh","SMA","4.7019117","96.7140333"
"69774764","SMAN 19 TAKENGON","PANTAN TENGAH","Prop. Aceh","SMA","4.6269852","96.6378081"
"10100196","SMA NEGERI 1 INDRAPURI","JL. BANDA ACEH-MEDAN KM 27,4","Prop. Aceh","SMA","5.4051000","95.4637000"
"10107279","SMA NEGERI 3 TIMANG GAJAH","JL. TAKENGON - BIREUEN","Prop. Aceh","SMA","4.9147000","96.7160000"
"10113017","SMAN 2 DELIMA","JL. KP. AREE-RUBEE","Prop. Aceh","SMA","5.3427160","95.9124890"
"10100176","SMAS MALEM PUTRA 1","JL.SYEH ABDULLAH KAN-AN","Prop. Aceh","SMA","5.4930230","95.3306793"
"10104295","SMAS AL - WASHLIYAH","Jln. Letjend S. Parman No. 48, Kec. Kota Kualasimpang","Prop. Aceh","SMA","4.2823000","98.0598000"
"69934939","SMA SWASTA AL-ANSHAR","Jl. Banda Aceh - Meulaboh Km. 137","Prop. Aceh","SMA","4.6846137","95.5352069"
"10104059","SMAN 1 RUNDENG","JL. PERJUANGAN NO.14","Prop. Aceh","SMA","2.5820000","97.9777000"
"10108241","SMA NEGERI UNGGUL SIGLI","JL. TIBANG - KRUENG RAYA Blang Galang-Sigli","Prop. Aceh","SMA","5.3848000","95.9244000"
"10107804","SMA NEGERI UNGGUL SUBULUSSALAM","Jln. Syech Hamzah Fansyuri","Prop. Aceh","SMA","2.7545000","97.9543000"
"10113366","SMAN 1 DARUL IHSAN","JL. IDI-SIMPANG DAMA","Prop. Aceh","SMA","4.9036000","97.7729000"
"69773552","SMA SWASTA NURUL HUDA AL AZIZIYYAH","JLN. T.Umar KM 79,8 Banda Aceh - Calang","Prop. Aceh","SMA","5.0765463","95.3539530"
"10106274","SMA NEGERI 2 NISAM","JL. NISAM KM. 05 BLANG KARIENG","Prop. Aceh","SMA","5.2035000","97.0115000"
"10100566","SMAN 2 MUTIARA","Jl. Beureunuen - Tiro Km. 4","Prop. Aceh","SMA","5.2820000","95.9777000"
"69896979","SMA NEGERI 1 LEUSER","Desa Bukit Meriah","Prop. Aceh","SMA","3.2266720","97.9148010"
"10107276","SMA NEGERI UNGGUL BINAAN","JL. BANDARA REMBELE - PANTE RAYA","Prop. Aceh","SMA","4.7240650","96.8180770"
"10107083","SMA NEGERI 1 BIREUEN","Jln. Banda Aceh - Medan Geulanggang Baro","Prop. Aceh","SMA","5.2061000","96.7219000"
"10105624","SMAN 6 LHOKSEUMAWE","DESA BALOI-PUNTEUET","Prop. Aceh","SMA","5.1192450","97.1739850"
"10108100","SMA NEGERI 1 MUARA BATU","JL. PENDIDIKAN NO.5 KRUENG MANE","Prop. Aceh","SMA","5.2413000","96.9166000"
"10100170","SMA NEGERI MODAL BANGSA","JL. BANDARA SIM KM. 12,5","Prop. Aceh","SMA","5.5085700","95.3955910"
"10111885","SMA TEUKU NYAK ARIF FATIH BILINGUAL SCHOOL","JL. TEUKU NYAK ARIF NO. 1","Prop. Aceh","SMA","5.5721000","95.3627000"
"10107098","SMA NEGERI 2 KUTABLANG","JL.DESA BABAH JURONG","Prop. Aceh","SMA","5.2115000","96.8156000"
"10113618","SMA NEGERI 1 KRUENG SABEE","Jln. Gunong Guda Hitam","Prop. Aceh","SMA","4.6017755","95.6510300"
"69948358","SMA Swasta THAUTHIATU ASYRAF","Jln Ujong Raja","Prop. Aceh","SMA","5.1619720","96.4136870"
"10102181","SMAN 4 TAKENGON","JL.TAKENGON - BIREUEN","Prop. Aceh","SMA","4.6474137","96.8385128"
"10110295","SMAN 3 DARUL MAKMUR","JL. TRIPA BAWAH","Prop. Aceh","SMA","3.9211930","96.4213080"
"10111598","SMA NEGERI 2 KESUMA BANGSA MUARA BATU","JL. BANDARA MALIKUSSALEH-BUNGKAIH","Prop. Aceh","SMA","5.0966000","96.8732000"
"10110896","SMAN 2 SALANG","Jalan T. Hamzah","Prop. Aceh","SMA","2.5966000","95.9971000"
"10104041","SMA HIDAYATULLAH","Jln. Hamzah Fansyuri No. 86","Prop. Aceh","SMA","2.6858660","97.9564470"
"10108225","SMAN 2 PERCONTOHAN KARANG BARU","JL. KEBUN PT.PPP","Prop. Aceh","SMA","4.3065000","98.0452000"
"10110593","SMAS ISKANDAR MUDA","Jl. Singgalang No.4, Komp PIM","Prop. Aceh","SMA","5.2239000","97.0313000"
"10108103","SMA NEGERI 1 WOYLA BARAT","JL. TEUPIN PEURAHO - ALUE KEUMUNENG KM. 07","Prop. Aceh","SMA","4.3293000","96.0253000"
"10107156","SMAN 5 KEJURUAN MUDA","JL. TENGGULUN","Prop. Aceh","SMA","3.9553000","97.9259000"
"69896121","SMA NEGERI 2 BIREM BAYEUN","DUSUN RUKUN GAMPONG ALUE SEUNTANG","Prop. Aceh","SMA","4.4112290","97.9750910"
"10107825","SMAN 12 TAKENGON","JL. Uyem Beriring, Kec. Laut Tawar Takengon","Prop. Aceh","SMA","4.6090950","96.8444050"
"10108099","SMAN 1 NISAM ANTARA","JL. ALUE DUA - BLANG RIMEH","Prop. Aceh","SMA","4.9167000","96.8486000"
"10110902","SMAN 2 SIMEULUE TENGAH","JL. TGK. DIUJUNG","Prop. Aceh","SMA","2.5461000","96.1108000"
"10102510","SMA MUHAMMADIYAH 6 MEULABOH","JL. TGK DIRUNDENG MEULABOH","Prop. Aceh","SMA","4.1478000","96.1333000"
"10104045","SMAN 1 KUTA BAHARU","JL. CUT NYAK DHIEN KM.4","Prop. Aceh","SMA","2.4995000","98.0466000"
"10100187","SMA NEGERI 1 SUKAMAKMUR","JL.BANDA ACEH-MEDAN KM.15","Prop. Aceh","SMA","5.4656000","95.3832000"
"10107097","SMA NEGERI 2 BIREUEN","Jl. Sultan Malikussaleh Cot Gapu","Prop. Aceh","SMA","5.2021000","96.7165000"
"10107501","SMA N 5 LANGSA","Jalan Kebun Baru","Prop. Aceh","SMA","4.4704000","97.9400000"
"10113610","SMA NEGERI 1 PANTAN CUACA","JALAN BLANGKEJEREN - TAKENGON KM. 32","Prop. Aceh","SMA","3.8250000","97.5377000"
"10110904","SMAN 1 SIMEULUE CUT","Jln. Tgk. Diujung Desa Kuta Inang","Prop. Aceh","SMA","2.5927000","96.0460000"
"10105182","SMAN 1 BANDAR","JL. TAKENGON-PONDOK BARU","Prop. Aceh","SMA","4.7534000","96.9056000"
"10112966","SMA NEGERI 2 BLANGKEJEREN","JL. PORANG-KUTE BUKIT","Prop. Aceh","SMA","3.9800000","97.3257000"
"10107105","SMA SWASTA SUKMA BANGSA BIREUEN","Jln. Medan Banda Aceh Desa Cot Keutapang Kecamatan Jeumpa","Prop. Aceh","SMA","5.1960000","96.6842000"
"10113435","SMA SWASTA ISLAM DARUL ULUM","JL. Pesantren Abu Tanoh Mirah","Prop. Aceh","SMA","5.0815000","96.7092000"
"10104880","SMA NEGERI 6 ACEH BARAT DAYA","JL. GUHANG NO. 34","Prop. Aceh","SMA","3.8279000","96.8433000"
"10101307","SMA NEGERI 1 SAMUDERA","JL. PENDIDIKAN NO. 3 BLANG PEURIA","Prop. Aceh","SMA","5.1128000","97.2023000"
"69899342","SMA IT DARUL ULUM UMAR FARUQ","Desa Teubang Phui Baro","Prop. Aceh","SMA","5.4666112","95.4208201"
"10113639","SMAN LAWE SUMUR","LAWE SUMUR","Prop. Aceh","SMA","3.4600520","97.8503140"
"69849616","SMA NEGERI 2 PERMATA","Jln. Inpres - Kampung Ayu Ara","Prop. Aceh","SMA","4.7916260","96.9682160"
"10102739","SMA ISLAM TERPADU DARUL AMILIN","JL. DESA GUNUNG ROTAN","Prop. Aceh","SMA","3.6282000","97.2467000"
"10105752","SMA N 4 LANGSA","JL. PROF. A. MAJID IBRAHIM","Prop. Aceh","SMA","4.4602000","97.9103000"
"10113241","SMAN 1 TADU RAYA","Jl. Meulaboh Tapaktuan Desa Alue Gani","Prop. Aceh","SMA","4.0779000","96.4358000"
"10113363","SMA NEGERI 1 SIMPANG TIGA","JL. TGK. CHIEK EMPEE TRIENG","Prop. Aceh","SMA","5.4706000","95.3490000"
"10104270","SMAN 1 TAMIANG HULU","JL. DUSUN RANTAU MANYANG","Prop. Aceh","SMA","4.1605000","97.9345000"
"10101175","SMA NEGERI 1 DEWANTARA","JALAN BTN ARUN PALOH LADA","Prop. Aceh","SMA","5.2331600","97.0146510"
"10102790","SMAN 1 LABUHAN HAJI TIMUR","JL.SEUGUNGA NAM","Prop. Aceh","SMA","3.4891000","97.1896000"
"69939616","SMAN 2 PANTE BIDARI","JL. DESA BLANG SEUNONG","Prop. Aceh","SMA","5.0437290","97.6278240"
"10113403","SMA NEGERI 3 TEUPAH SELATAN","JALAN BATU BERLAYAR KM. 22","Prop. Aceh","SMA","2.3437000","96.3635000"
"10105185","SMAN 1 TIMANG GAJAH","JL. TAKENGON BIREUEN KM.65","Prop. Aceh","SMA","4.8367000","96.6979000"
"10112861","SMAN 15 TAKENGON BINAAN NENGGERI ANTARA","JL. SP. KELAPING-LUKUP BADAK","Prop. Aceh","SMA","4.5966217","96.8100483"
"10104680","SMAN 1 BEUTONG","BLANG SEUMOT","Prop. Aceh","SMA","4.2198000","96.6267000"
"10110460","SMAN 1 SUNGAI RAYA","JL. BANDA ACEH MEDAN KM. 415","Prop. Aceh","SMA","4.3744000","97.5138000"
"10111321","SMAS JANNATUL FIRDAUS","JL. T. NYAK ADAM KAMIL","Prop. Aceh","SMA","2.6499000","98.0082000"
"10112425","SMAN 13 TAKENGON","JL. TAKENGON-BLANG KEJEREN KM. 78","Prop. Aceh","SMA","4.3924483","97.1208979"
"10105737","SMA N 3 LANGSA","JL. CUT NYAK DHIEN No. 27","Prop. Aceh","SMA","4.4722960","97.9692270"
"10102787","SMAN 1 KLUET SELATAN","JL. BAHAGIA NO.2 KANDANG KLUET SELATAN","Prop. Aceh","SMA","3.0562000","97.3245000"
"10101193","SMA NEGERI 1 TANAH JAMBO AYE","JL. JAMBO AYE PANTON LABU","Prop. Aceh","SMA","5.1213000","97.4608000"
"10100197","SMA NEGERI 1 BAITUSSALAM","JL. LAMBAROANGAN","Prop. Aceh","SMA","5.6014770","95.3880930"
"10100543","SMAN 1 TRIENGGADENG","JL.KERETA API","Prop. Aceh","SMA","5.2300530","96.1559150"
"69767582","SMAS NURUL ARAFAH","JLN. SIMPANG PANTEU BREUH KM. 1","Prop. Aceh","SMA","5.1373000","97.3594000"
"10101184","SMAS PGRI KRG GEUKEUH","JL. TUGU PIM TAMBON TUNONG","Prop. Aceh","SMA","5.2094000","96.9458000"
"69896933","SMA UNGGUL CUT NYAK DHIEN","JL. PERUMNAS NO. 45","Prop. Aceh","SMA","4.4813010","97.9328190"
"10104275","SMAN 1 BENDAHARA","JL. SUNGAI IYU-UPAH KM. 5","Prop. Aceh","SMA","4.3856000","98.1647000"
"10105397","SMAN 6 BANDA ACEH","JL. TGK. COT ARON","Prop. Aceh","SMA","5.5443000","95.2948000"
"10102285","SMAN 1 TAKENGON","JL. LEBE KADER NO. 13 TAKENGON","Prop. Aceh","SMA","4.6226610","96.8469278"
"10104527","SMA NEGERI 1 TERANGUN","JL.TERANGUN-BLANGKEJEREN KM,2","Prop. Aceh","SMA","4.0764000","97.0770000"
"10103098","SMAN 3 KUTACANE","JL. RAJA BINTANG MBARUNG","Prop. Aceh","SMA","3.4927000","97.8016000"
"10102506","SMA NEGERI 1 SAMATIGA","JL. T. DAUD SUAK TIMAH KECAMATAN SAMATIGA 23652","Prop. Aceh","SMA","4.2071000","96.0611000"
"10110732","SMA NEGERI 1 SETIA BAKTI","JL. B. ACEH - MEULABOH KM.139,5 JABIE","Prop. Aceh","SMA","4.6719000","95.5440000"
"69947047","SMA Persiapan Negeri 3 Gunung Meriah","Jl. Sanggaberu, kampong Blok 15","Prop. Aceh","SMA","2.3685053","97.9905339"
"69831997","SMA SWASTA RAUDHATUL FUQARA PAYA BAKONG","KOMPLEK YAYASAN RAUDHATUL FUQARA, Jl. Cut Meutia","Prop. Aceh","SMA","5.0102000","97.2532000"
"10102770","SMAN 1 MEUKEK","JL. TAPAKTUAN - BLANG PIDIE KM. 27","Prop. Aceh","SMA","3.4614000","97.0581000"
"69773522","SMAN 1 KETAMBE","Jl. Kutacane - Blang Kejeren","Prop. Aceh","SMA","3.6006000","97.7419000"
"10102744","SMAN UNGGUL TAPAKTUAN","JL. GUNUNG DURIAN 2 KEL. LHOK BENGKUANG TAPAKTUAN","Prop. Aceh","SMA","3.2734000","97.2185000"
"10111579","SMAN 1 BAKONGAN TIMUR","JL. SAID CUT","Prop. Aceh","SMA","2.8973000","97.5541000"
"10107094","SMA NEGERI 1 PEUSANGAN SIBLAH KRUENG","JL. TGK. CHIEK AWE GEUTAH KM.6 LUENG DANEUN","Prop. Aceh","SMA","5.1612000","96.8144000"
"10100189","SMA NEGERI 1 PEUKAN BADA","JL. BLANG AJUN KM. 3","Prop. Aceh","SMA","5.5318000","95.2819000"
"10110274","SMA NEGERI 4 WIRA BANGSA MEULABOH","JL. SISINGAMANGARAJA MEURIAM","Prop. Aceh","SMA","4.1870000","96.1358000"
"69787070","SMAS TERPADU DARUL MUTTAQIN","Jln. Lhok Seutuy - Krueng Lingka","Prop. Aceh","SMA","5.1381000","97.3822000"
"10110350","SMAN 1 DARUL HASANAH","JL. KUTA UJUNG","Prop. Aceh","SMA","3.5458000","97.7616000"
"69864676","SMA NEGERI 1 PENANGGALAN","Jln. Lae Raso","Prop. Aceh","SMA","2.6107050","98.0681420"
"10107096","SMA NEGERI 1 SIMPANG MAMPLAM","Jln. Banda Aceh-Medan Km.183 Simpang Mamplam","Prop. Aceh","SMA","5.1755000","96.3659000"
"10102740","SMAN 1 LABUHAN HAJI BARAT","JL. TTMD PEULOKAN LABUHAN HAJI BARAT","Prop. Aceh","SMA","3.4786000","97.0632000"
"10110880","SMAN 1 TEUPAH TENGAH","JL. TGK. DIUJUNG","Prop. Aceh","SMA","2.4192000","96.3221000"
"10101907","SMAN 1 MADAT","JL. MADAT PAYA NADEN","Prop. Aceh","SMA","5.1078000","97.5084000"
"69759042","SMA NEGERI 3 SAMALANGA","JL B ACEH - MEDAN KM 174","Prop. Aceh","SMA","5.2379000","96.8615000"
"10107195","SMAN 11 BANDA ACEH","JL. PAYA UMET","Prop. Aceh","SMA","5.5381300","95.3302700"
"69851868","SMA NEGERI 3 LAWE SIGALA GALA","JL. LAWE DESKY-MUARA SITULEN","Prop. Aceh","SMA","3.3071740","97.9403290"
"10113086","SMA NEGERI UNGGUL","JL. BLANG AWE RUNGKOM","Prop. Aceh","SMA","5.2152990","96.2439570"
"10102516","SMA SWASTA ISLAM SERAMBI MEUKAH","JL. MEULABOH - TUTUT KOMPLEK PESANTREN SERAMBI MEUKAH","Prop. Aceh","SMA","4.1976000","96.1440000"
"10105183","SMA NEGERI 1 BUKIT","JL. BALE ATU - SIMPANG TIGA REDELONG","Prop. Aceh","SMA","4.7262000","96.8642000"
"10110790","SMA FAJAR HIDAYAH","JL. BANDARA SIM KM. 14,5","Prop. Aceh","SMA","5.5039790","95.4036800"
"10107496","SMAN 1 KUTA COT GLIE","JL.BANDA ACEH-MEDAN KM.33","Prop. Aceh","SMA","5.5192000","95.2742000"
"10101884","SMAN 1 RANTO PEUREULAK","JL. RANTAU PEUREULAK","Prop. Aceh","SMA","4.8110000","97.8202000"
"10104049","SMAN 1 SURO","JL. GURU PINTO SIOMPIN","Prop. Aceh","SMA","2.4972050","98.0433850"
"10101305","SMA NEGERI 1 SYAMTALIRA BAYU","JL. BANDA ACEH-MEDAN KM.284 COT PLIENG BAYU","Prop. Aceh","SMA","5.0228000","97.1505000"
"10107497","SMA TEUNGKU CHIK KUTA KARANG","JL. HADIAH NO. 4A","Prop. Aceh","SMA","5.5140183","95.3044567"
