"schoolId","schoolName","schoolAddress","province","school_level","lat","long"
"10258263","SMA NEGERI 1 GOMO","JL. BAWOLUO NO. 1 DESA SIFAOROASI GOMO","Prop. Sumatera Utara","SMA",".8518000","97.7802000"
"10214160","SMAS RK DELI MURNI DISKI SUNGGAL","JL. BINJAI KM. 14,5 DISKI","Prop. Sumatera Utara","SMA","3.5998000","98.5561000"
"10208165","SMAN 1 MUARA SIPONGI","JL. MEDAN PADANG","Prop. Sumatera Utara","SMA",".5386000","99.8163000"
"10205380","SMAN 2 RANTAU UTARA","JL. MENARA NO. 4 RANTAUPRAPAT","Prop. Sumatera Utara","SMA","2.0982000","99.8202000"
"10262411","SMAS YAPIM TARUNA STABAT","JL. JEND. SUDIRMAN","Prop. Sumatera Utara","SMA","3.7513000","98.4736000"
"10257743","SMAN 1 PANTAI CERMIN","JL. MAYJEN H.T. RIZAL NURDIN NO. 01","Prop. Sumatera Utara","SMA","3.6404000","98.9667000"
"10220932","SMAS PULAU BRAYAN DARAT","JL. BILAL UJUNG NO. 3 MEDAN","Prop. Sumatera Utara","SMA","3.6325000","98.6746000"
"10262148","SMA NEGERI 1 ULUSUSUA","DESA RAMBA-RAMBA","Prop. Sumatera Utara","SMA",".7868000","97.7117000"
"10201343","SMAN 1 HINAI","JL. OLAH RAGA BATU MELENGGANG","Prop. Sumatera Utara","SMA","3.8366000","98.4312000"
"10258034","SMAS SWAKARYA","JL. SAMAN HUDI NO 17 BINJAI","Prop. Sumatera Utara","SMA","3.6002579","98.4784079"
"60728995","SMAS BRIGJEND KATAMSO II","JL MARELAN RAYA PSR III","Prop. Sumatera Utara","SMA","3.7350000","98.6244000"
"10212197","SMAS KAMPUS","JL. SUTAN SORIPADA MULIA 64 A","Prop. Sumatera Utara","SMA","1.3965000","99.2617000"
"10258275","SMA NEGERI 1 LOLOMATUA","JL.ULUNOYO","Prop. Sumatera Utara","SMA",".9418000","97.6231000"
"69899996","SMA NEGERI 1 RANTO BAEK","JL. LINTAS MANDAILING SUMBAR","Prop. Sumatera Utara","SMA",".5089482","99.4095123"
"69948912","SMAN 2 PARMONANGAN","DESA MANALU PURBA","Prop. Sumatera Utara","SMA","2.0856658","98.8345608"
"10210852","SMAN 18 MEDAN","JL. WAHIDIN NO. 15 A","Prop. Sumatera Utara","SMA","3.7017000","98.6510000"
"10214113","SMA CHANDRA KUSUMA","PERUMAHAN  CEMARA ASRI  BLOK O","Prop. Sumatera Utara","SMA","3.6357000","98.7067000"
"10212022","SMA SWASTA SISINGAMANGARAJA","Jln. Sisingamangaraja No.101","Prop. Sumatera Utara","SMA","2.9322000","99.8029000"
"10210840","SMAS ST PETRUS MEDAN","JL. LUKU I NO. 1","Prop. Sumatera Utara","SMA","3.5326000","98.6470000"
"10203520","SMAS PERGURUAN NASIONAL","JL. FL. TOBING NO. 42 SIDIKALANG","Prop. Sumatera Utara","SMA","2.7424000","98.3192000"
"10210725","SMAS CAHAYA MEDAN","JL. HAYAM WURUK NO. 11 MEDAN","Prop. Sumatera Utara","SMA","3.5807000","98.6658000"
"10261987","SMAS ADVENT TELADAN","KAMPUNG BARU III","Prop. Sumatera Utara","SMA","1.7542000","100.2223000"
"10210710","SMAS FREE METHODIST","JL. BERINGIN RAYA 152 -E","Prop. Sumatera Utara","SMA","3.6143000","98.6245000"
"10214134","SMAN 1 LUBUK PAKAM","JL. DR.WAHIDIN NO. 1","Prop. Sumatera Utara","SMA","3.5635390","98.8783660"
"10258337","SMAN 1 AFULU","JL. AFULU","Prop. Sumatera Utara","SMA","1.3040560","97.2664260"
"69733966","SMAS TUNAS HARAPAN","DESA SIMANGALAM","Prop. Sumatera Utara","SMA","2.4923000","99.7457000"
"10211293","SMAS GAJAH MADA","JL. RASBERI NO. 22 BINJAI","Prop. Sumatera Utara","SMA","3.6203000","98.4600000"
"10220616","SMAS TUNAS MEKAR","TANOTOMBANGAN","Prop. Sumatera Utara","SMA","1.9562000","99.6093000"
"10214122","SMAS KARYA PEMBANGUNAN DELI TUA","JL. PASAR VI NO. 9 DELI TUA","Prop. Sumatera Utara","SMA","3.4846000","98.6847000"
"10211587","SMA NEGERI 3 TEBING TINGGI","JL.GUNUNG LEUSER","Prop. Sumatera Utara","SMA","3.3269670","99.1622220"
"10257398","SMAN 1 SIJAMAPOLANG","Lumbanjulu","Prop. Sumatera Utara","SMA","2.2011000","98.6993000"
"69822701","SMAS ISLAM NUR IHSAN","jl.Bersama no.83 A Medan","Prop. Sumatera Utara","SMA","3.6057000","98.7046000"
"10212245","SMAN 5 PADANG SIDEMPUAN","JL. MELATI NO. 90","Prop. Sumatera Utara","SMA","1.3645000","99.2721000"
"10202760","SMA NEGERI 1 PURBA","JL. SIMARJARUNJUNG NO.309","Prop. Sumatera Utara","SMA","2.8915000","98.7258000"
"10208158","SMAS MUHAMMADIYAH 13 PANYABUNGAN","JL. BHAYANGKARA RAYA","Prop. Sumatera Utara","SMA",".9106000","99.6984000"
"10210740","SMAS KRAKATAU MEDAN","JL. BRIGJEND BEJO NO.32-34","Prop. Sumatera Utara","SMA","3.6153560","98.6790360"
"10209411","SMAS MUHAMMADIYAH 6","JL.BESAR DESA PON DUSUN I SEI BAMBAN","Prop. Sumatera Utara","SMA","3.6000000","99.0468000"
"10258335","SMAS PERMATA KASIH","DESA BOTOMBAWO","Prop. Sumatera Utara","SMA","1.4157000","97.3808000"
"10202681","SMA SWASTA HKBP SERBELAWAN","JL. MERDEKA NO. 4","Prop. Sumatera Utara","SMA","3.1175000","99.1595000"
"10204248","SMA SWASTA TELADAN INDRAPURA","Jalan Datuk Umar Pelangki No. 8 Tanah Merah","Prop. Sumatera Utara","SMA","3.2734000","99.3637000"
"10214167","SMAS SINGOSARI DELI TUA","JL. BESAR DELI TUA","Prop. Sumatera Utara","SMA","3.4959000","98.6810000"
"10206577","SMAS SW TIGA BUKIT","JL. PERJUANGAN NO. 55 BUKIT HASANG","Prop. Sumatera Utara","SMA","2.0269000","98.4226000"
"69773550","SMAS YAPIM TARUNA","DOLOK MASIHUL","Prop. Sumatera Utara","SMA","3.3371000","99.0013000"
"10261711","SMAS INDONESIA MEMBANGUN","JL.H.ADAM MALIK BY.PASS","Prop. Sumatera Utara","SMA","2.3136000","99.9620000"
"10208955","SMAS KARYA JAYA PANGURURAN","JL. TANAH LAPANG","Prop. Sumatera Utara","SMA","2.5778000","98.7269000"
"10205387","SMAN 1 PANAI HULU","DESA TANJUNG SARANG ELANG","Prop. Sumatera Utara","SMA","2.4887000","100.1361000"
"10257886","SMAS AL - ULUM TERPADU","JL.TUASAN NO. 35 MEDAN","Prop. Sumatera Utara","SMA","3.6270000","98.7073000"
"10258039","SMAS CERDAS MURNI","JL. BERINGIN NO.33","Prop. Sumatera Utara","SMA","3.5911000","98.7552000"
"10210759","SMAS LAKSAMANA MARTADINATA","JL.PERTEMPURAN NO.125","Prop. Sumatera Utara","SMA","3.6258000","98.6611000"
"10204250","SMAS TAMAN SISWA KISARAN","JL. HOS COKROAMINOTO NO. 341 KISARAN","Prop. Sumatera Utara","SMA","2.9858000","99.6146000"
"10211317","SMAN 2 BINJAI","JL. PADANG NO. 08 BINJAI","Prop. Sumatera Utara","SMA","3.5897000","98.4929000"
"10204241","SMAS METHODIST 2 KISARAN","JL. COKROAMINOTO NO.16 KISARAN","Prop. Sumatera Utara","SMA","2.9848000","99.6270000"
"10211689","SMAS HARAPAN","JLN. BAHKORA II MARIHAT LANDBOW","Prop. Sumatera Utara","SMA","2.9365000","99.0736000"
"10259584","SMA SWASTA AL MAKSUM","JL. SATRIA GG. AL MAKSUM DUSUN XI","Prop. Sumatera Utara","SMA","3.6699000","98.7775000"
"10214172","SMAS MASEHI SEBIRU BIRU","JL. DELI TUA - PENEN KM 36,5 DESA PERIARIA","Prop. Sumatera Utara","SMA","3.3100000","98.6510000"
"10260076","SMA SWASTA BINA BANGSA","JL.LINTAS SUMATERA KM.111","Prop. Sumatera Utara","SMA","3.2550000","99.4096000"
"10204063","SMA NEGERI 1 LIMA PULUH","Jalan Besar Lima Puluh","Prop. Sumatera Utara","SMA","3.1742000","99.4179000"
"10208460","SMAN 1 LAGU BOTI","JL. PELAJAR NO. 3","Prop. Sumatera Utara","SMA","2.3377000","99.1600000"
"10212556","SMAS NAHDLATUL ULAMA","JL. SISINGAMANGARAJA NO. 18","Prop. Sumatera Utara","SMA","1.3641890","99.2899510"
"10210929","SMAS NASIONAL GULTOM","JL. PELITA IV NO. 90","Prop. Sumatera Utara","SMA","3.6078000","98.6917000"
"10200446","SMAS PRIMA TEMBUNG PERCUT","JL. PRIMA PSR. VII","Prop. Sumatera Utara","SMA","3.5894000","98.7440000"
"10209423","SMAS YAPIM KP PON","JL. B ESAR DESA PON","Prop. Sumatera Utara","SMA","3.4787320","99.1497660"
"10259931","SMA SWASTA TAMAN SISWA BAH JAMBI","BAH JAMBI POS BANGUN 21153","Prop. Sumatera Utara","SMA","2.9892000","99.2241000"
"10220782","SMAS SANTO PAULUS","JL PANCING NO. 9 MARTUBUNG","Prop. Sumatera Utara","SMA","3.7000360","98.6898560"
"10218990","SMAS AL HUSNA PATUMBAK","Jl. Pelajar Pasar III Marindal I","Prop. Sumatera Utara","SMA","3.4974000","98.6981000"
"10207064","SMAN 2 PADANG BOLAK","Jln. Hajoran Km. 3 Batutambun","Prop. Sumatera Utara","SMA","1.4513000","99.7031000"
"10201985","SMA NEGERI 1 KABANJAHE","JL.JAMIN GINTING NO 31 KABANJAHE","Prop. Sumatera Utara","SMA","3.1133400","98.5023350"
"10214165","SMA SWASTA SINAR HARAPAN ","JL. PANTAI LABU GG. BALI","Prop. Sumatera Utara","SMA","3.6053000","98.8907000"
"10210756","SMAS JENDERAL SUDIRMAN","JL. SELAM I NO. 52","Prop. Sumatera Utara","SMA","3.5626000","98.7376000"
"10204229","SMAS DAERAH KISARAN","JL. MADONG LUBIS NO.6 KISARAN","Prop. Sumatera Utara","SMA","2.9995000","99.6321000"
"69900393","SMA Swasta Cahaya","Jl. Bowo No.08 kelurahan Pasar Lahewa","Prop. Sumatera Utara","SMA","1.3705000","97.2542000"
"10208520","SMAN 2 BALIGE","JL. KARTINI SOPOSURUNG BALIGE","Prop. Sumatera Utara","SMA","2.3243000","99.0486000"
"10203525","SMAS ADVENT SUMBUL","JL. PELITA ATAS NO.  53 SUMBUL","Prop. Sumatera Utara","SMA","2.6813000","98.4675000"
"69877353","SMA NEGERI 3 HURUNA","Desa Tundrumbaho","Prop. Sumatera Utara","SMA",".9309000","97.7269000"
"10210801","SMAS AR RAHMAN","JL. H.A MANAF LUBIS NO. 58","Prop. Sumatera Utara","SMA","3.5996940","98.6330570"
"69930818","SMA IT SWASTA DAARUSSAKINAH","Jl. Protokol Sei Kamah I","Prop. Sumatera Utara","SMA","2.9198575","99.6570378"
"10200448","SMAS BPI PALUH KURAU","JL. PALUH HIU NO. 10","Prop. Sumatera Utara","SMA","3.8239000","98.6489000"
"10220209","SMAS DHARMA BAKTI SIBORONG2","JL. SM. RAJA SIBIRONGBORONG","Prop. Sumatera Utara","SMA","2.2127000","98.9719000"
"10259560","SMAS PEMBANGUNAN NASIONAL","JL. MUSTIKA NO.2","Prop. Sumatera Utara","SMA","3.5919000","98.7146000"
"10209417","SMAS KPM BENGKEL","JL. MEDAN-T.TINGGI","Prop. Sumatera Utara","SMA","3.5592000","99.0067000"
"10211696","SMAS PGRI 10","JL. PATUAN ANGGI NO. 8","Prop. Sumatera Utara","SMA","2.9676000","99.0718000"
"10258026","SMAS MUHAMMADIAH 19","JL. KESEHATAN","Prop. Sumatera Utara","SMA","3.7546000","98.4516000"
"69950587","SMA YAYASAN ABDI KARYA (YADIKA) TORGANDA","SIBISA MANGATUR","Prop. Sumatera Utara","SMA","1.7211730","100.3016434"
"10210827","SMAS TUNAS GAJAH MADA","JL. TILAK NO. 95/97 MEDAN","Prop. Sumatera Utara","SMA","3.5627250","98.7032840"
"10208722","SMAS RK ST MARIA PAKKAT","JL. PERGURUAN KATOLIK","Prop. Sumatera Utara","SMA","2.1459000","98.4596000"
"10210714","SMAS HANG KESTURI","JL. SUTOMO NO. 144 A MEDAN","Prop. Sumatera Utara","SMA","3.5930000","98.6785000"
"10214168","SMAS KARYA SEDAR SIBIRU-BIRU","JL BESAR DELI TUA","Prop. Sumatera Utara","SMA","3.3687000","98.6651000"
"10258268","SMA SWASTA HARAPAN BARU","JL. GOMO-HUNO KM 8","Prop. Sumatera Utara","SMA",".9059040","97.7495130"
"10260520","SMAN 5 PEMATANG SIANTAR","JL. MEDAN Km 6,5","Prop. Sumatera Utara","SMA","3.0048000","99.0640000"
"10207089","SMAN 1 PADANG BOLAK","GUNUNG TUA","Prop. Sumatera Utara","SMA","1.5091000","99.6304000"
"10202659","SMA SWASTA ASSISI SIANTAR","JL. ASAHAN KM. 6","Prop. Sumatera Utara","SMA","2.9646000","99.1259000"
"10220217","SMAN 1 NAMORAMBE","JL. PENDIDIKAN JATI KESUMA","Prop. Sumatera Utara","SMA","3.4545000","98.6438000"
"10202001","SMA SWASTA KATOLIK 2 KABANJAHE","JLN. KOTACANE / RAKOETTA S. BRAHMANA KABANJAHE","Prop. Sumatera Utara","SMA","3.0917817","98.4719550"
"10202658","SMA SWASTA BINA GUNA TANAHJAWA","BALIMBINGAN","Prop. Sumatera Utara","SMA","2.8887000","99.1650000"
"10210720","SMAS KATOLIK BUDI MURNI 1","JL. TIMOR NO. 34 MEDAN","Prop. Sumatera Utara","SMA","3.6336000","98.6628000"
"10259250","SMAN 1 TUHEMBERUA","Jl. Tuhemberua-Sawo No. 124","Prop. Sumatera Utara","SMA","1.4687000","97.4217000"
"10214140","SMAS NILA HARAPAN SUNGGAL","JL. BINJAI KM. 11.2","Prop. Sumatera Utara","SMA","3.6022000","98.5866000"
"69888712","SMAS HOSANA","Jalan Metal No. 7","Prop. Sumatera Utara","SMA","3.6405000","98.6836000"
"10206132","SMAN 1 PAHAE JAE","JL. SIPIROK SARULLA","Prop. Sumatera Utara","SMA","1.7944000","99.1655000"
"10206581","SMAN 1 PINANGSORI","JL. SISINGAMANGARAJA","Prop. Sumatera Utara","SMA","1.4665000","98.8924000"
"10210705","SMAS DR WAHIDIN SUDIROHUSODO MEDAN","JL. KL. YOS SUDARSO KM. 16,5 P.RAMBAI","Prop. Sumatera Utara","SMA","3.7627000","98.6993000"
"69815453","SMA PRESTASI UTAMA ","Jl. Kalirejo Ujung Dusun II Sidodadi","Prop. Sumatera Utara","SMA","3.5914000","98.5106000"
"10206127","SMAN 1 PAHAE JULU","JL. SIGOMPUL","Prop. Sumatera Utara","SMA","1.8042000","99.0056000"
"10259752","SMAN 1 SEI LEPAN","JL. PITURAH PKL. BRANDAN","Prop. Sumatera Utara","SMA","4.0040040","98.2697290"
"10202674","SMA SWASTA PEMBANGUNAN","JL. SEKOLAH NO.1","Prop. Sumatera Utara","SMA","3.1130000","99.2430000"
"10258319","SMAN 1 HILIDUHO","JL. DURIA BALAKI NO.20","Prop. Sumatera Utara","SMA","1.2348000","97.5487000"
"69877337","SMA NEGERI 2 ONOHAZUMBA","Hilimbaruzo","Prop. Sumatera Utara","SMA","-.0621990","98.2776560"
"10211312","SMAS SANTO THOMAS 4","JL. IKAN TENGGIRI NO. 21 BINJAI","Prop. Sumatera Utara","SMA","3.6069000","98.5041000"
"10259084","SMA SWASTA SANTU XAVERIUS GUNUNGSITOLI","JL.NILAM NO.7 GUNUNG SITOLI","Prop. Sumatera Utara","SMA","1.2676000","97.6227000"
"10210860","SMAN 7 MEDAN","JL. TIMOR NO. 36","Prop. Sumatera Utara","SMA","3.6011000","98.6789000"
"10219919","SMAS HARAPAN 3 DELI TUA","JL. KARYA WISATA UJUNG NO.31","Prop. Sumatera Utara","SMA","3.5119000","98.6641000"
"10220317","SMAS AL MASDAR B KUIS","JL. BATANG KUIS - LUBUK PAKAM","Prop. Sumatera Utara","SMA","3.6117000","98.8229000"
"10204240","SMAS MERANTI","JL. PERINTIS KEMERDEKAAN NO.182 MERANTI","Prop. Sumatera Utara","SMA","3.0521000","99.6154000"
"10257750","SMA SWASTA GELORA PANCASILA","JL.  PEGAJAHAN","Prop. Sumatera Utara","SMA","3.0691000","98.9790000"
"10205391","SMAN 1 KUALUH SELATAN","JL. BESAR GUNTINGSAGA","Prop. Sumatera Utara","SMA","2.5240000","99.8234000"
"10210863","SMAN 16 MEDAN","JL. KAPTEN RAHMAT BUDDIN","Prop. Sumatera Utara","SMA","3.7151000","98.6545000"
"10204225","SMAS KESATUAN MERANTI","JL. JENDERAL SUDIRMAN NO. 47 MERANTI","Prop. Sumatera Utara","SMA","3.0408000","99.6406000"
"10258246","SMA NEGERI 1 TELUKDALAM","JL. PENDIDIKAN NO. 13 TELUKDALAM","Prop. Sumatera Utara","SMA",".5735000","97.8196000"
"10214152","SMAS PANGERAN ANTASARI","JL. VETERAN NO. 1060/19","Prop. Sumatera Utara","SMA","3.6301000","98.6606000"
"69899172","SMA NEGERI 1 LAHEWA TIMUR","TUGALA LAURU","Prop. Sumatera Utara","SMA","1.3702000","97.3039000"
"10212445","SMA SWASTA DAR - ALFALAH","JL. JEND. SUDIRMAN","Prop. Sumatera Utara","SMA","2.9253000","99.7875000"
"10211309","SMA SWASTA TAMAN SISWA","JL. JEND. SUDIRMAN NO. 11 BINJAI","Prop. Sumatera Utara","SMA","3.6049567","98.4836383"
"10210716","SMAS DHARMA SAKTI","JL. SEKSAMA NO. 130","Prop. Sumatera Utara","SMA","3.5855000","98.7151000"
"10258267","SMA SWASTA MITROS","DESA HILIORAHUA","Prop. Sumatera Utara","SMA",".8446000","97.7801000"
"10210802","SMAS BINA BERSAUDARA","JL. B. KATAMSO, T.KUNING NO. 43","Prop. Sumatera Utara","SMA","3.5492000","98.6557000"
"10204224","SMAN 1 AIR JOMAN","JL.LUBUK PALAS","Prop. Sumatera Utara","SMA","3.0895000","99.7079000"
"10258276","SMA NEGERI 2 HURUNA","DESA SIFAOROASI","Prop. Sumatera Utara","SMA",".9435000","97.6242000"
"10208457","SMAS BINTANG TIMUR BALIGE","JL. PASTOR SYBRANDUS VAN ROSSUM","Prop. Sumatera Utara","SMA","2.3377000","99.0387000"
"10220224","SMAS SUMATERA TJ MORAWA","JL. BATANG KUIS NO. 151","Prop. Sumatera Utara","SMA","3.5443000","98.7838000"
"10211688","SMAS KAMPUS NOMMENSEN","JL. SANGNAWALUH NO. 4","Prop. Sumatera Utara","SMA","2.9609000","99.0797000"
"10211537","SMA SWASTA INTI NUSANTARA","JL. DR. SUTOMO NO.26","Prop. Sumatera Utara","SMA","3.2995000","99.1334000"
"10257545","SMAS UNIV AMIR HAMZAH","JL. LANCANG KUNING NO. 2","Prop. Sumatera Utara","SMA","3.6359000","98.7573000"
"10257852","SMAS PABAKU","JL.PRINGGONDANI NO. 813 KARANG REJO","Prop. Sumatera Utara","SMA","3.7200000","98.4998000"
"69728737","SMAN 2 SEI KANAN","DESA SAMPEAN","Prop. Sumatera Utara","SMA","1.7711000","99.7910000"
"10220297","SMAN 2 TARUTUNG","JL. A.E. SITUMORANG","Prop. Sumatera Utara","SMA","2.0190000","98.9586000"
"10207087","SMAN 1 ANGKOLA BARAT","Jl. Sibolga Km. 15","Prop. Sumatera Utara","SMA","1.4303000","99.1745000"
"10259617","SMAS TUNAS BARU PKL BRANDAN","JL. IMAM BONJOL NO. 72","Prop. Sumatera Utara","SMA","3.9348000","98.3072000"
"10212578","SMAN 6 BINJAI","JL. ARIF RAHMAN HAKIM NO. 66 A BINJAI","Prop. Sumatera Utara","SMA","3.6164140","98.5094440"
"10259956","SMAS PRIMEONE SCHOOL","JL. JEND.BESAR A.H.NASUTION NO.50 MEDAN","Prop. Sumatera Utara","SMA","3.5514000","98.7467000"
"10259856","SMAN 1 PINTU POHAN MERANTI","PINTU POHAN","Prop. Sumatera Utara","SMA","2.4901000","99.1140000"
"10205392","SMAN 1 KUALUH LEIDONG","JL. STADION TANJUNG LEIDONG","Prop. Sumatera Utara","SMA","2.7218000","99.9477000"
"10214129","SMAS MUHAMMADIYAH 5 LUBUK PAKAM","Jl. R.A Kartini No.62","Prop. Sumatera Utara","SMA","3.5568000","98.8758000"
"10208714","SMAN 1 PARANGINAN","DESA PARANGINAN UTARA","Prop. Sumatera Utara","SMA","2.3019000","98.9223000"
"10261473","SMAS GLOBAL PRIMA","Jl. Brigjen Katamso No. 282-283 Medan","Prop. Sumatera Utara","SMA","3.5921000","98.6648000"
"10257280","SMAS SWAKARYA SALAPIAN","JL. MERDEKA NO. 06 TANJUNG LANGKAT","Prop. Sumatera Utara","SMA","3.4866000","98.3006000"
"10209410","SMAN 1 DOLOK MASIHUL","JL. MUTIARA NO.1 PEKAN DOLOK MASIHUL","Prop. Sumatera Utara","SMA","3.3819000","98.9936000"
"10211710","SMAS SURYA","JL. DALIL TANI NO. 55","Prop. Sumatera Utara","SMA","2.9775000","99.0756000"
"10207063","SMA NEGERI 2 PLUS SIPIROK","JL. YPmhb NO. 01","Prop. Sumatera Utara","SMA","1.5842054","99.2680834"
"69947108","SMA SWASTA SANTHONI OXFORD","Desa Bawosaodano","Prop. Sumatera Utara","SMA",".8392472","97.8417097"
"10210874","SMAN 10 MEDAN","JL. TILAK NO. 108","Prop. Sumatera Utara","SMA","3.6569000","98.6895000"
"10210902","SMAS METHODIST 1 MEDAN","JL. HANG TUAH NO. 4 MEDAN","Prop. Sumatera Utara","SMA","3.5375000","98.6695000"
"10260918","SMA SWASTA YPK KEDAISIANAM","JL. H. MHD. ZEN JAWI","Prop. Sumatera Utara","SMA","3.2466000","99.5220000"
"10220216","SMAN 1 LABUHAN DELI","JL. SERBAGUNA UJUNG","Prop. Sumatera Utara","SMA","3.6303000","98.6505000"
"10211588","SMA NEGERI 4 TEBING TINGGI","JALAN GATOT SUBROTO KM.5","Prop. Sumatera Utara","SMA","3.2971000","99.1160000"
"10202673","SMA NEGERI 1 HUTABAYURAJA","JL. PATUAN NAGARI NO. 2","Prop. Sumatera Utara","SMA","2.9612000","99.2865000"
"10204233","SMAS BINA BUDAYA RAWANG","JL. PASAR VI RAWANG","Prop. Sumatera Utara","SMA","3.0657000","99.6635000"
"69899238","SMA NEGERI 2 GOMO","Lawa - lawa Luo Gomo","Prop. Sumatera Utara","SMA",".8930824","97.8088970"
"10210850","SMAS YOS SUDARSO","JL. K.L. YOS SUDARSO NO. 50","Prop. Sumatera Utara","SMA","3.6198000","98.6628000"
"10260599","SMAN 1 ULUAN","Lumban Nabolon","Prop. Sumatera Utara","SMA","2.4638000","99.1262000"
"10207067","SMAN 1 BATANG ANGKOLA","PINTUPADANG","Prop. Sumatera Utara","SMA","1.2469000","99.3442000"
"10206137","SMAN 1 SIPOHOLON","JL. PENDIDIKAN","Prop. Sumatera Utara","SMA","2.1394000","98.9076000"
"10210859","SMAN 6 MEDAN","JL. ANSARI NO. 34","Prop. Sumatera Utara","SMA","3.5814000","98.6920000"
"10260457","SMA NEGERI 1 HIBALA","DESA HIBALA","Prop. Sumatera Utara","SMA","-.4024000","98.4521000"
"10260072","SMAS KARTINI UTAMA","JL. TERATAI DUSUN III SEI RAMPAH","Prop. Sumatera Utara","SMA","3.4783000","99.1388000"
"10210815","SMAS ADVENT AIR BERSIH MEDAN","JL. AIR BERSIH NO. 98 A","Prop. Sumatera Utara","SMA","3.5950000","98.6753000"
"69727626","SMAN 1 BILAH BARAT","BINANGA TOLANG DESA TANJUNG MEDAN","Prop. Sumatera Utara","SMA","2.0416000","99.6825000"
"10211697","SMAS BINTANG TIMUR","JL. MARIMBUN NO. 5","Prop. Sumatera Utara","SMA","2.9529000","99.0640000"
"10208657","SMAN 1 KERAJAAN","JL. MBINANGA SITELLU","Prop. Sumatera Utara","SMA","2.6131000","98.3088000"
"10210881","SMAS MULIA PRATAMA","JL. JAHE RAYA NO. 1 PERUMNAS SIMALINGKAR","Prop. Sumatera Utara","SMA","3.5151000","98.6295000"
"10214174","SMAS METHODIST TANJUNG MORAWA","JL. IRIAN NO.239","Prop. Sumatera Utara","SMA","3.5293000","98.8245000"
"10257549","SMAS RAHMAT ISLAMIYAH","JL.GAPERTA/BAKTI NO.25","Prop. Sumatera Utara","SMA","3.7419000","98.6869000"
"10207070","SMAN 1 ARSE","ARSE","Prop. Sumatera Utara","SMA","1.7776000","99.3160000"
"10220214","SMAS HARAPAN BANGSA TJ MORAWA","JL. DARMOSARI DESA TANJUNG BARU","Prop. Sumatera Utara","SMA","3.5476000","98.8303000"
"10204058","SMA NEGERI 1 SEI SUKA","JL. BERINGIN NO. 1 TG. GADING","Prop. Sumatera Utara","SMA","3.3092540","99.3454550"
"10208121","SMAN 1 SIABU","JL. AEK MILAS NO. 1 SIABU","Prop. Sumatera Utara","SMA",".8991000","99.5487000"
"69877343","SMA FAJAR MAS BAWONAURU","DESA GOLAMBANUA II","Prop. Sumatera Utara","SMA",".6905090","97.7151260"
"10203537","SMAN 1 SIDIKALANG","JL. DR. F. L. TOBING SIDIKALANG","Prop. Sumatera Utara","SMA","2.7444000","98.3150000"
"10210869","SMAS MARISI MEDAN","JL. GARU SINUMBA NO. 2","Prop. Sumatera Utara","SMA","3.6000640","98.6297270"
"10210853","SMAN 2 MEDAN","JL. KARANG SARI NO. 435","Prop. Sumatera Utara","SMA","3.6704000","98.6888000"
"10210919","SMAS BUDI INSANI","JL. LUKU 3 NO. 33 SP. KUALA","Prop. Sumatera Utara","SMA","3.5384000","98.6510000"
"10220226","SMAS YAPIM NAMORAMBE","JL. BESAR NAMO RAMBE","Prop. Sumatera Utara","SMA","3.4081000","98.6449000"
"69755704","SMAS PUTERI SION","JL. LETJEND J. GINTING NO. 160/PALES IX","Prop. Sumatera Utara","SMA","3.5268180","98.6273590"
"10219105","SMAN 1 BANGUN PURBA","JL. PERINTIS KEMERDEKAAN","Prop. Sumatera Utara","SMA","3.3755520","98.8156360"
"10259651","SMAN 1 SILANGKITANG","JL. BESAR SILANGKITANG","Prop. Sumatera Utara","SMA","1.8761000","99.8916000"
"10208947","SMAN 2 PANGURURAN","JL. PANGURURAN - TOMOK","Prop. Sumatera Utara","SMA","2.6874000","98.6924000"
"10206583","SMAN 1 TUKKA","JL. PENDIDIKAN NO. 2 TUKKA","Prop. Sumatera Utara","SMA","1.6855000","98.8625000"
"10262150","SMA NEGERI 1 LUAHAGUNDRE MANIAMOLO","DESA Botohili Silambo","Prop. Sumatera Utara","SMA",".5966000","97.7273000"
"10202787","SMA NEGERI 2 BANDAR","MARIHAT BANDAR","Prop. Sumatera Utara","SMA","3.1064000","99.3118000"
"10203519","SMAS NUSANTARA","JL. NUSANTARA. TIGALINGGA","Prop. Sumatera Utara","SMA","2.9176000","98.2200000"
"10211711","SMAS SULTAN AGUNG","JL. SURABAYA. NO.19","Prop. Sumatera Utara","SMA","2.9679000","99.0598000"
"10210713","SMAS PEMBINAAN GRAHA KIRANA","JL. AMPERA NO.17 A","Prop. Sumatera Utara","SMA","3.5927000","98.7177000"
"10220599","SMAN 1 SILAHISABUNGAN","JL. PINGGAN MATIO","Prop. Sumatera Utara","SMA","2.7986000","98.5163000"
"10201367","SMAS BUKIT MAS","Jl.Tanah Merah, P.Buaya","Prop. Sumatera Utara","SMA","4.2421000","98.0969000"
"10210917","SMAS TAMANSISWA POLONIA","JL. POLONIA GG. B NO. 16","Prop. Sumatera Utara","SMA","3.5636000","98.6576000"
"10261281","SMA NEGERI 2 SUSUA","HILIZAMURUGO","Prop. Sumatera Utara","SMA",".6995000","97.7886000"
"10210908","SMAS MUHAMMADIYAH 2 MEDAN","JL. ABDUL HAKIM PSR I NO. 2","Prop. Sumatera Utara","SMA","3.5644000","98.6378000"
"10214142","SMAS NURUL AMALIYAH TJ MORAWA","JL. SEI MERAH","Prop. Sumatera Utara","SMA","3.5191000","98.7895000"
"10212446","SMAN 6 TANJUNGBALAI","JL. ANGGUR","Prop. Sumatera Utara","SMA","2.9497000","99.7992000"
"10212130","SMAN 2 SIBOLGA","JL. PATTIMURA SARUDIK SIBOLGA","Prop. Sumatera Utara","SMA","1.7359430","98.8007360"
"10207084","SMAN 1 SAYUR MATINGGI","SAYUR MATINGGI","Prop. Sumatera Utara","SMA","1.9759000","99.6242000"
"69948504","SMA SWASTA KINGSTON SCHOOL","Jl. Kapten Sumarsono Komp. Graha Metropolitan Blok E No. 25/26","Prop. Sumatera Utara","SMA","3.5470957","98.5859859"
"10201344","SMA SWASTA MUHAMMADIYAH 4","JL. KALIMANTAN PANGKALAN BRANDAN","Prop. Sumatera Utara","SMA","4.0370000","98.4154000"
"10257308","SMAS DHARMA PATRA P BRANDAN","JL. BALIK PAPAN  PK. BRANDAN","Prop. Sumatera Utara","SMA","4.0169000","98.2831000"
"10257392","SMAN 1 BAKTI RAJA","JL. TANAH LAPANG NO.5","Prop. Sumatera Utara","SMA","2.3561000","98.8143000"
"10259920","SMAS TRI KARYA PENDIDIK PANTAI LABU","DUSUN III DESA PALUH SIBAJI","Prop. Sumatera Utara","SMA","3.6791000","98.8519000"
"10263531","SMAS SWASTA ANASTASIA","JL. JAMIN GINTING, KM. 14, SIMP. GARDU, DUSUN V, NAMO BINTANG, PANCUR BATU, DEL","Prop. Sumatera Utara","SMA","3.5172000","98.6181000"
"10210822","SMAS TAMANSISWA SINGOSARI","JL.SINGOSARI NO.11","Prop. Sumatera Utara","SMA","3.5843940","98.7001320"
"10220615","SMAN 1 DOLOK SIGOMPULON","SIMUNDOL","Prop. Sumatera Utara","SMA","2.0246000","99.6616000"
"69877448","SMA  NEGERI 2 ULUNOYO","MARAO","Prop. Sumatera Utara","SMA",".9260000","97.6876000"
"10201366","SMAS DARUSSA ADAH SEI SIUR","Jl.Pkl.Berandan Desa Sei Siur Dusun IV Panton Kec.Pkl.Susu Kab.Langkat 20858","Prop. Sumatera Utara","SMA","4.0610000","98.2311000"
"10204230","SMA SWASTA DAERAH AIR PUTIH","JL.SYARIFUDDIN","Prop. Sumatera Utara","SMA","3.2860000","99.3744000"
"10220221","SMAS PRIMA NUSANTARA LUBUK PAKAM","JL. GALANG NO. 214","Prop. Sumatera Utara","SMA","3.5467000","98.8795000"
"69877783","SMAN 2 PANAI HILIR","Desa Penggantungan","Prop. Sumatera Utara","SMA","2.6601890","100.0690690"
"10205394","SMAN 1 KUALUH HILIR","JL. PASAR BILAH KAMPUNG MESJID","Prop. Sumatera Utara","SMA","2.5336000","99.9677000"
"10220891","SMAS TUNAS BANGSA","Jl. S. Parman No. 6 Kwala Begumit","Prop. Sumatera Utara","SMA","3.6491000","98.4353000"
"10260917","SMA SWASTA CITRA MEDANG DERAS","JL. RAHARJA PASAR 1","Prop. Sumatera Utara","SMA","3.3622000","99.3632000"
"10261735","SMAS PELITA MEDAN","JL. BAHAGIA GG PELITA NO.32","Prop. Sumatera Utara","SMA","3.5690000","98.6460000"
"10260219","SMAS HARAPAN BARU","JL.PINTU AIR IV/ LINGGA RAYA","Prop. Sumatera Utara","SMA","3.5333862","98.6826463"
"10205383","SMAN 1 SEI KANAN","JL. LINSUM NO. 39 LANGGAPAYUNG","Prop. Sumatera Utara","SMA","1.7201000","100.0090000"
"10220228","SMAS HARAPAN PAYA BAKUNG","Jl. Pelajar","Prop. Sumatera Utara","SMA","3.6508000","98.5498000"
"10258248","SMA NEGERI 1 FANAYAMA","DESA BAWOMATALUO","Prop. Sumatera Utara","SMA",".6046000","97.7736000"
"10210728","SMAS DARUSSALAM","JL.DARUSSALAM NO. 26 ABC","Prop. Sumatera Utara","SMA","3.5873000","98.6531000"
"10214126","SMAS MELATI HAMPARAN PERAK","JL. PASAR V HAMPARAN PERAK","Prop. Sumatera Utara","SMA","3.7514000","98.5307000"
"10210737","SMAS KEMALA BHAYANGKARI","JL. K.H. WAHID HASYIM NO.1","Prop. Sumatera Utara","SMA","3.5981000","98.6446000"
"10212766","SMA SWASTA KRISTEN BNKP GUNUNGSITOLI","JL.PENDIDIKAN NO.7 GUNUNGSITOLI","Prop. Sumatera Utara","SMA","1.2493000","97.6040000"
"10258272","SMA NEGERI 1 OOU","DESA SIMANDRAOLO","Prop. Sumatera Utara","SMA","1.0075000","97.5479000"
"10214124","SMA SWASTA CITRA HARAPAN","Jl. Medan Percut Km. 19,5","Prop. Sumatera Utara","SMA","3.6820000","98.7572000"
"10260813","SMAN 1 KOTARIH","Jln. Besar Kotarih","Prop. Sumatera Utara","SMA","3.3159000","98.9337000"
"10205396","SMAS KARYA TANI PANAI T S E","JL. BESAR AJAMU TANJUNG SARANG ELANG","Prop. Sumatera Utara","SMA","2.4603000","100.1516000"
"10202677","SMA SWASTA MUHAMMADIYAH 7 SERBALAWAN","JL. MERDEKA NO. 16 SERBALAWAN","Prop. Sumatera Utara","SMA","3.1193000","99.1426000"
"10203553","SMAN 1 TIGALINGGA","JL. SM. RAJA DS. LAU BAGOT TIGALINGGA","Prop. Sumatera Utara","SMA","2.9052000","98.2220000"
"10211693","SMAS ADVENT","JL. RENGKUTA SEMBIRING","Prop. Sumatera Utara","SMA","3.0015000","99.0514000"
"10201325","SMAS PAB NO 10 GOHOR LAMA","JL. GOHOR LAMA - BINGAI","Prop. Sumatera Utara","SMA","3.7735000","98.3564000"
"10220895","SMAS DHARMA BAKTI SELESAI","Jalan Mesjid Raya No. 46 Pekan Selesai","Prop. Sumatera Utara","SMA","3.5771000","98.4020000"
"10212418","SMAS TRISAKTI","JL. PDT. J.WISMAR","Prop. Sumatera Utara","SMA","2.9754000","99.0642000"
"10261516","SMAS IMELDA","DESA TANJUNG MEDAN","Prop. Sumatera Utara","SMA","2.0721000","99.9531000"
"10258320","SMA NEGERI 1 GUNUNGSITOLI IDANOI","JL. LARIA UMBUHUMENE","Prop. Sumatera Utara","SMA","1.2050000","97.6385000"
"10201327","SMAS MULIA SECURAI","JL. MEDAN - PK. BRANDAN KM. 77","Prop. Sumatera Utara","SMA","3.9990000","98.3107000"
"69734013","SMAS LENTERA HARAPAN","JL MESTIKA NO. 37 MEDAN","Prop. Sumatera Utara","SMA","3.5919000","98.7142000"
"10205416","SMAS DI PANJAITAN TANJUNG LEIDONG","JL. MESJID NO. 22 TANJUNG LEIDONG","Prop. Sumatera Utara","SMA","2.7687000","99.9743000"
"10204253","SMAS PANTI BUDAYA KISARAN","JL. DURIAN NO. 24 KISARAN","Prop. Sumatera Utara","SMA","2.9723000","99.6252000"
"10205376","SMAS MUHAMMADIYAH 9 AEKKANOPAN","JL. GAZALI SINAGA NO.3","Prop. Sumatera Utara","SMA","2.5655000","99.6544000"
"10210821","SMAS NASRANI 3 MEDAN","JL. TURI NO. 108","Prop. Sumatera Utara","SMA","3.7320000","98.7095000"
"10210806","SMAS AL FATTAH","JL. CEMARA NO. 172","Prop. Sumatera Utara","SMA","3.6363000","98.6669000"
"69947909","SMA NEGERI 1 IDANOTAE","SIRAHIA","Prop. Sumatera Utara","SMA",".6500800","97.8595556"
"10211536","SMA SWASTA NAMORAYA","JL. ABD. RAHIM LUBIS NO. 1","Prop. Sumatera Utara","SMA","3.3192000","99.1689000"
"10200436","SMAS CERDAS BANGSA","PASAR IV  NO. 30","Prop. Sumatera Utara","SMA","3.5010000","98.6707000"
"10210732","SMAS KARYA KESUMA","JL. MEDAN TENGGARA GG. ANSOR II B","Prop. Sumatera Utara","SMA","3.5631000","98.7287000"
"10210848","SMAS SUTOMO 1","JL. LETKOL MARTINUS LUBIS NO. 7","Prop. Sumatera Utara","SMA","3.5940000","98.6994000"
"10258512","SMAN 4 KISARAN","Jl. Pondok Indah No. 11 Kisaran","Prop. Sumatera Utara","SMA","2.9791000","99.6053000"
"69946221","SMA Negeri 2 Namohalu Esiwa","Desa Esiwa","Prop. Sumatera Utara","SMA","1.3696146","97.3795493"
"10259844","SMAS KARYA BHAKTI","Jl. Mesjid No. 57","Prop. Sumatera Utara","SMA","3.5992810","98.6133920"
"10259930","SMAS TARBIYAH ISLAMIYAH","JL. PERINTIS KEMERDEKAAN","Prop. Sumatera Utara","SMA","3.7070000","98.6011000"
"10205366","SMAS YPKK AJAMU","JL. TERUBUK PTP IV KEBUN AJAMU","Prop. Sumatera Utara","SMA","2.4522000","100.1576000"
"10202654","SMA SWASTA DHARMA BAKTI","BALIMBINGAN TANAH JAWA","Prop. Sumatera Utara","SMA","2.6987000","99.0959000"
"10259076","SMAS PERMATA","Desa Lolomboli","Prop. Sumatera Utara","SMA","1.1310000","97.4908000"
"69900824","SMA SWASTA PONTREN AL-IHSAN","Jalan Balai Desa Ujung No. 22","Prop. Sumatera Utara","SMA","2.5303000","99.6331000"
"10210922","SMAS SANTA MARIA MEDAN","JL. PALANG MERAH No. 15","Prop. Sumatera Utara","SMA","3.5849000","98.6633000"
"10220523","SMAN 1 SITAHUIS","JL. SIBOLGA TARUTUNG KM 12,5","Prop. Sumatera Utara","SMA","1.7790000","98.8697000"
"10211565","SMA NEGERI 1 TEBING TINGGI","JALAN K.L. YOS SUDARSO","Prop. Sumatera Utara","SMA","3.3244180","99.1628690"
"10207078","SMAN 1 DOLOK","PIJOR KOLING","Prop. Sumatera Utara","SMA","1.8217000","99.6488000"
"10214128","SMAS MUHAMMADIYAH 18 SUNGGAL","JL. SEI MENCIRIM NO. 60","Prop. Sumatera Utara","SMA","3.5783000","98.5890000"
"10259130","SMAS AL AZHAR","JL. PINTU AIR IV KWALA BEKALA NO. 214","Prop. Sumatera Utara","SMA","3.5463000","98.6358000"
"10203550","SMAN 1 SILIMA PUNGGA-PUNGGA","JL. PELITA NO 7 PARONGIL","Prop. Sumatera Utara","SMA","2.8207000","98.1427000"
"10200439","SMAN 2 LUBUK PAKAM","JL. HAMPARAN PERAK LUBUK PAKAM","Prop. Sumatera Utara","SMA","3.5456000","98.8767000"
"10211310","SMAS SETIA BUDI","JL. P. KEMERDEKAAN NO. 111 A","Prop. Sumatera Utara","SMA","3.6429000","98.4888000"
"10204249","SMAS TAMAN SISWA SUKADAMAI","JL. PROTOKOL SUKA DAMAI","Prop. Sumatera Utara","SMA","2.9856000","99.5290000"
"60728989","SMAS METHODIST 12","JL PANCA NO 28","Prop. Sumatera Utara","SMA","3.5469000","98.6845000"
"10260455","SMA NEGERI 1 MAZINO","JL. MAZINO","Prop. Sumatera Utara","SMA",".7051000","97.8314000"
"10201996","SMA SWASTA BERSAMA BERASTAGI","JL. JAMIN GINTING SP UJUNG AJI BERASTAGI","Prop. Sumatera Utara","SMA","3.1862670","98.5053610"
"10210900","SMAS MARKUS MEDAN","JL. KAPTEN MUSLIM NO. 226","Prop. Sumatera Utara","SMA","3.5492000","98.6585000"
"10261576","SMA SWASTA GOTONG ROYONG","AFD.II PERKEBUNAN BANGUN","Prop. Sumatera Utara","SMA","2.9994000","99.1745000"
"10208948","SMAN 1 SIMANINDO","Jalan Gereja","Prop. Sumatera Utara","SMA","2.6780000","98.8276000"
"10214138","SMAN 1 TANJUNG MORAWA","JL. BATANG KUIS PSR VIII NO. 151","Prop. Sumatera Utara","SMA","3.5260000","98.8362000"
"10205397","SMAS KARYA HANDAYANI","JL. A YANI NO. 21 LANGGAPAYUNG","Prop. Sumatera Utara","SMA","1.7262000","99.9594000"
"69888735","SMAN 3 TORGAMBA","SEI DAUN","Prop. Sumatera Utara","SMA","1.6182260","100.2542340"
"10203516","SMAS BUKIT CAHAYA SUMBUL","JL. TIGA BARU NO. 48 SUMBUL","Prop. Sumatera Utara","SMA","2.7646000","98.3894000"
"10211305","SMAN 1 BINJAI","JL. W.R. MONGINSIDI NO. 10 BINJAI","Prop. Sumatera Utara","SMA","3.6014020","98.4789052"
"69824455","SMA METHODIST SIDIKALANG","JL.SENTOSA","Prop. Sumatera Utara","SMA","2.7494330","98.3341700"
"10210877","SMAN 13 MEDAN","JL. BRIGJEN ZEIN HAMID KM.7 TITI KUNING","Prop. Sumatera Utara","SMA","3.5297000","98.6820000"
"10220885","SMA SWASTA BINA BERSAUDARA","JL. LETJEND JAMIN GINTING KUTA PARIT","Prop. Sumatera Utara","SMA","3.5698000","98.3668000"
"10205415","SMAS INDONESIA MEMBANGUN","JL. LINSUM KM 18 PINANG AWAN","Prop. Sumatera Utara","SMA","1.7089000","100.4095000"
"10209396","SMAN 1 SEI RAMPAH","JL. RAMBUNG SIALANG NO. 50","Prop. Sumatera Utara","SMA","3.4913000","99.1165000"
"10214147","SMAS PAB 6 HELVETIA","JL. VETERAN PSR 4 HELVETIA","Prop. Sumatera Utara","SMA","3.6290000","98.6623000"
"10210820","SMAS BRIGJEND KATAMSO","JL. SUNGGAL NO. 370","Prop. Sumatera Utara","SMA","3.5909000","98.6238000"
"10208724","SMAN 1 DOLOK SANGGUL","JL. BONANDOLOK KM. 2,5","Prop. Sumatera Utara","SMA","2.2613000","98.7388000"
"69946155","SMA NEGERI 1 PANTAI LABU","DESA RAMUNIA I","Prop. Sumatera Utara","SMA","3.6483000","98.9095000"
"10208532","SMAN 1 SILAEN","JL. Parsoburan Desa Hutanamora Kecamatan Silaen","Prop. Sumatera Utara","SMA","2.3981000","99.1999000"
"69877491","SMA SWASTA BINA HARAPAN ULUNEHO","DESA SISOBAHILI","Prop. Sumatera Utara","SMA",".8338340","97.7512420"
"10204053","SMAN 2 KISARAN","JL. SITARDA NUSANTARA VIII KISARAN","Prop. Sumatera Utara","SMA","2.9701000","99.6267000"
"10210936","SMAS AL AZHAR PLUS","JL.PINTU AIR IV NO.214 PADANG BULAN","Prop. Sumatera Utara","SMA","3.5288000","98.6512000"
"10201365","SMAS DARMA BHAKTI","JL. MEDAN - BANDA ACEH KM 97 BUKIT KUBU","Prop. Sumatera Utara","SMA","4.0389000","98.1760000"
"10210843","SMAS SULTAN ISKANDAR MUDA","JL. TENGKU AMIR HAMZAH PEKAN 1 SUNGGAL","Prop. Sumatera Utara","SMA","3.5733000","98.6128000"
"10214148","SMAS PAB 8 SAENTIS PERCUT","JL. KALI SERAYU PTP II SAENTIS","Prop. Sumatera Utara","SMA","3.6637000","98.7510000"
"10204236","SMAS ALWASLIYAH 8 MERANTI","JL. PERINTIS KEMERDEKAAN NO. 346 MERANTI","Prop. Sumatera Utara","SMA","3.0739000","99.6309000"
"10257391","SMAN 1 TARABINTANG","JL. PENDIDIKAN","Prop. Sumatera Utara","SMA","2.2358000","98.5044000"
"10210794","SMAS AL WASHLIYAH PASAR SENEN","JL.PASAR SENEN NO.7","Prop. Sumatera Utara","SMA","3.5527000","98.6681000"
"69758996","SMAS ISLAM ULUN NUHA","JL. KARYA DARMA 2/ JL PIPA 2","Prop. Sumatera Utara","SMA","3.5219000","98.6567000"
"10202765","SMA NEGERI 1 DOLOK BATUNANGGAR","JL. SISINGAMANGARAJA NO.1","Prop. Sumatera Utara","SMA","3.1208000","99.1463000"
"69918114","SMA SWASTA PAULY MANDIRI","JL. BATANG KUIS GG. SOPONYONO UJUNG DUSUN II DESA BUNTU BEDIMBAR","Prop. Sumatera Utara","SMA","3.5448000","98.7818000"
"10210829","SMAS WR SUPRATMAN 1","JL. ASIA NO. 143 MEDAN","Prop. Sumatera Utara","SMA","3.5640100","98.6948150"
"10214186","SMAS TAMORA","JL. IRIAN GG. PENDIDIKAN NO.1","Prop. Sumatera Utara","SMA","3.5221000","98.8419000"
"69899075","SMA NEGERI 2 TANJUNG MORAWA","Jalan Pendidikan Desa Limau Manis Pasar XIV","Prop. Sumatera Utara","SMA","3.5048000","98.7613000"
"10201992","SMA NEGERI 2 KABANJAHE","JL. JAMIN GINTING KABANJAHE","Prop. Sumatera Utara","SMA","3.1083450","98.5006683"
"10257659","SMAS MARDI LESTARI","JL.GATOT SUBROTO NO.200","Prop. Sumatera Utara","SMA","3.6001000","98.6363000"
"10208163","SMAN 1 KOTANOPAN","JL. PERINTIS KEMERDEKAAN","Prop. Sumatera Utara","SMA",".6133000","99.7142000"
"10210861","SMAN 8 MEDAN","JL. SAMPALI NO. 23","Prop. Sumatera Utara","SMA","3.6833000","98.6784000"
"10260019","SMAS DARUL ILMI MURNI","JL.BESAR NAMORAMBE/JL. PERJUANGAN - NAMORAMBE","Prop. Sumatera Utara","SMA","3.5087000","98.6731000"
"10262146","SMA NEGERI 1 SATU ATAP PULAU SIMUK","PULAU SIMUK","Prop. Sumatera Utara","SMA","-.0740820","97.8605990"
"10259745","SMAS AIRLANGGA","JL. BATU MENJAH NO.3D NAMU UKUR UTARA","Prop. Sumatera Utara","SMA","3.4039000","98.4193000"
"10210842","SMAS SUCI MURNI","JL. PERAK NO. 34 KOTA BANGUN","Prop. Sumatera Utara","SMA","3.7024000","98.6588000"
"10208949","SMAN 1 SIANJUR MULAMULA","JL. LIMBONG SAGALA","Prop. Sumatera Utara","SMA","2.5901000","98.6317000"
"10258323","SMAN 1 ULU MORO O","JL.ARAH DESA LAWELU KM.06","Prop. Sumatera Utara","SMA","1.0106000","97.5386000"
"10219089","SMAS SINAR HUSNI LABUHAN DELI","JL. VETERAN GG. UTAMA PASAR V","Prop. Sumatera Utara","SMA","3.6341210","98.6632740"
"10257832","SMAS GAJAH MADA","JL. HM. SAID NO. 19","Prop. Sumatera Utara","SMA","3.6406000","98.6627000"
"69942251","SMA SWASTA HARVARD","Jl. Tuar Indah Blok XI","Prop. Sumatera Utara","SMA","3.6842916","98.6939725"
"10201322","SMAS PERSIAPAN","JL. HIB TEMBELENG","Prop. Sumatera Utara","SMA","3.7196000","98.4181000"
"69733773","SMAS METHODIST 6 MEDAN","JL. SEKOLAH NO. 402 LK III MEDAN","Prop. Sumatera Utara","SMA","3.5966000","98.6159000"
"10208954","SMAS PEMBANGUNAN NAINGGOLAN","NAINGGOLAN","Prop. Sumatera Utara","SMA","2.4890000","98.8961000"
"10201336","SMAN 1 SELESAI","JLN. BINJAI-SELAYANG SIMPANG SELESAI","Prop. Sumatera Utara","SMA","3.6052000","98.4281000"
"10201340","SMAN 1 PANGKALAN SUSU","JL. PANGKALAN BRANDAN KM. 100","Prop. Sumatera Utara","SMA","4.0881000","98.2402000"
"10209414","SMAS MELATI","JL. ISTANA DESA KOTA GALUH PERBAUNGAN","Prop. Sumatera Utara","SMA","3.0744000","99.0066000"
"10259405","SMAN 3 PANYABUNGAN","KOMPLEK STAIM PANYABUNGAN","Prop. Sumatera Utara","SMA",".8565000","99.6542000"
"10219923","SMAN GUNUNG MERIAH","DESA MARJANDI TONGAH","Prop. Sumatera Utara","SMA","3.1275000","98.6863000"
"10259547","SMA NEGERI 1 UJUNG PADANG","Jln. Perjuangan No.04","Prop. Sumatera Utara","SMA","3.0539000","99.5376000"
"10205385","SMAN 1 RANTAU SELATAN","JL. KI HAJAR DEWANTARA RANTAUPRAPAT","Prop. Sumatera Utara","SMA","2.0840000","99.8731000"
"10257829","SMAS WILLIAM BOOTH BELAWAN","JL. PULAU SICANANG BELAWAN","Prop. Sumatera Utara","SMA","3.7700990","98.6641310"
"69893325","SMA SWASTA ROHMAN INSAN","Jl. Sibolga Km. 19 Panobasan","Prop. Sumatera Utara","SMA","1.4384000","99.1469000"
"10212719","SMAS PARULIAN 4 PORSEA","JL. LUMBAN SIRAIT. GU","Prop. Sumatera Utara","SMA","2.5194000","99.2760000"
"10261305","SMA SWASTA MUHAMMADIYAH","JL. DJAMIN GINTING DESA SUMBER MUFAKAT NO. 02 KABANJAHE","Prop. Sumatera Utara","SMA","3.1267972","98.5096833"
"10211684","SMAS MELATI","JL. JAWA NO. 27","Prop. Sumatera Utara","SMA","2.9659000","99.0627000"
"10262430","SMAS ISLAM KHAIRUL IMAM","JL. STM UJUNG/SUKA LUHUR MEDAN","Prop. Sumatera Utara","SMA","3.5436000","98.6493000"
"10201338","SMAN 1 SECANGGANG","JL. BESAR SECANGGANG","Prop. Sumatera Utara","SMA","3.8647000","98.5395000"
"10214105","SMAS ANDREAS SUNGGAL","JL. PENDAWA NO.50","Prop. Sumatera Utara","SMA","3.6101000","98.5839000"
"10210920","SMAS GAJAH MADA 2","JL. SETIA NO. 32 MEDAN","Prop. Sumatera Utara","SMA","3.5674000","98.7236000"
"10259244","SMAS NUSANTARA SETIA JANJI","JL. PROTOKOL DESA SEI SILAU","Prop. Sumatera Utara","SMA","2.7929000","99.4424000"
"10201326","SMAS YP NUSANTARA","JL. BPP SECURAI PKL. BERANDAN","Prop. Sumatera Utara","SMA","4.0223000","98.3108000"
"10220292","SMAS ST MARIA TARUTUNG","JL. D.I. PANJAITAN II/39","Prop. Sumatera Utara","SMA","2.0251000","98.9720000"
"10257751","SMAS YAPIM SYAH BANDAR","JL. INDRA PURA KM.10","Prop. Sumatera Utara","SMA","3.6196000","98.9424000"
"10204245","SMAS YAPIM SIMPANG KAWAT","JL. BESAR NO. 24B SIMPANG KAWAT","Prop. Sumatera Utara","SMA","2.8419000","99.6235000"
"10201335","SMAN 1 STABAT","JL. PROKLAMASI KWALA BINGAI","Prop. Sumatera Utara","SMA","3.7332000","98.4720000"
"69942737","SMA NEGERI 3 MANDREHE","Doli-Doli","Prop. Sumatera Utara","SMA","1.0573917","97.4348974"
"10212243","SMAN 3 PADANG SIDEMPUAN","JL. PERINTIS KEMERDEKAAN NO56","Prop. Sumatera Utara","SMA","1.3672380","99.2816500"
"10206582","SMAN 1 SORKAM BARAT","JL. SIBOLGA BARUS KM 35 SORKAM KANAN","Prop. Sumatera Utara","SMA","1.9486000","98.5493000"
"10210715","SMAS DHARMA WANITA PERSATUAN","JL. MELATI II NO. 30","Prop. Sumatera Utara","SMA","3.5622000","98.6203000"
"10211712","SMAS SEMINARI","JL. LAPANGAN BOLA ATAS","Prop. Sumatera Utara","SMA","2.9448000","99.0523000"
"10258001","SMAN 1 BANDAR PULAU","JL. BESAR AEK TARUM","Prop. Sumatera Utara","SMA","2.6794000","99.3840000"
"10262331","SMA SWASTA AL - AZHAR","JL. MAWAR NO. 33 SUKARAMAI","Prop. Sumatera Utara","SMA","3.0866000","99.5643000"
"10210712","SMAS GKPI PADANG BULAN","JL. LETJEN. JAMIN GINTING KOMPLEKS PAMEN","Prop. Sumatera Utara","SMA","3.5952000","98.6449000"
"10257550","SMAS ASUHAN DAYA","Jl. Pematang Pasir Gg. Wakaf","Prop. Sumatera Utara","SMA","3.7047000","98.6542000"
"10202791","SMA NEGERI 1 SILAU KAHEAN","JL. BESAR NEGERI DOLOK","Prop. Sumatera Utara","SMA","3.1040000","98.7884000"
"10202003","SMA SWASTA MASEHI GBKP BERASTAGI","JL. MERDEKA NO. 119 BERASTAGI","Prop. Sumatera Utara","SMA","3.1963100","98.5087680"
"10220521","SMAN 1 SIBABANGUN","JL. M. SORIMUDA","Prop. Sumatera Utara","SMA","1.5220000","98.9691000"
"10219922","SMAN 1 DELI TUA","JL. PENDIDIKAN NO. 1","Prop. Sumatera Utara","SMA","3.4776000","98.6931000"
"10210865","SMAN 14 MEDAN","JL. PELAJAR TIMUR UJUNG","Prop. Sumatera Utara","SMA","3.5574000","98.7250000"
"10259212","SMAN 1 GIDO","JL. KARYA NO. 3 HILIWETO","Prop. Sumatera Utara","SMA","1.1214000","97.7230000"
"10204074","SMAN 1 SEI KEPAYANG","JL. PENDIDIKAN NO. 3","Prop. Sumatera Utara","SMA","2.7587000","99.8717000"
"10210416","SMAS AL WASHLIYAH 3 MEDAN","JL. GARU II NO. 2 MEDAN","Prop. Sumatera Utara","SMA","3.5442000","98.6890000"
"10261212","SMA NEGERI 1 KUTABULUH","DESA KUTABULUH","Prop. Sumatera Utara","SMA","3.1648000","98.2800000"
"10258425","SMAN 2 MANDREHE","JL. DESA SISOBAMBOWO","Prop. Sumatera Utara","SMA","1.0103830","97.4487100"
"10210871","SMAS HARAPAN MEKAR","JL. MARELAN RAYA NO. 77","Prop. Sumatera Utara","SMA","3.7189000","98.6553000"
"10214149","SMAS PAB 9 PATUMBAK","JL. PERTAHANAN UJUNG PATUMBAK","Prop. Sumatera Utara","SMA","3.4457000","98.7125000"
"10261181","SMA NEGERI 1 MARDINDING","TANJUNG PAMAH","Prop. Sumatera Utara","SMA","3.2106000","98.0111000"
"10257660","SMAS METHODIST 5 MEDAN","JL. KARYA RAKYAT NO. 67","Prop. Sumatera Utara","SMA","3.6055000","98.6578000"
"69886177","SMAS PERTIWI","Jalan Budi Persatuan/ Budi Kemakmuran No. 33/38","Prop. Sumatera Utara","SMA","3.6046470","98.6627980"
"69867993","SMAS NANYANG ZHI HUI","Jalan Abdullah Lubis No. 15","Prop. Sumatera Utara","SMA","3.5751890","98.6641710"
"10204061","SMAN 1 MERANTI","JL. LINTAS SUMATERA KM. 155","Prop. Sumatera Utara","SMA","3.0751000","99.6275000"
"10258264","SMA NEGERI 1 ULU IDANOTAE","Fanedanu","Prop. Sumatera Utara","SMA",".9049000","97.7668000"
"10261031","SMAS AL MANAR","JL. KARYA BAKTI NO.34","Prop. Sumatera Utara","SMA","3.5412000","98.6445000"
"10209419","SMAS PEMBANGUNAN","JL. STASIUN NO.5","Prop. Sumatera Utara","SMA","3.5539000","99.0219000"
"10209427","SMAS SATRIA DHARMA","JL. AKASIA NO. 8 JAMBUR PULAU","Prop. Sumatera Utara","SMA","3.5752000","99.0323000"
"10205417","SMAS BHAYANGKARI 2 RANTAUPRAPAT","JL.  CIKDITIRO  RANTAUPRAPAT","Prop. Sumatera Utara","SMA","2.1040000","99.8222000"
"10261004","SMAN 1 PANGKATAN","JL. PROTOKOL PANGKATAN","Prop. Sumatera Utara","SMA","2.1240000","99.9771000"
"10214131","SMAN 1 BATANG KUIS","JL. PENDIDIKAN","Prop. Sumatera Utara","SMA","3.6235000","98.8041000"
"10219163","SMAS RK SERDANG MURNI","JL. P. SIANTAR NO. 146  Lubuk Pakam","Prop. Sumatera Utara","SMA","3.5541000","98.8859000"
"10214107","SMAS BAYU PERTIWI","JL. INPRES KM 16","Prop. Sumatera Utara","SMA","3.5914000","98.5180000"
"10258277","SMA NEGERI 1 PULAU PULAU BATU","PP. BATU","Prop. Sumatera Utara","SMA","-.0594000","98.2649000"
"10204226","SMAS HARAPAN LOBU RAPPA BDR PL","JL. SIGURA-GURA KM 10 DOLOK MARAJA","Prop. Sumatera Utara","SMA","2.6692000","99.5009000"
"69851856","SMA NEGERI 1 MAU","DESA ATUALUO","Prop. Sumatera Utara","SMA","1.1074000","97.5256000"
"10207079","SMAN 1 HALONGONAN","HUTAIMBARU","Prop. Sumatera Utara","SMA","1.6240000","99.7536000"
"10203549","SMAN 1 SIEMPAT NEMPU","JL. ADIANNANGKA BUNTU. RAJA","Prop. Sumatera Utara","SMA","2.8260000","98.1868000"
"10205384","SMAN 1 RANTAU UTARA","JL. MAHONI RANTAUPRAPAT","Prop. Sumatera Utara","SMA","2.1150000","99.8210000"
"10210729","SMAS DHARMA JAYA","JL. PEMBANGUNAN NO. 39","Prop. Sumatera Utara","SMA","3.5960860","98.6332420"
"10260484","SMA NEGERI 1 DOLOK SILOU","Jln. Teladan No. 01 Saran Padang","Prop. Sumatera Utara","SMA","3.0455220","98.6907490"
"10261247","SMA SWASTA TAMANSISWA SIDOMULYO","DUSUN V","Prop. Sumatera Utara","SMA","3.1267000","99.5747000"
"69877339","SMA  NEGERI 1 SOMAMBAWA","AMBUKHA","Prop. Sumatera Utara","SMA",".6955940","97.6985280"
"10204244","SMAN 1 AEK KUASAN","JL. AEK LOBA AFD. 1","Prop. Sumatera Utara","SMA","2.5829000","99.6267000"
"10204247","SMAS TRIYADIKA YASA","PERK. BANDAR SELAMAT","Prop. Sumatera Utara","SMA","2.6313000","99.5342000"
"10259208","SMAN 1 BATANG NATAL","JL. MANDAILING NATAL NO. 1","Prop. Sumatera Utara","SMA",".7177000","99.3348000"
"10259751","SMAS DHARMA PATRA PK SUSU","JL. BARUNA BUKIT KUNCI","Prop. Sumatera Utara","SMA","4.0770000","98.2221000"
"10220220","SMAS NUSANTARA JAYA","JL. MEKATANI NO 54 MARINDAL","Prop. Sumatera Utara","SMA","3.5234000","98.7025000"
"69883603","SMA NEGERI 1 ONOLALU","DESA HILINAMOZAUA","Prop. Sumatera Utara","SMA",".6291000","97.8158000"
"10210817","SMAS AL ITTIHADIYAH","JL. GEDUNG ARCA NO. 55","Prop. Sumatera Utara","SMA","3.5908000","98.6984000"
"10259546","SMA SWASTA HKBP GIRSANG SIPANGAN BOLON","JL. BUKIT BARISAN 19","Prop. Sumatera Utara","SMA","2.6623000","98.9352000"
"69946658","SMAN 2 MORO O","Hilimale","Prop. Sumatera Utara","SMA",".9422935","97.5219465"
"10201995","SMA NEGERI 1 BARUSJAHE","SUKAJULU","Prop. Sumatera Utara","SMA","3.1119000","98.5630000"
"10212553","SMAS HKBP PADANGSIDIMPUAN","JL. SISINGAMANGARAJA NO. 70","Prop. Sumatera Utara","SMA","1.3785880","99.2899510"
"10257749","SMAN 1 PEGAJAHAN","JL. BESAR DS.BENGABING PEGAJAHAN","Prop. Sumatera Utara","SMA","3.5212000","98.9990000"
"10258270","SMA NEGERI 1 HILIMEGAI","JL. TOGIZITA","Prop. Sumatera Utara","SMA",".9031000","97.6218000"
"69900300","SMA NEGERI 1 BORONADU","DESA BALOHILI GOMO","Prop. Sumatera Utara","SMA",".8932970","97.7391743"
"10207068","SMA NEGERI 1 BARUMUN TENGAH","JL. KH DEWANTARA NO. 15 BINANGA","Prop. Sumatera Utara","SMA","1.4026000","99.7838000"
"69954868","SMA SWASTA NAMIRA","JL. SETIA BUDI PASAR I NO. 76","Prop. Sumatera Utara","SMA","3.5586530","98.6351910"
"10211390","SMAN 4 BINJAI","JL. CUT NYAK DHIEN NO.134 BINJAI","Prop. Sumatera Utara","SMA","3.6289000","98.4801000"
"10201994","SMA NEGERI 1 BERASTAGI","JL. JAMIN GINTING BERASTAGI","Prop. Sumatera Utara","SMA","3.1873970","98.5089630"
"10201321","SMAS SAMANHUDI","JL. PEMUDA NO. 55","Prop. Sumatera Utara","SMA","3.8976000","98.4231000"
"10212023","SMA SWASTA TRITUNGGAL","JL. ABADI NO. 25","Prop. Sumatera Utara","SMA","2.9263000","99.8057000"
"10214144","SMAS NUSANTARA LUBUK PAKAM","JL. TENGKU RAJA MUDA NO. 1","Prop. Sumatera Utara","SMA","3.5614000","98.8780000"
"10211316","SMAS METHODIST","JL. JEND. SUDIRMAN NO. 136","Prop. Sumatera Utara","SMA","3.6056284","98.4879498"
"10220519","SMAN 1 ANDAM DEWI","JL. PENDIDIKAN NO. 6 RINABOLAK","Prop. Sumatera Utara","SMA","2.1433000","98.3386000"
"10257583","SMAN 1 LAE PARIRA","JL. .JUMA TEGUH","Prop. Sumatera Utara","SMA","2.7626000","98.2460000"
"10260916","SMA SWASTA MUHAMMADIYAH 17","JL. MERDEKA NO. 70A","Prop. Sumatera Utara","SMA","3.1355000","99.6856000"
"69862685","SMAS KARYA BARU","Dusun 1 Desa Sei Tawar Kecamatan Panai Hilir","Prop. Sumatera Utara","SMA","2.5884210","100.2343600"
"10202758","SMA NEGERI 1 RAYA KAHEAN","JL. BESAR BANGUN RAYA","Prop. Sumatera Utara","SMA","3.1709000","98.9743000"
"10258322","SMAN 1 LAHEWA","JL. ARAH ONOZALUKHU","Prop. Sumatera Utara","SMA","1.3681000","97.1890000"
"10210805","SMAS AL HIDAYAH","JL. LETDA SUJONO GG. PERGURUAN NO.4","Prop. Sumatera Utara","SMA","3.5987000","98.7148000"
"10210927","SMAS PARULIAN 2","JL. GARUDA BLOK VIII PERUMNAS MANDALA MEDAN","Prop. Sumatera Utara","SMA","3.5468000","98.7112000"
"10258262","SMA SWASTA AMAL MAS","DESA HELEZALULU","Prop. Sumatera Utara","SMA",".8390000","97.8474000"
"10220290","SMAS PARSAORAN","JL. HUTATINGGI","Prop. Sumatera Utara","SMA","2.0679000","98.8181000"
"69877345","SMA SWASTA HOYA SEJAHTERA","DESA OLADANO","Prop. Sumatera Utara","SMA",".6817790","97.7128240"
"10211680","SMAS KALAM KUDUS","JL. PANE NO. 14","Prop. Sumatera Utara","SMA","2.9531000","99.0685000"
"10210731","SMAS HARAPAN MEDAN","JL. IMAM BONJOL NO. 35","Prop. Sumatera Utara","SMA","3.5766000","98.6779000"
"10259341","SMAN 1 PANYABUNGAN UTARA","JL. BHAYANGKARA IV Desa Rumbio","Prop. Sumatera Utara","SMA",".9310000","99.5166000"
"10211291","SMAS AHMAD YANI","JL. ADE IRMA SURYANI NO.38 A BINJAI","Prop. Sumatera Utara","SMA","3.6115800","98.4923200"
"10259101","SMA SWASTA PEMBDA 2 GUNUNGSITOLI","JL.PELITA NO.9 GUNUNGSITOLI","Prop. Sumatera Utara","SMA","1.2804000","97.6256000"
"10210875","SMAN 11 MEDAN","JL. PERTIWI NO. 93 MEDAN","Prop. Sumatera Utara","SMA","3.5953000","98.7222000"
"69900874","SMA SWASTA BERSINAR","JL. PERKUSI NO. 25 DUSUN III A","Prop. Sumatera Utara","SMA","3.6470000","98.6998000"
"10211292","SMAS AN NADWA ISLAMIC CENTRE","JL. TEUKU UMAR NO. 89 BINJAI","Prop. Sumatera Utara","SMA","3.6212000","98.5088000"
"10201993","SMA NEGERI 1 JUHAR","JL. SEGENDERANG  JUHAR","Prop. Sumatera Utara","SMA","3.0211000","98.3098000"
"10214141","SMAS NUR AZIZI TJ MORAWA","JALAN PAHLAWAN TANJUNG MORAWA","Prop. Sumatera Utara","SMA","3.5199510","98.7887550"
"10258274","SMA NEGERI 1 HURUNA","JL. NIAS TENGAH KM. 86","Prop. Sumatera Utara","SMA","1.0108000","97.5658000"
"10261298","SMAN 1 TINADA","JL. LAE MBINCILIN","Prop. Sumatera Utara","SMA","2.5582000","98.3709000"
"10209388","SMAS DHARMA UTAMA","JL. SUKA MAJU NO.1 SUKASARI","Prop. Sumatera Utara","SMA","3.0861000","99.0169000"
"10210830","SMAS WIDIASANA UTAMA","JL. YOSERIZAL NO. 3 A MEDAN","Prop. Sumatera Utara","SMA","3.5836160","98.6930600"
"10212115","SMAS TRI RATNA SIBOLGA","JL. LETJEN S. PARMAN NO. 58 SIBOLGA","Prop. Sumatera Utara","SMA","1.7333000","98.7876000"
"10219149","SMAS PEMNAS PANTAI LABU","DUSUN II BINJAI BAKUNG","Prop. Sumatera Utara","SMA","3.6559000","98.9020000"
"10210931","SMAS PANCA BUDI MEDAN","JL. JEND. GATOT SUBROTO KM. 4,5","Prop. Sumatera Utara","SMA","3.6005000","98.6332000"
"10201998","SMA SWASTA IMMANUEL KABANJAHE","JL.KATEPUL NO. 92 KABANJAHE","Prop. Sumatera Utara","SMA","3.1013033","98.5008550"
"10257282","SMAN 1 BESITANG","JL. SEI PUCUK","Prop. Sumatera Utara","SMA","4.0445000","98.1728000"
"10204228","SMA SWASTA DAERAH SEI BEJANGKAR","JL. BESAR SIMPANG SEI BEJANGKAR","Prop. Sumatera Utara","SMA","3.1175000","99.5827000"
"10219109","SMAN HAMPARAN PERAK","JL. TITI PAYUNG-BULU CINA","Prop. Sumatera Utara","SMA","3.7060000","98.5918000"
"10205372","SMAS PEMBANGUNAN SILANG KITANG","JL. BESAR SILANG KITANG","Prop. Sumatera Utara","SMA","1.8567000","99.8986000"
"10212097","SMAS HKBP SIBOLGA","JL. SISWOMIHARJO NO. 6 SIBOLGA","Prop. Sumatera Utara","SMA","1.7484000","98.7791000"
"69900043","SMA TARUNA HANG TUAH  TELUKDALAM NIAS SELATAN","Jalan Baloho Indah","Prop. Sumatera Utara","SMA",".5610000","97.8076000"
"10260094","SMAS ADVENT NIAS","JL. LINTAS TELUK DALAM KM.41","Prop. Sumatera Utara","SMA","1.0130000","97.8061000"
"10258339","SMA SWASTA LENTERA HARAPAN","JL.ARAH AWAI KM.12,5 GUNUNG SITOLI UTARA","Prop. Sumatera Utara","SMA","1.3745000","97.5539000"
"10259750","SMAN 1 BRANDAN BARAT","JL. RAYA MEDAN KM. 89.9","Prop. Sumatera Utara","SMA","3.9983000","98.2260000"
"10212526","SMA SWASTA YAYASAN PENDIDIKAN PANCASILA","JL. MESJID SUBULUS SALAM","Prop. Sumatera Utara","SMA","3.8351000","98.3263000"
"10206129","SMAN 1 ADIANKOTING","JL. TARUTUNG SIBOLGA KM 25","Prop. Sumatera Utara","SMA","1.7697000","98.9296000"
"69774815","SMAN 1 AJIBATA","Sijambur Desa Pardomuan Ajibata","Prop. Sumatera Utara","SMA","2.6626000","98.9491000"
"10210826","SMAS TRI MURNI","JL. KL. YOS SUDARSO KM. 6,5","Prop. Sumatera Utara","SMA","3.6902000","98.6553000"
"10214175","SMA SWASTA PAB 1 MEDAN ESTATE","JL. MESJID NO. 1 PTPN II","Prop. Sumatera Utara","SMA","3.5993000","98.7100000"
"10258265","SMA NEGERI 1 SUSUA","SIFALAGO SUSUA","Prop. Sumatera Utara","SMA",".7920000","97.7731000"
"69831535","SMA SWASTA BINA ARTHA","Desa Ujung Gading Jae, Kec. Simangambat","Prop. Sumatera Utara","SMA","1.5192100","100.1746110"
"10210730","SMAS HANG TUAH BELAWAN","JL. KAPTEN RADEN SULIAN BELAWAN","Prop. Sumatera Utara","SMA","3.7822000","98.6925000"
"10212764","SMAN 2 LOLOFITU MOI","JL. NIAS TENGAH KM. 34","Prop. Sumatera Utara","SMA","1.0998000","97.5808000"
"10205386","SMAN 1 PANAI TENGAH","JL. LAKSANA LABUHANBILIK","Prop. Sumatera Utara","SMA","2.5198000","100.1671000"
"10220223","SMAS RIZKI ANANDA PATUMBAK","JL. MEKATANI NO 56 MARENDAL","Prop. Sumatera Utara","SMA","3.4452000","98.7148000"
"10211307","SMAS TUNAS PELITA BINJAI","JL. PERINTIS KEMERDEKAAN NO. 166","Prop. Sumatera Utara","SMA","3.6309000","98.4831000"
"10259823","SMA NEGERI 1 PEMATANG BANDAR","J. INPRES PURBAGANDA","Prop. Sumatera Utara","SMA","3.1158000","99.2504000"
"10214136","SMAN 1 PERCUT SEI TUAN","JL. IRIAN BARAT NO.37","Prop. Sumatera Utara","SMA","3.6337000","98.7148000"
"10202788","SMA NEGERI 1 TANAH JAWA","TANAH JAWA","Prop. Sumatera Utara","SMA","2.7683000","99.1362000"
"10210837","SMAS UTAMA","JL. SULUH NO. 80 A MEDAN","Prop. Sumatera Utara","SMA","3.6109000","98.7021000"
"10211586","SMA NEGERI 2 TEBING TINGGI","JALAN K.L. YOS SUDARSO KM. 5","Prop. Sumatera Utara","SMA","3.3715000","99.1665000"
"10210882","SMAS NAHDATUL ULAMA","JL.BRIGJEN H.A MANAF LUBIS NO.2","Prop. Sumatera Utara","SMA","3.6102000","98.6213000"
"10209421","SMAS R A KARTINI","JL STASIUN NO. 47","Prop. Sumatera Utara","SMA","3.4857000","99.1408000"
"69896679","SMA NEGERI 1 SAWO","DESA SAWO","Prop. Sumatera Utara","SMA","1.4981000","97.4003000"
"10260115","SMAS NURUL IMAN TANJUNG MORAWA","JL. PASAR XIII DS. L. MANIS","Prop. Sumatera Utara","SMA","3.5748000","98.7976000"
"10202767","SMA NEGERI 1 BANDAR","JL. KUALA TANJUNG NO. 10","Prop. Sumatera Utara","SMA","3.1649000","99.3342000"
"10207082","SMAN 1 ANGKOLA SELATAN","MARPINGGAN","Prop. Sumatera Utara","SMA","1.2308000","99.0891000"
"10212416","SMAS KELUARGA","JL. SERAM ATAS NO.15","Prop. Sumatera Utara","SMA","2.9649000","99.0618000"
"69883627","SMA NEGERI 2 MANIAMOLO","DESA NDRASO HILISIMAETANO","Prop. Sumatera Utara","SMA",".6707000","97.7315000"
"69789147","SMA SWASTA MASEHI DELI TUA SCHOOL","Jl. Bayur No. 1 B","Prop. Sumatera Utara","SMA","3.4995000","98.6915000"
"10207065","SMAN 1 SIHAPAS BARUMUN","PADANG HASIOR","Prop. Sumatera Utara","SMA","1.3443000","99.6530000"
"69822697","SMA NEGERI 1 SEI BALAI","JALAN PERINTIS KEMERDEKAAN DUSUN IV","Prop. Sumatera Utara","SMA","3.1386000","99.6073000"
"10259031","SMAN 1 ALASA","JL. PRAMUKA","Prop. Sumatera Utara","SMA","1.2465000","97.3841000"
"10214164","SMAS GALIH AGUNG KUTALIMBARU","JL. BERDIKARI DS. LAU BEKERI","Prop. Sumatera Utara","SMA","3.4771920","98.5248850"
"10259218","SMAS ERA UTAMA PANCUR BATU","JL PEMBANGUNAN NO.27 PANCUR BATU","Prop. Sumatera Utara","SMA","3.4779000","98.5986000"
"10210823","SMAS TELADAN CINTA DAMAI","JL. PENDIDIKAN NO. 62","Prop. Sumatera Utara","SMA","3.6135000","98.6536000"
"10219924","SMA NEGERI 1 KUTALIMBARU","JL. PENDIDIKAN PASAR IV","Prop. Sumatera Utara","SMA","3.4781000","98.5520000"
"10212198","SMAS KESUMA INDAH","JL. BATANG GADIS NO. 9","Prop. Sumatera Utara","SMA","1.3749000","99.2769000"
"10207081","SMA NEGERI 1 SIPIROK","JL. SIMANGAMBAT NO. 218 SIPIROK","Prop. Sumatera Utara","SMA","1.6077617","99.2843750"
"10259849","SMAS BUNGA BANGSA","JL. SEI SIKAMBING NO. 2K MEDAN","Prop. Sumatera Utara","SMA","3.5906000","98.6702000"
"10211682","SMAS MARIA GORETTI","JL. BAHAGIA NO. 1","Prop. Sumatera Utara","SMA","2.9488000","99.0610000"
"10258340","SMA SWASTA PEMBDA 1 GUNUNGSITOLI","JL.PELITA NO.9 GUNUNG SITOLI","Prop. Sumatera Utara","SMA","1.2692000","97.6184000"
"10258030","SMAS HKI TARUTUNG","Jl. Ferdinand Lumbantobing Tarutung","Prop. Sumatera Utara","SMA","2.0302000","98.9831000"
"10220913","SMAS DEWANTARA","JL. STUNGKIT","Prop. Sumatera Utara","SMA","3.7309000","98.3335000"
"10259034","SMA NEGERI 2 GUNUNGSITOLI","JL.ARAH AWAI KM.8,5 GUNUNG SITOLI","Prop. Sumatera Utara","SMA","1.3012000","97.5575000"
"10211313","SMAS PALAPA","JL. SEI MUSI NO. 19 BINJAI","Prop. Sumatera Utara","SMA","3.5598000","98.4960000"
"10212577","SMA NEGERI 7","JL. SAWI NO.48 PAYA ROBA BINJAI","Prop. Sumatera Utara","SMA","3.6457000","98.4607000"
"10207086","SMAN 1 ANGKOLA TIMUR","DESA MARISI-PARGARUTAN","Prop. Sumatera Utara","SMA","1.2813000","98.8821000"
"10202773","SMA NEGERI 1 SIANTAR","JL. MAHONI RAYA NO 4 PERUMNAS BATU VI","Prop. Sumatera Utara","SMA","2.9725000","99.1321000"
"10261250","SMA NEGERI 1 ULU BARUMUN","JL. SIBUHUAN MATONDANG","Prop. Sumatera Utara","SMA","1.0680000","99.6741000"
"10220595","SMAN 1 SIEMPAT NEMPU HILIR","JL. KOMPLEK SMA NO.1 PARDAMEAN","Prop. Sumatera Utara","SMA","2.8257000","98.2638000"
"10259082","SMA NEGERI 3 GUNUNGSITOLI","JL.MAENA 3 GUNUNG SITOLI","Prop. Sumatera Utara","SMA","1.2667000","97.6151000"
"10258261","SMA SWASTA FAJAR MAS","JL.LAHUSA-GOMO KM.4","Prop. Sumatera Utara","SMA",".8374000","97.8510000"
"10207088","SMAN 1 PADANG BOLAK JULU","SIPUPUS","Prop. Sumatera Utara","SMA","1.4818000","99.5014000"
"10210906","SMAS METHODIST 8 MEDAN","JL. KL. YOS SUDARSO NO. 166 A","Prop. Sumatera Utara","SMA","3.6175000","98.6618000"
"10205375","SMAS MUHAMMADIYAH 10 RANTAUPRAPAT","JL. KHA. DAHLAN NO. 94 RANTAUPRAPAT","Prop. Sumatera Utara","SMA","2.1004000","99.8267000"
"10264637","SMAS HAS SEPAKAT ","JL.BESAR NEGERI LAMA NO.95","Prop. Sumatera Utara","SMA","2.2990000","100.0959000"
"10203521","SMAS RISMANDUMA","JL. BESAR NO. 11 TANJUNG BERINGIN","Prop. Sumatera Utara","SMA","2.7275000","98.5449000"
"10210757","SMAS JOSUA MEDAN","JL. G.B. JOSUA NO. 30","Prop. Sumatera Utara","SMA","3.5950000","98.6897000"
"10257604","SMAS BINA TARUNA","JL. MALERAN RAYA NO.100","Prop. Sumatera Utara","SMA","3.6602000","98.6504000"
"10208166","SMAN 1 NATAL","JL. SISARAN","Prop. Sumatera Utara","SMA",".5768000","99.1147000"
"10258258","SMA NEGERI 1 ARAMO","JL. NIAS TENGAH KM. 26","Prop. Sumatera Utara","SMA",".7200000","97.7018000"
"10257680","SMA IT AL HUSNAYAIN","Jl. Willem Iskander / Nusantara II","Prop. Sumatera Utara","SMA",".8576530","99.6113020"
"10209397","SMAN 1 PERBAUNGAN","JL. H. TENGKU RIZAL NURDIN","Prop. Sumatera Utara","SMA","3.5791000","98.9498000"
"10211315","SMAS MUHAMMADIYAH 12","JL. KHA. DAHLAN NO. 4 BINJAI","Prop. Sumatera Utara","SMA","3.6048498","98.4860650"
"69899845","SMA NEGERI 2 HILISALAWAAHE","DESA BERUA SIWALAWA","Prop. Sumatera Utara","SMA",".9284770","97.6040015"
"10201328","SMAN 1 BINJAI","JL. YOS SUDARSO SUKA MAKMUR","Prop. Sumatera Utara","SMA","3.6806000","98.4555000"
"10204237","SMAS AL MA SHUM KISARAN BRT","JL. BATU ASAH NO. 2 SIDODADI","Prop. Sumatera Utara","SMA","2.9857000","99.5867000"
"10258041","SMAN 1 LINGGA BAYU","JL. PENDIDIKAN","Prop. Sumatera Utara","SMA",".7112000","99.2968000"
"10211686","SMAS PELITA","JL. MELANTHON SIREGAR","Prop. Sumatera Utara","SMA","2.9416000","99.0469000"
"10209426","SMAS SEBELAS MARET","JL. RAYA BESAR DOLOK MASIHUL","Prop. Sumatera Utara","SMA","3.3387000","98.9666000"
"10258027","SMAS HARAPAN BATANG SERANGAN","JL.Kwala Sawit Dusun Bandar Pulo Batang Serangan","Prop. Sumatera Utara","SMA","3.7185000","98.1814000"
"10210816","SMAS AL BUKHARI MUSLIM","JL. SRIWIJAYA NO. 57","Prop. Sumatera Utara","SMA","3.5768000","98.6403000"
"10212554","SMAS KARYA BARU PSP","JL. MERDEKA NO. 189 B","Prop. Sumatera Utara","SMA","1.3884000","99.2680000"
"10220520","SMAN 1 KOLANG","JL. SIBOLGA  BARUS KM 21","Prop. Sumatera Utara","SMA","1.8968000","98.6613000"
"10220517","SMAS SW EKA SATRIA","JL. AKS. TUBUN SERUDIK","Prop. Sumatera Utara","SMA","1.6906000","98.8278000"
"10258247","SMA NEGERI 1 TOMA","Desa Hilisataro","Prop. Sumatera Utara","SMA",".6190000","97.8857000"
"10263516","SMA SWASTA SWASTA YAPIM INDRAPURA","JLN. LINTAS MEDAN - KISARAN KM. 108","Prop. Sumatera Utara","SMA","3.2645000","99.3771000"
"10258504","SMAN 1 SIROMBU","JL. SUMITRO DJOJO HADI KUSUMO NO.07","Prop. Sumatera Utara","SMA",".9615170","97.4316300"
"10220320","SMAS YAPIM MABAR","JLMAREGAN VII LK.16","Prop. Sumatera Utara","SMA","3.6750000","98.7676000"
"69862405","SMA SWASTA DWI TUNGGAL ","JL. MEDAN-TANJUNG MORAWA KM 14,5","Prop. Sumatera Utara","SMA","3.5153000","98.7785000"
"69752354","SMAN 2 SIABU","Jl. Aek Tombang No. 01","Prop. Sumatera Utara","SMA","1.1144000","99.4966000"
"10210905","SMAS METHODIST 7 MEDAN","JL..MADONG LUBIS NO.7","Prop. Sumatera Utara","SMA","3.5943000","98.6751000"
"10260915","SMA NEGERI 1 AIR PUTIH","JL. SYARIFIDDIN NO. 50 INDRAPURA","Prop. Sumatera Utara","SMA","3.2877000","99.3749000"
"69877346","SMA SWASTA BINA KASIH","JALAN SIHONOATAUO","Prop. Sumatera Utara","SMA","-.3623550","98.4320860"
"10258253","SMA SWASTA BINTANG LAUT","JL. DIPONEGORO NO. 26 C","Prop. Sumatera Utara","SMA",".5736000","97.8265000"
"10214127","SMA SWASTA METHODIST INDONESIA LUBUK PAKAM","JL.TEUKU CIK DITIRO NO.34 LUBUK PAKAM","Prop. Sumatera Utara","SMA","3.5918000","98.8573000"
"10210750","SMAS HUSNI THAMRIN","JL. GALANG NO. 1","Prop. Sumatera Utara","SMA","3.5956000","98.6942000"
"69899074","SMA NEGERI 2 PERCUT SEI TUAN","JL. PENDIDIKAN PASAR  XII DESA BANDAR KLIPPA","Prop. Sumatera Utara","SMA","3.6157000","98.7518000"
"10201319","SMAS USIA TAMA","JL. PASAR 4 NAMUTERASI","Prop. Sumatera Utara","SMA","3.3921000","98.4134000"
"10211389","SMAN 5 BINJAI","JL. JAMBI NO. 2 BINJAI","Prop. Sumatera Utara","SMA","3.5926000","98.4889000"
"69900420","SMA SWASTA NUPELA","DESA LOLOZASAI","Prop. Sumatera Utara","SMA","1.1502000","97.7055000"
"10210707","SMAS EKA PRASETYA","JL. ASRAMA/EKA PRASETYA NO.1","Prop. Sumatera Utara","SMA","3.6110000","98.6267000"
"10220524","SMAN 1 SOSORGADONG","JL. AMD No. 7 SOSORGADONG","Prop. Sumatera Utara","SMA","1.9881000","98.4894000"
"10206585","SMAS SW KELUARGA","JL. PENDIDIKAN NO. 30 PO. MANDUAMAS","Prop. Sumatera Utara","SMA","2.2091000","98.2263000"
"10220931","SMAS KATOLIK BUDI MURNI 3","JL. TERATAI NO. 21 A","Prop. Sumatera Utara","SMA","3.6119000","98.7050000"
"10205363","SMAN 1 BILAH HULU","JL. Pendidikan No. 06 N-6 Aeknabara","Prop. Sumatera Utara","SMA","2.0517000","99.9603000"
"10258342","SMAN 1 IDANOGAWO","JL. ARAH BOZIHONA","Prop. Sumatera Utara","SMA","1.0561000","97.7919000"
"10262109","SMAS KESUMA BANGSA LONDUT","DESA LONDUT","Prop. Sumatera Utara","SMA","2.5684000","99.7596000"
"10258440","SMAN 1 LOTU","JL. ARAH NALUA","Prop. Sumatera Utara","SMA","1.4056190","97.3537660"
"10210891","SMAS NURUL ISLAM INDONESIA","MEGAWATI NO.20 B MEDAN","Prop. Sumatera Utara","SMA","3.5826000","98.7023000"
"10209395","SMAN 1 SIPISPIS","JL. AHMAD YANI","Prop. Sumatera Utara","SMA","3.5902000","99.0628000"
"10219921","SMA SWASTA KARYA JAYA TANJUNG MORAWA","DUSUN VII","Prop. Sumatera Utara","SMA","3.5201000","98.8344000"
"10257746","SMAN 1 DOLOK MERAWAN","JL. RAYA MEDAN - P. SIANTAR KM 99","Prop. Sumatera Utara","SMA","3.1659000","99.1249000"
"10210883","SMAS NASRANI 1 MEDAN","JL. KAPT. PATTIMURA NO. 14 MEDAN","Prop. Sumatera Utara","SMA","3.5822000","98.6663000"
"10204055","SMAN 1 TANJUNG BALAI","JL. SYECH ISMAIL ABD. WAHAB","Prop. Sumatera Utara","SMA","3.0151000","99.8533000"
"10219101","SMAS YPI DELI DELI TUA","GG. SURYO NO.1 KM. 1,8","Prop. Sumatera Utara","SMA","3.4971000","98.6814000"
"10202679","SMA SWASTA METHODIST","JL. GEREJA NO 62 PERDAGANGAN","Prop. Sumatera Utara","SMA","3.2117000","99.3444000"
"10210824","SMAS TELADAN MEDAN","JL. PERTIWI NO.95","Prop. Sumatera Utara","SMA","3.5924000","98.7197000"
"10259587","SMA SPK SAMPOERNA ACADEMY","Jl. Jamin Ginting Komplek Citra Garden Medan","Prop. Sumatera Utara","SMA","3.5916000","98.6562000"
"10201984","SMA SWASTA ADVENT LAURAKIT","JL. KUTABULUH SIMOLE","Prop. Sumatera Utara","SMA","3.0759000","98.1971000"
"10204065","SMAN 1 BUNTU PANE","JL. BESAR DESA BUNTU PANE","Prop. Sumatera Utara","SMA","2.8826000","99.5119000"
"10258047","SMAS PRIMBANA","JL. JEND. BESAR A. H. NASUTION NO. 45","Prop. Sumatera Utara","SMA","3.5412000","98.6646000"
"10201339","SMA NEGERI 1 SALAPIAN","JL. KUALA - TANJUNG LANGKAT","Prop. Sumatera Utara","SMA","3.4333000","98.3276000"
"10201989","SMA NEGERI 1 SIMPANGEMPAT","JL. TIGANDERKET, SIMPANG EMPAT BERASTEPU","Prop. Sumatera Utara","SMA","3.1845000","98.4412000"
"10202656","SMA SWASTA BUKIT CAHAYA","BATU 3 NAGORI BOSAR","Prop. Sumatera Utara","SMA","2.9503000","99.0013000"
"69754728","SMAN 1 SORKAM","JL. H.O.S. COKROAMINOTO NO. 18","Prop. Sumatera Utara","SMA","1.9020000","98.5942000"
"10210971","SMAN 19 MEDAN","JL. MEDAN BELAWAN SP. SERUAI","Prop. Sumatera Utara","SMA","3.7099930","98.6905940"
"10212558","SMAS TAMAN SISWA PADANG SIDEMPUAN","Jl. Alboin Hutabarat Kamp. Darek, Kel, Wek VI Padangsidimpuan","Prop. Sumatera Utara","SMA","1.3813830","99.2958800"
"10258468","SMA NEGERI UNGGULAN SUKMA NIAS","JL.NIAS TENGAH KM 7,5 GUNUNG SITOLI SELATAN","Prop. Sumatera Utara","SMA","1.1779000","97.6859000"
"10262125","SMA SWASTA MAHAD MUHAMMAD SAMAN","JL. DISKI GLUGUR RIMBUN DSN V","Prop. Sumatera Utara","SMA","3.5400000","98.5488000"
"10257759","SMAS PLUS SHAFIYYATUL AMALIYYAH","JL. SETIA BUDI NO. 191","Prop. Sumatera Utara","SMA","3.5688000","98.6431000"
"69816258","SMA AWIRRASYIDIN","JL. BINJAI KM 8.5","Prop. Sumatera Utara","SMA","3.5955000","98.6189000"
"10260454","SMA NEGERI 2 LAHUSA","DESA HILISIMAETANO BALAEKHA","Prop. Sumatera Utara","SMA",".7467000","97.8508000"
"10210856","SMAN 3 MEDAN","JL. BUDI KEMASYARAKATAN NO.3","Prop. Sumatera Utara","SMA","3.6206000","98.6720000"
"10205389","SMAN 1 NA IX-X","JL. SMA AEK KOTA BATU","Prop. Sumatera Utara","SMA","2.2674000","99.7681000"
"10202661","SMA SWASTA AL WASLIYAH 2 SERBELAWAN","JL. RAJAMIN PURBA","Prop. Sumatera Utara","SMA","3.1012000","99.1069000"
"10206131","SMAN 1 PAGARAN","JL. DESA DOLOK SARIBU","Prop. Sumatera Utara","SMA","2.1608000","98.9154000"
"10259564","SMAN 7 TANJUNGBALAI","JL. D.I. PANJAITAN","Prop. Sumatera Utara","SMA","2.9701000","99.7999000"
"10260236","SMAS MUHAMMADIAH 20","JL. KH. A. DAHLAN KARANG GADING","Prop. Sumatera Utara","SMA","3.8684000","98.5610000"
"10210733","SMAS KATOLIK BUDI MURNI 2","Jl. Kapiten Purba I  Medan","Prop. Sumatera Utara","SMA","3.5246000","98.6354000"
"69946379","SMA NEGERI 1 BERINGIN","JL. BESAR PANTAI LABU","Prop. Sumatera Utara","SMA","3.6246842","98.9279583"
"10202762","SMA NEGERI 1 GIRSANG SIPANGAN BOLON","JL. PENDIDIKAN NO. 59","Prop. Sumatera Utara","SMA","2.6574000","98.9437000"
"10210898","SMAS LETJEN S PARMAN","JL. WAHIDIN NO. 170 MEDAN","Prop. Sumatera Utara","SMA","3.5492000","98.6585000"
"10210812","SMAS BUDI LUHUR","JL. GATOT SUBROTO NO.141","Prop. Sumatera Utara","SMA","3.5856000","98.6217000"
"10259371","SMAS METHODIST 3 MEDAN","JL.PERINTIS KEMERDEKAAN NO. 37","Prop. Sumatera Utara","SMA","3.6172000","98.6664000"
"10204062","SMA NEGERI 1 MEDANG DERAS","JL. OK. M. YUNAN","Prop. Sumatera Utara","SMA","3.3943000","99.3755000"
"10210751","SMAS INDONESIA MEMBANGUN","JL. Air Bersih No. 59","Prop. Sumatera Utara","SMA","3.5619690","98.6951180"
"10203536","SMAN 1 PEGAGAN HILIR","JL. TIGA BARU SUMBUL","Prop. Sumatera Utara","SMA","2.8124000","98.3826000"
"10202651","SMA SWASTA GKPS.1 PAMATANG RAYA","JL. GURU JASON SARAGIH NO.03","Prop. Sumatera Utara","SMA","2.9746700","98.8587783"
"10209394","SMAN 1 TANJUNG BERINGIN","JL. PAHLAWAN GG REMAJA III","Prop. Sumatera Utara","SMA","3.4911000","99.2002000"
"10211540","SMA SWASTA R.A. KARTINI","JALAN KL. YOS SUDARSO NO. 89","Prop. Sumatera Utara","SMA","3.3627000","99.1671000"
"10260958","SMA SWASTA BUDI LUHUR","MALIGAS BAYU","Prop. Sumatera Utara","SMA","3.0197000","99.2896000"
"69774616","SMA SWASTA PLUS EFARINA","JLN. NAWAR TARGER NO.01 SARIBUDOLOK","Prop. Sumatera Utara","SMA","2.9419000","98.8033000"
"69956350","SMA SWASTA TARUNA BANGSA","JLN.MEKAR SAWIT PONDOK XIII","Prop. Sumatera Utara","SMA",".0000000",".0000000"
"10212009","SMAN 5 TANJUNGBALAI","JL SEI KEDAUNG","Prop. Sumatera Utara","SMA","2.9727000","99.7911000"
"10201317","SMAS YASPENMAS","SIDODADI - JASA MAKMUR","Prop. Sumatera Utara","SMA","3.7683000","98.2424000"
"10258269","SMA NEGERI 1 LOLOWA U","JL.NIAS TENGAH KM 65","Prop. Sumatera Utara","SMA",".8876000","97.5819000"
"69762788","SMAN 3 TARUTUNG","JL. SM. SIMANJUNTAK","Prop. Sumatera Utara","SMA","1.9909520","98.9626290"
"10259908","SMA SWASTA TAMAN SISWA TAPIAN DOLOK","JL. MEDAN KM 10 SINAKSAK","Prop. Sumatera Utara","SMA","3.0341000","99.0829000"
"10201337","SMAN 1 SEI BINGAI","JL. PERAGAHAN NAMU UKUR SELATAN","Prop. Sumatera Utara","SMA","3.3822000","98.4659000"
"10261612","SMAS AL HILAL MEDAN","JL. BUBU NO.5","Prop. Sumatera Utara","SMA","3.6054000","98.7088000"
"10201323","SMAS PEMDA BAHOROK","JL. Veteran Bahorok","Prop. Sumatera Utara","SMA","3.4917000","98.1844000"
"10204238","SMA SWASTA ADVENT TANJUNG KASAU","TANJUNG KASAU","Prop. Sumatera Utara","SMA","3.2938000","99.4213000"
"69870689","SMAN 1 PASARIBU TOBING","JL Pasaribu Tobing - Makmur No. 01","Prop. Sumatera Utara","SMA","1.9564000","98.6107000"
"69899173","SMA NEGERI 2 ALASA TALUMUZOI","HAREFANAESE","Prop. Sumatera Utara","SMA","1.2171642","97.3285436"
"10210832","SMAS WR SUPRATMAN 2","JL. BRIGJEN. ZEIN HAMID NO. 33","Prop. Sumatera Utara","SMA","3.5953000","98.6851000"
"10212524","SMAS AL MA ARIF","Jalan Pasar 10 Bengkel","Prop. Sumatera Utara","SMA","3.7786000","98.5070000"
"10208656","SMAN 1 SALAK","JL. SIKADANG NJANDI NO. 153","Prop. Sumatera Utara","SMA","2.5701140","98.3480370"
"10257748","SMAN 1 SERBA JADI","DESA TANJUNG HARAP","Prop. Sumatera Utara","SMA","3.2871000","98.9977000"
"10202761","SMA NEGERI 1 PANOMBEIAN PANEI","JL PENDIDIKAN NO 5","Prop. Sumatera Utara","SMA","2.9264000","98.9514000"
"10210711","SMA GAJAH MADA","JL. BUNGA KENANGA NO.2","Prop. Sumatera Utara","SMA","3.5555000","98.6322000"
"10204254","SMA SWASTA NUSANTARA LABUHANRUKU","JL. BESAR KAYU ARA","Prop. Sumatera Utara","SMA","3.1794000","99.5604000"
"10208721","SMAS HKBP DOLOKSANGGUL","JL. LETKOL GA. MANULLANG","Prop. Sumatera Utara","SMA","2.2411000","98.7586000"
"10208159","SMAS WIRA BANGSA","JL. WIRA BANGSA","Prop. Sumatera Utara","SMA",".9434000","99.4991000"
"10211306","SMAS YPIS MAJU","JL. T. A.HAMZAH N0 638 BINJAI","Prop. Sumatera Utara","SMA","3.6383000","98.4926000"
"10202721","SMA SWASTA SINAR SURYA","JL. MAHONI RAYA UJUNG","Prop. Sumatera Utara","SMA","2.9133000","99.1160000"
"10209425","SMAS SETIA BUDI","JL. SERDANG NO. 157 PERBAUNGAN","Prop. Sumatera Utara","SMA","3.5744000","99.0527000"
"10264690","SMA NEGERI 1 BARUMUN SELATAN ","SIDOMULIO","Prop. Sumatera Utara","SMA","1.0567000","99.7582000"
"10211542","SMA SWASTA TAMANSISWA","JL. DEBLOT SUNDORO NO. 9","Prop. Sumatera Utara","SMA","3.3177000","99.1889000"
"10210708","SMAS EKKLESIA","JL. MENTENG VII GG. SWASEMBADA NO.21","Prop. Sumatera Utara","SMA","3.5874000","98.7143000"
"10205393","SMAN 1 KUALUH HULU","JL. BESAR AEKKANOPAN","Prop. Sumatera Utara","SMA","2.5563000","99.6608000"
"10211681","SMAS YP MAHK","JL. NIAS UJUNG NO. 67","Prop. Sumatera Utara","SMA","2.9550000","99.0567000"
"10210727","SMAS CIPTA KARYA MEDAN","JL. SELAMAT NO. 73 T","Prop. Sumatera Utara","SMA","3.5515000","98.6866000"
"10203554","SMAN 2 SIDIKALANG","JL. AIR BERSIH NO 64 SIDIKALANG","Prop. Sumatera Utara","SMA","2.7294000","98.3297000"
"10204252","SMA SWASTA SEPAKAT SEI BALAI","JL. BESAR NO. 26 SEI BALAI","Prop. Sumatera Utara","SMA","3.1266000","99.5831000"
"10212011","SMAN 3 TANJUNGBALAI","JL. SMAN 3 TANJUNGBALAI","Prop. Sumatera Utara","SMA","2.9349980","99.7773840"
"10202682","SMA SWASTA HKBP HUTABAYURAJA","JL. SM. RAJA NO. 158","Prop. Sumatera Utara","SMA","2.9622000","99.2146000"
"10212196","SMAS HARAPAN PADANG SIDIMPUAN","JL. RAYA ANGKOLA JULU","Prop. Sumatera Utara","SMA","1.3688000","99.2822000"
"10211308","SMAS TELADAN","JL. TELADAN NO. 2 BINJAI","Prop. Sumatera Utara","SMA","3.6068382","98.4844180"
"10208463","SMAN 1 BALIGE","JL. KARTINI SOPOSURUNG BALIGE","Prop. Sumatera Utara","SMA","2.3132000","99.0325000"
"10210889","SMAS NURCAHAYA","JL. BUNGA CEMPAKA NO. 41","Prop. Sumatera Utara","SMA","3.5673000","98.6367000"
"10258537","SMAN 1 NAMOHALU ESIWA","Jln. Desa Namohalu","Prop. Sumatera Utara","SMA","1.3228000","97.3953000"
"10210752","SMAS IRA MEDAN","JL. PERTIWI NO. 111/ 53 B MEDAN","Prop. Sumatera Utara","SMA","3.6050000","98.7035000"
"10205368","SMAS ST YOSEPH AEK KANOPAN","JL. SERMA MAULANA. S. AEKKANOPAN","Prop. Sumatera Utara","SMA","2.5708330","99.6270620"
"10219151","SMAS PGRI 24 TALUN KENAS","JL. DESA TALUN KENAS","Prop. Sumatera Utara","SMA","3.1649000","98.6965000"
"10212217","SMAN 2 PADANG SIDEMPUAN","JL. SUDIRMAN NO. 186","Prop. Sumatera Utara","SMA","1.3858000","99.2559040"
"10257742","SMAN 2 PERBAUNGAN","JL. CEMPAKA , No.25 PERBAUNGAN","Prop. Sumatera Utara","SMA","3.4633000","98.9465000"
"10201318","SMAS WATHONIYAH","JL. DEWI RIMBA T. LENGGANG","Prop. Sumatera Utara","SMA","3.5473000","98.2589000"
"69947201","SMA SWASTA HARAPAN SUSUA","Desa Foikhu Fondrako","Prop. Sumatera Utara","SMA",".8638806","97.8485933"
"10260680","SMA NEGERI 1 MAZO","DESA LUAHANDROITO","Prop. Sumatera Utara","SMA",".6634000","97.8022000"
"10205377","SMAS METHODIST RANTAUPRAPAT","JL. BILAH NO. 24 RANTAU PRAPAT","Prop. Sumatera Utara","SMA","2.1004000","99.8290000"
"10206128","SMAN 1 TARUTUNG","JL. MELANTON SIREGAR","Prop. Sumatera Utara","SMA","1.9823000","98.9946000"
"10259155","SMAS WIDIYA DHARMA","DIVISI A PT. ASAM JAWA","Prop. Sumatera Utara","SMA","1.7377000","100.4058000"
"10258336","SMAN 1 BOTOMUZOI","JL. DESA HILIWA ELE I","Prop. Sumatera Utara","SMA","1.1775000","97.5452000"
"69774816","SMAN 1 PARMAKSIAN","Jl.Tanjungan","Prop. Sumatera Utara","SMA","2.4799000","99.2078000"
"10262149","SMA NEGERI 3 SUSUA","Desa Hilimboho","Prop. Sumatera Utara","SMA",".8046830","97.7440450"
"10260179","SMAS JABAL THARIQ","BATANG PANE II","Prop. Sumatera Utara","SMA","1.5220000","99.8481000"
"10202768","SMA SWASTA YPI DHARMA BUDI ","JL.MANIK MARAJA SARI MATONDANG","Prop. Sumatera Utara","SMA","2.8640000","98.9166000"
"10212116","SMAN 1 SIBOLGA","Jln. Sutoyo Siswomiharjo No. 1 Sibolga","Prop. Sumatera Utara","SMA","1.7450000","98.7792000"
"10212010","SMAN 4 TANJUNGBALAI","JL. HIU","Prop. Sumatera Utara","SMA","3.0015000","99.7902000"
"69948235","SMA NEGERI 2 MAZO","DESA ULU MAZO","Prop. Sumatera Utara","SMA",".7821401","97.8359990"
"10211708","SMAS TELADAN","JL. SINGOSARI NO. 3","Prop. Sumatera Utara","SMA","2.9668000","99.0643000"
"10214187","SMAS TRI SAKTI LUBUK PAKAM","JL. P. SIANTAR NO. 80A","Prop. Sumatera Utara","SMA","3.5550000","98.8819000"
"10210911","SMAS PARULIAN 1","JL. STADION TELADAN NO.23","Prop. Sumatera Utara","SMA","3.5874000","98.6985000"
"10258256","SMA SWASTA KAMPUS TELUKDALAM","Jl. DIPONEGORO NARI-NARI","Prop. Sumatera Utara","SMA",".5701000","97.8253000"
"10211290","SMAS ABDI NEGARA","JL. T. AMIR HAMZAH NO. 689 BINJAI","Prop. Sumatera Utara","SMA","3.6350000","98.4899000"
"10202004","SMA SWASTA METHODIST BERASTAGI","JL. VETERAN NO.44 BERASTAGI","Prop. Sumatera Utara","SMA","3.1931590","98.5086130"
"69815454","SMAS IMELDA RITONGA","Jl. Karya Bakti No. 20 Rantauprapat","Prop. Sumatera Utara","SMA","2.0496000","99.8583000"
"10208726","SMAN 1 ONAN GANJANG","JL. PAKKAT - DOLOKSANGGUL","Prop. Sumatera Utara","SMA","2.1527000","98.6239000"
"10202670","SMA SWASTA ISLAM PROYEK UISU SIANTAR","JL. ASAHAN KM. 4,5  SIANTAR","Prop. Sumatera Utara","SMA","2.9673000","99.1029000"
"10258062","SMA SWASTA METHODIST ","JL. IMAM BONJOL NO. 64","Prop. Sumatera Utara","SMA","2.9225000","99.7889000"
"10208951","SMAN 1 ONANRUNGGU","JL. PAKPAHAN","Prop. Sumatera Utara","SMA","2.4767000","98.9888000"
"10202005","SMA SWASTA SANTA MARIA KABANJAHE","JL. JAMIN GINTING GANG GARUDA NO. 100 KABANJAHE","Prop. Sumatera Utara","SMA","3.1161333","98.5134750"
"10260261","SMAS SINGAPORE SCHOOL MEDAN","JL.LETJEN JAMIN GINTING KM 8,5 KOMP.ROYAL SUMATERA","Prop. Sumatera Utara","SMA","3.5004190","98.6005960"
"10202772","SMA SWASTA TELADAN BANGUN","JL. ASAHAN KM. 17 BANGUN","Prop. Sumatera Utara","SMA","2.9392000","99.1318000"
"10211703","SMAN 3 PEMATANG SIANTAR","JL. PANE","Prop. Sumatera Utara","SMA","2.9559000","99.0732000"
"10208715","SMAN 1 PAKKAT","JL. D.I. PANJAITAN","Prop. Sumatera Utara","SMA","2.2152000","98.5123000"
"10204066","SMAN 1 AEK SONGSONGAN","JL.. EMPLASMEN NO. 2 AEK SONGSONGAN","Prop. Sumatera Utara","SMA","2.6586000","99.5122000"
"10210838","SMAS SRIWIJAYA MEDAN","JL. BRIGJEN. ZEIN HAMID KM 5,5 GG. PEMBANGUNAN NO. 25","Prop. Sumatera Utara","SMA","3.5358000","98.6441000"
"10220916","SMAS NASIONAL","JL. LINGGA 4 NAMUTERASI","Prop. Sumatera Utara","SMA","3.3527000","98.4154000"
"69756078","SMAS KRISTEN ARASTAMAR","Jalan Siheneasi","Prop. Sumatera Utara","SMA",".9355000","97.4906000"
"69899811","SMA Swasta Amal Mas II Sumatera Utara","Desa Hilitotao","Prop. Sumatera Utara","SMA",".9192553","97.7569804"
"60728990","SMAS DJUWITA","JL SEI ASAHAN NO 37","Prop. Sumatera Utara","SMA","3.5886000","98.6483000"
"10220518","SMAS SW ST FRANSISKUS","JL. Prof. M. Hazairin","Prop. Sumatera Utara","SMA","1.6780000","98.8662000"
"10212201","SMAN 1 PADANG SIDEMPUAN","JL. SUDIRMAN NO. 188","Prop. Sumatera Utara","SMA","1.3844750","99.2666660"
"10258913","SMAS DHARMAWANGSA","JL.K.L. YOS SUDARSO NO. 224","Prop. Sumatera Utara","SMA","3.6136000","98.6734000"
"10210746","SMAS KARTIKA 1 -1 MEDAN","JL. S. PARMAN NO. 240 MEDAN","Prop. Sumatera Utara","SMA","3.5853000","98.6665000"
"10201997","SMA SWASTA GBKP KABANJAHE","JL. MARIAM GINTING NO.3 KABANJAHE","Prop. Sumatera Utara","SMA","3.0935505","98.4580994"
"10208713","SMAN 1 PARLILITAN","JL. PENDIDIKAN NO. 41","Prop. Sumatera Utara","SMA","2.3135130","98.5042040"
"10220210","SMAS PGRI 20 SIBORONGBORONG","JL. SM. RAJA NO.153a","Prop. Sumatera Utara","SMA","2.2055000","98.9742000"
"10201364","SMAS GOTONG ROYONG","JL. BINJAI - KUALA KM. 40","Prop. Sumatera Utara","SMA","3.3219000","98.3905000"
"10214125","SMAS KARYA PENDIDIK","JL. SETIA BUDI","Prop. Sumatera Utara","SMA","3.5631000","98.8683000"
"10200433","SMAS ISTIQLAL DELI TUA","JL. STASIUN NO. 1A","Prop. Sumatera Utara","SMA","3.5186000","98.6809000"
"10259259","SMAS LINGGA TEMBA","JL. TEMBA DESA ONAN LAMA","Prop. Sumatera Utara","SMA","2.8415000","98.3338000"
"10209413","SMA SWASTA METHODIST EL-SHADDAY","JL. MAWAR NO. 2 PERBAUNGAN","Prop. Sumatera Utara","SMA","3.0641000","98.9789000"
"10212525","SMAS KARYA BAKTI","JL. BINJAI - KUALA  KM. 13 Pasar I Padang Cermin","Prop. Sumatera Utara","SMA","3.6256000","98.3823000"
"69932312","SMA SWASTA MUHAMMADIYAH 3 MEDAN","Jl. Kapten Muslim Gg. Jawa Komp. Muhammadiyah Medan","Prop. Sumatera Utara","SMA","3.6083868","98.6459074"
"10210749","SMAS HKBP SIDORAME","JL. DOROWATI NO. 40","Prop. Sumatera Utara","SMA","3.6025000","98.6871000"
"10204057","SMAN 1 SIMPANG EMPAT","JL. BENTENG NO. 2 SIMPANG EMPAT","Prop. Sumatera Utara","SMA","2.8196000","99.6620000"
"10212098","SMAS KATOLIK SIBOLGA","JL. BRIGJEN KATAMSO NO. 19 SIBOLGA","Prop. Sumatera Utara","SMA","1.7416000","98.7789000"
"10227082","SMAS SANTO YOSEPH MEDAN","JL.FLAMBOYAN RAYA NO.139","Prop. Sumatera Utara","SMA","3.5404460","98.6044630"
"10212199","SMAS MUHAMMADIYAH 11 PSP","JL. S. PARMAN NO. 18","Prop. Sumatera Utara","SMA","1.3858000","99.2700000"
"10214145","SMAS PAB 4 SAMPALI PERCUT","JL. PASAR HITAM NO. 119","Prop. Sumatera Utara","SMA","3.6633000","98.7171000"
"10210864","SMAN 15 MEDAN","JL. SEKOLAH PEMBANGUNAN NO. 7","Prop. Sumatera Utara","SMA","3.6028000","98.6237000"
"10204231","SMAS DAERAH AIR JOMAN","JL. PASAR XI AIR JOMAN","Prop. Sumatera Utara","SMA","2.9853000","99.7427000"
"10210742","SMAS NASRANI 2 MEDAN","JL. PENDIDIKAN NO. 88","Prop. Sumatera Utara","SMA","3.5987370","98.6957280"
"10205362","SMAN 3 RANTAU UTARA","JL. W.R. SUPRATMAN RANTAUPRAPAT","Prop. Sumatera Utara","SMA","2.0746000","99.8531000"
"10214159","SMA SWASTA RAKYAT SEI GLUGUR","Jl. Tanjung Anom - Lau Bakeri","Prop. Sumatera Utara","SMA","3.5138000","98.5615000"
"10206580","SMAN 1 MATAULI PANDAN","Jl. Ki Hajar Dewantara No. 1, Pandan","Prop. Sumatera Utara","SMA","1.6919000","98.8253000"
"10212024","SMAN 1 TANJUNGBALAI","JL. MT. HARYONO NO.10","Prop. Sumatera Utara","SMA","2.9624910","99.8039230"
"10201342","SMA NEGERI 1 KUALA","JL. PERINTIS KEMERDEKAAN NO. 3 KUALA","Prop. Sumatera Utara","SMA","3.5091870","98.4070110"
"69947915","SMA NEGERI 2 HIBALA","Desa Bawootanio Omega","Prop. Sumatera Utara","SMA",".7767535","97.6575227"
"69947727","SMA NEGERI 3 LAHUSA","DESA LAHUSA 1","Prop. Sumatera Utara","SMA",".8078383","97.8652663"
"10210834","SMAS DHARMA BAKTI MEDAN","JL. LETJEN JAMIN GINTIING KM. 8","Prop. Sumatera Utara","SMA","3.6625000","98.6951000"
"10204232","SMAS DAERAH AIR BATU","JL. PENDIDIKAN DESA SEI ALIM ULU DUSUN I","Prop. Sumatera Utara","SMA","2.8114660","99.6243780"
"10205381","SMAN 2 RANTAU SELATAN","JL. KANCIL SIGAMBAL","Prop. Sumatera Utara","SMA","2.0554000","99.8728000"
"10210849","SMAS YAPSI","JL. SEHATI NO.150","Prop. Sumatera Utara","SMA","3.6964000","98.6568000"
"10264655","SMA SWASTA YAPIM TARUNA","Jl. Medan Batang Kuis Dusun VIII","Prop. Sumatera Utara","SMA","3.6082000","98.7898000"
"10205382","SMAN 1 TORGAMBA","JL. MUTIARA CIKAMPAK","Prop. Sumatera Utara","SMA","1.8772000","100.1786000"
"10258257","SMA NEGERI 1 AMANDRAYA","DESA TUINDRAO","Prop. Sumatera Utara","SMA",".7536000","97.6650000"
"10263550","SMAN 2 LINTONGNIHUTA","DESA SIPONJOT-SILABAN","Prop. Sumatera Utara","SMA","2.2416000","98.8261000"
"10214106","SMAS BANDUNG PERCUT SEI TUAN","JL. PENGABDIAN NO. 72","Prop. Sumatera Utara","SMA","3.6217000","98.7486000"
"10260627","SMA SWASTA PAB 11 LUBUK PAKAM","Jl. Pantai Labu-Kuala Namu","Prop. Sumatera Utara","SMA","3.5799000","98.8799000"
"10261718","SMAN 1 PANYABUNGAN TIMUR","GUNUNG BARINGIN","Prop. Sumatera Utara","SMA",".8264000","99.7643000"
"10259432","SMAS AL WASLIYAH 7","DESA SIMPANG EMPAT","Prop. Sumatera Utara","SMA","3.4717000","99.0717000"
"69883628","SMA NEGERI 2 SIDUAORI","DESA HOYA","Prop. Sumatera Utara","SMA",".7894510","97.7609560"
"10210760","SMAS BUDAYA","JL. KEPRIBADIAN NO.23","Prop. Sumatera Utara","SMA","3.6109690","98.6709570"
"10210702","SMAS BODHICITTA MEDAN","JL. SELAM NO. 39 - 41 Medan","Prop. Sumatera Utara","SMA","3.5881000","98.7096000"
"10208459","SMAN 1 LUMBANJULU","JL. SILAHISABUNGAN","Prop. Sumatera Utara","SMA","2.5240000","99.1102000"
"10214150","SMAS PAMASTA TANJUNG MORAWA","JL. PASAR BARU KM. 16,5","Prop. Sumatera Utara","SMA","3.5218000","98.7862000"
"10261406","SMAS VALENTINE","JL.PERINTIS NO.105","Prop. Sumatera Utara","SMA","3.6340000","98.5795000"
"10208943","SMAS ADVENT SIMBOLON","Sigaol Simbolon","Prop. Sumatera Utara","SMA","2.5584000","98.7800000"
"10206136","SMAN 1 SIMANGUMBAN","JL. SIPIROK  SIMANGUMBAN","Prop. Sumatera Utara","SMA","1.6987000","99.1969000"
"10220227","SMA SWASTA YAPIM SEI GLUGUR","Jl. Gelugur Rimbun","Prop. Sumatera Utara","SMA","3.5134000","98.5617000"
"69939076","SMA SWASTA BINTANG LANGKAT","JL.STABAT-SECANGGANG","Prop. Sumatera Utara","SMA","3.7659231","98.4876779"
"10210734","SMAS KATOLIK MARIANA","JL.KAPT. MUSLIM NO. 112","Prop. Sumatera Utara","SMA","3.6116000","98.6241000"
"10210804","SMAS SWA BINA KARYA MEDAN","JL. PELAJAR NO. 1 P. BRAYAN","Prop. Sumatera Utara","SMA","3.6021000","98.6686000"
"10260679","SMA NEGERI 1 UMBUNASI","UMBUNASI","Prop. Sumatera Utara","SMA",".9204000","97.8362000"
"10259857","SMAS ERLANGGA","JL. MERDEKA NO. 280-286","Prop. Sumatera Utara","SMA","2.9609000","99.0715000"
"10214151","SMAS PANCA JAYA GALANG","JL. SEI KARANG","Prop. Sumatera Utara","SMA","3.4297000","98.8966000"
"10211706","SMAS HKBP 1","JL. GEREJA NO. 26","Prop. Sumatera Utara","SMA","2.9499000","99.0621000"
"10210796","SMAS AMIR HAMZAH","JL. MERANTI NO. 1","Prop. Sumatera Utara","SMA","3.6101000","98.6517000"
"10211691","SMAS BUDI MULIA","JL.. MELANTHON SIREGAR","Prop. Sumatera Utara","SMA","2.9297000","99.0630000"
"10207083","SMAN 1 SAIPAR DOLOK HOLE","JL. PARSULUMAN","Prop. Sumatera Utara","SMA","1.6884000","99.5203000"
"10210814","SMAS ADVENT 1 MEDAN","JL. VETERAN NO. 34","Prop. Sumatera Utara","SMA","3.6487000","98.6626000"
"69943640","SMA SWASTA AL IHSAN WAMPU","JL.ABADI","Prop. Sumatera Utara","SMA","3.6686456","98.3297915"
"10204067","SMAN 3 KISARAN","JL. S PARMAN KISARAN","Prop. Sumatera Utara","SMA","2.9931000","99.6231000"
"10210839","SMAS ANTONIUS BANGUN MULIA MEDAN","JL. SISINGAMANGARAJA KM. 11 NO. 68","Prop. Sumatera Utara","SMA","3.5391000","98.7381000"
"10208461","SMAN 1 HABINSARAN","JL. PARSOBURAN","Prop. Sumatera Utara","SMA","2.3205000","99.4651000"
"10208655","SMAN 1 SIGUNUNG","JL. KUTA ONAN","Prop. Sumatera Utara","SMA","2.6441000","98.2449000"
"10208458","SMAN 1 SIANTAR NARUMONDA","JL. SMA NEGERI NARUMONDA","Prop. Sumatera Utara","SMA","2.5239000","99.3070000"
"10214180","SMAS RAKYAT PANCUR BATU","JL. LETJEN. JAMIN GINTING","Prop. Sumatera Utara","SMA","3.4685000","98.5962000"
"69822702","SMA INDONESIA MEMBANGUN TARUNA BELAWAN","JALAN PULAU SERAM BELAWAN","Prop. Sumatera Utara","SMA","3.7633540","98.6534740"
"10204054","SMA NEGERI 1 TANJUNG TIRAM","JL. RAHMADSYAH DESA SUKA MAJU","Prop. Sumatera Utara","SMA","3.2110000","99.5824000"
"10220213","SMAS DHARMA BAKTI","JL. BIDAN NO. 8","Prop. Sumatera Utara","SMA","3.5657000","98.8702000"
"69943068","SMA SWASTA AL HIKMAH","JL. MARELAN I PASAR IV","Prop. Sumatera Utara","SMA","3.7053499","98.6477515"
"10203518","SMAS KESUMA SUMBUL KARO","JL. PENDIDIKAN SUMBUL KARO","Prop. Sumatera Utara","SMA","2.9238000","98.1920000"
"10220296","SMAN 2 SIBORONGBORONG","JL. Balige Km. 1 Siborongborong","Prop. Sumatera Utara","SMA","2.2236000","98.9799000"
"10211304","SMAS MELATI","JL. HARIYONO MT NO. 314 BINJAI","Prop. Sumatera Utara","SMA","3.6383000","98.4805000"
"10261051","SMAN 1 SILINDAK","JL. BESAR GUNUNG MERIAH","Prop. Sumatera Utara","SMA","3.3803000","98.9093000"
"10204056","SMA NEGERI 1 TALAWI","JL. BESAR DESA PAHANG","Prop. Sumatera Utara","SMA","3.1876000","99.5588000"
"10210894","SMAS PALAPA MEDAN","JL. BUNGA LAU NO.9","Prop. Sumatera Utara","SMA","3.5027140","98.6092010"
"10208164","SMAN 1 MUARA BATANG GADIS","JL. LINTAS PANTAI BARAT","Prop. Sumatera Utara","SMA","1.0896000","98.9233000"
"10210706","SMAS DWIWARNA","JL. GEDUNG ARCA NO. 52","Prop. Sumatera Utara","SMA","3.5844000","98.6877000"
"10214109","SMAS BINA SISWA LAUDENDANG","JL. PERHUBUNGAN NO. 42","Prop. Sumatera Utara","SMA","3.6229000","98.7357000"
"10259248","SMAS KRISTEN IMMANUEL","JL.SLAMET RIYADI NO.1 MEDAN","Prop. Sumatera Utara","SMA","3.5983000","98.6582000"
"69934569","SMA Negeri 1 Tugala Oyo","Desa Botonaai","Prop. Sumatera Utara","SMA","1.3747151","97.4645588"
"10262159","SMA SWASTA BUDDHIS JAYANTI","JL. GATOT SUBROTO NO. 12-14 RANTAUPRAPAT","Prop. Sumatera Utara","SMA","2.1014000","99.8241000"
"10210709","SMAS ERIA MEDAN","JL. SISINGAMANGARAJA NO. 195","Prop. Sumatera Utara","SMA","3.6599000","98.6692000"
"10219920","SMAS JAYA KRAMA BERINGIN","Jl. Mimbar Umum Psr VI Sidodadi Ramunia","Prop. Sumatera Utara","SMA","3.6329000","98.8795000"
"10259553","SMAN 1 HUTABARGOT","Hutabargot Lombang","Prop. Sumatera Utara","SMA",".8018000","99.8298000"
"10259989","SMA SWASTA TAMAN SISWA SAWIT SEBERANG","JL. TAMAN SISWA","Prop. Sumatera Utara","SMA","3.7735000","98.2214000"
"10200447","SMA SWASTA PEMBANGUNAN GALANG","JL. PETANI LINGKUNGAN VII","Prop. Sumatera Utara","SMA","3.4265000","98.8978000"
"10259718","SMAS PURNA YUDHA SEI RAKYAT","DESA SEI RAKYAT","Prop. Sumatera Utara","SMA","2.4531000","100.2204000"
"10214162","SMA SWASTA BINA BANGSA TIGA JUHAR","Jl. Pasar Baru No. 36","Prop. Sumatera Utara","SMA","3.2865000","98.7102000"
"10258462","SMA NEGERI 1 GUNUNGSITOLI","JL.PENDIDIKAN NO.3 GUNUNGSITOLI","Prop. Sumatera Utara","SMA","1.2793000","97.6279000"
"10220294","SMAN 1 PARMONANGAN","DESA MANALU","Prop. Sumatera Utara","SMA","2.0233000","98.7808000"
"10258259","SMA SWASTA AFORE SUSUA","DESA FONDRAKORAYA","Prop. Sumatera Utara","SMA",".7737000","97.6662000"
"10211564","SMA SWASTA TOGAMA","JL. DI PANJAITAN NO. 44","Prop. Sumatera Utara","SMA","3.3236000","99.1647000"
"10201329","SMAN 1 BOHOROK","JL. BERDIKARI BOHOROK","Prop. Sumatera Utara","SMA","3.4964000","98.1815000"
"10204255","SMA SWASTA NASIONAL PETATAL","JL. SIMPANG TELUK BAYUR","Prop. Sumatera Utara","SMA","3.1714000","99.5147000"
"10202769","SMA SWASTA TUNAS HARAPAN","JL. SAYURMA TINGGI","Prop. Sumatera Utara","SMA","3.0422000","99.5253000"
"10210747","SMAS HARAPAN MANDIRI","JL. BRIGJEND ZEIN HAMID NO.40 Medan","Prop. Sumatera Utara","SMA","3.5466000","98.6559000"
"10211406","SMAN 3 BINJAI","JL. PADANG SIDEMPUAN NO. 24 BINJAI","Prop. Sumatera Utara","SMA","3.5924000","98.4872000"
"10205371","SMAS AEKNABARA","JL. PERHUBUNGAN NO. 69 AEKNABARA","Prop. Sumatera Utara","SMA","1.9959000","99.9922000"
"69895929","SMA SWASTA IMELDA","Jalan Bilal No. 24","Prop. Sumatera Utara","SMA","3.6228000","98.6764000"
"10219926","SMAS SANTA LUSIA","JL. MEDAN BT. KUIS","Prop. Sumatera Utara","SMA","3.6075000","98.7834000"
"10258426","SMAS BNKP KARMEL","Doli Doli Kec. Mandrehe Kab. Nias Barat","Prop. Sumatera Utara","SMA","1.0627000","97.5207000"
"10205378","SMAN 1 KAMPUNG RAKYAT","JL. TANDAN TANJUNG MEDAN","Prop. Sumatera Utara","SMA","2.0611000","100.1357000"
"10210846","SMAS SUTAN OLOAN","JL. H. SUTAN OLOAN NO. 1 P.SURYA","Prop. Sumatera Utara","SMA","3.7015000","98.6917000"
"10220915","SMAS PERSIAPAN 2 PD TUALANG","JL. TITI BESI TEBING TJ. SELAMET","Prop. Sumatera Utara","SMA","3.8718000","98.3053000"
"10211538","SMA SWASTA OSTROM METHODIST","JL. GEREJA NO. 7 TEBING TINGGI","Prop. Sumatera Utara","SMA","3.3356000","99.1070000"
"10259365","SMAS YAPENA 45 MEDAN","JL.B.KATAMSO GG. KOPI NO.4","Prop. Sumatera Utara","SMA","3.5942000","98.6645000"
"69754111","SMAS ST. IGNASIUS MEDAN","JL. KARYA WISATA NO. 6 MEDAN","Prop. Sumatera Utara","SMA","3.5253000","98.6521000"
"10201346","SMAS METHODIST","JL. GEREJA NO. 41 KUALA","Prop. Sumatera Utara","SMA","3.4990000","98.3874000"
"10259859","SMA SWASTA BERDIKARI","JL. KUALA TANJUNG","Prop. Sumatera Utara","SMA","3.1767000","99.3331000"
"10210928","SMAS PENCAWAN","JL. BUNGA NCOLE NO. 50","Prop. Sumatera Utara","SMA","3.5201000","98.6131000"
"10201986","SMA NEGERI 1 LAU BALENG","JL. KUTACANE NO.3","Prop. Sumatera Utara","SMA","3.1521000","98.0636000"
"10203552","SMAN 1 TANAH PINEM","JL. PENDIDIKAN","Prop. Sumatera Utara","SMA","3.0420000","98.1476000"
"10204227","SMAS DIPONEGORO KISARAN","JL. DIPONEGORO NO. 125 KISARAN","Prop. Sumatera Utara","SMA","2.9831000","99.6268000"
"10208462","SMAN 1 BORBOR","JL. PELAJAR NO. 1 BORBOR","Prop. Sumatera Utara","SMA","2.2553000","99.2971000"
"10211705","SMAN 1 PEMATANG SIANTAR","JL. PARSOBURAN","Prop. Sumatera Utara","SMA","2.9420000","99.0645000"
"69733774","SMAS NURUL HASANAH MEDAN","JL. LETJEND JAMIN GINTING NO. 314 MEDAN","Prop. Sumatera Utara","SMA","3.5628000","98.6619000"
"10258470","SMAN 1 MORO O","Hiliduho","Prop. Sumatera Utara","SMA","1.0775000","97.4364000"
"10203523","SMAS SANTO PETRUS SIDIKALANG","JL. PARONGIL NO. 97 SIDIKALANG","Prop. Sumatera Utara","SMA","2.7525000","98.2993000"
"10220522","SMAN 1 SIRANDORUNG","JL. AHMAD YANI NO 26","Prop. Sumatera Utara","SMA","2.0776000","98.3591000"
"10209430","SMAS JAYA LESTARI","JL. LAKSANA NO. 23 PERBAUNGAN","Prop. Sumatera Utara","SMA","3.4628000","98.9807000"
"10205374","SMAS PANGLIMA POLEM RANTAUPRAPAT","JL. CUT NYAK DIN RANTAUPRAPAT","Prop. Sumatera Utara","SMA","2.1049000","99.8183000"
"10257744","SMAN 1 TELUK MENGKUDU","DUSUN IV DESA PEMATANG GUNTUNG KECAMATAN TELUK MENGKUDU","Prop. Sumatera Utara","SMA","3.5272000","99.0888000"
"10205379","SMAN 1 KOTAPINANG","JL. BEDAGAI NO.25 KOTA PINANG","Prop. Sumatera Utara","SMA","1.8984000","100.0850000"
"10212557","SMAS PERGURUAN RAKYAT","JL. PENDIDIKAN NO. 20","Prop. Sumatera Utara","SMA","1.3884970","99.2775000"
"10211535","SMA SWASTA KATOLIK CINTA KASIH","JL. PUSARA PEJUANG NO. 5","Prop. Sumatera Utara","SMA","3.3256000","99.1629000"
"10210868","SMAS YPK MEDAN","JL. SAKTI LUBIS GG. PEGAWAI NO. 8 MEDAN","Prop. Sumatera Utara","SMA","3.5535000","98.6942000"
"10204060","SMAN 1 PULAU RAKYAT","JL. DUSUN II P. RAKYAT","Prop. Sumatera Utara","SMA","2.7178000","99.6173000"
"10261032","SMAN 1 TEBING SYAHBANDAR","JL. TEBING TINGGI - INDRAPURA DESA PAYA PASIR KEC. TEBING SYAHBANDAR","Prop. Sumatera Utara","SMA","3.3385070","99.2117190"
"69948419","SMA SWASTA SABAS SIGATA","SIGESE","Prop. Sumatera Utara","SMA",".1192887","98.7082850"
"10220287","SMAS HKBP 1 TARUTUNG","JL. AHMAD YANI II/20","Prop. Sumatera Utara","SMA","2.0243000","98.9614000"
"10210876","SMAN 12 MEDAN","JL. CEMPAKA NO. 75","Prop. Sumatera Utara","SMA","3.6134000","98.6258000"
"10210866","SMAS MEDAN PUTRI","JL. TIMOR UJUNG NO.5 MEDAN","Prop. Sumatera Utara","SMA","3.6041000","98.6663000"
"10263512","SMAN 6 PEMATANGSIANTAR","JL. CADIKA NO.15","Prop. Sumatera Utara","SMA","2.9534000","99.0391000"
"10257790","SMAS HKBP LINTONGNIHUTA","JL. OLAHRAGA - LINTONGNIHUTA","Prop. Sumatera Utara","SMA","2.2437000","98.8328000"
"10210923","SMAS SANTO THOMAS 1 MEDAN","JL. LETJEN S. PARMAN NO. 109","Prop. Sumatera Utara","SMA","3.5889000","98.6683000"
"10212417","SMA SWASTA TAMANSISWA","JL. KARTINI NO. 18","Prop. Sumatera Utara","SMA","2.9570000","99.0558000"
"69948537","SMA  NEGERI 1 TANAH MASA","BAWO OFULOA","Prop. Sumatera Utara","SMA",".8377065","97.6374161"
"10264684","SMAS IRAFFLES ","JL. PADANG GOLF KOMPLEK CBD BLOK A NO.60 MEDAN","Prop. Sumatera Utara","SMA","3.5597000","98.6641000"
"10210800","SMAS APIPSU MEDAN","Jalan Gatot Subroto KM.5,5 Gang Rasmi No. 26","Prop. Sumatera Utara","SMA","3.6095000","98.6273000"
"10201316","SMAN 1 BABALAN","JL. MELATI PANGKALAN BRANDAN","Prop. Sumatera Utara","SMA","4.0216000","98.2893000"
"10219133","SMAS KARYA UTAMA MARINDAL","JL. PENDIDIKAN NO. 23 MARINDAL","Prop. Sumatera Utara","SMA","3.5150000","98.7027000"
"69759178","SMAS DIRGANTARA","DUSUN HARUM SARI","Prop. Sumatera Utara","SMA","4.1269000","98.1054000"
"10209422","SMAN 1 BANDAR KHALIPAH","JL. BESAR PAGURAWAN KEC. BANDAR KHALIPAH","Prop. Sumatera Utara","SMA","3.4456000","99.2664000"
"10212025","SMAN 2 TANJUNGBALAI","JL. JEND. SUDIRMAN KM. 4.5 SIJAMBI","Prop. Sumatera Utara","SMA","2.9283000","99.7827000"
"10201363","SMAS HARAPAN","JL. PERDAMAIN 82 PK. BRANDAN","Prop. Sumatera Utara","SMA","3.9950000","98.3505000"
"10209409","SMAN 1 BINTANG BAYU","JL. BINTANG BAYU BANDAR PINANG","Prop. Sumatera Utara","SMA","3.2965000","98.8032000"
"10257745","SMAN 1 TEBING TINGGI","JL. BESAR PAYA MABAR NO. 4","Prop. Sumatera Utara","SMA","3.3510000","99.1664000"
"10214177","SMAS PEMNAS PAGAR MERBAU","Jl. Impres Sukamandi Hilir","Prop. Sumatera Utara","SMA","3.5386000","98.8930000"
"10214181","SMAS RK DELI MURNI DELI TUA","JL. NOGIO VI NO. 117","Prop. Sumatera Utara","SMA","3.4864000","98.6876000"
"10259081","SMAS KATOLIK ST IGNATIUS","JL.BINJAI KM 8,5 PSR V GG. MAKMUR","Prop. Sumatera Utara","SMA","3.6022000","98.6421000"
"10260764","SMAN 1 NAGA JUANG","Komplek Perkantoran Kec. Naga Juang","Prop. Sumatera Utara","SMA",".8715000","99.3270000"
"10201987","SMA NEGERI 1 MUNTE","JL. TIGABINANGA","Prop. Sumatera Utara","SMA","3.0995000","98.3385000"
"10210896","SMAS MULIA MEDAN","JL. KENANGA SARI NO. 33","Prop. Sumatera Utara","SMA","3.5623000","98.6413000"
"10210855","SMAN 21 MEDAN","JL. KRAMAT INDAH/SELAMBO UJUNG","Prop. Sumatera Utara","SMA","3.5527000","98.7263000"
"10220288","SMAS HKBP 2 TARUTUNG","JL. AHMAD YANI II/20","Prop. Sumatera Utara","SMA","2.0242000","98.9602000"
"10210851","SMAN 17 MEDAN","JL. LETJEN JAMIN GINTING KM.13,5","Prop. Sumatera Utara","SMA","3.5708000","98.6101000"
"10205388","SMAN 1 PANAI HILIR","SEI BEROMBANG","Prop. Sumatera Utara","SMA","2.6144000","100.1326000"
"10207069","SMA NEGERI 1 BARUMUN","JL. KH. DEWANTARA NO 43 SIBUHUAN KODE POS: 22763","Prop. Sumatera Utara","SMA","1.0514000","99.7401000"
"10210818","SMAS AL ULUM MEDAN","JL. CEMARA NO.10","Prop. Sumatera Utara","SMA","3.5756000","98.6956000"
"10211526","SMA SWASTA DIPANEGARA TEBING TINGGI","JL. KF. TANDEAN NO. 204 TEBING TINGGI","Prop. Sumatera Utara","SMA","3.3309000","99.1459000"
"10205390","SMAN 1 MERBAU","JL. Besar Marbau No. 25","Prop. Sumatera Utara","SMA","2.3223000","99.8742000"
"10258812","SMAN 1 BAWOLATO","JL. TELUK DALAM KM. 55","Prop. Sumatera Utara","SMA",".9769000","97.8263000"
"10210718","SMA SWASTA BUDI AGUNG","Jl. Platina Raya No. 7A Medan","Prop. Sumatera Utara","SMA","3.7186000","98.6598000"
"10210738","SMAS KESATRIA MEDAN","JL. GEDUNG ARCA NO. 24","Prop. Sumatera Utara","SMA","3.5827000","98.7083000"
"10210857","SMAN 4 MEDAN","JL. GELAS NO. 12","Prop. Sumatera Utara","SMA","3.5968000","98.6553000"
"10210736","SMAS KEBANGSAAN","JL.PERG.TINGGI SWADAYA NO.3 PSR. MERAH","Prop. Sumatera Utara","SMA","3.5891000","98.7193000"
"10212763","SMAN 1 LOLOFITU MOI","JL. NIAS TENGAH KM 44 DESA DURIA KEC.LOLOFITU MOI KAB.NIAS BARAT","Prop. Sumatera Utara","SMA","1.0344000","97.6081000"
"10214161","SMAS ROKITA SARI","JL. KARYA NO.10","Prop. Sumatera Utara","SMA","3.3725000","98.8165000"
"69829547","SMA SWASTA GEMA BUWANA","Jl. Gambir Psr VIII Gg. Adil","Prop. Sumatera Utara","SMA","3.7083160","98.7543080"
"10202662","SMA SWASTA ABDI SEJATI PERDAGANGAN","JL. JENDERAL SUDIRMAN NO.273 PERDAGANGAN","Prop. Sumatera Utara","SMA","3.2746000","99.3069000"
"10210828","SMAS UISU MEDAN","JL. H.BAHRUM JAMIL SH GG. UISU NO. 2","Prop. Sumatera Utara","SMA","3.5930000","98.6946000"
"10210918","SMAS WIYATA DHARMA","JL. WAHIDIN NO.31 MEDAN","Prop. Sumatera Utara","SMA","3.5878000","98.6956000"
"69947387","SMA SWASTA CINTA KASIH MEDAN","JL. SAMA NO. 20 MEDAN","Prop. Sumatera Utara","SMA","3.5925494","98.7108707"
"10220293","SMAN 1 GAROGA","JL. Maruhum Bosar S.T.S. Pasaribu","Prop. Sumatera Utara","SMA","2.1195000","99.3734000"
"10210899","SMAS MAMIYAI AL-ITTIHADIYAH","JL. BROMO NO. 25","Prop. Sumatera Utara","SMA","3.5758000","98.7063000"
"69899275","SMA NEGERI 2 TOMA","DESA HILINDASONIHA","Prop. Sumatera Utara","SMA",".7155000","97.8947000"
"10212247","SMAN 7 PADANG SIDEMPUAN","JL. JENDERAL BESAR A.H. NASUTION","Prop. Sumatera Utara","SMA","1.4082230","99.2812200"
"10259746","SMAS ESA PRAKARSA","JL. BINJAI - KUALA PEKAN SELESAI","Prop. Sumatera Utara","SMA","3.5763000","98.4331000"
"10257811","SMA NEGERI 1 HUTARAJA TINGGI","JL. KELILING NO.14","Prop. Sumatera Utara","SMA","1.0686000","100.0970000"
"10201334","SMAN 1 TANJUNG PURA","JL. SUDIRMAN NO. 52","Prop. Sumatera Utara","SMA","3.8987000","98.4215000"
"10211685","SMAS METHODIST","JL. PANE NO. 34","Prop. Sumatera Utara","SMA","2.9540000","99.0711000"
"10208953","SMAS ST MIKHAEL PANGURURAN","JL. U.A. SUGIOPRANOTO","Prop. Sumatera Utara","SMA","2.6036990","98.7018540"
"10219061","SMAS PAB 5 KLUMPANG","JL. BESAR KLUMPANG","Prop. Sumatera Utara","SMA","3.6647000","98.5921000"
"10214115","SMAS DHARMA KARYA","JL. PANTAI LABU SIDODADI","Prop. Sumatera Utara","SMA","3.6031000","98.8932000"
"10212114","SMAS PGRI 14 SIBOLGA","JL. SISWOMIHARJO NO. 1 SIBOLGA","Prop. Sumatera Utara","SMA","1.7481000","98.7847000"
"10208168","SMAN 1 PANYABUNGAN","JL. SUTAN SORIPADA MULIA","Prop. Sumatera Utara","SMA",".8604000","99.7564000"
"10208725","SMAN 1 LINTONGNIHUTA","JL. PASAR BARU","Prop. Sumatera Utara","SMA","2.2330000","98.8975000"
"10261282","SMA NEGERI 1 SIDUAORI","DESA UMBU SOHAHAU","Prop. Sumatera Utara","SMA",".9010000","97.8809000"
"10205365","SMAN 1 AEK NATAS","JL. LINSUM AEK PAMINGKE","Prop. Sumatera Utara","SMA","2.3624000","99.7388000"
"10210717","SMAS DHARMA PANCASILA","JL. DR. MANSYUR NO. 71 C MEDAN","Prop. Sumatera Utara","SMA","3.5653000","98.6479000"
"10207077","SMAN 1 BATANGTORU","JL.SIBOLGA-AEK PINING BATANGTORU","Prop. Sumatera Utara","SMA","1.4905000","99.0518000"
"10261724","SMAS AS SYAFI IYAH","JL. KARYA WISATA II NO.1","Prop. Sumatera Utara","SMA","3.5404000","98.6595000"
"10220596","SMAN 1 SIEMPAT NEMPU HULU","JL. PENDIDIKAN KM. 11 - SILUMBOYAH","Prop. Sumatera Utara","SMA","2.8257000","98.2638000"
"10204246","SMAS UMUM SENTOSA","JL. BENJAMIN BP. MANDOGE","Prop. Sumatera Utara","SMA","2.7318000","99.2934000"
"10210722","SMAS BUDI SUNGGAL","JL. SUNGGAL NO. 320 MEDAN","Prop. Sumatera Utara","SMA","3.6560000","98.6783000"
"69734112","SMA NEGERI 1 HILISALAWAAHE","DESA HILIADULO","Prop. Sumatera Utara","SMA",".8854000","97.5782000"
"10209393","SMAN 1 SEI BAMBAN","JL. PENDIDIDKAN DS. GEMPOLAN SEI BAMBAN","Prop. Sumatera Utara","SMA","3.6119000","99.0435000"
"69733918","SMAS SATU NUSA","JL. PANDE DINGIN NO. 42","Prop. Sumatera Utara","SMA","3.6064967","98.4863167"
"10204242","SMA SWASTA MITRA INALUM","JL.BERINGIN NO. 1 TG. GADING","Prop. Sumatera Utara","SMA","3.3088000","99.3461000"
"10258535","SMAS ANUGRAH HARAPAN BANGSA","JL. AMD LINGKUNGAN 22 GG. SERASI","Prop. Sumatera Utara","SMA","3.7196460","98.6670490"
"10211534","SMA SWASTA IR. H. DJUANDA","JL. THAMRIN NO. 125","Prop. Sumatera Utara","SMA","3.3299470","99.1579860"
"10208161","SMAN 1 SINUNUKAN","Jl. Lintas Batahan - Sinunukan III","Prop. Sumatera Utara","SMA",".4688000","99.2659000"
"10212248","SMAN 8 PADANG SIDEMPUAN","JL. PERKEBUNAN PIJORKOLING","Prop. Sumatera Utara","SMA","1.3221030","99.3417810"
"10214157","SMAS METHODIST KUTALIMBARU","PERUM BUMI TUNTUNGAN","Prop. Sumatera Utara","SMA","3.4582000","98.5297000"
"10204243","SMAN 1 AIR BATU","JL. PENDIDIKAN","Prop. Sumatera Utara","SMA","2.8205000","99.6007000"
"10210886","SMAS NUR HASANAH MEDAN","JL. GARU I NO. 28 MEDAN","Prop. Sumatera Utara","SMA","3.5530000","98.7249000"
"69899332","SMA NEGERI 1 ULUGAWO","Dusun I Desa Fatodano","Prop. Sumatera Utara","SMA",".9832287","97.8177201"
"10202669","SMA SWASTA SATRYA BUDI PERDAGANGAN","JL. AMAL PERDAGANGAN","Prop. Sumatera Utara","SMA","3.2241000","99.3340000"
"10210903","SMAS METHODIST 2 MEDAN","JL. MH. THAMRIN NO. 96","Prop. Sumatera Utara","SMA","3.5325000","98.6685000"
"10260490","SMAS SRI LANGKAT","JL. MERDEKA NO.10","Prop. Sumatera Utara","SMA","3.9913000","98.4904000"
"10210893","SMAS PADAMU NEGERI MEDAN","MEDAN TENGGARA VII NO.125 MEDAN","Prop. Sumatera Utara","SMA","3.5682000","98.7207000"
"10207080","SMAN 1 SOSA","JL. SISINGAMANGARAJA  NO. 62 PASAR UJUNG BATU","Prop. Sumatera Utara","SMA","1.0431810","99.9420760"
"10207085","SMAN 1 PORTIBI","JL. GUNUNGTUA-BINANGA KM. 9 PURBABANGUN","Prop. Sumatera Utara","SMA","1.5393000","99.7624000"
"10214121","SMA SWASTA KARYA BUNDA","Jl. Vetvur Utama No. 77","Prop. Sumatera Utara","SMA","3.6155000","98.7289000"
"10220883","SMAN 1 PADANG TUALANG","JL. BATANG SERANGAN TANJUNG PUTUS","Prop. Sumatera Utara","SMA","3.8227000","98.2791000"
"10210862","SMAN 9 MEDAN","JL. SEI MATI LABUHAN","Prop. Sumatera Utara","SMA","3.7534000","98.6993000"
"10210798","SMAS ANGKASA 1 LANUD MEDAN","JL. POLONIA UJUNG NO.99","Prop. Sumatera Utara","SMA","3.5643000","98.6626000"
"10203551","SMAN 1 SUMBUL","JL. SM. RAJA ATAS NO. 136 SUMBUL","Prop. Sumatera Utara","SMA","2.6905000","98.4483000"
"10206578","SMAN 1 BARUS","JL. K. S. TUBUN NO. 2","Prop. Sumatera Utara","SMA","2.0126000","98.3977000"
"10220912","SMAS BINA PANCASILA","JL. Tanjung Selamat Padang Tualang","Prop. Sumatera Utara","SMA","3.8600000","98.3046000"
"10211683","SMAS MARS","JL JEND. AHMAD YANI NO. 400","Prop. Sumatera Utara","SMA","2.9673000","99.0760000"
"10200435","SMAS DESA MAJU STM HILIR","DESA NEGARA JL. PROTOKOL","Prop. Sumatera Utara","SMA","3.4011000","98.7417000"
"10212720","SMAS TRISAKTI LAGUBOTI","JL. TRISAKTI NO 26","Prop. Sumatera Utara","SMA","2.3258000","99.1286000"
"10214135","SMAN 1 PANCUR BATU","JL. JAMIN GINTING No. 22 PANCURBATU","Prop. Sumatera Utara","SMA","3.4724000","98.5969000"
"10263528","SMAS NASIONAL PLUS CINTABUDAYA / CHONG WEN","JL. WILLIEM ISKANDAR / PANCING, KOMPLEKS MMTC NO. 1 BLOK CINTA BUDAYA","Prop. Sumatera Utara","SMA","3.6285000","98.7182000"
"69946659","SMAN 2 MANDREHE UTARA","Dusun II Desa Ononamolo II","Prop. Sumatera Utara","SMA","1.0724242","97.5132633"
"10214182","SMAS RK DELI MURNI SIBOLANGIT","JL. DJAMIN GINTING KM. 47","Prop. Sumatera Utara","SMA","3.2668000","98.5452000"
"69728736","SMAN 2 KAMPUNG RAKYAT","DESA TELUK PANJI","Prop. Sumatera Utara","SMA","1.9310000","100.2574000"
"10220225","SMAS YAPIM BIRU-BIRU","JL. BIRU-BIRU","Prop. Sumatera Utara","SMA","3.3197000","98.6343000"
"10210880","SMAS LETJEND HARYONO MT","JL.PINANG BARIS II GG. SEKATA","Prop. Sumatera Utara","SMA","3.6786000","98.7008000"
"10211314","SMAS PABA BINJAI","JL. PADANG SIDEMPUAN NO. 8 BINJAI","Prop. Sumatera Utara","SMA","3.5940000","98.4873000"
"10202766","SMA NEGERI 1 BOSAR MALIGAS","Jl. Kapten Kahar Sinaga No. 13 Pasar Baru","Prop. Sumatera Utara","SMA","3.0935000","99.3892000"
"10220295","SMAN 1 SIPAHUTAR","JL. PANGARIBUAN SIPAHUTAR","Prop. Sumatera Utara","SMA","2.0522000","99.0985000"
"10210926","SMAS PRAYATNA MEDAN","JL. LETDA SUJONO NO. 403","Prop. Sumatera Utara","SMA","3.6352000","98.7035000"
"10203524","SMAN 1 PARBULUAN","JL. SM RAJA KM 20 SIGALINGGING","Prop. Sumatera Utara","SMA","2.6648000","98.4411000"
"10211704","SMAN 2 PEMATANG SIANTAR","JL. PATUAN ANGGI NO 8","Prop. Sumatera Utara","SMA","2.9841000","99.0600000"
"10220598","SMAS PARULIAN BALNA","JL. SILEUH -LEUH BALNA","Prop. Sumatera Utara","SMA","2.7143000","98.4667000"
"10210795","SMAS AMAL BAKTI","JL. KAYU PUTIH NO. 32 MABAR","Prop. Sumatera Utara","SMA","3.6686000","98.6953000"
"10257594","SMAN 2 PLUS PANYABUNGAN","Jl. Prof.Dr.Andi Hakim Nst. Panyabungan","Prop. Sumatera Utara","SMA",".8296000","99.5510000"
"69900016","SMA SWASTA SEHATI","Dusun III","Prop. Sumatera Utara","SMA","3.5683000","98.9865000"
"10211709","SMAS SURYA MURNI","JL. MELANTHON SIREGAR","Prop. Sumatera Utara","SMA","2.9415000","99.0702000"
"69946952","SMA NEGERI 4 SUSUA","Desa Hilidanayao","Prop. Sumatera Utara","SMA",".7687021","97.7789940"
"10214154","SMAS PERSIAPAN SUNGGAL","JL. JOHOR SEI MENCIRIM","Prop. Sumatera Utara","SMA","3.5612000","98.5641000"
"10210844","SMA SWASTA SUPRIYADI MEDAN","JL. LETJEN TB. SIMATUPANG NO. 81 MEDAN","Prop. Sumatera Utara","SMA","3.5925000","98.6090000"
"10261242","SMAS ISLAM TERPADU DAAR ULUM","JL. MAHONI KISARAN","Prop. Sumatera Utara","SMA","2.9885000","99.6200000"
"10210723","SMAS BUDI UTOMO","JL. JURUNG NO. 33","Prop. Sumatera Utara","SMA","3.6618000","98.6869000"
"10208950","SMAN 1 PANGURURAN","JL. DR. HADRIANUS SINAGA","Prop. Sumatera Utara","SMA","2.5730000","98.7435000"
"69762757","SMAS YAPIM TARUNA PANDAN","JL. AHMAD YANI PANDAN","Prop. Sumatera Utara","SMA","1.6633000","98.8347000"
"10210854","SMAN 20 MEDAN","Jalan Besar Bagan Deli","Prop. Sumatera Utara","SMA","3.7743000","98.7055000"
"10206579","SMAN 1 MANDUAMAS","JL. SM RAJA MANDUAMAS","Prop. Sumatera Utara","SMA","2.1386000","98.2731000"
"10208956","SMAS HKBP PANGURURAN","JL. GEREJA NO. 9 A","Prop. Sumatera Utara","SMA","2.6097000","98.6952000"
"10220887","SMAS TPI BESILAM","JL. EMPLASMEN KEBUN BASILAM","Prop. Sumatera Utara","SMA","3.7198000","98.3951000"
"10259677","SMAN 1 RONGGURNIHUTA","JL. SALAON","Prop. Sumatera Utara","SMA","2.6253000","98.7694000"
"10202764","SMA NEGERI 1 DOLOK PANRIBUAN","JL. BESAR PARAPAT TIGA DOLOK","Prop. Sumatera Utara","SMA","2.8064000","99.0270000"
"10210916","SMAS SAMUEL MEDAN","JL. SELAM NO. 17","Prop. Sumatera Utara","SMA","3.5571000","98.7272000"
"10201991","SMA NEGERI 1 TIGAPANAH","JL. Tigapanah No. 121","Prop. Sumatera Utara","SMA","3.0811797","98.5153105"
"10258249","SMA NEGERI 1 MANIAMOLO","Desa Samadaya Hilisimaetan0","Prop. Sumatera Utara","SMA",".7036000","97.8335000"
"10210887","SMAS NURANI","JL. KAKAP 2 BELAWAN","Prop. Sumatera Utara","SMA","3.7802000","98.6896000"
"10205369","SMAS BINTANG TIMUR RANTAUPRAPAT","JL. CUT MEUTIA UJUNG RANTAUPRAPAT","Prop. Sumatera Utara","SMA","2.1043000","99.8163000"
"10202763","SMA NEGERI 1 DOLOK PARDAMEAN","JL. TIGARAS SIPINTUANGIN","Prop. Sumatera Utara","SMA","2.7197000","98.9671000"
"10258023","SMAS KATOLIK TRI SAKTI","JL. MEDAN TENGGARA GG. BANTENG 21","Prop. Sumatera Utara","SMA","3.6811000","98.6922000"
"10210909","SMAS MUHAMMADIYAH 01 MEDAN","JL. UTAMA NO. 170","Prop. Sumatera Utara","SMA","3.5844000","98.7040000"
"10202652","SMA SWASTA CR DUYNHOVEN","JL. KABAN JAHE NO. 50","Prop. Sumatera Utara","SMA","3.0584000","98.8633000"
"10208057","SMAN 1 TAMBANGAN","JL. MEDAN PADANG","Prop. Sumatera Utara","SMA",".7383000","99.5972000"
"10202002","SMA SWASTA KATOLIK KABANJAHE","JL.IRIAN KABAJAHE","Prop. Sumatera Utara","SMA","3.0955267","98.4819600"
"10210745","SMAS KARTIKA 1-2 MEDAN","JL. BRIGJEN H.A MANAF LUBIS","Prop. Sumatera Utara","SMA","3.6026540","98.6208470"
"10261565","SMA SWASTA AL -  ABDI BAH LIAS","JL. KUALA TANJUNG POND. TENGAH BAH LIAS","Prop. Sumatera Utara","SMA","3.1665000","99.3449000"
"69947033","SMAN 3 MANDREHE UTARA","Dusun I Balodano","Prop. Sumatera Utara","SMA","1.1266396","97.5073489"
"10210755","SMAS ISLAM AZIZI","JL. KESATRIA NO. 70 MEDAN","Prop. Sumatera Utara","SMA","3.6267000","98.6865000"
"10210797","SMAS AN NIZAM","JL. PERJUANGAN / TUBA II NO. 62","Prop. Sumatera Utara","SMA","3.7383000","98.6559000"
"10220878","SMAN 1 SOSOPAN","JL. ABDUL HAKIM SOSOPAN","Prop. Sumatera Utara","SMA","1.2263000","99.4993000"
"10209429","SMAS SADAR NAGARAJA","JL. BESAR NAGARAJA SIPISPIS","Prop. Sumatera Utara","SMA","3.1998000","99.0283000"
"10208701","SMAN 1 POLLUNG","JL. PANSURBATU NO. 3 HUTAPAUNG","Prop. Sumatera Utara","SMA","2.3912000","98.7274000"
"10200432","SMA SWASTA MASEHI NAMORAMBE","JL. SAMURA","Prop. Sumatera Utara","SMA","3.4875000","98.6557000"
"10204256","SMAS MUHAMMADIYAH 8 KISARAN ASAHAN","JL. MADONG LUBIS NO. 8 KISARAN","Prop. Sumatera Utara","SMA","3.0059000","99.6357000"
"10257279","SMAS PABA SECANGGANG","JL. SECANGGANG P.BARU TANJUNG IBUS","Prop. Sumatera Utara","SMA","3.8792000","98.4975000"
"10218968","SMAS TAMAN SISWA LUBUK PAKAM","JL. KARTINI NO.1 LUBUK PAKAM","Prop. Sumatera Utara","SMA","3.5579000","98.8791000"
"10258036","SMA NEGERI 1 GUNUNGSITOLI UTARA","JL. Tafaeri Menuju Desa Hambawa Km. 14.3 Gunungsitoli Utara","Prop. Sumatera Utara","SMA","1.3717000","97.4866000"
"10259747","SMAS PANCA KARYA","JL. WONOSARI NO. 1 PERDAMAIAN","Prop. Sumatera Utara","SMA","3.7757000","98.4731000"
"10259717","SMAN 1 WAMPU","JL. T. M. DAUD","Prop. Sumatera Utara","SMA","3.7611000","98.3453000"
"10210836","SMAS SUTOMO 2","JL. DELI INDAH IV NO. 6","Prop. Sumatera Utara","SMA","3.6300000","98.6653000"
"10260099","SMAN 2 DOLOKSANGGUL","JL. PAKKAT KM. 5","Prop. Sumatera Utara","SMA","2.1895000","98.4141000"
"69935225","SMA Negeri 1 Sitolu Ori","Desa Hilisaloo","Prop. Sumatera Utara","SMA","1.4500902","97.3619807"
"69888490","SMA SWASTA AL - FATTAH","Dusun II","Prop. Sumatera Utara","SMA","3.8165050","98.6499460"
"10210721","SMAS BUDISATRYA","JL. LETDA SUJONO NO. 166","Prop. Sumatera Utara","SMA","3.6163000","98.6975000"
"10203517","SMAS BUKIT CAHAYA SIDIKALANG","JL. MAKMUR NO. 10 SIDIKALANG","Prop. Sumatera Utara","SMA","2.7419000","98.3176000"
"10257679","SMAN 1 PANYABUNGAN SELATAN","JL. WILLEM ISKANDAR","Prop. Sumatera Utara","SMA",".7849000","99.5794000"
"10211303","SMAS LANGKAT","JL. SISINGAMANGARAJA NO. 21 BINJAI","Prop. Sumatera Utara","SMA","3.6443000","98.4824000"
"10260949","SMA SWASTA YAPIM TARUNA MEREK","JL.LINTAS MEREK SARIBUDOLOK","Prop. Sumatera Utara","SMA","2.9534160","98.4493020"
"69947019","SMA NEGERI 2 MUARA BATANG GADIS","LUBUK KAUNDUNG","Prop. Sumatera Utara","SMA","1.0681944","99.0095477"
"10210743","SMAS KRISTEN KALAM KUDUS","JL.MAYANG NO.10","Prop. Sumatera Utara","SMA","3.6062000","98.6498000"
"10212131","SMAN 3 SIBOLGA","JL. LETJEN R. SUPRAPTO NO. 65 SIBOLGA","Prop. Sumatera Utara","SMA","1.7377000","98.7817000"
"10202790","SMA NEGERI 1 SILIMAKUTA","SILIMAKUTA","Prop. Sumatera Utara","SMA","2.9577000","98.5581000"
"10204059","SMAN 2 MERANTI","JL. GEREJA DSN VIII KEC. MERANTI","Prop. Sumatera Utara","SMA","3.0152000","99.6400000"
"10210858","SMAN 5 MEDAN","JL. PELAJAR NO. 17","Prop. Sumatera Utara","SMA","3.5897000","98.7036000"
"10212099","SMAS MUHAMMADIYAH 15 SIBOLGA","JL D E S BUNGARAN PANGGABEAN SIBOLGA","Prop. Sumatera Utara","SMA","1.7322870","98.8045310"
"10211687","SMAS KARTIKA 1-4","JL. KARTINI NO. 8","Prop. Sumatera Utara","SMA","2.9687000","99.0658000"
"10258317","SMAN 1 MANDREHE","DESA FADORO","Prop. Sumatera Utara","SMA","1.0752000","97.5460000"
"10260770","SMAS SULTAN HASANUDDIN","JL. GHAZALI KARIM NO.48","Prop. Sumatera Utara","SMA","2.5310000","99.7546000"
"69786965","SMAN 2 PANGKATAN","JLN.BESAR TANJUNG HARAPAN PANGKATAN","Prop. Sumatera Utara","SMA","2.1804000","99.9818000"
"69761850","SMAN 2 TORGAMBA","DUSUN AEK BATU, DESA ASAM JAWA","Prop. Sumatera Utara","SMA","1.8565000","100.1578000"
"10210934","SMAS PGRI 12 MEDAN","JL. KAPT. RAHMAT BUDDIN","Prop. Sumatera Utara","SMA","3.7112000","98.6426000"
"10257998","SMAS SANIAH","DUSUN VII AEK SONGSONGAN","Prop. Sumatera Utara","SMA","2.6443000","99.5472000"
"10204235","SMAS ASAHAN KISARAN","JL. SYEH SILAU NO. 1 KISARAN","Prop. Sumatera Utara","SMA","2.9804000","99.6384000"
"69786964","SMAN 2 BILAH HULU","JALINSUM DESA PEMATANG SELENG AEK NABARA","Prop. Sumatera Utara","SMA","2.0828000","100.0324000"
"10263535","SMAN 4 SIBOLGA","JL. JEND. SUDIRMAN NO. 75 SIBOLGA","Prop. Sumatera Utara","SMA","1.7310870","98.8039490"
"10211311","SMAS SATRIA","JL.SOEKARNO HATTA KM 19,5 BINJAI","Prop. Sumatera Utara","SMA","3.6092000","98.5156000"
"10220770","SMAN 1 SIMANGAMBAT","Jln Desa Ulak Tano","Prop. Sumatera Utara","SMA","1.4501000","99.9354000"
"10210873","SMAN 1 MEDAN","JL. TEUKU CIK DITIRO NO. 1 MEDAN","Prop. Sumatera Utara","SMA","3.5813000","98.6696000"
"10206130","SMAN 1 MUARA","JL. GEREJA NO. 51","Prop. Sumatera Utara","SMA","2.3325000","98.8905000"
"10210907","SMAS METHODIST 4 MEDAN","Jl. Pekong No. 31 Polonia - Medan","Prop. Sumatera Utara","SMA","3.5584000","98.6606000"
"69889120","SMA SWASTA MAARIF","PASAR SORKAM KECAMATAN SORKAM BARAT","Prop. Sumatera Utara","SMA","1.9347583","98.5791267"
"10201330","SMAN 1 GEBANG","JL. DIPONOGORO","Prop. Sumatera Utara","SMA","3.9515000","98.3678000"
"10211702","SMAN 4 PEMATANG SIANTAR","JL. PATTIMURA NO 1","Prop. Sumatera Utara","SMA","2.9608000","99.0734000"
"69938806","SMA Negeri 2 Alasa","Desa Loloanaa","Prop. Sumatera Utara","SMA","1.2489010","97.3546132"
"10209412","SMAS MIFTAHUL IRSYAD","JL. BESAR DS. MANGGA DUA","Prop. Sumatera Utara","SMA","3.5222000","99.1623000"
"10260259","SMAS SWADAYA","JL. LIMO MIRI BULU CINA","Prop. Sumatera Utara","SMA","3.7025000","98.5710000"
"10205367","SMAS TASIK RAJA","DESA BUKIT TUJUH","Prop. Sumatera Utara","SMA","1.7825000","100.2866000"
"10262274","SMAS GENERUS BANGSA","JL.GLUGUR KOTA","Prop. Sumatera Utara","SMA","3.5534000","98.5370000"
"10258260","SMA NEGERI 1 LAHUSA","DESA BAWOOTALUA","Prop. Sumatera Utara","SMA",".7482000","97.8843000"
"10209424","SMAS TELADAN","JL. MEDAN -TEBING TINGGI","Prop. Sumatera Utara","SMA","3.4883000","99.1348000"
"10257747","SMAS TAMAN SISWA","JL. NAGARAJA","Prop. Sumatera Utara","SMA","3.1364000","99.0009000"
"10211302","SMAS INSANI","JL. KOMPOR NO. 27 BINJAI","Prop. Sumatera Utara","SMA","3.6566000","98.4899000"
"10259664","SMAS ISKANDAR BATANG KUIS","JL.PENDIDIKAN BATANG KUIS","Prop. Sumatera Utara","SMA","3.6549000","98.8168000"
"10201988","SMA NEGERI 1 TIGANDERKET","JL. PENDIDIKAN, TIGANDERKET","Prop. Sumatera Utara","SMA","3.1344000","98.3695000"
"10259295","SMAS DOREMA","JL.BINJAI KM 7,5 / JL.PUSKESMAS NO.10 B","Prop. Sumatera Utara","SMA","3.5724000","98.6106000"
"10259074","SMAS BANI ADAM AS","JL.MANGAN III PSR 2 NO. 216","Prop. Sumatera Utara","SMA","3.6815000","98.6664000"
"10262181","SMAN 1 SITIOTIO","SABULAN","Prop. Sumatera Utara","SMA","2.4256000","98.7775000"
"10220645","SMAS ABDI UTAMA","JL. KH. DEWANTARA","Prop. Sumatera Utara","SMA","1.0450000","99.7036000"
"10260057","SMAN 1 AEK KUO","JL. PADANG HALABAN","Prop. Sumatera Utara","SMA","2.3799000","99.8485000"
"10204251","SMAS SWADAYA PULAU RAKYAT","JL. YASPENDA NO. 37 PULAU RAKYAT","Prop. Sumatera Utara","SMA","2.7672000","99.7742000"
"10259744","SMAS HARAPAN BANGSA","JL. BINJAI - KUALA KM 18,5","Prop. Sumatera Utara","SMA","3.4524000","98.3427000"
"10202774","SMA NEGERI 1 SIDAMANIK","JL. BESAR SIDAMANIK","Prop. Sumatera Utara","SMA","2.8569000","98.9096000"
"10210939","SMAS SANTO THOMAS 2 MEDAN","JL. LETJEN S. PARMAN NO. 107","Prop. Sumatera Utara","SMA","3.5888000","98.6686000"
"10208074","SMAN 1 BATAHAN","JL. PEMBANGUNAN NO.80","Prop. Sumatera Utara","SMA",".4113000","99.3154000"
"10210901","SMAS MAYJEND SUTOYO SM","JL. BANGAU NO. 2 MEDAN","Prop. Sumatera Utara","SMA","3.5924000","98.6281000"
"10202657","SMA SWASTA BUDI UTOMO","BAH GUNUNG","Prop. Sumatera Utara","SMA","3.0891000","99.1868000"
"10214137","SMAN 1 SIBOLANGIT","JL. LETJEN JAMIN GINTING","Prop. Sumatera Utara","SMA","3.2700000","98.5488000"
"10220218","SMAN 1 SUNGGAL","JL. Sei Mencirim - Sei Semayang","Prop. Sumatera Utara","SMA","3.5914000","98.5514000"
"69786708","SMA SWASTA SWADAYA TINGGI RAJA","Jalan Teratai Desa Tinggi Raja","Prop. Sumatera Utara","SMA","2.9118000","99.5514000"
"10208952","SMAS ST PETRUS URAT","URAT TIMUR","Prop. Sumatera Utara","SMA","2.5328000","98.7311000"
"10214143","SMAS NURUL HASANAH TEMBUNG","JL. AMAL BAKTI TEMBUNG","Prop. Sumatera Utara","SMA","3.6170000","98.7369000"
"10263538","SMAS UNGGUL DEL","JL. SISINGAMANGARAJA","Prop. Sumatera Utara","SMA","2.3815000","99.1503000"
"10261027","SMA SWASTA INDONESIA MEMBANGUN TARUNA","JL. RAJAMIN PURBA","Prop. Sumatera Utara","SMA","3.1652000","99.3549000"
"10202680","SMA SWASTA KARYA SIMANTIN","SIMANTIN PANE DAME","Prop. Sumatera Utara","SMA","2.9162000","98.8983000"
"69899431","SMA NEGERI 1 STM HILIR","JL PENDIDIKAN DUSUN I TALUN KENAS","Prop. Sumatera Utara","SMA","3.4753000","98.7455000"
"10258271","SMA NEGERI 1 ONOHAZUMBA","JL. ARAH NIAS TENGAH KM. 58","Prop. Sumatera Utara","SMA","1.0042000","97.5498000"
"69905728","SMA NEGERI 1 PURBATUA","DESA JANJINAULI","Prop. Sumatera Utara","SMA","1.7149677","99.1097761"
"10220611","SMAN 2 TUKKA","JL. K.H. ZAINUL ARIFIN TUKKA LESTARI","Prop. Sumatera Utara","SMA","1.6602000","98.9197000"
"10258492","SMAS ETISLANDIA","JL. GAPERTA UJUNG GG. BERKAT NO.32","Prop. Sumatera Utara","SMA","3.6093140","98.6237140"
"10258330","SMAN 1 MANDREHE UTARA","JL. DESA LAHAGU","Prop. Sumatera Utara","SMA","1.1061000","97.5076000"
"69822698","SMAS BARMA","jl.besar deli tua biru-biru desa kutomulyo","Prop. Sumatera Utara","SMA","3.3807000","98.6725000"
"10212244","SMAN 4 PADANG SIDEMPUAN","JL. SUTAN SORIPADA MULIA NO. 38","Prop. Sumatera Utara","SMA","1.3956000","99.2574000"
"10204084","SMAN 1 BP MANDOGE","JL. BESAR DESA SUKA MAKMUR","Prop. Sumatera Utara","SMA","2.7720000","99.3644000"
"10212246","SMAN 6 PADANG SIDEMPUAN","JL. SULTAN SORIPADA MULIA NO. 25 A","Prop. Sumatera Utara","SMA","1.3957000","99.2574000"
"10259099","SMAN 1 LAHOMI","ONOLIMBU-LAHOMI","Prop. Sumatera Utara","SMA",".9922000","97.4939000"
"10201990","SMA NEGERI 1 TIGABINANGA","JL. KOTACANE TIGABINANGA","Prop. Sumatera Utara","SMA","3.0721000","98.2372000"
"69733775","SMAS INDONESIA MEMBANGUN TARUNA MARELAN","JL. MARELAN I PASAR IV BARAT","Prop. Sumatera Utara","SMA","3.7274000","98.6473000"
"10210819","SMAS AL WASHLIYAH 1 MEDAN","JL. SISINGAMANGARAJA KM. 5,5","Prop. Sumatera Utara","SMA","3.5912000","98.6852000"
"10210879","SMAS SANTO THOMAS 3 MEDAN","JL. GATOT SUBROTO GG. BANTENG NO. 7","Prop. Sumatera Utara","SMA","3.5957160","98.6443420"
"10211541","SMA SWASTA SURYA NUSANTARA","JALAN PROF. HM. YAMIN, SH NO. 1","Prop. Sumatera Utara","SMA","3.3710000","99.1574000"
"10205364","SMAN 1 BILAH HILIR","JL. PENDIDIKAN NEGERILAMA","Prop. Sumatera Utara","SMA","2.5000000","100.0767000"
"10258748","SMAS DARMA PUTRA","JL. BESAR DESA PIASA ULU","Prop. Sumatera Utara","SMA","2.8077000","99.5348000"
"10261318","SMAN 2 KOTAPINANG","JL. LAPANGAN BOLA MAMPANG","Prop. Sumatera Utara","SMA","1.9260000","100.1383000"
"69840942","SMA SWASTA TUNAS BANGSA","JL. MAKMUR NO. 64 PASAR VII","Prop. Sumatera Utara","SMA","3.6143980","98.7869100"
"10212200","SMAS NURUL ILMI","JL. BM MUDA NO. 05 PSP","Prop. Sumatera Utara","SMA","1.3633420","99.2813960"
"10210924","SMAS RAKSANA","JL. GAJAH MADA NO. 20","Prop. Sumatera Utara","SMA","3.5849000","98.6633000"
"10214153","SMAS PELITA BULU CINA","JL. EMPLASMEN BULU CINA","Prop. Sumatera Utara","SMA","3.7018000","98.5713000"
"10220215","SMAS METHODIST PANCUR BATU","JL. JAMIN GINTING NO 36","Prop. Sumatera Utara","SMA","3.4879000","98.5978000"
"10205373","SMAS PELITA AEKKANOPAN","JL. JENDERAL SUDIRMAN UJUNG AEKKANOPAN","Prop. Sumatera Utara","SMA","2.5695000","99.5936000"
"10206133","SMAN 1 PANGARIBUAN","JL. Sisingamangaraja DESA PAKPAHAN","Prop. Sumatera Utara","SMA","2.0118000","99.1557000"
"69946957","SMA NEGERI 2 HILIMEGAI","Desa Hilitoese","Prop. Sumatera Utara","SMA",".8536086","97.7724266"
"10204064","SMAN 1 KISARAN","JL. MADONG LUBIS NO. 5 KISARAN","Prop. Sumatera Utara","SMA","2.9896000","99.6427000"
"10261760","SMAS AL FITYAN","JL. KELUARGA LINGKUNGAN IX","Prop. Sumatera Utara","SMA","3.5713000","98.6247000"
"10206586","SMAS SW BUDI MULIA","DESA TUMBA JAE","Prop. Sumatera Utara","SMA","2.1574000","98.1948000"
"10261297","SMA NEGERI 1 ULUNOYO","Orahili Ulunoyo","Prop. Sumatera Utara","SMA",".8716000","97.6790000"
"10260628","SMAS ALWASLIYAH TANJUNG MORAWA","Jl. Bandar Labuhan","Prop. Sumatera Utara","SMA","3.5008000","98.7986000"
"10202672","SMA SWASTA PGRI-29 PERUMNAS Bt.6 Simalungun","JL. MAHONI RAYA NO. 04 PERUMNAS Bt. 6","Prop. Sumatera Utara","SMA","2.9725000","99.1321000"
"10214132","SMAN 1 GALANG","JL. Mawar II No.1 Kompleks Galinda","Prop. Sumatera Utara","SMA","3.4212000","98.9052000"
"10200443","SMAS SERDANG PANTAI LABU","JL. DUSUN I PANTAI LABU","Prop. Sumatera Utara","SMA","3.6600000","98.8965000"
"69883509","SMA SWASTA AR RASYID ASAHAN","JALAN SINGA LK. II SEI RENGGAS","Prop. Sumatera Utara","SMA","2.9923400","99.5935920"
"10202759","SMA NEGERI 1 RAYA","JL. SUTOMO NO. 68 RAYA","Prop. Sumatera Utara","SMA","2.9685550","98.8614200"
"10211533","SMA SWASTA F. TANDEAN","JL. SUTOMO 28 A TEBING TINGGI","Prop. Sumatera Utara","SMA","3.3278000","99.1629000"
"10214179","SMAS PGRI 37 BATANG KUIS","JL. AMPERA NO.219","Prop. Sumatera Utara","SMA","3.5856000","98.8139000"
"10210933","SMAS PGRI 1 MEDAN","JL. D. I. PANJAITAN NO. 89","Prop. Sumatera Utara","SMA","3.6124000","98.6408000"
"69734187","SMA SWASTA KEJAYAAN INDONESIA","JL. MAYJEN SUTOYO","Prop. Sumatera Utara","SMA","3.6119000","98.4486000"
"10261485","SMAS DEWANTARA PUTRA","JL. PROTOKOL DUSUN I","Prop. Sumatera Utara","SMA","3.5726000","98.2684000"
"10207066","SMAN 1 BATANG ONANG","PASAR MATANGGOR","Prop. Sumatera Utara","SMA","1.3651000","99.4181000"
"10220289","SMAS SWT HKBP BUTAR","JL. BUTAR","Prop. Sumatera Utara","SMA","2.1656000","98.9565000"
"10220545","SMAN 1 SIBORONGBORONG","JL. SM. RAJA SIBORONGBORONG NO.153","Prop. Sumatera Utara","SMA","2.2054000","98.9729000"
"10239051","SMAN 1 SITU JULU","JL. LAELANGGE STTU JULU","Prop. Sumatera Utara","SMA","2.6738000","98.1659000"
"10215250","SMAN 1 PALIPI","JL. RAYA SAOR NAULI HATOGUAN","Prop. Sumatera Utara","SMA","2.5050000","98.7838000"
"69899333","SMA NEGERI 2 BAWOLATO","Jalan Gomo Desa Siofabanua","Prop. Sumatera Utara","SMA",".9760484","97.8994480"
"10261532","SMA UNGGULAN CT FOUNDATION","KOMPLEKS RUMAH ANAK MADANI JL. VETERAN PSR VII","Prop. Sumatera Utara","SMA","3.7947000","98.5881000"
