"schoolId","schoolName","schoolAddress","province","school_level","lat","long"
"69883646","SMA DEK","Jl. AR.Hakim No.63","Prop. Sumatera Barat","SMA","-.9529140","100.3562580"
"10307602","SMAN 3 LENGAYANG","JL. KOTO BARU","Prop. Sumatera Barat","SMA","-1.6741000","100.7638000"
"10308151","SMAS YDB LUBUK ALUNG","JL.  PULAU JANTUNG INDAH","Prop. Sumatera Barat","SMA","-.6843000","100.3473000"
"10308163","SMAN 1 KOTO XI TARUSAN","JL. SABAH NAN ALUIH,KAPUH","Prop. Sumatera Barat","SMA","-1.0755000","100.4494000"
"10301187","SMAN 1 GUGUAK","JL. TAN MALAKA","Prop. Sumatera Barat","SMA","-.1247000","100.5618000"
"69774852","SMAN 1 Koto Salak","Pulau Mainan","Prop. Sumatera Barat","SMA","-1.1478000","101.7548000"
"69809506","SMA NEGERI 2 SIKAKAP","DESA TAIKAKO","Prop. Sumatera Barat","SMA","-2.7923000","100.1060000"
"10305570","SMAN 2 SUNGAI LIMAU","JL. SITIMANGGOPOH SUNGAI SIRAH","Prop. Sumatera Barat","SMA","-.5446000","100.0837000"
"10305561","SMAN 1 ENAM LINGKUNG","JL. PADANG BUKIT TINGGI  KM 40","Prop. Sumatera Barat","SMA","-.6412000","100.3423000"
"10302015","SMAN 1 PANCUNG SOAL","JL. SIMPANG BEROK","Prop. Sumatera Barat","SMA","-1.9924000","100.9500000"
"10302806","SMAN 4 SIJUNJUNG","JL. PADANG SIBUSUK SELATAN","Prop. Sumatera Barat","SMA","-.7083000","100.8296000"
"10307527","SMAN 5 BUKITTINGGI","JL. NJ. DT. MANGKUTO AMEH","Prop. Sumatera Barat","SMA","-.3011220","100.3934350"
"10303377","SMAN 4 SOLOK SELATAN","JL. RAYA KOTO BARU MUARA  LABUH","Prop. Sumatera Barat","SMA","-1.4883000","101.0607000"
"10303471","SMAS ISLAM LIGA DAKWAH SUMATERA BARAT","Jl. By Pass Km. 18 Padang","Prop. Sumatera Barat","SMA","-.8347000","100.3264000"
"10304873","SMAN 1 TIMPEH","JL TRI MULYA","Prop. Sumatera Barat","SMA","-.9753000","101.6842000"
"10308260","SMAN 2 RANAH PESISIR","JL. PADANG SIRIH","Prop. Sumatera Barat","SMA","-1.8467000","100.8367000"
"10302981","SMAN 1 PAGAI UTARA SELATAN","JL. SIKAKAP","Prop. Sumatera Barat","SMA","-2.7885000","100.1741000"
"60724954","SMAS MUCHTAR ISLAMIC","JL.PAHLAWAN NO.7 LABUAH BASILANG PAYAKUMBUH","Prop. Sumatera Barat","SMA","-.2358000","100.6395000"
"10305563","SMAN 1 PADANG SAGO","JL. RAYA LB NAPA PD SAGO","Prop. Sumatera Barat","SMA","-.5429000","100.2432000"
"10302788","SMAN 7 SIJUNJUNG","TANJUNG AMPALU","Prop. Sumatera Barat","SMA","-.6114000","100.8480000"
"10301791","SMAN 1 BATANG ANAI","JL. DWI WARNA NO. 59","Prop. Sumatera Barat","SMA","-.7405000","100.3136000"
"10309885","SMAS PLUS SETIA","TUA PEJAT","Prop. Sumatera Barat","SMA","-2.0475000","99.5712000"
"10303090","SMA N 1 PASAMAN","JL. KIHAJAR DEWANTARA","Prop. Sumatera Barat","SMA",".1101000","99.8233000"
"10300298","SMA NEGERI 1 IV KOTO","JL. KOTO TUO","Prop. Sumatera Barat","SMA","-.3417000","100.3526000"
"10300297","SMA NEGERI 1 BASO","JL. RAYA BASO KM 13 BUKITTINGGI","Prop. Sumatera Barat","SMA","-.2822000","100.4786000"
"10306085","SMA N 1 LUHAK NAN DUO","JL. LINTAS SIMPANG EMPAT MANGGOPOH KM. 08 SARIAK","Prop. Sumatera Barat","SMA",".0052000","99.8230000"
"10302477","SMAN 1 LINTAU BUO","CUBADAK RANDAH - TANJUNG BONAI","Prop. Sumatera Barat","SMA","-.4082000","100.7320000"
"69949639","SMA S ISLAM CENDEKIA","JORONG LUBUAK PUDIANG, NAGARI KAPA","Prop. Sumatera Barat","SMA",".0232476","99.8337712"
"10302019","SMAN 2 LENGAYANG","JL. LAKITAN","Prop. Sumatera Barat","SMA","-1.7113000","100.7967000"
"10302403","SMAN 2 SUNGAI TARAB","BABUSSALAM","Prop. Sumatera Barat","SMA","-.3714000","100.5347000"
"10300301","SMA NEGERI 1 MATUR","JL. MATUR-PALEMBAYAN","Prop. Sumatera Barat","SMA","-.2818000","100.2849000"
"10310901","SMAN 2 SUTERA","KAMPUNG PADANG TAE NAGARI AMPING PARAK","Prop. Sumatera Barat","SMA","-1.5623000","100.6593000"
"10304891","SMA MUHAMMADIYAH TIKU","JL. JAWI - JAWI PASAR TIKU","Prop. Sumatera Barat","SMA","-.3979840","99.9197360"
"10307530","SMAS PSM","JL. D. A RIVA I NO. 17","Prop. Sumatera Barat","SMA","-.3025920","100.3653630"
"10303779","SMAN 3 SOLOK","JL. AK GANI GURUN BAGAN","Prop. Sumatera Barat","SMA","-.7789000","100.6407000"
"69903388","SMA NEGERI 1 PAGAI UTARA","Saumangayak","Prop. Sumatera Barat","SMA","-2.7936000","100.0312000"
"10303086","SMA N 1 GUNUNG TULEH","JL.LINTAS PARAMAN AMPALU - SIMPANG TIGA ALIN","Prop. Sumatera Barat","SMA",".3013480","99.6787960"
"10300835","SMAS IMAM BONJOL","KAMPUNG BARU NO 170","Prop. Sumatera Barat","SMA",".0498000","100.0768000"
"10302011","SMAN 1 LINGGO SARI BAGANTI","JL. PASAR LAMA","Prop. Sumatera Barat","SMA","-1.9218000","100.8732000"
"10302397","SMAN 1 SALIMPAUNG","JL. RAYA TABEK PATAH","Prop. Sumatera Barat","SMA","-.3210000","100.5338000"
"10303467","SMAS DON BOSCO","JL. KHAIRIL ANWAR NO 8","Prop. Sumatera Barat","SMA","-.9547000","100.3562000"
"69754608","SMAS HUDAYA","LIMAU MANIS","Prop. Sumatera Barat","SMA","-.9247000","100.4738000"
"69946645","SMA NEGERI 10 SOLOK SELATAN","SUNGAI ARO","Prop. Sumatera Barat","SMA","-1.5786518","101.2572880"
"10302404","SMAN 2 LINTAU BUO","JL. RAYA SETANGKAI - BALAI TANGAH KM 2","Prop. Sumatera Barat","SMA","-.5077000","100.7811000"
"10307801","SMAS NURUL IKHLAS","JL. RAYA PD. PANJANG - B. TINGGI KM. 3","Prop. Sumatera Barat","SMA","-.4195000","100.3945000"
"10302402","SMAN 2 RAMBATAN","JORONG BABUSSALAM","Prop. Sumatera Barat","SMA","-.5202000","100.5546000"
"10303443","SMAS PERTIWI 2","JL. BANDAR BLK TANGSI / 14","Prop. Sumatera Barat","SMA","-.9533000","100.3575000"
"10302804","SMAN 6 SIJUNJUNG","JL. LINTAS KILIRAN JAO TELUK KUANTAN KM 10","Prop. Sumatera Barat","SMA","-.7810000","100.8400000"
"10303794","SMAS MUHAMMADIYAH SOLOK","JL. KH AHMAD DAHLAN NO. 167","Prop. Sumatera Barat","SMA","-.7686000","100.6556000"
"10301580","SMAN 2 X KT SINGKARAK","Jl. Saning Bakar - Paninggahan","Prop. Sumatera Barat","SMA","-.7104000","100.5606000"
"10303465","SMA PEMBANGUNAN LABORATORIUM UNP","KOMPLEK KAMPUS UNP","Prop. Sumatera Barat","SMA","-.8938000","100.3489000"
"10302474","SMAS MUHAMMADIYAH BATU SANGKAR","JL. SUTOYO NO. 3 BATU SANGKAR","Prop. Sumatera Barat","SMA","-.4532000","100.5940000"
"10303106","SMA N 1 TALAMAU","JL. TELUK EMBUN PASAMAN BARAT","Prop. Sumatera Barat","SMA",".2461000","99.9776000"
"10308150","SMAN 1 PAYUNG SEKAKI","JL.RAYA SOLOK ALAHAN PANJANG KM.18","Prop. Sumatera Barat","SMA","-1.1091000","101.1625000"
"10307955","SMAS PEMBANGUNAN","JL. JEND. SUDIRMAN ASRAMA KODIM 0304","Prop. Sumatera Barat","SMA","-.3131050","100.3753180"
"69953273","SMAN 1 ASAM JUJUHAN","Jl. Poros Jorong Lubuk Baru","Prop. Sumatera Barat","SMA","-1.4425272","101.6372051"
"10305566","SMAN 1 V KOTO KAMPUNG DALAM","JL. KP. PAUH KAMPUNG DALAM","Prop. Sumatera Barat","SMA","-.5193000","100.1269000"
"69876148","SMA ISLAM AL MUMTAZ ","JLN.KH AHMAD DAHLAN","Prop. Sumatera Barat","SMA","-.7909660","100.6595790"
"10303364","SMAN 5 SOLOK SELATAN","PAKAN RABAA","Prop. Sumatera Barat","SMA","-1.4312000","101.0140000"
"10311405","SMAN 6 PARIAMAN","JL. SIDI TUKAR ARIF","Prop. Sumatera Barat","SMA","-.5590610","100.1133390"
"10300287","SMA NEGERI 1 TANJUNG MUTIARA","JL. RAYA BANDA GADANG","Prop. Sumatera Barat","SMA","-.1888191","99.7848701"
"10300827","SMAN 1 TIGO NAGARI","LINTAS PADANG SAWAH-KUMPULAN","Prop. Sumatera Barat","SMA","-.0530000","100.0624000"
"69829357","SMAN  1 BATANG GASAN","Jln. Pariaman - Tiku KM. 26, Malai V Suku, Kecamatan Batang Gasan","Prop. Sumatera Barat","SMA","-.4529000","99.9904000"
"10303780","SMAN 2 SOLOK","JL. TELAGA BIRUHUN","Prop. Sumatera Barat","SMA","-.7963000","100.6771000"
"10305569","SMAN 1 VII KOTO SUNGAI SARIK","JL. LUBUK PUAR","Prop. Sumatera Barat","SMA","-.5964000","100.2011000"
"10300832","SMAN 1 BONJOL","KOTO KACIAK KUMPULAN","Prop. Sumatera Barat","SMA","-.0533000","100.2067000"
"69826561","SMAN 2 Batang Anai","Jl. Tong Blau No. 69 Korong Kasai","Prop. Sumatera Barat","SMA","-.7696000","100.3219000"
"69823281","SMAN 2 Lubuk Alung","Jl. Gedung Perintis Kasiak Putiah Singguling Kec. Lubuk Alung","Prop. Sumatera Barat","SMA","-.6577000","100.2914000"
"10307884","SMAN 10 SIJUNJUNG","JL. LINTAS SUMATERA KM 157","Prop. Sumatera Barat","SMA","-.6986000","100.8097000"
"10300833","SMAS YAPPAS PASAMAN","Jl. Pagaran-Pasar Rao","Prop. Sumatera Barat","SMA",".0874000","100.1802000"
"10303612","SMAS USWATUN HASANAH","JL. A. YANI NO. 1 Kel. Ngalau Kec. padang panjang Barat","Prop. Sumatera Barat","SMA","-.4661000","100.4105000"
"69897272","SMA ISLAM MODERN YAAK","Jl. Lintas Sumatera km. 18 Koto Baru","Prop. Sumatera Barat","SMA","-1.0587000","101.6439000"
"10303447","SMAS SEMEN PADANG","KOMPLEK PT SEMEN PADANG","Prop. Sumatera Barat","SMA","-.9540000","100.4677000"
"10301188","SMAN 1 AKABILURU","JL. PENDIDIKAN NO. 11","Prop. Sumatera Barat","SMA","-.0934000","100.5626000"
"69948163","SMA NEGERI KEBERBAKATAN OLAHRAGA SUMATERA BARAT","Jl.By Pass Km 13 Sungai Sapih","Prop. Sumatera Barat","SMA","-.9099920","100.4131092"
"10300831","SMAN 1 DUA KOTO","JALAN PANTI SIMPANG EMPAT","Prop. Sumatera Barat","SMA","-.0974000","99.9568000"
"10302978","SMAN 1 SIBERUT SELATAN","Desa Maileppet","Prop. Sumatera Barat","SMA","-1.5747000","99.1932000"
"10308127","SMAN 11 SIJUNJUNG","KURNIA MAKMUR","Prop. Sumatera Barat","SMA","-.6734000","100.7990000"
"10307524","SMAN 2 BUKITTINGGI","JL. SUDIRMAN NO. 5","Prop. Sumatera Barat","SMA","-.3164980","100.3745420"
"10303376","SMAN 6 SOLOK SELATAN","SUNGAI LAMBAI","Prop. Sumatera Barat","SMA","-1.5693000","101.2193000"
"10303473","SMAS KATHOLIK XAVERIUS","JL. DOBI NO. 15 A","Prop. Sumatera Barat","SMA","-.9564000","100.3590000"
"10300270","SMA NEGERI 2 IV KOTO","JL. Raya Bukittinggi - Pantar KM.4. Sungai Jariang","Prop. Sumatera Barat","SMA","-.3389000","100.3182000"
"10308089","SMAN 2 BAYANG","JL. GURUN PANJANG BAYANG","Prop. Sumatera Barat","SMA","-1.3006000","100.5180000"
"10301577","SMAN 1 X KOTO DIATAS","Jalan Padang Panjang Talago Laweh","Prop. Sumatera Barat","SMA","-.6096590","100.6209090"
"10303442","SMAS PGRI 1","JL. JENDERAL SUDIRMAN NO. I A","Prop. Sumatera Barat","SMA","-.9471000","100.3626000"
"10303691","SMAN 1 SAWAHLUNTO","JL. JENDERAL SUDIRMAN","Prop. Sumatera Barat","SMA","-.6907000","100.7809583"
"10308265","SMAN 1 AIR PURA","JL. HILALANG PANJANG","Prop. Sumatera Barat","SMA","-2.1684000","101.0656000"
"69946176","SMAN 2 KEC. BUKIK BARISAN","NAGARI MAEK","Prop. Sumatera Barat","SMA","-.0058972","100.4775476"
"10303905","SMAN 2 PAYAKUMBUH","JL. MERANTI NO. 20 BUKIT SITABUR","Prop. Sumatera Barat","SMA","-.2408000","100.6521000"
"10303559","SMAS BUKIT BARISAN","JL. JENDERAL SUDIRMAN NO. 18","Prop. Sumatera Barat","SMA","-.9446000","100.3626000"
"10301591","SMAN 1 DANAU KEMBAR","JLN. PANORAMA SIMP. TJ. NAN IV","Prop. Sumatera Barat","SMA","-.5838000","100.4936000"
"10303087","SMA N 1 KINALI","JL.AHMAD KARIM","Prop. Sumatera Barat","SMA","-.0574000","99.9162000"
"10301574","SMAN 1 LEMBAH GUMANTI","JL. MUARO,DANAU DIATAS","Prop. Sumatera Barat","SMA","-1.0772000","100.7770000"
"10310903","SMAN 1 SUMATERA BARAT","Jl. S. Ibrahim musa","Prop. Sumatera Barat","SMA","-.4617000","100.4274000"
"10300290","SMA NEGERI 3 LUBUK BASUNG","JL. RAYA MANGGOPOH","Prop. Sumatera Barat","SMA","-.3151000","99.9705000"
"10308231","SMAN 1 SILAUT","JL.TANJUNG MAKMUR","Prop. Sumatera Barat","SMA","-2.1794000","101.0585000"
"10300269","SMA NEGERI 1 TILATANG KAMANG","JL. PAKAN KAMIS","Prop. Sumatera Barat","SMA","-.2522920","100.3970710"
"69815342","SMA S TUNAS BANGSA MALIGI","JORONG MALIGI","Prop. Sumatera Barat","SMA",".0801000","99.7385000"
"10307418","SMAS MANUNGGAL BHAKTI","JLN. KI HAJAR DEWANTORO NO. 1","Prop. Sumatera Barat","SMA","-.6318830","100.1282120"
"69759023","SMA S TARUNA BINA BANGSA","LEMBAH BINUANG","Prop. Sumatera Barat","SMA",".0813000","99.9168000"
"10301790","SMAN 1 LUBUK ALUNG","JL. SUNGAI ABANG LUBUK ALUNG","Prop. Sumatera Barat","SMA","-.6674000","100.3360000"
"10301581","SMAN 1 JUNJUNG SIRIH","JLN. GANDO PANINGGAHAN","Prop. Sumatera Barat","SMA","-.8265000","100.8163000"
"10304886","SMA NEGERI 1 CANDUNG","JL.RAYA BIARO-LASI KM.3","Prop. Sumatera Barat","SMA","-.3168000","100.4349000"
"10307529","SMAS MUHAMMADIYAH","JL. PROF. Dr. HAMKA","Prop. Sumatera Barat","SMA","-.3097010","100.3809100"
"10306091","SMA S PLUS PEMBANGUNAN KINALI","JALAN BASUNG INDAH","Prop. Sumatera Barat","SMA","-.0521000","99.9045000"
"69899770","SMA S TARUNA AL-MUNIR","JORONG LEMBAH BINUANG, AUA KUNIANG","Prop. Sumatera Barat","SMA",".1544000","99.7833000"
"10302805","SMAN 5 SIJUNJUNG","JL. AMBACANG TINGGI INDAH NO.90","Prop. Sumatera Barat","SMA","-.7713000","100.8376000"
"69757492","SMAN MAPAT TUNGGUL","JL. RAO-RUMBAI, PINTU PADANG","Prop. Sumatera Barat","SMA",".5735000","100.0131000"
"10300286","SMA NEGERI 1 TANJUNG RAYA","JL. TELAGA BIRU","Prop. Sumatera Barat","SMA","-.2992000","100.2251000"
"69917690","SMA NEGERI 1 SIBERUT BARAT","Siberut Barat","Prop. Sumatera Barat","SMA","-1.2402533","98.6812912"
"10310797","SMAS XAVERIUS","JLN BAGINDO AZIZCHAN NO 11","Prop. Sumatera Barat","SMA","-.3108550","100.3705350"
"10303504","SMAN 7 PADANG","JL. BUNGA TANJUNG","Prop. Sumatera Barat","SMA","-.8173000","100.3258000"
"10307523","SMAN 1 BUKITTINGGI","JL. SYECH.M. JAMIL JAMBEK NO. 36","Prop. Sumatera Barat","SMA","-.3028830","100.3739220"
"10302475","SMAN 1 BATIPUH","JL. RAYA PADANG PANJANG - SOLOK KM 9","Prop. Sumatera Barat","SMA","-.4670000","100.4504000"
"10302822","SMAN 2 SIJUNJUNG","JL. JEND.SUDIRMAN NO.38","Prop. Sumatera Barat","SMA","-.6705000","100.8163000"
"10303089","SMA N 1 LEMBAH MELINTANG","Jl. KAMPUNG JUAR","Prop. Sumatera Barat","SMA",".2554000","99.5744000"
"10304429","SMAN 1 KEC. PAYAKUMBUH","KOTO TANGAH SIMALANGGANG","Prop. Sumatera Barat","SMA","-.1654000","100.5253000"
"10310733","SMAN 1 SIBERUT TENGAH","SAIBI SAMUKOP","Prop. Sumatera Barat","SMA","-1.3962000","98.9764000"
"10310590","SMAN 2 LUBUK SIKAPING","JL.BY PASS LUBUK SIKAPING","Prop. Sumatera Barat","SMA",".1547000","100.1651000"
"10307980","SMAS KARYA BHAKTI BUKITTINGGI","JL. DIPONEGORO NO. 8 BUKITTINGGI","Prop. Sumatera Barat","SMA","-.3150720","100.3864350"
"10304889","SMA MUHAMMADIYAH LUBUK BASUNG","JL. DIPONEGORO, KUBANG","Prop. Sumatera Barat","SMA","-.3210000","100.0228000"
"10302009","SMAN 1 BAYANG","JL. RANAH PANJANG","Prop. Sumatera Barat","SMA","-1.2481000","100.5307000"
"10303472","SMAS KARTIKA I-5","JL. DR SUTOMO NO. 4 C","Prop. Sumatera Barat","SMA","-.9436000","100.3769000"
"10303475","SMAS MEDIA UTAMA","Jl.Delima Raya Ujung","Prop. Sumatera Barat","SMA","-.9015000","100.4209000"
"10302021","SMAN 1 BATANG KAPAS","JL. ANAKAN","Prop. Sumatera Barat","SMA","-1.4361000","100.6336000"
"10300296","SMA NEGERI 1 BANUHAMPU","JL.RAYA PADANG LUA-MANINJAU","Prop. Sumatera Barat","SMA","-.3448000","100.3696000"
"10302979","SMAN 1 SIPORA","Jl. LINTAS SIOBAN - MARA KM.2","Prop. Sumatera Barat","SMA","-2.2032000","99.7328000"
"69786300","SMAN 2 HARAU","TARANTANG","Prop. Sumatera Barat","SMA","-.0848000","100.6651000"
"10304180","SMAS SABBIHISMAN","JL. ANAK AIR UJUNG NO.60","Prop. Sumatera Barat","SMA","-.9561000","100.3573000"
"10300295","SMA NEGERI 1 AMPEK NAGARI","JL. LINTAS BAWAN","Prop. Sumatera Barat","SMA","-.2259000","100.0589000"
"10303615","SMAS MUHAMMADIYAH P PANJANG","JL. RI DT. SINARO PANJANG KEL. TANAH PAK LAMBIK","Prop. Sumatera Barat","SMA","-.4659000","100.4056000"
"10302014","SMAN 1 PAINAN","JL. GURUN SALIDO","Prop. Sumatera Barat","SMA","-1.3300000","100.5709000"
"10305548","SMAN 1 ULAKAN TAPAKIS","JL. SYEKH BURHANUDIN","Prop. Sumatera Barat","SMA","-.7045000","100.2082000"
"10306090","SMA S MUHAMMADIYAH UJUNG GADING","JL. NUSANTARA TIMUR NO.81","Prop. Sumatera Barat","SMA",".2684000","99.5568000"
"10303545","SMAS BUNDA PADANG","JL. BUNDA RAYA NO. 1","Prop. Sumatera Barat","SMA","-.9072000","100.3451000"
"10303481","SMAN 13 PADANG","TANJUNG AUR","Prop. Sumatera Barat","SMA","-.8739000","100.4103000"
"10310809","SMAS ORYZA","JLN. H. AGUS SALIM MUARO SIJUNJUNG","Prop. Sumatera Barat","SMA","-.6876000","100.8359000"
"10308311","SMAN 1 KOTO BESAR","JL KOTO BESAR","Prop. Sumatera Barat","SMA","-1.1476000","101.6421000"
"10310873","SMAN 08 SOLOK SELATAN","KAMPUNG BARU, LUBUK ULANG ALING","Prop. Sumatera Barat","SMA","-1.6573000","101.2523000"
"10306088","SMA S AL - ISTIQOMAH","SIMPANG EMPAT","Prop. Sumatera Barat","SMA",".0891000","99.8242000"
"10308323","SMAN 16 PADANG","BUKIT NAPA","Prop. Sumatera Barat","SMA","-.9151000","100.4276000"
"10306748","SMAN 3 SOLOK SELATAN","JL. LUBUK GADANG","Prop. Sumatera Barat","SMA","-1.5269000","101.2637000"
"10303610","SMAN 2 PADANG PANJANG","JL. BUNDO KANDUNG NO.2","Prop. Sumatera Barat","SMA","-.4616000","100.4028000"
"10300304","SMA NEGERI 1 SUNGAI PUAR","JL.V SUKU","Prop. Sumatera Barat","SMA","-.3557498","99.9464089"
"10307311","SMAN 3 PARIAMAN","JL. SAMAUN BAKRI NO.78","Prop. Sumatera Barat","SMA","-.6445970","100.1657250"
"10307806","SMA N 1 SUNGAI AUR","JL.AIR HAJI","Prop. Sumatera Barat","SMA",".2131000","99.6354000"
"69946914","SMA N 1 PATAMUAN","Jl. Raya Tandikek Kec. Patamuan","Prop. Sumatera Barat","SMA","-.5068848","100.2489676"
"10302400","SMAN 1 X KOTO","JL. PD. PANJANG BK. TINGGI KM. 9","Prop. Sumatera Barat","SMA","-.4067000","100.3958000"
"10301576","SMAN 1 PANTAI CERMIN","JL. PADANG - MUARA LABUH KM 99 SURIAN","Prop. Sumatera Barat","SMA","-1.2132000","100.8682000"
"10308631","SMA MUHAMMADIYAH SALAREH AIA","SALAREH AIA","Prop. Sumatera Barat","SMA","-.1733000","100.3586000"
"69774851","SMAN 1 IX Koto","IX Koto","Prop. Sumatera Barat","SMA","-1.1044000","101.7760000"
"10301575","SMAN 1 LEMBANG JAYA","JL. RAYA KOTO ANAU BUKIT SILEH","Prop. Sumatera Barat","SMA","-.8865000","100.6893000"
"10301592","SMAN 1 GUNUNG TALANG","JL. SOLOK PADANG KM. 10 PASAR USANG,CUPAK","Prop. Sumatera Barat","SMA","-.8635000","100.6475000"
"10303468","SMAS ABDULLAH AHMAD","JL. DR.H.ABDULLAH AHMAD NO.8","Prop. Sumatera Barat","SMA","-.9434000","100.3650000"
"10303479","SMAS MURNI","JL. NIPAH NO. 33","Prop. Sumatera Barat","SMA","-.9629000","100.3568000"
"10303692","SMAN 2 SAWAHLUNTO","JL.ANAS MALIK TALAWI","Prop. Sumatera Barat","SMA","-.5928000","100.7413100"
"10305560","SMAN 1 2X11 ENAM KAYU TANAM","PASAR TENGAH KAYUTANAM","Prop. Sumatera Barat","SMA","-.5460000","100.3294000"
"10303449","SMAS TAMAN SISWA PADANG UTARA","JL. TAMAN SISWA NO. 9 PADANG","Prop. Sumatera Barat","SMA","-.9297000","100.3656000"
"10302034","SMAN 1 NAGARI IV BAYANG UTARA","JL. ASAM KUMBANG PASAR BARU","Prop. Sumatera Barat","SMA","-1.1976000","100.5814000"
"10302492","SMAN 1 PADANG GANTING","JL. ROTAN NO. 34 PD. GANTING","Prop. Sumatera Barat","SMA","-.5242000","100.7072000"
"69899566","SMA SURYA BAKTI","Jl. Jati II No. 15","Prop. Sumatera Barat","SMA","-.9445000","100.3645000"
"10303503","SMAN 6 PADANG","JL. SUTAN SYAHRIR NO. 11 PADANG","Prop. Sumatera Barat","SMA","-.9768000","100.3758000"
"10302013","SMAN 1 LUNANG SILAUT","JL. MEDAN JAYA","Prop. Sumatera Barat","SMA","-2.3727000","101.1440000"
"10307989","SMAN 9 SIJUNJUNG","JL. LINTAS TANAH BEDANTUNG KM 114","Prop. Sumatera Barat","SMA","-.7444000","100.7958000"
"10303446","SMAS PGRI 6","JL.  BELAKANG TANGSI NO 26 RT 2 RW 2","Prop. Sumatera Barat","SMA","-.9525000","100.3572000"
"10303217","SMAN 1 PULAU PUNJUNG","JL LINTAS SUMATERA KM 1 SUNGAI DAREH","Prop. Sumatera Barat","SMA","-.9705330","101.5076500"
"10306084","SMA S YAPPAS OPHIR","PUJARAHAYU","Prop. Sumatera Barat","SMA",".0306000","99.8263000"
"10300828","SMAN 1 RAO","TUANKU RAO TARUNG-TARUNG","Prop. Sumatera Barat","SMA",".6443000","100.1419000"
"69888565","SMA LENTERA MENTAWAI","Kecamatan Siberut Selatan","Prop. Sumatera Barat","SMA","-1.5573210","99.0148780"
"69853525","SMA N UNGGUL DHARMASRAYA","JL. RAYA LINTAS SUMATERA KM. 18","Prop. Sumatera Barat","SMA","-1.1010930","101.6477350"
"10304698","SMAN 3 PADANG PANJANG","JL. RPH SILAING BAWAH","Prop. Sumatera Barat","SMA","-.4673000","100.3947000"
"10308439","SMAN 2 LEMBANG JAYA","JL.BUKIT SILEH - SALAYO TANANG","Prop. Sumatera Barat","SMA","-.9616000","100.7165000"
"69815459","SMAN 3 SAWAHLUNTO","JL. BAGINDO AZIS CHAN","Prop. Sumatera Barat","SMA","-.6356867","100.7332733"
"10305564","SMAN 1 SUNGAI GERINGGING","JL. DURIAN  LILIN","Prop. Sumatera Barat","SMA","-.4588000","100.0716000"
"10303469","SMAS EKA SAKTI","JL. VETERAN DALAM 26 B","Prop. Sumatera Barat","SMA","-.9381000","100.3557000"
"10303478","SMAS MUHAMMADIYAH 3","JL. BEROK RAYA SITEBA","Prop. Sumatera Barat","SMA","-.8934000","100.3643000"
"10305547","SMAN 1 NAN SABARIS","JL. TUANKU MUDO NO 25","Prop. Sumatera Barat","SMA","-.6926000","100.1840000"
"10302823","SMAN 1 SIJUNJUNG","JL. M. SYAFEI NO.5 MUARO SIJUNJUNG","Prop. Sumatera Barat","SMA","-.7044000","100.7953000"
"10302017","SMAN 1 SUTERA","JL.BARU CIMPU","Prop. Sumatera Barat","SMA","-1.6250000","100.6645000"
"10302436","SMAN 1 PARIANGAN","JL. UJUNG GANTING","Prop. Sumatera Barat","SMA","-.4629000","100.5130000"
"10302476","SMAN 1 BATU SANGKAR","JL. SULTAN ALAM BAGAGARSYAH NO. 41","Prop. Sumatera Barat","SMA","-.4715000","100.4334000"
"10301184","SMAN 1 LAREH SAGO HALABAN","PAKAN RABAA GADUT","Prop. Sumatera Barat","SMA",".1270000","100.6751000"
"10301590","SMAN 1 BUKIT SUNDI","JL. MUARA PANAS,CUPAK","Prop. Sumatera Barat","SMA","-.8556000","100.6791000"
"10303906","SMAN 3 PAYAKUMBUH","JL. R.A. KARTINI","Prop. Sumatera Barat","SMA","-.2068000","100.6436000"
"10301583","SMAN 1 HILIRAN GUMANTI","JL.PADANG LAWEH TALANG BABUNGO","Prop. Sumatera Barat","SMA","-1.0523000","100.8104000"
"10303477","SMAS MUHAMMADIYAH 2","JL. UJUNG BELAKANG OLO NO. 17","Prop. Sumatera Barat","SMA","-.9462000","100.3525000"
"10303506","SMAN 9 PADANG","JL. PASAR BARU","Prop. Sumatera Barat","SMA","-.9276000","100.4279000"
"10302020","SMAN 2 PAINAN","JL. PERINTIS KEMERDEKAAN","Prop. Sumatera Barat","SMA","-1.3492000","100.5852000"
"10303462","SMAN 10 PADANG","JL. SITUJUH","Prop. Sumatera Barat","SMA","-.9363000","100.3640000"
"69829539","SMA S ASSYFA KAPA","JORONG LUBUAK PUDIANG, NAGARI KAPA","Prop. Sumatera Barat","SMA",".0346000","99.8292000"
"69946860","SMAN 11 SOLOK SELATAN","Sungai Gading","Prop. Sumatera Barat","SMA","-1.4277000","101.4094000"
"10303448","SMAS SIMA","JL. ST. SYAHRIR NO. 220 A","Prop. Sumatera Barat","SMA","-.9732000","100.3785000"
"69946653","SMAN 13 SIJUNJUNG","Jorong Pasar Nagari Sungai Betung","Prop. Sumatera Barat","SMA","-.8415366","101.4049566"
"10302399","SMAN 1 SUNGAYANG","JL. KEBUN SUNGAYANG","Prop. Sumatera Barat","SMA","-.4049000","100.5832000"
"10302018","SMAN 2 BATANG KAPAS","JL. TUIK IV KOTO MUDIEK","Prop. Sumatera Barat","SMA","-1.4415000","100.6489000"
"10303499","SMAN 2 PADANG","JL. MUSI NO.2","Prop. Sumatera Barat","SMA","-.9295000","100.3539000"
"69774643","SMAN 1 RAO UTARA","JL LINTAS RAO-GN MANAHAN KM 13  RAO UTARA","Prop. Sumatera Barat","SMA",".6860000","99.9928000"
"10300830","SMAN 1 LUBUK SIKAPING","Jl. Prof. M. Yamin, S.H No. 2","Prop. Sumatera Barat","SMA",".1345000","100.1696000"
"10303501","SMAN 4 PADANG","JL. LINGGARJATI NO. 1 PADANG","Prop. Sumatera Barat","SMA","-.9602000","100.4010000"
"10303218","SMAN 1 KOTO BARU","JL AMPALU KOTO BARU","Prop. Sumatera Barat","SMA","-1.0970500","101.7472170"
"10305595","SMAS PMT PROF HAMKA B ANAI","JL. PADANG BUKIT TINGGI KM. 28","Prop. Sumatera Barat","SMA","-.7265000","100.3158000"
"60724950","SMAN 5 PAYAKUMBUH","JL. PADAT KARYA TANGAH PADANG INDAH","Prop. Sumatera Barat","SMA","-.2683000","100.6036000"
"69774642","SMAN MAPAT TUNGGUL SELATAN","Jl. Muaro Sei Lolo Km.30 Silayang","Prop. Sumatera Barat","SMA",".2443000","100.1859000"
"10303596","SMAS SORE PADANG PANJANG","JL. BANCAH LAWEH PADANG PANJANG","Prop. Sumatera Barat","SMA","-.4694000","100.4022000"
"10306089","SMA S MUHAMMADIYAH AIR BANGIS","JL. H. BAKRIE SULAIMAN","Prop. Sumatera Barat","SMA",".4377000","99.3852000"
"10301589","SMAS M NATSIR","JL.RAYA PD.M.LABUH BT.BAGIRIAK AL.PANJANG","Prop. Sumatera Barat","SMA","-1.0874000","100.7829000"
"10308546","SMAN 5 PARIAMAN","JL.DESA PAKASAI","Prop. Sumatera Barat","SMA","-.6360120","100.1239060"
"10301185","SMAN 1 KAPUR IX","Jln. Nusantara I No. 03 Muaro Paiti","Prop. Sumatera Barat","SMA",".2387000","100.5563000"
"69822703","SMAN 2 VII KOTO SUNGAI SARIK","Korong Apar Nagari Lareh Nan Panjang","Prop. Sumatera Barat","SMA","-.5772000","100.2129000"
"10310900","SMAS EXCELLENT NURUL IKHLAS","PINCURAN TINGGI","Prop. Sumatera Barat","SMA","-.4354000","100.3987000"
"10303505","SMAN 8 PADANG","JL. ADINEGORO KM. 18","Prop. Sumatera Barat","SMA","-.8075000","100.3215000"
"10303611","SMAN 1 PADANG PANJANG","JL. KH. AHMAD DAHLAN","Prop. Sumatera Barat","SMA","-.4644000","100.4076000"
"10307799","SMAN 3 BATU SANGKAR","JL. KOMPLEK PENDIDIKAN BUKITGOMBAK","Prop. Sumatera Barat","SMA","-.4832000","100.6150000"
"10300271","SMA NEGERI 2 TILATANG KAMANG","JL. BUKITTINGGI-MEDAN","Prop. Sumatera Barat","SMA","-.2132000","100.4025000"
"10302982","SMAN 1 SIBERUT UTARA","JL. RAYA MUARA SIKABALUAN","Prop. Sumatera Barat","SMA","-1.1071000","98.9872000"
"10300834","SMAS PGRI RAO SELATAN","JL. PADANG-KAUMAN-MEDAN","Prop. Sumatera Barat","SMA",".4636000","100.2231000"
"69809505","SMA NEGERI 1 SIBERUT BARAT DAYA","PEIPEI","Prop. Sumatera Barat","SMA","-1.6375000","99.0122000"
"10310619","SMAS AL HIRA","JL. RAYA PADANG PANJANG-BUKITTINGGI KM-9","Prop. Sumatera Barat","SMA","-.4032000","100.4081000"
"69948149","SMA RABBANI ISLAMIC SCHOOL","Jorong kasiak","Prop. Sumatera Barat","SMA","-.7552909","100.5460404"
"10305568","SMAN 1 V KOTO TIMUR","JL. RAYA PARIAMAN  - P ALAI","Prop. Sumatera Barat","SMA","-.5587000","100.1483000"
"10302010","SMAN 1 LENGAYANG","JL. UJUNG PADANG","Prop. Sumatera Barat","SMA","-1.7167000","100.8030000"
"10302787","SMAN 8 SIJUNJUNG","JL.TANJUNG BONAI AUR","Prop. Sumatera Barat","SMA","-.7531000","100.8445000"
"10303781","SMAN 1 SOLOK","JL. KH. DEWANTARA NO. 30","Prop. Sumatera Barat","SMA","-.7873000","100.6427000"
"10304194","SMAN 1 PADANG GELUGUR","LINTAS PADANG MEDAN","Prop. Sumatera Barat","SMA",".4408000","100.0417000"
"69822704","SMAS PLUS NAGARI TALANG","Jalan lintas padang-solok km 14 Aro Talang","Prop. Sumatera Barat","SMA","-.9510000","100.6683000"
"10304887","SMA NEGERI AGAM CENDEKIA","JL.RAYA MUKO-MUKO","Prop. Sumatera Barat","SMA","-.2901000","100.1495000"
"10303439","SMAS PGRI 4","JL. SAWAH LAING","Prop. Sumatera Barat","SMA","-.9100000","100.3937000"
"10305565","SMAN 1 SUNGAI LIMAU","Jl. Raya Pariaman - Tiku KM 18","Prop. Sumatera Barat","SMA","-.5066000","100.0442000"
"10302382","SMAN 1 RAMBATAN","JL. SIMPANG GOBAH","Prop. Sumatera Barat","SMA","-.5030000","100.5572000"
"10310795","SMAN 3 PAINAN","JL.RAYA SAGO KOMPLEK ISLAMIC CENTER SAGO PAINAN","Prop. Sumatera Barat","SMA","-1.3055000","100.5419000"
"10303463","SMAN 11 PADANG","JL.RAYA PADANG PAINAN","Prop. Sumatera Barat","SMA","-1.0461140","100.4130200"
"69954291","SMAN 1 TIUMANG","Jr. Lagan Jaya II","Prop. Sumatera Barat","SMA","-1.0150201","101.7830575"
"10302980","SMAN 2 SIPORA","TUA PEJAT","Prop. Sumatera Barat","SMA","-2.1563250","99.6770280"
"10308340","SMAS ISLAM BOARDING SCHOOL R JANNAH","JL. PROF DR. HAMKA","Prop. Sumatera Barat","SMA","-.2129000","100.6428000"
"10300829","SMAN 1 PANTI","JALAN EKONOMI","Prop. Sumatera Barat","SMA",".1345000","100.1684000"
"10303366","SMAN 2 SOLOK SELATAN","JL. RAYA BIDAR ALAM","Prop. Sumatera Barat","SMA","-1.4334000","101.3641000"
"10300293","SMA NEGERI 1 PALUPUH","JALAN RAYA BUKITTINGGI-MEDAN KM 23","Prop. Sumatera Barat","SMA","-.1783000","100.3244000"
"10300294","SMA NEGERI 2 LUBUK BASUNG","JL. DR. MUHAMMAD HATTA","Prop. Sumatera Barat","SMA","-.3131000","100.0334000"
"10303219","SMAN 1 SITIUNG","JL DEMPO","Prop. Sumatera Barat","SMA","-1.0321000","101.6536000"
"69946102","SMAN 1 Kec. Mungka","Nagari Jopang Manganti, Mungka","Prop. Sumatera Barat","SMA","-.0639963","100.5936096"
"10310738","SMAN 1 TIGO LURAH","JL.RAYA SOLOK - BATU BAJANJANG KM.70","Prop. Sumatera Barat","SMA","-.9189000","100.8675000"
"10301579","SMAN 2 GUNUNG TALANG","JL.TABEK RANGGUANG SUKARAMI AROSUKA","Prop. Sumatera Barat","SMA","-.8824000","100.6563000"
"69903167","SMA NEGERI 1 PAGAI SELATAN","Selatan Jaya KM. 37","Prop. Sumatera Barat","SMA","-3.1048000","100.4185000"
"10303558","SMAS BAITURRAHMAH","JL. DAMAR 1  NO. 5","Prop. Sumatera Barat","SMA","-.9449000","100.3534000"
"69948099","SMA N 2 KINALI","JORONG VI KOTO UTARA, LUBUK TALANG","Prop. Sumatera Barat","SMA","-.0532000","99.9390000"
"69786301","SMA NEGERI 1 KECAMATAN GUNUANG OMEH","JL. TAN MALAKA KOTO TINGGI","Prop. Sumatera Barat","SMA","-.0561000","100.3639000"
"10303480","SMAN 12 PADANG","GURUN LAWEH","Prop. Sumatera Barat","SMA","-.9092000","100.3794000"
"10307309","SMAN 1 PARIAMAN","JL. PROF. M. YAMIN SH NO. 38","Prop. Sumatera Barat","SMA","-.6302280","100.1285780"
"10304833","SMAN 15 PADANG","JL. LIMAU MANIS","Prop. Sumatera Barat","SMA","-.9290000","100.4477000"
"10301182","SMAN 1 SITUJUAH LIMO NAGARI","JL. KHATIB SULAIMAN","Prop. Sumatera Barat","SMA","-.2982000","100.6082000"
"69786567","SMAN 9 SOLOK SELATAN","KAPAU","Prop. Sumatera Barat","SMA","-1.4850000","101.0177000"
"69955317","SMA S CITRA INSANI","JORONG SIKABAU","Prop. Sumatera Barat","SMA",".2868240","99.5264590"
"69826560","SMA YARI SCHOOL","Jl. Batang Kandis 3-5 Padang Baru Timur","Prop. Sumatera Barat","SMA","-.9268540","100.3708630"
"10301578","SMAN 1 X KT SINGKARAK","JL. LINTAS SUMATERA SINGKARAK KM13","Prop. Sumatera Barat","SMA","-.7051000","100.5539000"
"10300292","SMA NEGERI 1 LUBUK BASUNG","JL. LINDUANG BULAN PASAR USANG LUBUK BASUNG","Prop. Sumatera Barat","SMA","-.3279000","100.0579000"
"10310898","SMAS ADABIAH 2 PADANG","JL. JATI ADABIAH NO. 1 PADANG","Prop. Sumatera Barat","SMA","-.9399000","100.3703000"
"10301186","SMAN 1 HARAU","JL. RAYA NEGARA KM 7","Prop. Sumatera Barat","SMA","-.1414000","100.7472000"
"69760813","SMAS TARUNA SUMATERA BARAT","JLN.GUNUNG MEDAN SITIUNG","Prop. Sumatera Barat","SMA","-1.0521000","101.5858000"
"10308287","SMAN 12 SIJUNJUNG","LUBUK TAROK","Prop. Sumatera Barat","SMA","-.6665000","100.8021000"
"10303886","SMAS PGRI PAYAKUMBUH","JL. TAN MALAKA NO. 10 A","Prop. Sumatera Barat","SMA","-.2213000","100.6293000"
"10303502","SMAN 5 PADANG","BALAI BARU","Prop. Sumatera Barat","SMA","-.9022000","100.4156000"
"10302016","SMAN 1 RANAH PESISIR","JL. LIMAU SUNDAI","Prop. Sumatera Barat","SMA","-1.7850000","100.8382000"
"69888818","SMAN 2 KEC. PANGKALAN KOTO BARU","Nagari Tanjuang Pauah Kec. Pangkalan Koto Baru","Prop. Sumatera Barat","SMA",".0597220","100.6018890"
"10307531","SMAS TARUNA BANGSA","JL. SYECH. M. JAMIL JAMBEK NO.33","Prop. Sumatera Barat","SMA","-.3040080","100.3743290"
"10303445","SMAS PERTIWI 1","JL. CENDRAWASIH NO. 7","Prop. Sumatera Barat","SMA","-.8930000","100.3512000"
"69899900","SMA TAHFIZHUL QUR AN SYECH AHMAD CHATIB","BALAI GURAH AMPEK ANGKEK","Prop. Sumatera Barat","SMA","-.1388000","100.2535000"
"10301582","SMAN 1 IX KT SUNGAI LASI","JL SAWAH BARUAH NAGARI TARUNG-TARUNG","Prop. Sumatera Barat","SMA","-1.2530000","100.8661000"
"10302398","SMAN 1 SUNGAI TARAB","JL. LADANG KOTO","Prop. Sumatera Barat","SMA","-.4308000","100.5631000"
"10300300","SMA NEGERI 1 KAMANG MAGEK","JL. RAYA PINTU KOTO","Prop. Sumatera Barat","SMA","-.2332000","100.4325000"
"10303500","SMAN 3 PADANG","JL. GAJAH MADA No. 11","Prop. Sumatera Barat","SMA","-.9194000","100.3646000"
"10304831","SMAS DIAN ANDALAS","PERUMAHAN UNAND BLOK B","Prop. Sumatera Barat","SMA","-.9453000","100.4568000"
"69892905","SMA S IT DARUL HIKMAH","Simpang Tigo, Koto Baru","Prop. Sumatera Barat","SMA",".0309000","99.8101000"
"10302401","SMAN 2 BATU SANGKAR","JL. PINTU RAYO, SARUASO","Prop. Sumatera Barat","SMA","-.4493000","100.6096000"
"10307562","SMAN 7 SOLOK SELATAN","JLN. BATU NAGO ABAI","Prop. Sumatera Barat","SMA","-1.3327000","101.3742000"
"10303482","SMAN 14 PADANG","JL. BATU GADANG","Prop. Sumatera Barat","SMA","-.9594000","100.4667000"
"10303885","SMAS NUSANTARA PAYAKUMBUH","JL. GATOT SUBROTO NO. 76 ibuh","Prop. Sumatera Barat","SMA","-.2387000","100.6304000"
"69764539","SMA N 2 PASAMAN","BATANG TOMAN","Prop. Sumatera Barat","SMA",".0814000","99.8305000"
"10303904","SMAN 1 PAYAKUMBUH","JL. MERAPI NO. 4 TIAKAR","Prop. Sumatera Barat","SMA","-.2252000","100.6552000"
"10303690","SMAS SDI SILUNGKANG","Jl. Prof. Dr. Hamka Silungkang Tigo","Prop. Sumatera Barat","SMA","-.7220450","100.7719383"
"10303476","SMAS MUHAMMADIYAH 1","JL. DR. MUHAMMAD HATTA","Prop. Sumatera Barat","SMA","-.9343000","100.4277000"
"10307525","SMAN 3 BUKITTINGGI","JL. PROF. H.M. YAMIN SH.","Prop. Sumatera Barat","SMA","-.3148880","100.3849430"
"10304874","SMAN 2 PULAU PUNJUNG","JL. TIMBULUN INDAH PULAU PUNJUNG","Prop. Sumatera Barat","SMA","-.9437000","101.5040500"
"10308464","SMAS YAPPHI BATANG ANAI","Jl. Raya Padang - Bukit Tinggi KM. 26 Pasar Usang","Prop. Sumatera Barat","SMA","-.7368000","100.3136000"
"10304875","SMAN 2 KOTO BARU","JL LINTAS SUMATERA","Prop. Sumatera Barat","SMA","-1.1142330","101.7189000"
"10310597","SMAN 4 PAYAKUMBUH","JL.KALIMANTAN","Prop. Sumatera Barat","SMA","-.2427000","100.6145000"
"10300289","SMA SWASTA BANUHAMPU","JL. RAYA PADANG LUAR","Prop. Sumatera Barat","SMA","-.3414000","100.3840000"
"10307312","SMAN 4 PARIAMAN","JL. SITI MANGGOPOH","Prop. Sumatera Barat","SMA","-.5879260","100.1026890"
"10303441","SMAS PGRI 2","JL. LINGGAR JATI I","Prop. Sumatera Barat","SMA","-.9602000","100.4011000"
"10303440","SMAS PGRI 3","JL. SEB.PADANG UTARA I /10","Prop. Sumatera Barat","SMA","-.9526000","100.3725000"
"10303367","SMAN 1 SOLOK SELATAN","JL. RAYA RAWANG MUARA LABUH","Prop. Sumatera Barat","SMA","-1.4759000","101.0428000"
"10302821","SMAN 3 SIJUNJUNG","JL. LINTAS SUMATERA KM 131","Prop. Sumatera Barat","SMA","-.6729000","100.8242000"
"10303766","SMAN 4 SOLOK","Jl. Syahbaran No. 5 Ampang Kualo-Laing","Prop. Sumatera Barat","SMA","-.7661000","100.6396000"
"10304832","SMAS DM TRIGUNA","JL. GAJAH MADA NO. 41 B","Prop. Sumatera Barat","SMA","-.9040000","100.3645000"
"10300302","SMA NEGERI 1 PALEMBAYAN","JL. PASAR PALEMBAYAN","Prop. Sumatera Barat","SMA","-.1938000","100.2940000"
"10307526","SMAN 4 BUKIT TINGGI","JL. PANORAMA BARU","Prop. Sumatera Barat","SMA","-.2840950","100.3433080"
"10303461","SMAN 1 PADANG","JL. BELANTI RAYA NO.11","Prop. Sumatera Barat","SMA","-.9192000","100.3539000"
"10303216","SMAN 1 SUNGAI RUMBAI","JL TUANKU KERAJAAN","Prop. Sumatera Barat","SMA","-1.2278330","101.7347670"
"10303088","SMA N 1 KOTO BALINGKA","JL. LINTAS BARAT AIR BALAM","Prop. Sumatera Barat","SMA","-.0736000","99.8866000"
"10300299","SMA NEGERI 1 AMPEK ANGKEK","JL. LAMBAH BIARO","Prop. Sumatera Barat","SMA","-.2838000","100.4303000"
"10310636","SMAN 2 HILIRAN GUMANTI","JL.SARIK ATAS","Prop. Sumatera Barat","SMA","-1.0635000","100.8544000"
"10308098","SMAS INS KAYU TANAM","JL. RAYA PADANG-BUKITTINGGI KM. 53","Prop. Sumatera Barat","SMA","-.5519000","100.3180000"
"10303464","SMAS PERTI PPMTI PADANG","JL. BANDAR PURUS NO.65","Prop. Sumatera Barat","SMA","-.9079000","100.3563000"
"10303460","SMAS YAPI","JL. PURUS IV NO. 8","Prop. Sumatera Barat","SMA","-.9352000","100.3538000"
"10303474","SMAS KALAM KUDUS","JL. KAMPUNG NIAS III / 1","Prop. Sumatera Barat","SMA","-.9586000","100.3644000"
"10301183","SMAN 1 KEC PANGKALAN KOTO BARU","JL. LINTAS SUMBAR - RIAU","Prop. Sumatera Barat","SMA",".0808000","100.7360000"
"10301181","SMAN 1 SULIKI","JL. TAN MALAKA LIMBANANG","Prop. Sumatera Barat","SMA","-.1107000","100.5104000"
"10301573","SMAN 1 KUBUNG","JL. RAWANG SARI - SELAYO","Prop. Sumatera Barat","SMA","-.8362000","100.6117000"
"10303557","SMAS ADABIAH PADANG","JL JATI ADABIAH NO 1 PADANG","Prop. Sumatera Barat","SMA","-.9334000","100.3687000"
"69831956","SMA IT INSAN CENDEKIA","Jl.RA.Kartini RT.01 RW.01","Prop. Sumatera Barat","SMA","-.2077180","100.6294330"
"10307310","SMAN 2 PARIAMAN","JL. R.A. KARTINI NO.75 PARIAMAN","Prop. Sumatera Barat","SMA","-.6203470","100.1252720"
"10303091","SMA N 1 SUNGAI BEREMAS","JL.H BAKRIE SOELAIMAN NO 73","Prop. Sumatera Barat","SMA",".2866000","99.3251000"
"10306086","SMA N 1 RANAH BATAHAN","JL. ST SARIPADA NO 17","Prop. Sumatera Barat","SMA",".2543000","99.6057000"
"10302022","SMAN 1 BASA AMPEK BALAI","JL.ALANG RAMBAH","Prop. Sumatera Barat","SMA","-2.1681000","101.0658000"
"10305562","SMAN 1 IV KOTO A MALINTANG","JL. RAYA BATU BASA","Prop. Sumatera Barat","SMA","-.3731000","100.0782000"
"69862591","SMA N 2 SUMATERA BARAT","JL. LINTAS SUMATERA - KOTO GAEK GUGUK","Prop. Sumatera Barat","SMA","-.9248000","100.6024000"
"10307604","SMAN 2 KOTO XI TARUSAN","JL.RIMBO GAJAH NO.03 BARUNG-BARUNG BALANTAI","Prop. Sumatera Barat","SMA","-1.1481000","100.5097000"
"69786302","SMAN 1 BUKIK BARISAN","KOTO TANGAH","Prop. Sumatera Barat","SMA",".1623000","100.4789000"
"10305549","SMAN 1 2X11 ENAM LINGKUNG","JL. BARI  SICINCIN","Prop. Sumatera Barat","SMA","-.5631000","100.2759000"
