"schoolId","schoolName","schoolAddress","province","school_level","lat","long"
"69912450","SMA ISLAM TERPADU NURUL ILMI","JL. Pendidikan No. 1 KM 12","Prop. Riau","SMA",".7028000","101.5614000"
"69922924","SMA PERSIAPAN NEGERI BANGKO PUSAKO","JL. PENDEKAR BAHAN","Prop. Riau","SMA","1.8519170","100.8832914"
"10402935","SMA NEGERI 1 KUNTO DARUSSALAM","JL.SEI RUMBAI NO.88 KOTA LAMA","Prop. Riau","SMA","1.1604000","100.8112000"
"10496358","SMAS PLUS TARUNA ANDALAN","KOMPLEK PER II PT. RAPP","Prop. Riau","SMA",".4446000","101.8302000"
"10403694","SMAN 1 GUNUNG TOAR","JL. PETAPAHAN","Prop. Riau","SMA","-.5674000","101.3863000"
"10402923","SMA NEGERI 1 KABUN","JL.GUA TUJUH SERANGKAI NO.55 KABUN","Prop. Riau","SMA",".7131000","100.4304000"
"10494308","SMAN 1 KELAYANG","JL. NEGARA SIMPANG KELAYANG","Prop. Riau","SMA","-.7120000","102.1079000"
"10400815","SMAN 2 PINGGIR","JL. MUAJOLELO","Prop. Riau","SMA","1.2111000","101.1613000"
"69953793","SMA NEGERI 2 TELUK MERANTI","JL. Lintas Bono","Prop. Riau","SMA",".4043961","102.8222206"
"10403695","SMAN 1 SINGINGI HILIR","JL. JEND. SUDIRMAN NO. 01 RT. 01 RW. 01","Prop. Riau","SMA","-.1839000","101.2806000"
"10497417","SMAN 4 BANGKO PUSAKO","JL. H. ZULKAINI  BANGKO SEMPURNA KM.20","Prop. Riau","SMA","1.7594000","100.8188000"
"10498727","SMA SWASTA MOHD. YUDHA","Jl. Hang Tuah","Prop. Riau","SMA",".9820000","102.5256000"
"10495490","SMAN 2 RUPAT","JL.H.SIHI","Prop. Riau","SMA","1.7382000","101.6774000"
"10405227","SMAS MUHAMMADIYAH BANGKO","JL. SGB","Prop. Riau","SMA","1.9440000","100.9079000"
"10404020","SMA NEGERI 10 PEKANBARU","JL.BUKIT BARISAN","Prop. Riau","SMA",".4921000","101.4862000"
"69830687","SMA ISLAM TIBYAN AL INSAN","PARIT NO. 05 SELATAN SUNGAI SIMBAR","Prop. Riau","SMA",".1143780","103.7240160"
"10400847","SMAN 2 BUKIT BATU","RT.IV / RW III","Prop. Riau","SMA","1.4781000","101.9535000"
"10404314","SMAN 2 DUMAI","JL. PUTRI TUJUH","Prop. Riau","SMA","1.6600000","101.4441000"
"10495727","SMA NEGERI 3 RAMBAH HILIR","JL.PELAJAR NO. 02 MUARA MUSU","Prop. Riau","SMA",".8116000","100.3244000"
"10404022","SMAS SANTA MARIA","JL.RONGGO WARSITO","Prop. Riau","SMA",".5150270","101.4573600"
"10494572","SMAN 1 GAUNG","JL. RIAU NO.1  KUALA LAHANG","Prop. Riau","SMA","-.0217000","103.0973000"
"69955193","SMA NEGERI 2 MEMPURA","Jl. Alwi Rahman RT.01 RK.01","Prop. Riau","SMA",".8195600","102.0697640"
"10496497","SMAS INSAN TERPUJI","JL. INDRA PURI NO. 17","Prop. Riau","SMA",".5218000","101.4895000"
"69786365","SMAS PERSADA PEBENAAN","Jl. Sanubari","Prop. Riau","SMA","-.6671000","103.1204000"
"10494087","SMAN 1 TELUK MERANTI","JL. LINTAS BONO TELUK MERANTI","Prop. Riau","SMA",".1619000","102.6679000"
"69937647","SMA Teknologi Pekanbaru","Jl. Budi Daya","Prop. Riau","SMA",".4746828","101.3960925"
"10403436","SMAN 1 LUBUK DALAM","JL. BARU NO. 1  RAWANG KAO","Prop. Riau","SMA",".6186000","101.8101000"
"10493896","SMAN 1 PUJUD","JL. LINTAS TIMUR NO.1","Prop. Riau","SMA","1.4154000","100.4772000"
"10402954","SMA NEGERI 1 TANDUN","JL. JENDERAL SUDIRMAN NO. 10 TANDUN","Prop. Riau","SMA",".6091000","100.6429000"
"10403427","SMAN 1 KOTO GASIB","JL.RAYA KM.1","Prop. Riau","SMA",".7313000","101.8173000"
"10401526","SMAN 1 RENGAT","JL. SULTAN KM 4 RENGAT","Prop. Riau","SMA","-.3692000","102.5238000"
"10498638","SMAN 1 LUBUK BATU JAYA","Jl. Jend. Sudirman No.04","Prop. Riau","SMA","-.4251000","102.0533000"
"10401517","SMAN 1 PERANAP","JL. JEND. SUDIRMAN PERANAP","Prop. Riau","SMA","-.5188000","101.9726000"
"10494850","SMA NEGERI 1 RUMBIO JAYA","JL. AHMAD YANI","Prop. Riau","SMA",".5049000","101.1515000"
"69756576","SMAN 3 PUJUD","JL. LINTAS TANJUNG MEDAN","Prop. Riau","SMA","1.4043000","100.4851000"
"10405124","SMAN 1 KUBU BABUSSALAM","JL.HANG TUAH TELUK NILAP","Prop. Riau","SMA","1.9451000","100.4946000"
"10493895","SMAN 1 BANGKO PUSAKO","Jl. Lintas Riau - Sumut, Komplek Pendidikan Pematang Ibul","Prop. Riau","SMA","1.6414000","100.7953000"
"10405314","SMAN 2 TANAH PUTIH","Jln. Affandi Tungkang - Ujung Tanjung","Prop. Riau","SMA","1.3904000","100.9974000"
"10405547","SMAN 2 BAGAN SINEMBAH","JL. GARUDA","Prop. Riau","SMA","1.6723000","100.4682000"
"10401518","SMAN 1 SEBERIDA","JL. LINTAS TIMUR BELILAS","Prop. Riau","SMA","-.7104000","102.2044000"
"10495331","SMAS DARUL ULUM","JL MENGGALA KM 17","Prop. Riau","SMA","1.4509000","101.2089000"
"69867934","SMA NEGERI 5 TUALANG","JL. SULTAN SYARIF KASIM PERAWANG","Prop. Riau","SMA",".7318380","101.5468060"
"69734149","SMAN 1 PEKAITAN","SUAK TEMENGGUNG","Prop. Riau","SMA","1.9407000","100.8736000"
"69831509","SMAS AL AMIN BENGKALIS","JL. ANTARA UJUNG Gg. CEMPAKA PUTIH","Prop. Riau","SMA","1.4856010","102.1107400"
"10494310","SMAS MUHAMMADIYAH SEBERIDA","Jl. Sudirman Desa Buluh Rampai (Blok B), Belilas","Prop. Riau","SMA","-.8306000","102.3110000"
"10494578","SMAS TRI TUNGGAL","PULAU BURUNG","Prop. Riau","SMA","-.3077000","103.1237000"
"10494082","SMAN 2 PANGKALAN KURAS","JL. LINTAS TIMUR KM 102 TERANTANG MANUK","Prop. Riau","SMA","-.0265000","101.9096000"
"69752433","SMA THAHIRIYAH","REMBAYAN SURYA","Prop. Riau","SMA","-.4970000","103.3253000"
"60726481","SMAN 3 LANGGAM","Jalan Sekolah No.01 Desa Segati","Prop. Riau","SMA",".5522000","103.1845000"
"69959292","SMA NEGERI 2 LUBUK DALAM","JL.HINDUK PALAS KAMPUNG SIALANG PALAS KECAMATAN LUBUK DALAM","Prop. Riau","SMA",".5634000","101.8129000"
"10400366","SMA NEGERI 1 KUOK","SUNGAI MAKI","Prop. Riau","SMA",".2125000","101.0728000"
"10495026","SMA NEGERI 2 GUNUNG SAHILAN","Jl. SKPA UPT II Desa Gunung Sari","Prop. Riau","SMA",".0128000","101.3698000"
"10402072","SMAN 1 TANAH MERAH","JL. PERINTIS UTAMA NO.2 TANAH MERAH","Prop. Riau","SMA","-.5126550","103.3821270"
"10401513","SMAS SERUMPUN AIR MOLEK","JL. JEND. SUDIRMAN SERUMPUN JAYA","Prop. Riau","SMA","-.3343000","102.2538000"
"69790716","SMA EDUCATION","Jl. Kulim No 8 Tampan","Prop. Riau","SMA",".5256000","101.3800000"
"10497032","SMAS TELUK BELENGKONG","JL.PENDIDIKAN NO.3 SAKA ROTAN","Prop. Riau","SMA",".2945000","103.4337000"
"10400843","SMAN 2 BENGKALIS","JL. PRAMUKA  BENGKALIS","Prop. Riau","SMA","1.4644000","102.1326000"
"10214108","SMAS BERINGIN","JL.SIMPANG KILI","Prop. Riau","SMA","1.2945000","101.0720000"
"10494085","SMAN 1 BANDAR PETALANGAN","JL. DATUK M. SYAFEI NO. 17","Prop. Riau","SMA",".1249000","101.8471000"
"10495716","SMA NEGERI 1 KEPENUHAN HULU","JL.JENDRAL SUDIRMAN","Prop. Riau","SMA",".9484000","100.5663000"
"10400343","SMA NEGERI 1 KAMPAR","JL. RAYA PEKANBARU - BANGKINANG","Prop. Riau","SMA",".3526417","101.0999116"
"10493782","SMAN 1 RANTAU KOPAR","JL. LINTAS SEKAPAS - RANTAU .KOPAR","Prop. Riau","SMA","1.3780000","101.0141000"
"69900223","SMA Plus Terpadu","Jl. Damai Ujung","Prop. Riau","SMA",".4824161","101.4056103"
"10400858","SMAN 1 RUPAT","JL. MESJID KAMPUNG JAWA","Prop. Riau","SMA","1.7265000","101.5175000"
"10403995","SMAS DATUK BATU HAMPAR","JL.HANGTUAH GG.SOPONYONO NO. 1","Prop. Riau","SMA",".5131000","101.4633000"
"10494874","SMA NEGERI 4 TAPUNG","JL.POROS","Prop. Riau","SMA",".4902000","101.0854000"
"10496886","SMAN 2 KAMPAR TIMUR","JL. CEMPAKA DESA PULAU BIRANDANG","Prop. Riau","SMA",".1747000","101.3280000"
"10403998","SMAS AL HUDA","JL.HR.SUBRANTAS KM. 9","Prop. Riau","SMA",".4773000","101.3927000"
"10401561","SMAN 1 LIRIK","JL. LINTAS TIMUR SUMATRA LIRIK","Prop. Riau","SMA","-.1760000","102.2316000"
"69938527","SMA NEGERI 3 SIAK HULU","JL. PURWOSARI","Prop. Riau","SMA",".3229080","101.5289060"
"10404969","SMAN 1 KANDIS","JL. CUT NYAK DIEN","Prop. Riau","SMA",".8799000","101.2462000"
"10400851","SMAN 4 BENGKALIS","JL.UTAMA","Prop. Riau","SMA","1.5237000","102.0513000"
"10497552","SMA IT AL ITTIHAD","KOMPLEK MESJID AL-ITTIHAD","Prop. Riau","SMA",".5759000","101.4348000"
"10494511","SMAS ISLAM DARUL HUDA LIRIK","JL. PESANTREN LIRIK","Prop. Riau","SMA","-.1691000","102.2686000"
"10494873","SMA NEGERI 3 TAPUNG","JL. BARU","Prop. Riau","SMA",".6256000","100.9885000"
"10400307","SMA NEGERI 2 XIII KOTO KAMPAR","JL. Pasar No. 4 Pulau Gadang","Prop. Riau","SMA",".2826000","100.8544000"
"10405315","SMAN 3 TANAH PUTIH","SINTUNG","Prop. Riau","SMA","1.4485000","100.9344000"
"10496498","SMAS KUSUMA","JL. BUKIT BARISAN","Prop. Riau","SMA",".4862000","101.4952000"
"10404006","SMAS BABUSSALAM","JL.HR.SOEBRANTAS NO. 62","Prop. Riau","SMA",".5073000","101.3394000"
"10400854","SMAS KARYA","JL. STUDENT","Prop. Riau","SMA","1.2934000","101.1843000"
"10494575","SMAN TUAH KEMUNING","JL. LINTAS TIMUR SELENSEN","Prop. Riau","SMA","-.8453000","102.8200000"
"10495437","SMA NEGERI 1 RANGSANG PESISIR","Jl. Syarif Normat","Prop. Riau","SMA","1.0820000","102.9279000"
"69867929","SMA NEGERI 2 MINAS","JL. DESA MINAS BARAT KM. 38","Prop. Riau","SMA",".8862710","101.4652870"
"10403428","SMAN 1 KERINCI KANAN","JL. PERTAMINA KM.72 GG PELAJAR NO.1","Prop. Riau","SMA",".4621000","101.8135000"
"69774623","SMAS ADVENT PEKANBARU","JL. MELATI No.49","Prop. Riau","SMA",".5260650","101.4377870"
"10401560","SMAN 1 BATANG CENAKU","JL. LINTAS SELATAN AUR CINA","Prop. Riau","SMA","-.4516000","102.6600000"
"69895331","SMA PELITA KASIH","JL. KERANG MENGGALA JONCTION KM 3","Prop. Riau","SMA","1.4896441","100.9118450"
"10403002","SMAS M RAMBAH","JL. DIPONEGORO KM.2 PASIR PENGARAIAN","Prop. Riau","SMA",".9354000","100.2733000"
"60724575","SMAN 4 BAGAN SINEMBAH       ","JL.LINTAS BAKTI MAKMUR","Prop. Riau","SMA","1.6322000","100.6884000"
"10400368","SMA NEGERI 1 KAMPAR KIRI","JL. HR. SOEBRANTAS RAYA, LIPATKAIN","Prop. Riau","SMA",".0580000","101.2048000"
"10400873","SMAN 1 BENGKALIS","JL. ARIF RAHMAN HAKIM","Prop. Riau","SMA","1.4743000","102.1138000"
"10405621","SMAS KARTINI PANIPAHAN","JLN.BIJAKSANA NO 1 PANIPAHAN","Prop. Riau","SMA","2.4324000","100.3278000"
"10402057","SMAN 2 ENOK","JL. PENDIDIKAN NO. 7","Prop. Riau","SMA","-.5475000","102.9591000"
"10495794","SMA NEGERI 3 TAMBUSAI","Dalu-Dalu","Prop. Riau","SMA","1.2172000","100.4086000"
"10400363","SMA SWASTA PURNA MANUNGGAL","JL. ANGGREK XV","Prop. Riau","SMA",".7528000","101.0859000"
"69880226","SMA C9 SCHOOL","Komp. Perum Graha Seri","Prop. Riau","SMA",".3513640","101.8199400"
"69822707","SMAS KARYA PRAJA","Jl. Semangka Seberang Tembilahan","Prop. Riau","SMA","-.4087000","103.1348000"
"10497356","SMAN 1 RAKIT KULIM","KOTA BARU","Prop. Riau","SMA","-.5341000","102.0840000"
"69899513","SMA NEGERI 2 RAMBAH","Jl. TUANKU TAMBUSAI PASIR PENGARAIAN","Prop. Riau","SMA",".8647000","100.2950000"
"10400932","SMA SWASTA PEMDA PERANGGAS","Jl. H. Muhammad Ali","Prop. Riau","SMA","1.1325000","102.8567000"
"10401516","SMAN 1 PASIR PENYU","JL. SIMP. TIGA LIRIK AIR MOLEK","Prop. Riau","SMA","-.3481000","102.2398000"
"69943283","SMA IT PLUS BAZMA BRILLIANT","Jl. Sekolah, Komplek Perumahan Pertamina","Prop. Riau","SMA","1.6314215","101.4039790"
"10405122","SMAN 1 KUBU","TELUK MARBAU","Prop. Riau","SMA","1.9451000","100.4999000"
"10497468","SMAS YAPIM TARUNA","BAGAN BATU","Prop. Riau","SMA","1.6994000","100.3892000"
"10402942","SMA NEGERI 3 TAMBUSAI UTARA","JL.HANG TUAH NO.67","Prop. Riau","SMA","1.3301000","100.1523000"
"10400373","SMA NEGERI 1 TAPUNG HILIR","JL. PENDIDIKAN NO.2","Prop. Riau","SMA",".5002000","101.1851000"
"10403691","SMAN 1 SINGINGI","JL. JEND. SUDIRMAN NO. 175","Prop. Riau","SMA","-.4791000","101.3902000"
"10494386","SMAN 1 KUANTAN HILIR SEBERANG","JL. LINGKAR SELATAN","Prop. Riau","SMA","-.2180000","101.5007000"
"69856639","SMA BHAKTI NUSA","DESA SIMPANG KATEMAN","Prop. Riau","SMA",".1573060","103.3401270"
"10402939","SMA NEGERI 1 UJUNG BATU","JL. JENDERAL SUDIRMAN NO. 17","Prop. Riau","SMA",".7059000","100.5405000"
"10400870","SMAS CENDANA MANDAU","KOMPLEK KRAKATAU CPI","Prop. Riau","SMA","1.2441000","101.2053000"
"10494192","SMAN BERNAS BINSUS","JL. H. ABD.JALIL KOMP. BAKTI","Prop. Riau","SMA",".4283000","101.8426000"
"10495584","SMAS SALAFIYAH BABUSSALAM","JL.BUKIT SULIGI","Prop. Riau","SMA",".6049000","100.4618000"
"69897198","SMA IT IMAM SYAFII 2","JL. SOEKARNO HATTA","Prop. Riau","SMA",".4458319","101.4299998"
"10400347","SMA NEGERI 1 SALO","JL. STANUM","Prop. Riau","SMA",".3287000","101.0047000"
"69894224","SMAN 5 BAGAN SINEMBAH","JL. MELATI","Prop. Riau","SMA","1.6321000","100.6884000"
"10402729","SMAN 1 KERUMUTAN","JL.EKSPAN SUMATERA BUKIT. GARAM","Prop. Riau","SMA","-.0778000","102.2966000"
"10400853","SMAN 5 MANDAU","JL.SIDOREJO","Prop. Riau","SMA","1.2841000","101.3139000"
"69762781","SMA NEGERI 5 TAPUNG","Jln. karosin km 5 Garuda Sakti","Prop. Riau","SMA",".4980000","101.1198000"
"10496826","SMA NEGERI 1 TELUK BELENGKONG","JL.PENDIDIKAN NO.02 BERINGIN MULYA TELUK BELENGKONG","Prop. Riau","SMA",".2186000","103.3851000"
"10400844","SMAN 2 MANDAU","JL. JEND. SUDIRMAN","Prop. Riau","SMA","1.2686000","101.2038000"
"69772269","SMAN 6 PINGGIR","JL. TAMBUSAI  SUKAMAJU","Prop. Riau","SMA","1.0864000","101.2262000"
"10404987","SMAS YKPP DUMAI","JL. CILACAP BUKIT DATUK","Prop. Riau","SMA","1.6433000","101.4083000"
"10405620","SMAN 1 PASIR LIMAU KAPAS","Jl. Kuning Jalil Sei Sampai Niat","Prop. Riau","SMA","2.4600000","100.3389000"
"10495169","SMAN 7 MANDAU","JL. RANGAU KM 11 DURI","Prop. Riau","SMA","1.2144000","101.2364000"
"10402077","SMAN 1 GAUNG ANAK SERKA","JL. MERDEKA TIMUR NO.90 TELUK PINANG","Prop. Riau","SMA","-.6888000","103.1553000"
"10496393","SMAS TIGA PUTRA PERSADA","PT.HUTAHAEN","Prop. Riau","SMA","1.1037000","100.1877000"
"10404019","SMA NEGERI 8 PEKANBARU","JL.ABDUL MUIS NO. 14","Prop. Riau","SMA",".5091200","101.4585850"
"10402731","SMAN 1 UKUI","JL. LINTAS TIMUR UKUI DUA","Prop. Riau","SMA","-.1508000","102.1659000"
"10401520","SMAN 1 RENGAT BARAT","JL. GERBANGSARI PEMATANG REBA","Prop. Riau","SMA","-.4293000","102.3788000"
"10402058","SMAS MUHAMMADIYAH TEMBILAHAN","JL. PENDIDIKAN  NO.3 TEMBILAHAN","Prop. Riau","SMA","-.3109000","103.1625000"
"10494083","SMAN 1 PANGKALAN LESUNG","JL. EXPAN-SUMATRA, NO. 17","Prop. Riau","SMA",".0118000","102.0848000"
"10400838","SMA NEGERI 2 TEBING TINGGI","Jl. Tutwuri Handayani Kelurahan Selatpanjang Timur","Prop. Riau","SMA",".9791000","102.6793000"
"10497544","SMAS SANTO YOSEF","JL.GAJAH MADA","Prop. Riau","SMA","1.3077000","101.0856000"
"10496394","SMA NEGERI 1 BONAI DARUSSALAM","JL. Lintas RIAU - MEDAN","Prop. Riau","SMA","1.1256000","100.7955000"
"10404002","SMAS AN NAAS","JL. PIAS RT. 04 RW. 04","Prop. Riau","SMA",".6317000","101.4026000"
"10498720","SMA NEGERI 3 TEBING TINGGI BARAT","Jl. Badrun No. 60","Prop. Riau","SMA",".8451000","102.4545000"
"10401512","SMAS PGRI RENGAT","JL. SULTAN KM. 3 RENGAT","Prop. Riau","SMA","-.3731000","102.6158000"
"10402074","SMAN 1 MANDAH","JL. M. SHALEH THALAHA","Prop. Riau","SMA","-.4569000","102.9894000"
"10400855","SMAS HUBBUL WHATTAN","JL. JEND. SUDIRMAN","Prop. Riau","SMA","1.2983000","101.1790000"
"10495011","SMAN BINA BAKTI","JL. PERTANIAN RT 01 RW 01 SAPAT","Prop. Riau","SMA","-.3207000","103.3161000"
"10400875","SMAN 1 SIAK KECIL","JL. A.MANAF YAHYA","Prop. Riau","SMA","1.2490000","102.1394000"
"10495326","SMA NEGERI 1 TEBING TINGGI TIMUR","Jl. Parit Baru","Prop. Riau","SMA",".9714000","102.7395000"
"69866097","SMA IT AL - QISTHI","JL. RAYA PEKANBARU TELUK KUANTAN  KM. 15","Prop. Riau","SMA",".4025660","101.4215010"
"10400371","SMA NEGERI 1 TAMBANG","Jl. Pekanbaru - Bangkinang Km. 29","Prop. Riau","SMA",".2877000","101.4081000"
"10402940","SMA NEGERI 2 RAMBAH HILIR","JL. RAYA SIMPANG KUMU","Prop. Riau","SMA","1.0449000","100.4421000"
"69822710","SMA NEGERI 2 KOTO KAMPAR HULU","Jl. Lingkar Sibiruang","Prop. Riau","SMA",".2952000","100.8207000"
"10495483","SMAS DATUK PADUKA","SIMPANG KANAN","Prop. Riau","SMA","1.7371000","100.4940000"
"10494992","SMAN 1 PERHENTIAN RAJA","JL. RAYA PEKANBARU - TALUK KUANTAN","Prop. Riau","SMA",".3391940","101.4210060"
"10400260","SMA SWASTA YLPK BANGKINANG","Jl. A. Rahman Saleh Bangkinang","Prop. Riau","SMA",".2203000","101.1900000"
"69867930","SMA NEGERI 3 KANDIS","Jl. Sawit Indah KM. 86","Prop. Riau","SMA","1.0094300","101.2556250"
"10497506","SMAS ISLAM TERPADU ARRAHMA","JL. LINTAS HARAPAN JAYA BAGAN BATU","Prop. Riau","SMA","1.7647000","100.4187000"
"10496496","SMAS AL AZHAR SYIFA BUDHI PEKAN BARU II","JLN. S.PARMAN NO 27.A","Prop. Riau","SMA",".5188650","101.4592270"
"10494916","SMA NEGERI 1 TAPUNG HULU","Jl. Kampung Lama No. 10","Prop. Riau","SMA",".5787000","100.9534000"
"10498690","SMAS BINA ILMU T TAMBUSAI","PONDOK KRESEK","Prop. Riau","SMA","1.3706000","100.5484000"
"10495531","SMA NEGERI 2 UJUNG BATU","Jl. Jend. Sudirman No. 10","Prop. Riau","SMA",".7408000","100.4959000"
"10494618","SMAS ISLAM AS SHOFA","JL. TUANKU TAMBUSAI UJUNG","Prop. Riau","SMA",".4510000","101.4117000"
"10400351","SMA NEGERI 2 KUOK","JL. AL-IMAN","Prop. Riau","SMA",".3148000","100.9350000"
"10402952","SMA NEGERI 1 KEPENUHAN","JL.SYEH ABDUL WAHAB ROKAN","Prop. Riau","SMA",".9227000","100.5538000"
"10403425","SMAN 1 TUALANG","JL.SULTAN ALAMUDDINSYAH KM.7","Prop. Riau","SMA",".6859000","102.6737000"
"10404985","SMAN 5 DUMAI","JL. M. YUSUF","Prop. Riau","SMA","1.5627000","101.7140000"
"10495231","SMAS DJUWITA","JL. SERAI","Prop. Riau","SMA",".4773000","101.3870000"
"10405622","SMAS METHODIST TELUK PULAI","Jl. Methodist No. 1","Prop. Riau","SMA","2.4436000","100.3234000"
"10403241","SMAN 1 BANGKO","JL. GEDUNG NASIONAL","Prop. Riau","SMA","1.9657000","100.8458000"
"10494086","SMAN 1 BANDAR SEKIJANG","JL. LINTAS TIMUR KM 25 DESA SIMPANG. BERINGIN","Prop. Riau","SMA",".5281000","102.0532000"
"10404021","SMAS YLPI PEKANBARU","JL.KAHARUDDIN NASUTION KM 11","Prop. Riau","SMA",".4457130","101.4505030"
"10403426","SMAN 1 MINAS","JL.SUMAN HS. JAYA","Prop. Riau","SMA",".6989000","101.4451000"
"10402073","SMAN 1 RETEH","JL. H. SANUSI PULAU KIJANG","Prop. Riau","SMA","-.6979000","103.0480000"
"10494084","SMAN 1 PELALAWAN","JL. ISTANA SAYAP, KEL. PELALAWAN","Prop. Riau","SMA",".4332000","102.1620000"
"69849416","SMA NEGERI 2 KAMPAR KIRI TENGAH","Jl. Raya Pekanbaru - Taluk Kuantan Km. 48","Prop. Riau","SMA",".1837680","101.2753270"
"10495346","SMAN 3 MANDAU","JL. TUANKU TAMBUSAI","Prop. Riau","SMA","1.3007000","101.1743000"
"10403419","SMAN 3 TUALANG","JL. AMD PINANG SEBATANG TIMUR","Prop. Riau","SMA",".7115000","102.7315000"
"10400867","SMAS DHARMA BHAKTI","JL.KEBUN KARET","Prop. Riau","SMA","1.2842000","101.1865000"
"10404031","SMA NEGERI 9 PEKANBARU","JL.SEMERU NO. 12","Prop. Riau","SMA",".5262550","101.4578970"
"10400857","SMAN 1 BANTAN","JL. SUKARNO HATTA","Prop. Riau","SMA","1.5302000","102.2243000"
"10404030","SMAS WIDYA GRAHA","JL. BANDA  ACEH GG. NANGKA","Prop. Riau","SMA",".5081230","101.4704980"
"10403690","SMAN 2 SENTAJO RAYA","JL. SOEKARNO HATTA","Prop. Riau","SMA","-.4044000","101.5142000"
"10494576","SMAN 1 KERITANG","JL. H. USMAN NO. 4 KOTA BARU","Prop. Riau","SMA","-.8458000","102.7597000"
"10495226","SMA NEGERI 14 PEKANBARU","JL.TENGKU BAY","Prop. Riau","SMA",".4502980","101.4681680"
"10493899","SMAN 3 BANGKO PUSAKO","BANGKO PERMATA","Prop. Riau","SMA","1.7501000","100.8539000"
"10495428","SMA SWASTA AL - MAARIF NADLATUL ULAMA","JL. UTAMA DESA ALAHAIR","Prop. Riau","SMA",".9822000","102.6814000"
"10404018","SMA NEGERI 7 PEKANBARU","JL. KAPUR NO. 3","Prop. Riau","SMA",".5426000","101.4310000"
"10400876","SMAN 4 PINGGIR","JL. GAJAH MADA","Prop. Riau","SMA","1.2160000","101.1903000"
"10404297","SMAS LANCANG KUNING","JL.GUNUNG MERAPI","Prop. Riau","SMA","1.6743000","101.4500000"
"10400846","SMAN 2 BANTAN","JL. BUDI LUHUR","Prop. Riau","SMA","1.5398000","102.3616000"
"69754490","SMA NEGERI  UNGGUL TERPADU SERAMBI MEKKAH ","Jl. HR. Soebrantas Bangkinang","Prop. Riau","SMA",".3263590","101.0189440"
"69900128","SMA SETIA BUDI","JL. MERDEKA 66B","Prop. Riau","SMA","1.9768000","100.9003000"
"10497416","SMA NEGERI OLAHRAGA","JL. YOS SUDARSO NO. 103 RUMBAI PESISIR","Prop. Riau","SMA",".5762000","101.4297000"
"69855691","SMA NEGERI 15 PEKANBARU","Jl. Cipta Karya","Prop. Riau","SMA",".4426000","101.3925000"
"10495335","SMAN 3 BUKIT BATU","JL.BUDI UTOMO","Prop. Riau","SMA","1.3610000","101.6975000"
"69954004","SMAN 2 KUBU","JL. SIMPANG LASA SUNGAI SEGAJAH","Prop. Riau","SMA","2.0740182","100.5599234"
"69855646","SMAN 1 BATANG GANSAL","BATANG GANSAL","Prop. Riau","SMA","-.8221000","102.5842000"
"69899515","SMA NEGERI 3 RAMBAH","JL. DIPONEGORO PASIR PENGARAIAN","Prop. Riau","SMA",".8055775","100.2328203"
"10405226","SMAS METHODIST BANGKO","JL. UTAMA","Prop. Riau","SMA","2.1610000","100.7990000"
"10400872","SMA NEGERI 1 TEBING TINGGI BARAT","Jl. H. Suhul Alai","Prop. Riau","SMA",".9204000","102.7386000"
"10400372","SMA NEGERI 1 TAPUNG","JL.PETAPAHAN - MINAS KM.93","Prop. Riau","SMA",".7194000","101.1469000"
"10495030","SMAS WITAMA NASIONAL PLUS","JL. TANJUNG DATUK NO. 339","Prop. Riau","SMA",".5463830","101.4596580"
"69949554","SMA SWASTA LPM IV KOTO SETINGKAI","Desa IV Koto Setingkai","Prop. Riau","SMA","-.0472267","101.1235894"
"10403601","SMAN 1 SENTAJO RAYA","JL. PELAJAR","Prop. Riau","SMA","-.5126000","101.5454000"
"69822706","SMAN 4 RUPAT","Jl. Sultan Syarif Kasim","Prop. Riau","SMA","1.7930000","101.4747000"
"10497452","SMAS MANDIRI","JL. M. BOYA","Prop. Riau","SMA","-.5042000","103.0778000"
"10404008","SMAS PGRI","JL.BRIGJEND KATAMSO NO. 44","Prop. Riau","SMA",".5026000","101.4584000"
"10404296","SMAN 1 DUMAI","JL. SOEKARNO-HATTA","Prop. Riau","SMA","1.6193000","101.4353000"
"10405223","SMAN 3 BANGKO","Jl Bono No. 10","Prop. Riau","SMA","2.0205000","100.8911000"
"10403796","SMAN 1 TELUK KUANTAN","JL. PERINTIS KEMERDEKAAN","Prop. Riau","SMA","-.5330000","101.5597000"
"69753304","SMAN 2 KANDIS","JL.SEKOLAH DUSUN GARUT DESA BELUTU","Prop. Riau","SMA",".9231000","101.3885000"
"10496597","SMAN 1 PUSAKO","JL.DUBALANG MISAI","Prop. Riau","SMA","1.0095000","102.1119000"
"10400849","SMA NEGERI 3 TEBING TINGGI","Jl. Dorak","Prop. Riau","SMA",".9507000","102.7619000"
"10495639","SMA NEGERI 2 ROKAN IV KOTO","JL.PETALING JAYA No. 19","Prop. Riau","SMA",".6884861","100.4913613"
"10404013","SMA NEGERI 2 PEKANBARU","JL. Nusa Indah No. 4","Prop. Riau","SMA",".5213000","101.4316000"
"69761963","SMAN 2 SINGINGI HILIR","JL JEND SUDIRMAN DESA BERINGIN JAYA","Prop. Riau","SMA","-.2253610","101.3220920"
"10495715","SMA NEGERI 2 TAMBUSAI UTARA","JL.PELAJAR NO. 2  MAHATO","Prop. Riau","SMA","1.3675000","100.4177000"
"10403996","SMAS CENDANA","JL. KOMPLEK PALEM PT CHEVRON","Prop. Riau","SMA",".5815000","101.4308000"
"10496658","SMAN 5 PINGGIR","Jl. JENDERAL SUDIRMAN SURINAME","Prop. Riau","SMA","1.3078000","101.0849000"
"10404453","SMAN PLUS PROP RIAU","JL. KUBANG RAYA","Prop. Riau","SMA",".4112080","101.4021370"
"10400369","SMA NEGERI 1 KAMPAR KIRI HILIR","JL.RAYA PEKANBARU-LIPAT KAIN KM.32","Prop. Riau","SMA",".2143720","101.3646120"
"10400358","SMA NEGERI 2 BANGKINANG KOTA","JL.  A. RAHMAN SALEH NO. 55","Prop. Riau","SMA",".3297000","101.0322000"
"10403001","SMA NEGERI 1 TAMBUSAI UTARA","JL. PELAJAR RANTAU KASAI","Prop. Riau","SMA","1.2336000","100.3459000"
"10495347","SMAN 6 MANDAU","JL. Lintas Duri Dumai KM 18 Sebangar","Prop. Riau","SMA","1.4001000","101.1582000"
"10494911","SMA NEGERI 2 SIAK HULU","JL. KUBANG RAYA NO. 62","Prop. Riau","SMA",".7406000","101.2199000"
"69878236","SMA IT INSAN UTAMA","JL. HANDAYANI II NO. 88","Prop. Riau","SMA",".4552940","101.4395580"
"69870320","SMA ISLAM TERPADU DAARUL RAHMAN","JL. PROVINSI","Prop. Riau","SMA","-.4339980","103.0374630"
"69878867","SMA NEGERI 4 TUALANG","JL. H. ABDULLAH MAREDAN","Prop. Riau","SMA",".6102900","101.6633060"
"10404027","SMAS TARUNA","JL.MELUR GG.LYLI NO. 40","Prop. Riau","SMA",".5267930","101.4303950"
"10404015","SMA NEGERI 4 PEKANBARU","JL. ADI SUCIPTO NO. 67","Prop. Riau","SMA",".4623000","101.4336000"
"10403792","SMAN PINTAR","JL. PROKLAMASI","Prop. Riau","SMA","-.5446000","101.5487000"
"10400841","SMAN 1 RUPAT UTARA","JL. ZAINAL SALEH","Prop. Riau","SMA","2.1023000","101.6500000"
"10405317","SMAN 5 TANAH PUTIH","JL. PAYUNG SEKAKI NO. 4","Prop. Riau","SMA","1.4724562","100.8154231"
"10498719","SMA NEGERI 2 TEBING TINGGI TIMUR","Jl. Kampung Lama","Prop. Riau","SMA",".8760000","102.9024000"
"10404970","SMAN 2 TUALANG","JL.WAJA WANGSA","Prop. Riau","SMA",".6391000","101.5987000"
"10493781","SMAN 1 SIMPANG KANAN","JL. PELAJAR RAWA MULIA","Prop. Riau","SMA","1.7255000","100.4968000"
"10400346","SMA NEGERI 2 TAPUNG","JL. GARUDA SAKTI KM. 30 SARI GALUH","Prop. Riau","SMA",".5578000","101.1492000"
"10401563","SMAN 2 PERANAP","JL. PENDIDIKAN BATU RIJAL HULU","Prop. Riau","SMA","-.4894000","101.9932000"
"69897142","SMAN 5 BANGKO PUSAKO","JL. KARYA BERSAMA","Prop. Riau","SMA","1.6734574","100.7958462"
"10498633","SMAN 9 MANDAU","JL STADION, DURI","Prop. Riau","SMA","1.1752000","101.2420000"
"10498724","SMA SWASTA MERANTI","JL. Lintas Sungai Tengah","Prop. Riau","SMA","1.1003000","102.3420000"
"10403987","SMAS HANDAYANI","JL.KAPTEN FADILAH NO. 1","Prop. Riau","SMA",".5241000","101.4555000"
"10403697","SMAN 1 CERENTI","JL. A. YANI NO. 02","Prop. Riau","SMA","-.4967000","101.8500000"
"10405548","SMAS PEMBANGUNAN","Jalan Imam Bonjol Bagan Batu","Prop. Riau","SMA","1.5717000","100.5825000"
"10403015","SMA NEGERI 1 BANGUN PURBA","JL.JENDRAL SUDIRMAN TANGUN","Prop. Riau","SMA",".8874000","100.1738000"
"10498726","SMA SWASTA TUAH ANAK NEGERI","Jl. Parit masjid Rt 002/Rw 005","Prop. Riau","SMA",".9972000","102.5622000"
"10404986","SMAS PGRI","JL.KESUMA","Prop. Riau","SMA","1.6802000","101.4505000"
"10400356","SMA SWASTA LKMD SUKARAMAI","Jl. Pendidikan No. 6","Prop. Riau","SMA",".5224000","100.9725000"
"10403692","SMAN 1 KUANTAN MUDIK","JL. JEND. SUDIRMAN NO. 055","Prop. Riau","SMA","-.6296000","101.4732000"
"10495180","SMAN 5 BENGKALIS","JL.RAYA SUNGAI BATANG","Prop. Riau","SMA","1.4417000","102.2703000"
"10404014","SMA NEGERI 3 PEKANBARU","JL.YOS SUDARSO 100 A","Prop. Riau","SMA",".6006000","101.4240000"
"69787182","SMAS Mutiara Harapan","kom. PT RAPP TS 1","Prop. Riau","SMA",".2198000","102.9799000"
"69786368","SMAS DWIMAS SEJATI","PT. BNS Km. 12.5 Desa Rotan Semelur Pelangiran","Prop. Riau","SMA",".3800000","103.3451000"
"10405053","SMAN 2 SIAK","JL.SUAK LANJUT","Prop. Riau","SMA",".7860000","101.8195000"
"10403077","SMAS M UJUNG BATU","JL.DAAU SEBATANG SIMPAG SIABU","Prop. Riau","SMA",".7115000","100.5216000"
"10400350","SMA NEGERI 1 KAMPAR UTARA","JL. RAYA BANGKINANG-PEMATANG KULIM KM 13","Prop. Riau","SMA",".3908000","101.0653000"
"10400840","SMAN 1 BUKIT BATU","JL. AHMAD YANI","Prop. Riau","SMA","1.3312000","102.1522000"
"10403429","SMAN 1 DAYUN","JL.KH.A.DAHLAN NO.5 SIALANG SAKTI","Prop. Riau","SMA",".5999000","101.9786000"
"10400359","SMA NEGERI 1 XIII KOTO KAMPAR","JL.PELAJAR NO.3","Prop. Riau","SMA",".1064000","100.8208000"
"10404011","SMA NEGERI 12 PEKANBARU","JL.GARUDA SAKTI KM.3","Prop. Riau","SMA",".4896000","101.3628000"
"69752431","SMAN IT SYECH WALID THAIB SHALEH INDRAGIRI","TELUK SUNGKA","Prop. Riau","SMA","-.1614000","103.2956000"
"10497450","SMA NEGERI 3 RANGSANG PESISIR","Jl. Poros","Prop. Riau","SMA",".7117000","103.0153000"
"10498688","SMAN 2 KUBU BABUSSALAM","KEP. JOJOL","Prop. Riau","SMA","2.0289000","100.6275000"
"10404988","SMAN BINSUS KOTA DUMAI","JL. INPRES","Prop. Riau","SMA","1.6588000","101.4577000"
"10403689","SMAN 1 BENAI","Jl. Soekarno Hatta NO 01 Benai - 29552","Prop. Riau","SMA","-.4897000","101.4925000"
"69955042","SMA SWASTA PUTRI PUYU","JL. UTAMA","Prop. Riau","SMA","1.2891190","102.4204810"
"10400367","SMAN 1 KAMPAR TIMUR","JL. NEGARA KM.40 PEKANBARU-BANGKINANG","Prop. Riau","SMA",".3534000","101.1814000"
"10405126","SMAS METHODIST PULAU HALANG MUKA","PULAU HALANG MUKA","Prop. Riau","SMA","1.9486000","100.4768000"
"10493897","SMAN 2 BANGKO PUSAKO","BANGKO KANAN","Prop. Riau","SMA","1.6406000","100.7870000"
"10404670","SMAN 1 BUNUT","JL. PELAJAR NO. 12 PKL. BUNUT","Prop. Riau","SMA",".1931000","102.1874000"
"10400852","SMAN 4 MANDAU","JL. BATIN BETUAH","Prop. Riau","SMA","1.2932000","101.1771000"
"69761964","SMAN 3 SINGINGI HILIR","JL POROS DESA SUNGAI BULUH","Prop. Riau","SMA","-.2783000","101.4159000"
"10402078","SMAN 1 ENOK","JL. KESEHATAN","Prop. Riau","SMA","-.5536000","103.1039000"
"10493898","SMAN 2 PUJUD","JL. PUTRI HIJAU NO. 01","Prop. Riau","SMA","1.4168000","100.4880000"
"10402076","SMAN 1 KATEMAN","JL. PENDIDIKAN SUNGAI GUNTUNG","Prop. Riau","SMA",".3026000","103.6197000"
"10495016","SMA NEGERI 2 TAMBANG","Jl. Bupati Desa Kualu","Prop. Riau","SMA",".3721000","101.4537000"
"10497412","SMAN 4 TANAH PUTIH","Jl. Lintas Riau-Sumut, Ujung Tanjung","Prop. Riau","SMA","1.4459000","100.9326000"
"69893655","SMA NEGERI 2 RUMBIO JAYA","JL TRANSMIGRASI DESA SIMPANG PETAI","Prop. Riau","SMA",".4495718","101.1542708"
"10404017","SMA NEGERI 6 PEKANBARU","JL.BAMBU KUNING NO. 28","Prop. Riau","SMA",".5348000","101.4755000"
"10400842","SMA NEGERI 1 MERBAU","Jl. D.I. Panjaitan","Prop. Riau","SMA","1.0763000","102.4210000"
"10403993","SMAS MUHAMMADIYAH","JL.KH.AHMAD DAHLAN NO. 90","Prop. Riau","SMA",".5115830","101.4372980"
"10494582","SMAS ASHABUL MUKMININ","JL. KH. DEWANTARA TELUK BELENGKONG","Prop. Riau","SMA","-.1607000","103.3597000"
"10404003","SMAS AN NUR","JL. SISINGAMANGARAJA","Prop. Riau","SMA",".5279080","101.4505200"
"10494748","SMA NEGERI 1 BANGKINANG ","JL. BENDUNGAN UWAI, KELURAHAN PULAU","Prop. Riau","SMA",".2405000","101.0971000"
"10494573","SMAN DHARMA PENDIDIKAN","JL. PENDIDIKAN NO. 3 KEMPAS JAYA","Prop. Riau","SMA","-.5376000","102.7927000"
"10400866","SMAS KURNIA JAYA","JL.PELAJAR","Prop. Riau","SMA","1.8985000","101.4167000"
"10494309","SMAN 2 KELAYANG","JL. DUPATI NO.1 KOTA MEDAN","Prop. Riau","SMA","-.5146000","102.0872000"
"10405628","SMAN 1 SINABOI","Jl. Poro Sungai Nyamuk","Prop. Riau","SMA","2.2608000","100.8763000"
"60724799","SMAS DARMA YUDHA","Jl. S.M. Amin No. 189","Prop. Riau","SMA",".5305000","101.4026000"
"10402726","SMAN 1 KUALA KAMPAR","JL. PENGHULU DONGSA NO.2","Prop. Riau","SMA",".6030000","102.9912000"
"10497407","SMAS TEUKU SULUNG","JL. PENUNJANG BENTENG","Prop. Riau","SMA","-.6228000","103.2432000"
"10495586","SMA NEGERI 2 TANDUN","JL.PELITA 7 DAYO","Prop. Riau","SMA",".6162000","100.5560000"
"10404299","SMAS SANTO TARCISIUS","JL. P. DIPONEGORO","Prop. Riau","SMA","1.6731000","101.4240000"
"10400817","SMAN 3 PINGGIR","JL. PELAJAR","Prop. Riau","SMA",".9963000","100.9684000"
"69953794","SMA NEGERI 3 TELUK MERANTI","Desa Kuala Panduk","Prop. Riau","SMA",".5555941","102.5884008"
"69830706","SMAN 2 RAKIT KULIM","JL. Sumber Rezeki","Prop. Riau","SMA","-.5137730","102.1725390"
"10400874","SMAN 1 MANDAU","JL. KOMPLEK PENDIDIKAN CPI","Prop. Riau","SMA","1.2578000","101.2172000"
"69754513","SMAN 3 SUNGAI APIT","Jl. Panglima Besar RT. 003 RW. 002","Prop. Riau","SMA",".6859000","102.7882000"
"10497526","SMA NEGERI 1 PENDALIAN IV KOTO","JL. PTPN V Sei Siasam KM 22 Pendalian","Prop. Riau","SMA",".4218000","100.5843000"
"10400344","SMA NEGERI 1 KAMPAR KIRI TENGAH","Jl. Karya Maju No. 2","Prop. Riau","SMA",".1078000","101.1998000"
"10494988","SMAN 1 INUMAN","JL. PELAJAR","Prop. Riau","SMA","-.4547000","101.7898000"
"10498608","SMAS SEI MERANTI","JL. PENDIDIKAN KM. 4","Prop. Riau","SMA","1.4761000","100.4697000"
"10405561","SMAS TUNAS BANGSA","JL. SIBARU","Prop. Riau","SMA","1.5658000","100.5767000"
"10402937","SMA NEGERI 1 RAMBAH HILIR","JL.RAYA KULIM JAYA MUARA RUMBAI","Prop. Riau","SMA","1.0293000","100.4694000"
"60726853","SMAN 3 RUPAT","JL. A. YANI","Prop. Riau","SMA","1.7337000","101.5762000"
"10402061","SMAN 2 TEMBILAHAN","JL. TANJUNG HARAPAN","Prop. Riau","SMA","-.2898000","103.1414000"
"10402069","SMAN 1 TEMPULING","JL. 21 MARET SUNGAI SALAK","Prop. Riau","SMA","-.4422000","102.9323000"
"10493902","SMAS HARAPAN PUJUD","TANJUNG MAKMUR","Prop. Riau","SMA","1.4075000","100.4862000"
"10495650","SMA NEGERI 2 TAMBUSAI","JL.RAYA BUKIT SENYUM","Prop. Riau","SMA",".9760000","100.3431000"
"10495165","SMAN 2 KERINCI KANAN","JL. LINTAS TIMUR KM.58","Prop. Riau","SMA",".4621000","101.8222000"
"10401528","SMAN 1 SUNGAI LALA","Jl. Jend. Sudirman Perk. Sei Lala","Prop. Riau","SMA","-.4061000","102.1937000"
"10495060","SMA NEGERI 2 KAMPAR KIRI","JL.DUSUN SEI. MANGGIS","Prop. Riau","SMA","-.0963000","101.1439000"
"10495225","SMAS JARAMA B JAMA","JL. BINTANG HILIR","Prop. Riau","SMA","1.9575000","100.8980000"
"10497408","SMAN 1 CONCONG","Jln. Rumah Susun Ramah Bencana","Prop. Riau","SMA","-.3003000","103.7088000"
"10496495","SMA DHARMA LOKA","JL. SOEKARNO HATTA GG. PERMATA NO. 99","Prop. Riau","SMA",".5216000","101.4166000"
"10400816","SMA NEGERI 1 TEBING TINGGI","Jl. Pembangunan II","Prop. Riau","SMA",".9546000","102.5486000"
"10494840","SMA NEGERI 1 KAMPAR KIRI HULU","Jl. HR. Soebrantas Dusun II","Prop. Riau","SMA","-.1515290","101.0765070"
"60729000","SMAS OLAHRAGA MASMUR","JL. SOEKARNO HATTA NO.14","Prop. Riau","SMA",".5761000","101.4299000"
"69752430","SMAN 2 Gaung","JL. RAWA SARI No.1","Prop. Riau","SMA","-.1286000","102.9307000"
"69822708","SMAN 2 SUNGAI LALA","JL. PENDIDIKAN NO. 1 DESA PASIR BONGKAL","Prop. Riau","SMA","-.4955000","102.2079000"
"10498734","SMAN 3 BANTAN","Jl. Perkebunan IV","Prop. Riau","SMA","1.4248000","102.4376000"
"10403421","SMAN 1 SUNGAI APIT","JL. GAJAH MADA","Prop. Riau","SMA","1.0678000","102.1065000"
"10498721","SMA NEGERI 2 TEBING TINGGI BARAT","Jl. Sentosa","Prop. Riau","SMA",".8724000","102.4895000"
"10402059","SMAS KARYA PENGALIHAN","JL. LINTAS SAMUDERA PENGALIHAN KEC. KERITANG","Prop. Riau","SMA","-.6428000","102.7645000"
"10401519","SMAN 2 RENGAT","JL. HANG TUAH KM. 3 RENGAT","Prop. Riau","SMA","-.2947000","102.6061000"
"10403430","SMAN 1 BUNGA RAYA","JL.SULTAN SYARIF KASIM","Prop. Riau","SMA",".9760000","102.0850000"
"10498632","SMAN 8 MANDAU","JL. SEJAHTERA RT 01 RW 16","Prop. Riau","SMA","1.3844000","101.1400000"
"10402941","SMA NEGERI 4 TAMBUSAI UTARA","JL.PELAJAR BANDAR SELAMAT KM 24 - MAHATO","Prop. Riau","SMA","1.2281000","100.4553000"
"10400348","SMA NEGERI 2 KAMPAR","JL. RUMBIO KEBUN DURIAN KM 1","Prop. Riau","SMA",".3678000","101.2944000"
"10405125","SMAS CIKDITIRO","JL. UTAMA, GG. TELKOM","Prop. Riau","SMA","2.1944000","100.6687000"
"10405368","SMAN 1 RIMBA MELINTANG","Jl.Pendidikan","Prop. Riau","SMA","1.7465000","101.0007000"
"10497509","SMAN 1 PELANGIRAN","JL.KESEHATAN PASAR BARU","Prop. Riau","SMA",".2148000","103.4534000"
"10403424","SMAN 2 DAYUN","JL. DATUK LIMA PULUH","Prop. Riau","SMA",".6489000","101.9830000"
"10402967","SMA NEGERI 1 RAMBAH","JL. DIPONEGORO NO.129","Prop. Riau","SMA",".8600000","100.2990000"
"10400370","SMA NEGERI 1 SIAK HULU","JL. DEPNAKER NO. 10 PANGKALAN BARU","Prop. Riau","SMA",".7184000","101.2845000"
"60728998","SMAS BINA MITRA WAHANA","JL. KULIM UJUNG NO.88B","Prop. Riau","SMA",".5429000","101.4247000"
"10402938","SMA NEGERI 1 RAMBAH SAMO","JL.TUANKU TAMBUSAI KM.11 RAMBAH SAMO","Prop. Riau","SMA",".8282000","100.3848000"
"10494751","SMA SWASTA  IT BANGKINANG","JL. BANGKINANG - LIPAT KAIN KM. 7","Prop. Riau","SMA",".2494000","101.1324000"
"10400868","SMA NEGERI 1 TASIK PUTRI PUYU","Jl. H. Tamrin no 01 kudap","Prop. Riau","SMA","1.2949000","102.3764000"
"10404968","SMAS LKMD KANDIS","JL.HANG TUAH NO.15","Prop. Riau","SMA","1.0001000","101.2333000"
"10400365","SMA NEGERI 1 BANGKINANG KOTA","Jl. Jend. Sudirman No. 65","Prop. Riau","SMA",".3361000","101.0220000"
"10498687","SMAS AR-RIDHA","JL. KECAMATAN LAB. TGG","Prop. Riau","SMA","2.0608000","100.8736000"
"10494513","SMAN 2 PANGKALAN KERINCI","JL. BATU AMPAR PKL. KERINCI","Prop. Riau","SMA",".4267000","101.8508000"
"10402067","SMAS PGRI TEMBILAHAN","JL. PENDIDIKAN NO.2 TEMBILAHAN","Prop. Riau","SMA","-.3136000","103.1584000"
"10495476","SMAN 2 LANGGAM","JL. JENDRAL SUDIRMAN","Prop. Riau","SMA",".2424000","101.7252000"
"10498611","SMAS YOSEF ARNOLDI","JL. TUANKU TAMBUSAI BAGAN BATU","Prop. Riau","SMA","1.7109000","100.3998000"
"69920709","SMA IT MUSLIMIN DUMAI","JL. SUDIRMAN KOMPLEK MESJID MUSLIMIN","Prop. Riau","SMA","1.6386961","101.4549013"
"10405639","SMAN 1 TANAH PUTIH TANJUNG MELAWAN","Jl. Pendidikan","Prop. Riau","SMA","1.5954000","100.9694000"
"10404010","SMA NEGERI 11 PEKANBARU","Jl. Segar No. 40","Prop. Riau","SMA",".5119000","101.4844000"
"10403420","SMAN 1 SIAK","JL.HANGTUAH NO.1","Prop. Riau","SMA",".8077000","102.0324000"
"10402727","SMAN 1 LANGGAM","JL. UTAMA NO.1","Prop. Riau","SMA",".0928000","101.8058000"
"69899651","SMA Negeri 16 Pekanbaru","Jl. Pramuka","Prop. Riau","SMA",".5767022","101.4912709"
"10494435","SMAN 1 PANGEAN","JL. A. YANI","Prop. Riau","SMA","-.4242000","101.6794000"
"10400859","SMAN 1 PINGGIR","JL. BATIN TARAK NO. 40","Prop. Riau","SMA","1.1388000","101.2868000"
"10404016","SMA NEGERI 5 PEKAN BARU","JL.BAWAL NO. 43","Prop. Riau","SMA",".5029720","101.4425450"
"10494536","SMAN 2 SINGINGI","JL. POROS","Prop. Riau","SMA","-.3730000","101.4155000"
"69756683","SMAS AZ ZUHRA","JL. KETITIRAN","Prop. Riau","SMA",".4908000","101.3611000"
"10402953","SMA NEGERI 1 TAMBUSAI","JL. TRANSMIGRASI NO.58 DALU-DALU","Prop. Riau","SMA","1.0778000","100.2342000"
"10403989","SMAS KALAM KUDUS","JL.LOKOMOTIF NO. 118","Prop. Riau","SMA",".5319230","101.4670050"
"10403994","SMAS NURUL FALAH","JL. Mesjid Raya No. 8","Prop. Riau","SMA",".5381000","101.4426000"
"10495407","SMAN 2 SIAK KECIL","JL.JEND SUDIRMAN","Prop. Riau","SMA","1.2094000","102.0058000"
"10403243","SMAN 2 BANGKO","JL. SMA BAGAN HULU","Prop. Riau","SMA","1.9688000","100.7642000"
"10404024","SMAS SERI RAMA","JL.TERATAI NO. 29","Prop. Riau","SMA",".5323000","101.4410000"
"69816324","SMA IT AL BAYYINAH","Jl. Merak Sakti","Prop. Riau","SMA",".4955000","101.3679000"
"10405312","SMAN 1 TANAH PUTIH","JL.TUANKU TAMBUSAI NO.49","Prop. Riau","SMA","1.5647000","101.0049000"
"10400869","SMA NEGERI 1 PULAU MERBAU","Jl. Pelajar","Prop. Riau","SMA","1.2859000","102.3804000"
"69901053","SMA SWASTA SANTA THERESIA","Jln. Piere Tandean","Prop. Riau","SMA","-.3590000","102.2104000"
"10494617","SMA NEGERI 13 PEKANBARU","JL. YOS SUDARSO KM. 22","Prop. Riau","SMA",".6093000","101.4244000"
"10404007","SMAS BUDI LUHUR","JL.PAUS LIMBUNGAN BARU","Prop. Riau","SMA",".5697000","101.4447000"
"10400364","SMA SWASTA SEI PUTIH","JL. TERATAI RAYA DESA SUNGAI PUTIH","Prop. Riau","SMA",".0332000","101.1956000"
"10402730","SMAN 1 PANGKALAN KERINCI","JL. MAHARAJA INDRA, PANGKALAN KERINCI","Prop. Riau","SMA",".3911000","101.8581000"
"10403985","SMA NEGERI 1 PEKANBARU","JL. SULTAN SYARIF QASIM  NO .159","Prop. Riau","SMA",".5266550","101.4539850"
"10403434","SMAN 1 SABAK AUH","JL. BOB DESA BELADING","Prop. Riau","SMA","1.1362000","102.1305000"
"10401511","SMAS MUHAMMADIYAH RENGAT","JL. LET.JEND R SUPRAPTO NO.81","Prop. Riau","SMA","-.3767000","102.6677000"
"10494088","SMAS AL MUSLIMUN","JL. LINTAS TIMUR KM 29,5","Prop. Riau","SMA",".4906000","102.0348000"
"69831508","SMAN 10 MANDAU","JL. LAMA DURI XIII","Prop. Riau","SMA","1.4339450","101.3440390"
"10495645","SMA NEGERI 1 ROKAN IV KOTO","JL.ST.PANGLIMA DALAM.KM.15 ROKAN","Prop. Riau","SMA",".5590000","100.4206000"
"10405038","SMAN 3 DUMAI","JL. ARIF RAHMAN HAKIM","Prop. Riau","SMA","1.5493000","101.3859000"
"10402071","SMAN 1 TEMBILAHAN","JL. PENDIDIKAN NO. 2 TEMBILAHAN","Prop. Riau","SMA","-.3220000","103.1643000"
"10403693","SMAN 1 KUANTAN HILIR","JL. JENDERAL SUDIRMAN","Prop. Riau","SMA","-.4396000","101.6602000"
"10400856","SMAS NUSANTARA","JL. LINTAS DURI DAMAI KM. 17","Prop. Riau","SMA","1.4029000","101.1546000"
"10405369","SMAS ROKAN","TELUK  PULAU HULU","Prop. Riau","SMA","1.8126000","101.0033000"
"10404984","SMAS BUDI DHARMA","Jl. Bintan No.63B","Prop. Riau","SMA","1.6731000","101.4454000"
"69725903","SMAN 1 LOGAS TANAH DARAT","JL. JEND.SUDIRMAN NO.518","Prop. Riau","SMA","-.5707000","101.5759000"
"10493780","SMAN 1 BATU HAMPAR","JL. SMU BANTAIAN","Prop. Riau","SMA","1.5669000","101.1035000"
"10405560","SMAS BINA SISWA","BAGAN BATU","Prop. Riau","SMA","1.5691000","100.5785000"
"10495828","SMAS ISLAM RAMBAH","JL.RIAU NO.2","Prop. Riau","SMA","1.0226000","100.3893000"
"10403422","SMAN 1 MEMPURA","JL. SETIA","Prop. Riau","SMA",".8841000","102.2714000"
"10494357","SMAN 1 HULU KUANTAN","JL. PENDIDIKAN NO.005","Prop. Riau","SMA","-.5239000","101.7333000"
"10405546","SMAN 1 BAGANSINEMBAH","Jl. Sisingamangaraja","Prop. Riau","SMA","1.7080000","100.4127000"
"10400877","SMAS MUTIARA","KOMPLEKS CPI SEBANGA","Prop. Riau","SMA","1.0388000","100.9408000"
"10404026","SMAS SETIA DHARMA","JL.PROF. M. YAMIN SH. NO. 67","Prop. Riau","SMA",".5322000","101.4416000"
"10494945","SMA NEGERI 2 TAPUNG HILIR","JL.PATTIMURA","Prop. Riau","SMA",".5241000","101.1713000"
"10495414","SMA NEGERI 1 RANGSANG BARAT","Jl. Durian","Prop. Riau","SMA","1.0302000","102.6587000"
"10496865","SMAN 3 BAGAN SINEMBAH","JL. BORTREM JAYA","Prop. Riau","SMA","1.7851000","100.4228000"
"69822712","SMA NEGERI 3 GUNUNG SAHILAN","Jl. Pelajar Desa Sahilan Darussalam","Prop. Riau","SMA",".0533000","101.3165000"
"10404028","SMAS TRI BHAKTI","JL.TUANKU TAMBUSAI 12","Prop. Riau","SMA",".4605000","101.4124000"
"69954195","SMA NEGERI 6 TUALANG","Jl. Pulai 2","Prop. Riau","SMA",".7432791","101.6419557"
"10495714","SMA NEGERI 1 PAGARAN TAPAH DARUSSALAM","PAGARAN TAPAH DARUSSALAM","Prop. Riau","SMA",".9383000","100.7056000"
"10498691","SMAN 2 RIMBA MELINTANG","JL. PERKEBUNAN LENGGADAI HULU","Prop. Riau","SMA","1.8748000","100.9697000"
"10497514","SMAS PEMBINA BALAM","JL. LINTAS RIAU","Prop. Riau","SMA","1.6321000","100.6884000"
"10400289","SMA SWASTA  MUHAMMADIYAH BANGKINANG","JL. MUHAMMADIYAH BANGKINANG","Prop. Riau","SMA",".4150000","101.1435000"
"10495415","SMA NEGERI 2 RANGSANG PESISIR","Jl. Parit Besar","Prop. Riau","SMA","1.1263000","102.8767000"
"10400848","SMAN 3 BENGKALIS","JL. PATIMURA BENGKALIS","Prop. Riau","SMA","1.5430000","102.0859000"
"10404989","SMAN 4 DUMAI","JL. PESANTREN","Prop. Riau","SMA","1.9962000","101.0879000"
"10497484","SMAS SIMPANG GAUNG","Jalan Gaung Merdeka Barat","Prop. Riau","SMA","-.0992000","103.1014000"
"10497494","SMAS NURUL IKHLAS","JL.Jahri Anang Parit No. 06 Sungai Raya","Prop. Riau","SMA","-.7643000","103.3118000"
"10402060","SMAS AL HUSNIYAH","JL. KELAPA GADING  NO. 4 PULAU KIJANG","Prop. Riau","SMA","-.6912000","103.2036000"
"10400349","SMA NEGERI 1 GUNUNG SAHILAN","Jl. Raya Pekanbaru - Taluk Kuantan","Prop. Riau","SMA","-.0385000","101.3553000"
"69728524","SMAS IT AL FITYAH","JL. SWAKARYA UJUNG PANAM","Prop. Riau","SMA",".4497000","101.3796000"
"10404572","SMAN TUAH GEMILANG","JL. BATANG TUAKA","Prop. Riau","SMA","-.4444000","103.1634000"
"10494766","SMA NEGERI 1 KOTO KAMPAR HULU","JL. PENDIDIKAN","Prop. Riau","SMA",".3162000","100.7365000"
"10402728","SMAN 1 PANGKALAN KURAS","JL. PASIR PUTIH No 40","Prop. Riau","SMA","-.0153000","101.8793000"
"10495792","SMAS ANA MUSLIM","DESA KOTA BARU","Prop. Riau","SMA","1.2185000","100.8342000"
"10495808","SMAS AL MUSLIMIN","JL.PAHLAWAN TAMBUSAI","Prop. Riau","SMA","1.1731000","101.4636000"
"69870894","SMAS ISLAM FATHORRAHMAN","JL. PROVINSI DUSUN 2 KARYAWAN","Prop. Riau","SMA",".0362810","103.4607010"
"10403249","SMAS WAHIDIN","JL. PAHLAWAN","Prop. Riau","SMA","1.9841000","100.7699000"
"69787106","SMA NEGERI 2 KUANTAN MUDIK","Jl. Harapan Bangsa Desa Pantai","Prop. Riau","SMA","-.6726000","101.5322000"
"10404454","SMAS PLUS BINA BANGSA","JL.KETITIRAN NO. 24","Prop. Riau","SMA",".5136000","101.4347000"
"69759084","SMAN 4 PUJUD","JL. PTPN V AFD V PERKEBUNAN TANJUNG MEDAN","Prop. Riau","SMA","1.4292000","100.3910000"
"10400865","SMA SWASTA KRISTEN KALAM KUDUS","Jl. Kartini","Prop. Riau","SMA",".9929000","102.6871000"
"10402070","SMAN 1 TEMBILAHAN HULU","JL. SAPTA MARGA NO. 70","Prop. Riau","SMA","-.3311000","103.1429000"
"10493903","SMAS HARAPAN BANGKO PUSAKO","BANGKO JAYA","Prop. Riau","SMA","1.7423000","100.8506000"
"69896231","SMA AL KAROMAH AIDARUSY","JL RAYA SIBIRUANG","Prop. Riau","SMA",".2951000","100.8209000"
"10498689","SMAS PERSIAPAN S DAUN","JLN. MESJID SUNGAI DAUN","Prop. Riau","SMA","2.1861000","100.4201000"
"10495729","SMAS NUR HASANAH","JL. LINTAS TANJUNG MEDAN DUSUN BAKTI PASAR II","Prop. Riau","SMA","1.6715000","100.5205000"
"10402079","SMAN TUNAS BANGSA","JL. PROVINSI NO. 1 KECAMATAN PULAU BURUNG","Prop. Riau","SMA",".4330000","103.5094000"
"10404298","SMAS MUHAMMADIYAH","JL.JANUR KUNING","Prop. Riau","SMA","1.5839000","101.5567000"
"10495436","SMA NEGERI 1 RANGSANG","Jl. Pelajar Desa Tanjungsamak","Prop. Riau","SMA","1.1164000","102.8829000"
"10497266","SMAN 2 RENGAT BARAT","JL.LINTAS TIMUR KOTA LAMA","Prop. Riau","SMA","-.4596000","102.3675000"
"10403418","SMAN 1 SUNGAI MANDAU","JL. M. DJAMIL NO. 56","Prop. Riau","SMA",".8382690","101.6686590"
"10405225","SMAS BINTANG LAUT","JL BINTANG","Prop. Riau","SMA","2.2238000","100.9012000"
"69947528","SMA NEGERI 2 BUNGARAYA","Jl. Hang Jebat No. 1","Prop. Riau","SMA","1.0013058","102.0601122"
"10497065","SMAN 2 TELUK KUANTAN","JL. LINTAS RAPP/DPN","Prop. Riau","SMA","-.5168000","101.6464000"
