"schoolId","schoolName","schoolAddress","province","school_level","lat","long"
"10504580","SMAN 4 KOTA JAMBI","JL. IR. H. JUANDA NO.125","Prop. Jambi","SMA","-1.6274867","103.5849533"
"10505212","SMAN 13 TEBO","JL. TEBO - JAMBI","Prop. Jambi","SMA","-1.4832000","102.6586000"
"10501841","SMAS PHI KUALA TUNGKAL","JL. Ki Hajar Dewantara Parit. 2","Prop. Jambi","SMA","-.8340000","103.4698000"
"69873698","SMA NEGERI 3 TANAH SEPENGGAL","JL. TANAH TUMBUH","Prop. Jambi","SMA","-1.4499200","101.9785190"
"10505085","SMAN 4 MA BUNGO","JL. RANGKAYO HITAM","Prop. Jambi","SMA","-1.5014000","102.1291000"
"69822716","SMA NEGERI 12 SAROLANGUN","JL. RIO PAMUNCAK DUSUN BENSO","Prop. Jambi","SMA","-2.4029200","102.5756860"
"10505047","SMAN 14 MERANGIN","PASAR MASURAI","Prop. Jambi","SMA","-2.3693000","102.0132000"
"10503767","SMAN 7 SAROLANGUN","JLN. SEI BELATI RT.04 KELURAHAN SAROLANGUN KEMBANG","Prop. Jambi","SMA","-2.3040000","102.7317000"
"10500384","SMAS ZULHIJJAH MA BULIAN","JLN. GAJAH MADA","Prop. Jambi","SMA","-1.6934000","103.2717000"
"69892236","SMA-IT DARUL IKHLAS","Jln.Lintas Sumatra km.15 Tambang Baru","Prop. Jambi","SMA","-1.8372000","102.2427000"
"10503254","SMAN 7 TEBO","JL. APEL","Prop. Jambi","SMA","-1.4408000","102.2310000"
"10505159","SMAN 11 TEBO","JL.  AHMAD YANI","Prop. Jambi","SMA","-1.3211000","102.2044000"
"10504158","SMAN 2 TANJUNG JABUNG TIMUR","JL. INPRES KM. 3 5 MUARA SABAK","Prop. Jambi","SMA","-1.1283940","104.0957110"
"10504590","SMAS ATTAUFIQ","JL. GUNUNG KIDUL NO. 11","Prop. Jambi","SMA","-1.6028367","103.6290183"
"10505724","SMAN 13 KERINCI","SUNGAI TUTUNG","Prop. Jambi","SMA","-2.0170000","101.4208000"
"10503251","SMAN 4 TEBO","JL. AIR PANAS","Prop. Jambi","SMA","-1.5396000","102.7248000"
"10504553","SMAN 3 KOTA JAMBI","JL. GURU MUKTAR","Prop. Jambi","SMA","-1.6159000","103.6203000"
"10506158","SMAS ISLAM NURUL HUDA","JL. MASJID RT 07 TELUK KEMPAS","Prop. Jambi","SMA","-.7908000","103.0849000"
"10504160","SMAN 1 TANJUNG JABUNG TIMUR","JL. JEND. SUDIRMAN SK 16","Prop. Jambi","SMA","-1.1713000","104.0955000"
"10502393","SMAN 3 KERINCI","Jl. Raya Pulau Tengah","Prop. Jambi","SMA","-2.1755000","101.4687000"
"10503751","SMAN 1 SAROLANGUN","JL. TAMBIR SAROLANGUN","Prop. Jambi","SMA","-2.2861000","102.7128000"
"10502396","SMAN 9 KERINCI","TAMIAI","Prop. Jambi","SMA","-2.1856000","101.6373000"
"10505723","SMAN 12 KERINCI","SIULAK TENANG","Prop. Jambi","SMA","-1.9091000","101.2959000"
"10504623","SMAN 2 KOTA JAMBI","JL. PANGERAN ANTASARI","Prop. Jambi","SMA","-1.6077150","103.6328833"
"10500696","SMAN 2 TANAH TUMBUH","Jln. Dam Tapus Dusun Koto Jayo Kecamatan Tanah Tumbuh","Prop. Jambi","SMA","-1.4458000","101.8718000"
"10505807","SMAN 9 BATANG HARI","JL.SEKOLAH","Prop. Jambi","SMA","-1.9140000","103.1350000"
"10505852","SMAN 15 TEBO","Jl. Yogyakarta","Prop. Jambi","SMA","-1.4389000","102.3629000"
"69727092","SMA NEGERI 4 PENGABUAN","JL. LINTAS TIMUR, DESA TELUK KETAPANG","Prop. Jambi","SMA","-.8102000","103.1128000"
"10502389","SMAN 6 KERINCI","TANJUNG TANAH","Prop. Jambi","SMA","-2.2494000","101.5911000"
"10504559","SMAS NOMMENSEN","JL. BARAU - BARAU I","Prop. Jambi","SMA","-1.6125400","103.6302750"
"10505653","SMAN 10 SAROLANGUN","JL. LINTAS SUMATERA KM.25 LIMBUR BESI","Prop. Jambi","SMA","-2.2483000","102.5181000"
"10500781","SMAN 1 JUJUHAN","JL. LINTAS SUMATERA KM. 02 SIRIH SEKAPUR","Prop. Jambi","SMA","-1.3048000","101.7580000"
"10505952","SMAS ISLAM JAUHARUL FALAH","DS. SUNGAI TERAP","Prop. Jambi","SMA","-1.6147000","103.7533000"
"69944090","SMAS IT TRIO BATANG HARI","Sridadi","Prop. Jambi","SMA","-1.7934827","103.2095851"
"10506070","SMAN 2 TEBO","JL KI HAJAR DEWANTARA","Prop. Jambi","SMA","-1.4638000","102.5574000"
"69897216","SMAS ISLAM AL-ISLAMIYAH BERAM ITAM KANAN","Jl. Lintas Teluk Nilau RT.03","Prop. Jambi","SMA","-.9475700","103.2314160"
"10505107","SMAN 1 MUKO-MUKO B VII","DESA TANJUNG AGUNG","Prop. Jambi","SMA","-1.5266000","102.0579000"
"10501834","SMAN 1 PENGABUAN","JL. SULTAN THAHA NO.42 TELUK NILAU","Prop. Jambi","SMA","-.9303000","103.2244000"
"10502415","SMAS MUHAMMADIYAH","JALAN JENDERAL AHMAD YANI","Prop. Jambi","SMA","-2.0635000","101.3933000"
"10505213","SMAN 14 TEBO","JL SYECH AHMAD","Prop. Jambi","SMA","-1.6637000","102.5551000"
"10506034","SMAN 11 BATANG HARI","JL. PENDIDIKAN","Prop. Jambi","SMA","-1.6908210","103.1733930"
"10504159","SMAN 3 TANJUNG JABUNG TIMUR","JL. MERDEKA NIPAH PANJANG II","Prop. Jambi","SMA","-1.0904000","104.1805000"
"10502398","SMAN 2 SUNGAI PENUH","Jl. DEPATI PARBO KOTA SUNGAI PENUH","Prop. Jambi","SMA","-2.0761000","101.4045000"
"69948087","SMAN 19 MERANGIN","Desa Sekancing Ilir","Prop. Jambi","SMA","-2.1635399","102.0843149"
"10504161","SMAN 6 TANJUNG JABUNG TIMUR","JL. lintas sadu","Prop. Jambi","SMA","-1.0573000","104.3298000"
"69772612","SMAS AL MUSTHAPA","JL. ALAI ILIR SIMPANG BABEKO","Prop. Jambi","SMA","-1.4834000","102.2237000"
"10504684","SMAN 1 KOTA JAMBI","JL. URIP SUMOHARJO NO. 15","Prop. Jambi","SMA","-1.6096000","103.5927000"
"10503230","SMAS BHAKTI WASITA","JL RA KARTINI","Prop. Jambi","SMA","-1.3152000","102.0973000"
"69947566","SMA Negeri 18 Kabupaten Tebo","Jl. Padang Lama Pulau Tamiang","Prop. Jambi","SMA","-1.2215440","102.2148193"
"10504589","SMAS AL PROGO I","JL. SYAMSUDIN UBAN NO.33","Prop. Jambi","SMA","-1.6183000","103.6138000"
"10504572","SMAS PGRI 2","JL. GURU MUCHTAR NO. 05","Prop. Jambi","SMA","-1.6061000","103.6197000"
"10500237","SMAN 7 BATANG HARI","JLN. RAYA JAMBI - MA. BUNGO KM 119","Prop. Jambi","SMA","-1.5481000","102.8353000"
"69888652","SMA AL-HIDAYAH","Jl. Cokro Aminoto Kel. sukasari  Kec. Sarolangun","Prop. Jambi","SMA","-2.2959760","102.7440000"
"10505057","SMA NEGERI 13 MERANGIN","Jln. Pendidikan No.1","Prop. Jambi","SMA","-1.8860000","102.3270000"
"10504554","SMAS FERDY FERRY PUTRA","JL. PROF. DR. SOEMANTRI BROJONEGORO SIPIN","Prop. Jambi","SMA","-1.6069000","103.5993000"
"69823295","SMAS ISLAM NURUSSALAM","Jalan Sarolangun - Tembesi","Prop. Jambi","SMA","-2.1064220","102.6741390"
"10502868","SMAS YKI PETALING","Jl. Diponegoro No. 355","Prop. Jambi","SMA","-1.7451000","103.8693000"
"10500694","SMAN 2 MA BUNGO","JL. PANGERAN DIPONEGORO","Prop. Jambi","SMA","-1.5137000","102.1154000"
"10504577","SMAS DUA MEI","JJL. KALAPIRING I NO. 69","Prop. Jambi","SMA","-1.6138683","103.5721767"
"10505785","SMA JAMBI  IX LURAH","JL. KOL. AMIR HAMZAH NO.20","Prop. Jambi","SMA","-1.6011000","103.6040000"
"10504576","SMA S SURYA IBU","JL. LETKOL A. TARMIZI  KADIR","Prop. Jambi","SMA","-1.6067733","103.6260067"
"10505076","SMAN 3 TUNGKAL ULU","JL. LINTAS TIMUR SUMATERA KM.157","Prop. Jambi","SMA","-1.0802000","102.9635000"
"10505165","SMAN 9 TANJUNG JABUNG TIMUR","JL. LINTAS LAGAN NO.01 KAMPUNG LAUT","Prop. Jambi","SMA","-1.0290000","103.7989000"
"10504570","SMAS NUSANTARA","JL. KOL. ABUNJANI NO. 57","Prop. Jambi","SMA","-1.6163000","103.5930000"
"10500312","SMAN 10 BATANG HARI","JLN. A. YANI","Prop. Jambi","SMA","-1.7171000","103.2573000"
"10507313","SMAN 1 MUARO JAMBI","JLN. JAMBI MUARO BULIAN","Prop. Jambi","SMA","-1.5998817","103.4786533"
"69786568","SMAS ISLAM DARUL FIKRI","JL. JAMBI PALEMBANG KM.34","Prop. Jambi","SMA","-1.8268000","103.5418000"
"10505166","SMAN 7 TANJUNG JABUNG TIMUR","JL. MANUNGGAL MENDAHARA ILIR","Prop. Jambi","SMA","-.9601000","103.6857000"
"10504592","SMAS PELITA RAYA","JL. KOPRAL RAMLI NO. 89","Prop. Jambi","SMA","-1.6200000","103.6480000"
"10502884","SMAN TITIAN TERAS","JL. LINTAS JAMBI-MUARA BULIAN KM. 21","Prop. Jambi","SMA","-1.5980247","103.4653117"
"10504557","SMAS MUHAMMADIYAH","JL. KAPTEN PATIMURA","Prop. Jambi","SMA","-1.6188983","103.5778717"
"10500238","SMAN 8 BATANG HARI","JLN. JAMBI - MA.BULIAN KM.37","Prop. Jambi","SMA","-1.6851000","103.4400000"
"10505652","SMAN 3 SAROLANGUN","JLN. SAROLANGUN -TEMBESI KM 2 PAUH","Prop. Jambi","SMA","-2.1282000","102.8316000"
"10505853","SMAN 17 TEBO","JL JAYA PURA","Prop. Jambi","SMA","-1.3045990","102.2214390"
"69755437","SMAN 2 LIMBUR LUBUK MENGKUANG","DUSUN RENAH SUNGAI IPUH","Prop. Jambi","SMA","-1.5792000","101.7463000"
"10502800","SMAN 9 MUARO JAMBI","Jln. Pendidikan No.02","Prop. Jambi","SMA","-2.0584000","103.4879000"
"10504610","SMAS XAVERIUS 2","JL. MELUR 1 NO. 23 RT. 16","Prop. Jambi","SMA","-1.6142267","103.5782167"
"10500698","SMAN 3 TANAH TUMBUH","DESA PELAYANG","Prop. Jambi","SMA","-1.4345000","101.8464000"
"10505105","SMAS MUHAMMADIYAH","JL. RANGKAYO HITAM","Prop. Jambi","SMA","-1.4944000","102.1206000"
"10500674","SMAN 1 RANTAU PANDAN","JL. RADEN MATAHER RANTAU PANDAN KM. 02","Prop. Jambi","SMA","-1.6270590","101.9508280"
"10500800","SMAN 1 PELEPAT ILIR","JL. ASAHAN RT 037 RW /01","Prop. Jambi","SMA","-1.6317000","102.3480000"
"10501361","SMA NEGERI 1 MERANGIN","Jln. Gunung Masurai No.105","Prop. Jambi","SMA","-2.0808000","102.2666000"
"10501832","SMAN 1 KUALA TUNGKAL","Jl. Jend. Sudirman No. 172","Prop. Jambi","SMA","-.8234000","103.4608000"
"10505163","SMAS ARADAL HAQ","JL. UTAMA PASAR PEMATANG LUMUT","Prop. Jambi","SMA","-1.1075000","103.3996000"
"10503252","SMAN 5 TEBO","JL ANGGREK","Prop. Jambi","SMA","-1.3030000","102.0322000"
"10502413","SMAS PGRI 1 SUNGAI PENUH","JL.ADE IRMA SURYANI","Prop. Jambi","SMA","-2.0582000","101.3974000"
"10504573","SMAS PGRI 3","JL. LINGKAR SELATAN 3 NO 5","Prop. Jambi","SMA","-1.6296000","103.6521000"
"10503255","SMAN 8 TEBO","JL. PADANG LAMA KM 17","Prop. Jambi","SMA","-1.1783530","102.5826000"
"10505054","SMAN 10 MERANGIN","JL. Lintas Bangko - Jangkat Km 47 Muara Siau","Prop. Jambi","SMA","-2.2838000","102.0945000"
"10504579","SMAS DHARMA BHAKTI 3","JL. ANGKASA PURI","Prop. Jambi","SMA","-1.6188767","103.6393417"
"69727090","SMA NEGERI 3 PENGABUAN","JL. LINTAS KUALA TUNGKAL - PULAU KIJANG KM. 2,5","Prop. Jambi","SMA","-.8233000","103.0140000"
"10502400","SMAN 4 SUNGAI PENUH","JL.ARIF RAHMAN HAKIM SUNGAI PENUH","Prop. Jambi","SMA","-2.0598000","101.3991000"
"10503250","SMAN 3 TEBO","JL. MASDUM","Prop. Jambi","SMA","-1.4881000","102.4418000"
"10503766","SMAN 8 SAROLANGUN","JL. PENDIDIKAN NO.2","Prop. Jambi","SMA","-2.3891000","102.6960000"
"10502394","SMAN 1 SUNGAI PENUH","JL.ARIF RAHMAN HAKIM SUNGAI PENUH","Prop. Jambi","SMA","-2.0591000","101.3993000"
"10504571","SMAS PERTIWI I KOTA JAMBI","JL. LETKOL SLAMET RIYADI","Prop. Jambi","SMA","-1.6140000","103.5438000"
"10505055","SMAN 5 MERANGIN","JL. PAHLAWAN NO.1 PAMENANG","Prop. Jambi","SMA","-2.1762000","102.3865000"
"69940645","SMA TRI SUKSES BOARDING SCHOOL JAMBI","Jl. Kol.Pol. M. Taher No. 20","Prop. Jambi","SMA","-1.6121550","103.6319600"
"69932092","SMAS MADINAH","Kelurahan Kampung Baru","Prop. Jambi","SMA","-1.7175070","103.1303910"
"10503750","SMAN 4 SAROLANGUN","JLMARDINATA DESA MANDIANGIN","Prop. Jambi","SMA","-2.0447000","102.9644000"
"10505136","SMAS YAYASAN PENGABUAN","JL. LINTAS TIMUR SENYERANG","Prop. Jambi","SMA","-.8284000","103.1545000"
"10503257","SMAN 10 TEBO","JL. BGD NAZARUDIN KM. 4 MUARA TEBO","Prop. Jambi","SMA","-1.3888490","102.6172410"
"10502392","SMAN 7 KERINCI","KERSIK TUO","Prop. Jambi","SMA","-1.7834000","101.2796000"
"69822715","SMAN 11 MUARO JAMBI","Jalan Lintas Timur Km 16 Mendalo Darat","Prop. Jambi","SMA","-1.5970746","103.5384153"
"10502399","SMAN 3 SUNGAI PENUH","JL.HAMPARAN RAWANG","Prop. Jambi","SMA","-2.0344000","101.4051000"
"10504587","SMAN 11 KOTA JAMBI","JL. SERSAN ANWAR BAY","Prop. Jambi","SMA","-1.6397750","103.5610583"
"10502388","SMAN 8 KERINCI","PULAU SANGKAR","Prop. Jambi","SMA","-2.1605000","101.5859000"
"10500313","SMAN 1 BATANG HARI","JL. A. YANI  NO.1 - MA . BULIAN","Prop. Jambi","SMA","-1.7149000","103.2601000"
"10505954","SMAS YADIKA","JL. ABDUL MUIS LR. ANGGREK RT. 38","Prop. Jambi","SMA","-1.6300000","103.6514000"
"10505320","SMAN 10 MUARO JAMBI","Jl. Lintas Petaling RT 14 Desa Kebon Sembilan Kec. Sungai Gelam Kab. Muaro Jambi","Prop. Jambi","SMA","-1.6730000","103.6712000"
"10500782","SMAN 1 PELEPAT","DESA SENAMAT","Prop. Jambi","SMA","-1.6504000","102.1384000"
"10502798","SMAN 7 MUARO JAMBI","JLN. LINTAS JAMBI SUAK KANDIS KM 55","Prop. Jambi","SMA","-1.4556000","103.9569000"
"10505075","SMAN 3 KUALA TUNGKAL","JL. BERINGIN KUALA TUNGKAL","Prop. Jambi","SMA","-.8502000","103.4645000"
"10500236","SMAN 6 BATANG HARI","JL. KERAMAT TINGGI NO. 60","Prop. Jambi","SMA","-1.7182000","103.2426000"
"10504593","SMAS UNGGUL SAKTI","JL. PANGERAN ANTASARI","Prop. Jambi","SMA","-1.6069967","103.6353100"
"10502397","SMAN 10 KERINCI","LOLO GEDANG","Prop. Jambi","SMA","-2.2261000","101.5314000"
"10505682","SMAS UNGGUL IKABAMA","JL. HOS. COKROAMINOTO No. 29","Prop. Jambi","SMA","-1.6164000","103.6314000"
"69893989","SMA TERPADU NURUSSALAM AL QONITIN","Jl. Talang Kawo - Trans C2","Prop. Jambi","SMA","-2.0993000","102.2869000"
"10505373","SMAN 3 MERANGIN","JL. BELIAK MATA HITAM ULU III MUARA DELANG","Prop. Jambi","SMA","-1.9823000","102.3812000"
"10505374","SMAN 4 MERANGIN","JL. BANGKO - SEI MANAU KM.41","Prop. Jambi","SMA","-2.1181000","102.0048000"
"10505204","SMAN 9 SAROLANGUN","JL. TANAH LAPANG","Prop. Jambi","SMA","-2.0038000","102.7011000"
"10505854","SMAN 16 TEBO","JL. BATANGHARI KANAN","Prop. Jambi","SMA","-1.3234350","101.9933820"
"10502391","SMAN 5 KERINCI","Jl. Hamparan Besar Lempur","Prop. Jambi","SMA","-2.2617000","101.5313000"
"10500274","SMAN 3 BATANG HARI","JL. MA. TEMBESI - SAROLANGUN Km. 24","Prop. Jambi","SMA","-1.8258000","103.0056000"
"10501830","SMAS YPMM TEBING TINGGI","KOMPLEK PT. LPPPI/PT. WKS TEBING TINGGI","Prop. Jambi","SMA","-1.0183000","103.0877000"
"10501833","SMAN 1 MERLUNG","JL. MT. FACHRUDDIN DESA MERLUNG","Prop. Jambi","SMA","-1.2676000","103.0434000"
"69947379","SMA NEGERI 20 MERANGIN","Jln. Poros Sungai Kapas-Mampun Baru","Prop. Jambi","SMA","-2.1400000","102.3123000"
"10505134","SMAN 2 MERLUNG","JL. BERINGIN DESA BUKIT HARAPAN","Prop. Jambi","SMA","-1.3607000","102.9455000"
"10505868","SMAS TERPADU NURUL HAQ","DUSUN LUBUK MAYAN","Prop. Jambi","SMA","-1.5941000","101.9945000"
"69948168","SMA ISLAM TERPADU AL IRSYAD","Jl.Poros PT.Asiatik Persada","Prop. Jambi","SMA","-1.9616427","103.4598457"
"10506129","SMAS BINA KASIH","JL. LOMBOK NO.4 RT 19","Prop. Jambi","SMA","-1.6251000","103.6190000"
"10502795","SMAN 4 MUARO JAMBI","JLN. BOUGENFIL","Prop. Jambi","SMA","-1.9981000","103.4452000"
"10503253","SMAN 6 TEBO","JL. PADANG LAMA","Prop. Jambi","SMA","-1.1560000","101.9745000"
"10505050","SMAN 17 MERANGIN","JL. BANGKA - SUNGAI SAHUT HITAM ULU","Prop. Jambi","SMA","-1.9853000","102.4097000"
"10506057","SMAN 11 SAROLANGUN","DESA BUTANG BARU","Prop. Jambi","SMA","-2.0371000","102.9665000"
"10504582","SMAN 6 KOTA JAMBI","JL. KOL. M. KUKUH NO. 46","Prop. Jambi","SMA","-1.6352850","103.6060367"
"10503734","SMAN 6 SAROLANGUN","DESA BUKIT KALIMAU ULU","Prop. Jambi","SMA","-2.4854000","102.2688000"
"10502395","SMAN 1 KERINCI","HIANG","Prop. Jambi","SMA","-2.0811000","101.4700000"
"10504585","SMAN 9 KOTA JAMBI","JL. Berdikari","Prop. Jambi","SMA","-1.5916000","103.6507000"
"10505953","SMAS NURUL JADID","DESA PASAR SINGKUT","Prop. Jambi","SMA","-2.5169000","102.5835000"
"10500327","SMAN 2 BATANG HARI","JLN. JAMBI-MUARO BUNGO","Prop. Jambi","SMA","-1.7165000","103.1230000"
"10502796","SMAN 5 MUARO JAMBI","DS. ARANG - ARANG","Prop. Jambi","SMA","-1.5983000","103.7841000"
"10502867","SMAS ISLAM AL ARIF","DS.SEBAPO","Prop. Jambi","SMA","-1.7458120","103.7332280"
"10505294","SMAN 2 TN SEPENGGAL","JL. DS. TANAH PERIUK","Prop. Jambi","SMA","-1.3952000","101.9699000"
"10504591","SMAS DHARMA BHAKTI 2","JL. KASTURI 1 NO.14","Prop. Jambi","SMA","-1.6261817","103.5848317"
"69830528","SMAN 14","Jln. Berdikari","Prop. Jambi","SMA","-1.6342370","103.7531360"
"10504578","SMAS DHARMA BHAKTI 4","JL UNTUNG SUROPATI PUNCAK","Prop. Jambi","SMA","-1.6033000","103.6159000"
"10505086","SMA NEGERI 4 TUNGKAL ULU","JL. SILATURAHMI KM. 04 TEBING TINGGI","Prop. Jambi","SMA","-1.0378000","103.0876000"
"10505435","SMAN 12 TEBO","JL. PADANG LAMA","Prop. Jambi","SMA","-1.3534370","102.3681500"
"10501837","SMAN 2 TUNGKAL ULU","JL. MERPATI NO.1 DESA PURWODADI","Prop. Jambi","SMA","-1.1151000","103.1772000"
"10501836","SMAN 2 KUALA TUNGKAL","JL. GATOT SUBROTO KUALA TUNGKAL","Prop. Jambi","SMA","-.8238000","103.4722000"
"10500779","SMAN 1 MA BUNGO","JL. PROF. DR. SRI SUDEWI, SH NO.20","Prop. Jambi","SMA","-1.4931000","102.1139000"
"10507428","SMA EL MUNDO","JL.UD Sarkawi (Ki Bajuri) No. 01","Prop. Jambi","SMA","-1.6281000","103.6411000"
"10505291","SMAS PERINTIS BERBAK","JL. LAMONGAN SK.O7 KEC. BERBAK","Prop. Jambi","SMA","-1.2421000","104.1005000"
"10505205","SMAN 2 SAROLANGUN","JL. BUDI UTOMO","Prop. Jambi","SMA","-2.5034000","102.7033000"
"10504556","SMAS ISLAM AL FALAH","JL. HOS COKROAMINOTO","Prop. Jambi","SMA","-1.6143000","103.6333000"
"10500693","SMAN 1 TN TUMBUH","DESA TANAH TUMBUH","Prop. Jambi","SMA","-1.4318000","101.8834000"
"10505857","SMAS NIDAUL QURAN","JL. LINTAS SUMATERA KM.18 SAROLANGUN","Prop. Jambi","SMA","-2.1723000","102.6057000"
"69931965","SMAS TUNAS BANGSA","Desa Bungku","Prop. Jambi","SMA","-1.7236000","103.3447000"
"10501831","SMAN 1 BETARA","PARIT TOMO","Prop. Jambi","SMA","-.8596000","103.4621000"
"10502390","SMAN 4 KERINCI","KOTO RENDAH SIULAK","Prop. Jambi","SMA","-2.0775000","101.4525000"
"10505052","SMA NEGERI 11 MERANGIN","Jln Tabir Ulu. Km18","Prop. Jambi","SMA","-1.9509000","102.1854000"
"10502401","SMAN 2 KERINCI","SEMURUP","Prop. Jambi","SMA","-2.1103000","101.4315000"
"69830527","SMAN 13","Jl Lintas Tempino - Penerokan - Bajubang  Km 35","Prop. Jambi","SMA","-1.7847000","103.4566000"
"10507205","SMA NEGERI 18 MERANGIN","JL.BANGKO-KERINCI KM30 GUGUK","Prop. Jambi","SMA","-2.1511000","102.0934000"
"10505053","SMAN 9 MERANGIN","JALAN LINTAS BANGKO-JANGKAT","Prop. Jambi","SMA","-2.6390000","101.8887000"
"10500235","SMAN 5 BATANG HARI","JL. PRAMUKA NO.10","Prop. Jambi","SMA","-1.7868000","103.3279000"
"10504594","SMAS XAVERIUS 1","JL. MASDA ABDURAHMAN SALEH NO 19","Prop. Jambi","SMA","-1.6261517","103.6305800"
"10502799","SMAN 8 MUARO JAMBI","JLN. LINTAS TIMUR KM. 21","Prop. Jambi","SMA","-1.5459617","103.5343333"
"10505059","SMAN 12 MERANGIN","Jl. MOJOPAHIT DESA PINANG MERAH","Prop. Jambi","SMA","-2.1246000","102.4055000"
"10500697","SMAN 3 MUARA BUNGO","JL. KADEMANG KM 6 SUNGAI BINJAI","Prop. Jambi","SMA","-1.4324000","102.1131000"
"10504583","SMAN 7 KOTA JAMBI","JL. KH A. BAKAR","Prop. Jambi","SMA","-1.5737967","103.6088167"
"10504165","SMAS LPM LAMBUR","JLN. BERINGIN NO: 03 LAMBUR","Prop. Jambi","SMA","-1.0560000","104.0689000"
"10504611","SMAS YPWI MUSLIMAT","JL. KHA HASYIM ASARI NO. 33","Prop. Jambi","SMA","-1.5927200","103.6236017"
"69905601","SMA NEGERI 5 MERLUNG","JL. Lintas Tengah","Prop. Jambi","SMA","-1.3258740","102.8637610"
"10505715","SMAS PN TABIR ULU","DESA MUARA KIBUL","Prop. Jambi","SMA","-1.9412000","101.9816000"
"69786907","SMA NEGERI 2 BETARA","JL. LINTAS DESA","Prop. Jambi","SMA","-.8912000","103.5000000"
"10505048","SMAN 15 MERANGIN","DESA RANTAU SULI","Prop. Jambi","SMA","-2.5553000","101.9682000"
"10500219","SMAN 4 BATANG HARI","JL. JAMBI  - MA .BUNGO","Prop. Jambi","SMA","-1.5952000","102.9444000"
"69946443","SMA NEGERI 13 SAROLANGUN","Singkut VII Blok C Desa Mekar Sari","Prop. Jambi","SMA","-2.4398552","102.7075606"
"10501842","SMA NEGERI 2 PENGABUAN","JL. PEMUDA SUNGAI RAMBAI","Prop. Jambi","SMA","-.8473000","103.0129000"
"10505731","SMAS UPT BATANG KIBUL","DESA BATANG KIBUL","Prop. Jambi","SMA","-1.9317000","102.0122000"
"10505066","SMAN 8 TANJUNG JABUNG TIMUR","JL. WR. SUPRATMAN  RT 4","Prop. Jambi","SMA","-1.2380000","103.8214000"
"10505960","SMAN 4 MERLUNG","JL. LINTAS TIMUR  SUMATERA KM 86","Prop. Jambi","SMA","-1.2815000","103.1695000"
"69760737","SMAS DARMA PERTIWI","JL TUGU  AMD RT 06","Prop. Jambi","SMA","-1.5862000","103.6881000"
"10504558","SMAS NASIONAL SARIPUTRA","JL. P. DIPONEGORO NO. 67","Prop. Jambi","SMA","-1.5989333","103.6215617"
"10507235","SMAS MEGATAMA","JL. DAMAI No. 47 Rt. 32","Prop. Jambi","SMA","-1.6078000","103.6077000"
"10504586","SMAN 10 KOTA JAMBI","JL. DEPATI PARBO","Prop. Jambi","SMA","-1.6011333","103.5637983"
"10505208","SMAS AL-MAARIF SINGKUT","Singkut IV Desa Sungai Merah","Prop. Jambi","SMA","-2.4497000","102.6743000"
"10504156","SMAN 4 TANJUNG JABUNG TIMUR","JL. SULTAN THAHA SK.4 KIRI","Prop. Jambi","SMA","-1.2402000","103.9950000"
"10504157","SMAN 5 TANJUNG JABUNG TIMUR","JL. POROS BARAT BLOK D","Prop. Jambi","SMA","-1.1824000","103.7228000"
"10505106","SMAN 1 LIMBUR LUBUK MENGKUANG","JLN. PUNAI DESA TUO LIMBUR","Prop. Jambi","SMA","-1.5176000","101.6596000"
"10505058","SMAN 7 MERANGIN","JL. TALANG KAWO DS. BANGKO","Prop. Jambi","SMA","-2.0783000","102.2826000"
"10505051","SMAN 16 MERANGIN","Jln. Dubalang Gayo Km 6","Prop. Jambi","SMA","-2.0661000","102.2287000"
"10505056","SMAN 8 MERANGIN","JL. KEMANG MANIS PASAR PAMENANG","Prop. Jambi","SMA","-2.1274000","102.5285000"
"10503248","SMAN 1 TEBO","JL PADANG LAMA","Prop. Jambi","SMA","-1.2324160","102.3367540"
"10503256","SMAN 9 TEBO","JL. LAWU","Prop. Jambi","SMA","-1.3635300","102.2656380"
"10505577","SMAN 6 MUARO JAMBI","JLN. KH.MUHAMMAD AGUS.DESA MUDUNG DARAT","Prop. Jambi","SMA","-1.5156883","103.5853100"
"10501366","SMA NEGERI 06 MERANGIN","JLN. LINTAS SUMATERA KM 4 SEI. ULAK","Prop. Jambi","SMA","-2.0398000","102.2748000"
"10504581","SMAN 5 KOTA JAMBI","JL. AR. HAKIM NO. 50","Prop. Jambi","SMA","-1.6164650","103.5740533"
"10502775","SMAS YP-SP3 3 MESTONG","DS. SUKADAMAI","Prop. Jambi","SMA","-1.8657000","103.5789000"
"69925740","SMA NEGERI 1 JUJUHAN ILIR","Jl. Kauman Dusun Bukit Sari","Prop. Jambi","SMA","-1.1595910","101.8864110"
"10503749","SMAN 5 SAROLANGUN","JL. ABDUL LATIF PULAU PANDAN","Prop. Jambi","SMA","-2.4096000","102.6431000"
"10507302","SMAS ISTIQOMAH","JL. LINTAS SUMATERA","Prop. Jambi","SMA","-2.2252000","102.5592000"
"10502794","SMAN 3 MUARO JAMBI","JLN. JAMBI TEMPINO","Prop. Jambi","SMA","-1.7732000","103.5348000"
"10501835","SMAN 1 TUNGKAL ULU","JL. LINTAS TIMUR SUMATERA","Prop. Jambi","SMA","-1.1432000","103.0757000"
"10506150","SMAS IT AL- AZHAR","JL. KOL. AMIR HAMZAH NO.32","Prop. Jambi","SMA","-1.6173083","103.5861767"
"10500692","SMAN 1 TN SEPENGGAL","JL. DESA LUBUK LANDAI","Prop. Jambi","SMA","-1.4025000","101.9529000"
"10505725","SMAN 11 KERINCI","UJUNG PASIR","Prop. Jambi","SMA","-2.1209000","101.4653000"
"10504574","SMAS PURNAMA","JL. SERMA MURAD ALINI","Prop. Jambi","SMA","-1.6352250","103.5989217"
"10505963","SMAN 10 TANJUNG JABUNG TIMUR","JL. LINTAS JAMBI - SABAK","Prop. Jambi","SMA","-1.2851000","103.7162000"
"10507246","SMAS HAFIDZ AL-FATAH","DESA TELUK KECIMBUNG","Prop. Jambi","SMA","-2.2621000","102.5348000"
"10505135","SMAN 3 MERLUNG","JL. GARUDA DESA LAMPISI","Prop. Jambi","SMA","-1.3707000","102.9177000"
"10502869","SMA 12 MUARO JAMBI","Jalan Nusantara Desa Sumber Agung","Prop. Jambi","SMA","-1.9467630","103.4472580"
"10502793","SMAN 2 MUARO JAMBI","JLN. Pertamina No. 27 RT.13","Prop. Jambi","SMA","-1.4847950","103.5100517"
"69727097","SMAS NURUL YAQIN","JL. MATAHARI RT. 04 KADUS 01 RAWAMEDANG","Prop. Jambi","SMA","-1.1820000","102.9321000"
"10500695","SMAN 2 PELEPAT ILIR","JL. Duku","Prop. Jambi","SMA","-1.5974000","102.3998000"
"10504588","SMAS ADHYAKSA I","JL. JEND. URIP SUMOHARJO NO.33","Prop. Jambi","SMA","-1.6115000","103.5946000"
"10501365","SMA NEGERI 2 MERANGIN","JL. IBRAHIM SAJO RANTAU PANJANG","Prop. Jambi","SMA","-1.8485000","102.2978000"
"10504584","SMAN 8 KOTA JAMBI","JL. MARSDA SURYADHARMA","Prop. Jambi","SMA","-1.6549817","103.5989333"
"10507881","SMAN 5 SUNGAI PENUH","JL. ARAH KE TANJUNG","Prop. Jambi","SMA","-2.0457000","101.4178000"
"10503731","SMAS MUHAMMADIYAH SINGKUT","JL. KH.AHMAD DAHLAN","Prop. Jambi","SMA","-2.5022000","102.7147000"
