"schoolId","schoolName","schoolAddress","province","school_level","lat","long"
"10605915","SMA PGRI INDRALAYA UTARA","JL. RAYA NEGARA KM. 32","Prop. Sumatera Selatan","SMA","-3.2129000","104.6790000"
"10603844","SMA NEGERI 03 PALEMBANG","JL. JEND. SUDIRMAN KM 3,5 PALEMBANG","Prop. Sumatera Selatan","SMA","-2.9652000","104.7477000"
"10601455","SMAN 1 MERAPI BARAT","JLN. LINTAS SUMATERA KM. 12 MERAPI BARAT","Prop. Sumatera Selatan","SMA","-3.7954000","103.7000000"
"10646047","SMAN 2 LALAN","DESA PURWA  AGUNG","Prop. Sumatera Selatan","SMA","-2.2575000","103.9567000"
"10603857","SMA NEGERI 18 PALEMBANG","JL. MAYOR RUSLAN NO. 1172  PALEMBANG","Prop. Sumatera Selatan","SMA","-2.9638000","104.7666000"
"10609766","SMA MUHAMMADIYAH 1 LUBUKLINGGAU","JL. GARUDA HITAM","Prop. Sumatera Selatan","SMA","-3.2335000","102.7841000"
"10603846","SMA NEGERI 15 PALEMBANG","JL. KS. TUBUN NO. 10 PALEMBANG","Prop. Sumatera Selatan","SMA","-2.9798000","104.7579000"
"69944823","SMAN 3 MESUJI RAYA","JL. DESA BALIAN RT.01 RW.04","Prop. Sumatera Selatan","SMA","-3.7244073","105.1899404"
"69876823","SMAN 3 TALANG UBI","JALAN LINTAS PENDOPO BENAKAT MINYAK","Prop. Sumatera Selatan","SMA","-3.2907000","103.6891000"
"10648845","SMAN 3 SANGA DESA ","DUSUN 1 DESA MACANG SAKTI","Prop. Sumatera Selatan","SMA","-2.7640000","103.3830000"
"10644998","SMAN 1 PULAU RIMAU","JL. SUNGAI JUARO DESA RAWA BANDA","Prop. Sumatera Selatan","SMA","-2.6059000","104.4615000"
"10609667","SMA MUHAMMADIYAH 09 PALEMBANG","JL. FAQIH USMAN NO.16","Prop. Sumatera Selatan","SMA","-3.0047000","104.7562000"
"10646206","SMAN 2 KELUANG","KEC. KELUANG","Prop. Sumatera Selatan","SMA","-2.6369000","103.8965000"
"10643840","SMA NEGERI 1 MUARA KUANG","JL. RAYA MUARA KUANG NO.237","Prop. Sumatera Selatan","SMA","-3.6423000","104.5648000"
"10609763","SMA BINA SATRIA LUBUKLINGGAU","JL. Garuda KM. 03 Kel. Lubuk tanjung","Prop. Sumatera Selatan","SMA","-3.3126000","102.8389000"
"10609313","SMAN 1 TANJUNG LUBUK","JL. RAYA KOMERING","Prop. Sumatera Selatan","SMA","-3.5561000","104.7459000"
"10609644","SMA INSANIYAH PALEMBANG","JL. KI. MEROGAN LR. KI. BANTEN PALEMBANG","Prop. Sumatera Selatan","SMA","-3.0216000","104.7508000"
"10610293","SMAN CAMPUR SARI","JL. SEMATUNG","Prop. Sumatera Selatan","SMA","-2.8335000","103.0825000"
"69875548","SMAN 2 TANAH ABANG","JALAN RAYA TANAH ABANG MODONG DESA SEDUPI","Prop. Sumatera Selatan","SMA","-3.3366470","104.1948180"
"10609921","SMA NEGERI OLAHRAGA SRIWIJAYA PALEMBANG","JL. MALUKU V PALEMBANG","Prop. Sumatera Selatan","SMA","-3.0469000","104.7916000"
"10609874","SMAS NU PAGAR ALAM","JL. PRATU SUHIR  CIKJIN NO. 49","Prop. Sumatera Selatan","SMA","-4.0214000","103.1872000"
"10646147","SMAN 1 LUBAI ULU","JL. RAYA PRABUMULIH - BATURAJA KM 45","Prop. Sumatera Selatan","SMA","-3.6902000","104.0636000"
"10644162","SMAN PLUS 2 BANYUASIN III","JL. K.H. SULAIMAN PKL. BALAI","Prop. Sumatera Selatan","SMA","-2.8984000","104.3826000"
"10603850","SMA NEGERI 10 PALEMBANG","JL. SRIJAYA NEGARA BUKIT BESAR PALEMBANG","Prop. Sumatera Selatan","SMA","-2.9938000","104.7260000"
"10605584","SMAN 1 BAYUNG LENCIR","JL. RAYA PLG-JAMBI KM 209","Prop. Sumatera Selatan","SMA","-2.0888000","103.9783000"
"10643908","SMAN 3 PRABUMULIH","JL.  M. YUSUF WAHID SUKAJADI","Prop. Sumatera Selatan","SMA","-3.4414000","104.2509000"
"10648119","SMAN 1 GUMAY ULU","JLN. DESA SUMBER KARYA","Prop. Sumatera Selatan","SMA","-3.9325000","103.4649000"
"10646277","SMAN 1 MEKAKAU ILIR","Jalan Kemang Bandung","Prop. Sumatera Selatan","SMA","-4.7320000","103.8056000"
"10605602","SMAS PGRI SEKAYU","JL. KOL. WAHID UDIN KAYUARA","Prop. Sumatera Selatan","SMA","-2.9085000","103.8082000"
"10605600","SMAS PGRI BABAT TOMAN","Jl. Gotong Royong Lk. IV Kel. Babat","Prop. Sumatera Selatan","SMA","-2.7354000","103.6360000"
"10647875","SMAS SYIHABUDDIN","JL. RAYA KOMERING","Prop. Sumatera Selatan","SMA","-3.6273000","104.7028000"
"69825139","SMA NAHDHOTUL ISLAM SRI TIGA","JL. TANJUNG API-API KM 52","Prop. Sumatera Selatan","SMA","-2.5555000","104.8569000"
"10643909","SMAN 4 PRABUMULIH","JL. BATURAJA KEL. TG. RAMBANG","Prop. Sumatera Selatan","SMA","-3.5547000","104.2615000"
"10600240","SMAN 1 BABAT TOMAN","Jl. Sekolah No. 01 Kelurahan Babat Kecamatan Babat Toman Kab. Musi Banyuasin","Prop. Sumatera Selatan","SMA","-2.7381000","103.6356000"
"10609670","SMA NURUL AMAL PALEMBANG","Jl. Gersik Lr. Singkil/Selada No.127","Prop. Sumatera Selatan","SMA","-2.9623000","104.7614000"
"10609620","SMA AL-AMALUL KHAIR PALEMBANG","JL. LUNJUK JAYA RT. 48","Prop. Sumatera Selatan","SMA","-2.9821000","104.7303000"
"10601461","SMAS SANTO YOSEF LAHAT","JLN. SEKOLAH NO. 13 LAHAT","Prop. Sumatera Selatan","SMA","-3.7946000","103.5301000"
"10609308","SMAN 1 MESUJI MAKMUR","JL. PEMATANG PANGGANG -BELITANG","Prop. Sumatera Selatan","SMA","-4.1771000","104.7488000"
"10645006","SMAS YP MANTRA","JL. A. RIVAI ABDULLAH 396 MARIANA","Prop. Sumatera Selatan","SMA","-2.9808000","104.8637000"
"10646240","SMAS SUMBER JAYA","DESA SUMBER JAYA","Prop. Sumatera Selatan","SMA","-4.0307000","104.7822000"
"10609686","SMA SEJAHTERA PALEMBANG","Jl. Ki Anwar Mangku","Prop. Sumatera Selatan","SMA","-3.0063000","104.8045000"
"10646286","SMAN SELANGIT","JL. LINTAS SUMATERA KM 21","Prop. Sumatera Selatan","SMA","-3.1327000","102.8154000"
"69947175","SMA NEGERI 2 ABAB","Jln. Pertamina Pengabuan","Prop. Sumatera Selatan","SMA","-3.1762864","104.2163678"
"10601448","SMAN 1 JARAI","JLN. MAYOR RUSLAN DESA KARANG TANDING","Prop. Sumatera Selatan","SMA","-3.9338000","103.2674000"
"10610271","SMAN 1 BANDING AGUNG","JL. NIAGARA","Prop. Sumatera Selatan","SMA","-4.8005000","103.9077000"
"10645761","SMAN 1 MUARA PAYANG","DESA LAWANG AGUNG LAMA","Prop. Sumatera Selatan","SMA","-3.9611000","103.3388000"
"10645847","SMAS ISLAM SHOLATUL FATIKH","Jln. Blok Pasar Desa Sumber Deras","Prop. Sumatera Selatan","SMA","-3.9275000","105.0786000"
"69929611","SMA AR - RIYADL","DESA MEKAR JADI","Prop. Sumatera Selatan","SMA","-2.4642383","103.9798256"
"10606625","SMAS YAIQLI JATI MULYO","DESA JATI MULYO II KEC. MADANG SUKU II KAB. OKU TIMUR PROV. SUMATERA SELATAN","Prop. Sumatera Selatan","SMA","-4.0932000","104.4424000"
"69867981","SMA TIARA NUSA PALEMBANG","JL. KOL H. BURLIAN LR. KAMIL NO 1061","Prop. Sumatera Selatan","SMA","-2.9438890","104.7333470"
"10609625","SMA BHAKTI NUSANTARA PALEMBANG","JL. GOTONG ROYONG SUNGAI BUAH PLG","Prop. Sumatera Selatan","SMA","-2.9669000","104.7321000"
"10648904","SMA IT IZZUDDIN PALEMBANG","JL. DEMANG LEBAR DAUN","Prop. Sumatera Selatan","SMA","-2.9745000","104.7262000"
"10647707","SMAN 5 PAGAR ALAM","JL. LINTAS PAGAR ALAM LAHAT","Prop. Sumatera Selatan","SMA","-4.0216000","103.4007000"
"10600902","SMAN 1 TANJUNG AGUNG","JL. LIBERTY SIMANJUNTAK NO. 14","Prop. Sumatera Selatan","SMA","-3.9578000","103.7383000"
"10604362","SMA BUDI UTOMO LUBUKLINGGAU","JL. BENGAWAN SOLO","Prop. Sumatera Selatan","SMA","-3.2889000","102.8610000"
"10646009","SMAN 1 RAMBANG","JL. RAYA SUGIH WARAS","Prop. Sumatera Selatan","SMA","-3.4908000","104.0202000"
"69816325","SMAN 2 MESUJI MAKMUR","DESA SURYAKARTA","Prop. Sumatera Selatan","SMA","-4.0780000","105.0186000"
"10609312","SMAN 1 SUNGAI MENANG","JL. RAYA SUNGAI MENANG","Prop. Sumatera Selatan","SMA","-3.8312000","105.9161000"
"10609305","SMAN 1 AIR SUGIHAN","JL. 27 AIR SUGIHAN","Prop. Sumatera Selatan","SMA","-3.7367000","105.1485000"
"69830206","SMA Terpadu Pondok Pesantren Nurul Huda","Desa Tanah Merah Kecamatan Belitang Madang Raya","Prop. Sumatera Selatan","SMA","-4.0115720","104.5934560"
"69946679","SMA NEGERI 6 TALANG UBI","Jln. Raya Pertamina Pendopo Desa Talang Bulang","Prop. Sumatera Selatan","SMA","-3.4027000","103.9653000"
"10644260","SMAN 1 PASEMAH AIR KERUH","DESA MUARA SINDANG","Prop. Sumatera Selatan","SMA","-3.8250000","102.7589000"
"10601344","SMAN 4 LAHAT","JLN. RAYA TANJUNG PAYANG LAHAT","Prop. Sumatera Selatan","SMA","-3.8086000","103.5346000"
"10606617","SMAN 1 SS III","DESA KARANG ENDAH","Prop. Sumatera Selatan","SMA","-4.0162000","104.7422000"
"10645759","SMAN 1 KIKIM TENGAH","JLN. LINTAS SUMATERA KM. 46 DESA TANJUNG AUR","Prop. Sumatera Selatan","SMA","-3.6497000","103.2643000"
"10646023","SMA YPNH TANAH ABANG","JL. RAJA 1 TANAH ABANG","Prop. Sumatera Selatan","SMA","-3.3207000","104.0516000"
"10646159","SMAN 2 AIR SUGIHAN","JALUR 29 BLOK E","Prop. Sumatera Selatan","SMA","-2.7334000","105.3151000"
"69860519","SMAN 1 BUAY MADANG TIMUR","TAMBAK BOYO","Prop. Sumatera Selatan","SMA","-4.1390630","104.6068390"
"10606622","SMAS PERJUANGAN RIANG BANDUNG","DESA RIANG BANDUNG","Prop. Sumatera Selatan","SMA","-4.1063000","104.4566000"
"10601460","SMAN 1 KIKIM SELATAN","JLN. DESA PAGAR JATI","Prop. Sumatera Selatan","SMA","-3.7746000","103.1815000"
"10647871","SMAN 2 BANYUASIN II","DESA JATISARI PRIMER 5 KAI","Prop. Sumatera Selatan","SMA","-2.2466000","104.7199000"
"69831955","SMA AZIZIAH PALEMBANG","JL. TAMAN KENTEN","Prop. Sumatera Selatan","SMA","-2.9654150","104.7772490"
"10609623","SMA ASSANADIYAH PALEMBANG","JL. KH. BALKHI BANTEN V","Prop. Sumatera Selatan","SMA","-2.9975000","104.7838000"
"69946734","SMAN 2 MUARA SUGIHAN","JALUR 16 JEMBATAN 3","Prop. Sumatera Selatan","SMA","-2.4620268","105.2221799"
"10645177","SMAN 1 ABAB","JL. RAYA BETUNG KARANG AGUNG ABAB","Prop. Sumatera Selatan","SMA","-3.1693000","104.1137000"
"10644910","SMAS BABUSSALAM","JL. KANTOR POS AIR BELITI","Prop. Sumatera Selatan","SMA","-3.1164000","103.1529000"
"10603864","SMA NEGERI 04 PALEMBANG","JL. KI ANWAR MANGKU PLAJU","Prop. Sumatera Selatan","SMA","-3.0043000","104.8078000"
"69893381","SMA NURUL ILMI","JALAN PALEMBANG - BETUNG  KM.18","Prop. Sumatera Selatan","SMA","-2.9131490","104.6451840"
"10643744","SMAS MUHAMMADIYAH 1","JL. KH. A. DAHLAN NO. 36","Prop. Sumatera Selatan","SMA","-3.5146000","104.2459000"
"10600495","SMAN 2 KAYUAGUNG","JL. LETJEN HM. YUSUF SINGADEKANE","Prop. Sumatera Selatan","SMA","-3.4144000","104.8502000"
"10609645","SMA AZ-ZAHRAH PALEMBANG","JL. TELAGA KOMP. MASJID TAQWA PALEMBANG","Prop. Sumatera Selatan","SMA","-2.9879000","104.7432000"
"10645005","SMAN 1 MAKARTI JAYA","JL PELITA DESA TIRTA MULIA MAKARTI JAYA","Prop. Sumatera Selatan","SMA","-2.4727000","104.9764000"
"10609306","SMAN 1 JEJAWI","JL. RAYA DESA LINGKIS","Prop. Sumatera Selatan","SMA","-3.1730000","104.8441000"
"10646025","SMA MUHAMMADIYAH 2 TANJUNG ENIM","JL. JENDRAL A. YANI NO.1","Prop. Sumatera Selatan","SMA","-3.7665000","103.9110000"
"10606488","SMAS YIS MARTAPURA","Jln. Merdeka No 398 Terukis","Prop. Sumatera Selatan","SMA","-4.2996000","104.3361000"
"10645176","SMAN 1 LAWANG KIDUL","JL. BATURAJA kEBAN AGUNG","Prop. Sumatera Selatan","SMA","-3.7859000","103.8602000"
"10647289","SMAN 2 MESUJI","Jalan Poros Blok A","Prop. Sumatera Selatan","SMA","-3.9228000","105.0974000"
"10609695","SMA TELADAN PALEMBANG","JL. RAMBUTAN NO.06 PLG","Prop. Sumatera Selatan","SMA","-3.0175000","104.7497000"
"10605576","SMAS BINA BANGSA SEJATI","DESA KEMANG","Prop. Sumatera Selatan","SMA","-2.8196000","103.4151000"
"10609327","SMAS YPBI 4 KAYUAGUNG","JL. LETNAN DARMA JAMBI NO.137","Prop. Sumatera Selatan","SMA","-3.3794000","104.8353000"
"10646283","SMAS WIDYA DARMA","Jalan Poros Tengah","Prop. Sumatera Selatan","SMA","-2.6091000","104.8520000"
"10601457","SMAN 1 LAHAT","JLN. MAYOR RUSLAN I NO.39 LAHAT","Prop. Sumatera Selatan","SMA","-3.7969000","103.5311000"
"69946362","SMAN 1 SUMBER MARGA TELANG","Jalur 3","Prop. Sumatera Selatan","SMA","-2.5071707","104.8586149"
"10648065","SMAN 2 MUARA PINANG","Jalan Kopral Yakub","Prop. Sumatera Selatan","SMA","-3.9233000","103.1153000"
"10605588","SMAN 1 PLAKAT TINGGI","DESA SIDO RAHAYU","Prop. Sumatera Selatan","SMA","-2.9027000","103.5877000"
"10609668","SMA NEGERI 21 PALEMBANG","JL. M. YUSUF H. SENEN DESA SUKAMULYA","Prop. Sumatera Selatan","SMA","-2.8962000","104.6715000"
"10606608","SMAS YPBI","DESA CAMPANG TIGA","Prop. Sumatera Selatan","SMA","-3.8128000","104.7032000"
"10603728","SMA NEGERI 20 PALEMBANG","JL. TP. H. SOFYAN KENAWAS PLG","Prop. Sumatera Selatan","SMA","-3.0146000","104.6892000"
"10610276","SMAN 1 MUARADUA KISAM","JL. LINTAS BAYUR","Prop. Sumatera Selatan","SMA","-4.3754000","103.8546000"
"10646205","SMA PGRI TANAH ABANG","JL. PERTAMINA PENDOPO TANAH ABANG JAYA","Prop. Sumatera Selatan","SMA","-3.3182000","104.0681000"
"10646032","SMAN 1 PENUKAL","JL. PAHLAWAN","Prop. Sumatera Selatan","SMA","-3.1622000","104.0578000"
"10609875","SMAS PGRI PAGAR ALAM","JL. MAYOR JENDERAL S. PARMAN NO.28","Prop. Sumatera Selatan","SMA","-4.0059000","103.3208000"
"10600901","SMAN 1 UJAN MAS","JL. LINTAS SUMATERA UJAN MAS","Prop. Sumatera Selatan","SMA","-3.5401000","103.7692000"
"10606486","SMAN 3 MARTAPURA","DESA KOTA BARU SELATAN","Prop. Sumatera Selatan","SMA","-4.2983000","104.3962000"
"10608946","SMAN 1 LAWANG WETAN","JL. PROPINSI DUSUN II DESA RANTAU PANJANG","Prop. Sumatera Selatan","SMA","-2.8547720","103.7594370"
"10604402","SMA NEGERI 2 LUBUKLINGGAU","JL. MAYOR TOHA","Prop. Sumatera Selatan","SMA","-3.2759000","102.9119000"
"10609311","SMAN 1 PEDAMARAN TIMUR","JL. RAYA GADING RAJA","Prop. Sumatera Selatan","SMA","-3.5639000","105.0842000"
"69856219","SMAN 3 SUNGAI LILIN","JL. PALEMBANG JAMBI KM. 121","Prop. Sumatera Selatan","SMA","-2.5046290","104.0879220"
"10609760","SMA AL-IKHLAS LUBUKLINGGAU","JL. YOS SUDARSO RT.2 NO. 86","Prop. Sumatera Selatan","SMA","-3.2774000","102.9006000"
"10643896","SMAS MUHAMMADIYAH 2 TUGUMULYO","JL. JEND. SUDIRMAN F TRIKOYO","Prop. Sumatera Selatan","SMA","-3.1979917","102.9456100"
"10645846","SMAS PERSATUAN","JL. SERSAN DAHLAN","Prop. Sumatera Selatan","SMA","-3.5491000","104.9470000"
"10646154","SMAN 1 TUNGKAL ILIR","JL. KOMPLEK PENDIDIKAN","Prop. Sumatera Selatan","SMA","-2.4874000","104.2398000"
"10604736","SMAS XAVERIUS BATURAJA","DESA PUSAR","Prop. Sumatera Selatan","SMA","-4.1288000","104.1477000"
"10606620","SMAS NU SUMBER AGUNG","Jl. Depati Agung","Prop. Sumatera Selatan","SMA","-4.2522000","104.5118000"
"10646282","SMAS BINA MUDA","DESA TELANG JAYA JALUR 8","Prop. Sumatera Selatan","SMA","-2.6244000","104.9103000"
"10645015","SMAS AL MASHRI PANGKALAN BALAI","JL. MERDEKA NO.100 PANGKALAN BALAI","Prop. Sumatera Selatan","SMA","-2.8893000","104.3962000"
"10609688","SMA SRI GUNA PALEMBANG","JL. DI. PANJAITAN LR. PEGAGAN","Prop. Sumatera Selatan","SMA","-2.9941000","104.7985000"
"10603865","SMA NEGERI 01 PALEMBANG","JL. SRIJAYA NEGARA NO. 10","Prop. Sumatera Selatan","SMA","-2.9888000","104.7297000"
"10609689","SMA SRIJAYA NEGARA PALEMBANG","JL OGAN KOMP FKIP UNSRI","Prop. Sumatera Selatan","SMA","-2.9861000","104.7285000"
"10605579","SMAS HIKMAH SUKALALI","DESA SUKALALI","Prop. Sumatera Selatan","SMA","-3.1414000","103.7925000"
"10643843","SMA NURUL YAQIN","JL. MERDEKA KM. 55","Prop. Sumatera Selatan","SMA","-3.3503000","104.6211000"
"69897286","SMAN 3 PENUKAL","Jln. Raya Kabupaten Purun-Betung Desa Purun Kec.Penukal Kab.Pali","Prop. Sumatera Selatan","SMA","-3.2070000","104.1430000"
"10609649","SMA KARYA SAKTI PALEMBANG","JL. KOPRAL ANWAR PALEMBANG","Prop. Sumatera Selatan","SMA","-2.9268000","104.7765000"
"10648068","SMAN 2 SUNGAI LILIN","Jln. Palembang-Jambi KM 140","Prop. Sumatera Selatan","SMA","-2.7364000","104.1901000"
"10610318","SMAN 1 KISAM TINGGI","JL. RAYA DESA PULAU PANGGUNG KEC. KISAM TINGGI","Prop. Sumatera Selatan","SMA","-4.2738000","103.9209000"
"10609324","SMAS MUHAMMADIYAH TULUNG SELAPAN","KOMPLEK PERGURUAN MUHAMMADIYAH","Prop. Sumatera Selatan","SMA","-3.1630000","105.2811000"
"10646369","SMA PGRI SIALINGAN","JL. Kabupaten","Prop. Sumatera Selatan","SMA","-3.5169000","104.3219000"
"10609631","SMA BINA KARYA PLAJU PALEMBANG","JL. PERTAHANAN III NO.2160","Prop. Sumatera Selatan","SMA","-2.9982000","104.7959000"
"10604717","SMAS MUHAMMADIYAH 1 BATURAJA","JL. BLL KULON 0809 BATURAJA","Prop. Sumatera Selatan","SMA","-4.1256000","104.1819000"
"10645178","SMAN 1 LUBAI","JL. RAYA PRABUMULIH - BATURAJA","Prop. Sumatera Selatan","SMA","-3.6302000","104.1393000"
"10609685","SMA RA KARTINI PALEMBANG","JL. SEI SAHANG NO. 5 PALEMBANG","Prop. Sumatera Selatan","SMA","-2.9799000","104.7311000"
"10603860","SMA NEGERI 16 PALEMBANG","JL. LEBAK MURNI","Prop. Sumatera Selatan","SMA","-2.9120000","104.7954000"
"10605577","SMAS BINA PRATAMA","DESA KARANG REJO","Prop. Sumatera Selatan","SMA","-2.4038000","103.9282000"
"10601446","SMA NEGERI 1 PENDOPO BARAT","JL. HANAFIAH","Prop. Sumatera Selatan","SMA","-3.7697000","102.9459000"
"10645760","SMAN 5 LAHAT","JLN. RAYA SENABING LAHAT","Prop. Sumatera Selatan","SMA","-3.7661000","103.5716000"
"10609637","SMA DARMA BHAKTI PALEMBANG","JL. MAYOR ZEN LR. IWARI II NO. 50 RT 34","Prop. Sumatera Selatan","SMA","-2.9700000","104.8151000"
"10646144","SMAN 1 SEMENDE DARAT ULU","PAJAR BULAN","Prop. Sumatera Selatan","SMA","-4.1770000","103.5742000"
"10609622","SMA ARINDA PALEMBANG","JL. ANGKATAN 45 PALEMBANG","Prop. Sumatera Selatan","SMA","-2.9712000","104.7374000"
"10609664","SMA AISYIYAH 01 PALEMBANG","JL. BALAYUDHA KM. 4.5 PLG","Prop. Sumatera Selatan","SMA","-2.9579000","104.7388000"
"69851412","SMAN 5 SEKAYU","SEKAYU","Prop. Sumatera Selatan","SMA","-2.9190050","103.8369610"
"10605585","SMAN 1 KELUANG","Jl. Pendidikan Keluang 30754","Prop. Sumatera Selatan","SMA","-2.6132000","103.8795000"
"10600237","SMAN 2 BABAT TOMAN","MANGUN JAYA","Prop. Sumatera Selatan","SMA","-2.7763000","103.5897000"
"10609873","SMAN 4 PAGAR ALAM","JL. Letkol A.Rozak No.89","Prop. Sumatera Selatan","SMA","-4.0362000","103.2759000"
"10606616","SMAN 1 MADANG SUKU I","DESA  RASUAN","Prop. Sumatera Selatan","SMA","-3.9691000","104.5853000"
"10603023","SMA NEGERI 1 TANJUNG BATU","JL. MERDEKA TANJUNG BATU","Prop. Sumatera Selatan","SMA","-3.3401000","104.6214000"
"10609656","SMA METHODIST 02 PALEMBANG","JL. KOL .ATMO 450 PALEMBANG","Prop. Sumatera Selatan","SMA","-2.9841000","104.7606000"
"10645017","SMAS PGRI PULAU HARAPAN","JL. RAYA PALEMBANG- BETUNG KM. 32","Prop. Sumatera Selatan","SMA","-2.9237000","104.5113000"
"10610267","SMAS KH HASAN BASRI","JL. JEND. SUDIMAN PASAR ILIR MUARADUA","Prop. Sumatera Selatan","SMA","-4.5659000","104.1261000"
"10604735","SMAS TRISAKTI BATURAJA","JL. DR. MOH. HATTA  BATURAJA","Prop. Sumatera Selatan","SMA","-4.1286000","104.1799000"
"10609704","SMA XAVERIUS 01 PALEMBANG","JL. BANGAU NO. 60/1258 PLG","Prop. Sumatera Selatan","SMA","-2.9674000","104.7639000"
"10601959","SMAN RUPIT (B)","JL. DEPATI KECIK NO. 404","Prop. Sumatera Selatan","SMA","-2.7263000","102.9137000"
"10609713","SMA YP NURFAUZAN PALEMBANG","JL. KH.WAHID HASYIM LR. BERSAMA 5 ULU","Prop. Sumatera Selatan","SMA","-3.0044000","104.7624000"
"10605595","SMAN 1 BABAT SUPAT","JL. PALEMBANG - JAMBI KM 89 DESA BABAT BANYUASIN","Prop. Sumatera Selatan","SMA","-2.7164000","103.9478000"
"10645829","SMA AL IHSAN","JL.TANJUNG API-API KM.36 TELANG II","Prop. Sumatera Selatan","SMA","-2.6627000","104.6043000"
"10603858","SMA NEGERI 17 PALEMBANG","JL. MAYOR ZURBI BUSTAN PALEMBANG","Prop. Sumatera Selatan","SMA","-2.9414000","104.7476000"
"10609673","SMA NUSA BANGSA PALEMBANG","JL. RW. Mongonsidi No. 34 RT 1 RW 1 Kel. Kalidoni Kec. Kalidoni Palembang","Prop. Sumatera Selatan","SMA","-2.9626000","104.7935000"
"10610273","SMAN 1 RUNJUNG AGUNG","DESA GEDUNG WANI","Prop. Sumatera Selatan","SMA","-4.4131000","103.8693000"
"69932275","SMAN 1 BUAY RAWAN","Desa Gunung Cahya","Prop. Sumatera Selatan","SMA","-4.6659206","104.0724357"
"10646108","SMAN 15 OGAN KOMERING ULU","Jalan Palembang-Muarakuang-Baturaja KM-136","Prop. Sumatera Selatan","SMA","-3.8128000","104.4695000"
"10603024","SMA NEGERI 1 TANJUNG RAJA","JL. MERDEKA NO.57 TANJUNG RAJA","Prop. Sumatera Selatan","SMA","-3.3403000","104.7750000"
"10609721","SMA PESANTREN MODERN SULTAN MAHMUD BADARUDDIN PALEMBANG","JL. TANJUNG API-API TALANG JAMBI  PLG","Prop. Sumatera Selatan","SMA","-2.8920000","104.7181000"
"10606484","SMAN 1 SEM BARAT","DESA KANGKUNG","Prop. Sumatera Selatan","SMA","-3.8103000","104.6181000"
"10601458","SMAN 1 KOTA AGUNG","Jalan Ts. H. Umar Desa Pagar Ruyung Kec. Kota Agung Kab. Lahat","Prop. Sumatera Selatan","SMA","-4.2703000","103.5217000"
"10646366","SMAS AD DZIKIR","DESA TIRTA KENCANA","Prop. Sumatera Selatan","SMA","-2.4360000","104.9814000"
"69786596","SMAN 4 LAIS","DESA TANJUNG AGUNG","Prop. Sumatera Selatan","SMA","-2.9760000","104.1254000"
"10648026","SMA PGRI SAWIT 2","JL. PALEMBANG - JAMBI KM. 74","Prop. Sumatera Selatan","SMA","-2.8017000","104.0011000"
"10604716","SMAS KURNIA JAYA BATUMARTA","JL. RAYA BATUMARTA 1 KM. 3,5","Prop. Sumatera Selatan","SMA","-4.2009000","104.2763000"
"10609635","SMA CANDRADIMUKA PALEMBANG","JL. SWADAYA SEKIP UJUNG PALEMBANG","Prop. Sumatera Selatan","SMA","-2.9487000","104.7467000"
"10609691","SMA SJAKHYAKIRTI PALEMBANG","JL. SULTAN MANSYUR PALEMBANG","Prop. Sumatera Selatan","SMA","-3.0018000","104.7442000"
"69725564","SMAS IT ASY SYAFIIYYAH","DESA SARI AGUNG P5","Prop. Sumatera Selatan","SMA","-2.1683000","104.0531000"
"10644261","SMAN 1 PENDOPO","JL. RAYA DESA LANDUR","Prop. Sumatera Selatan","SMA","-3.8060000","103.0107000"
"10605589","SMAN 1 SANGA DESA","JL. DEPATI H.M. SAHIL NGULAK","Prop. Sumatera Selatan","SMA","-2.7326000","103.4879000"
"10600496","SMAN 3 KAYUAGUNG","JL. LETNAN SAYUTI NO. 03","Prop. Sumatera Selatan","SMA","-3.3950000","104.8416000"
"69812072","SMAN 2 BATANGHARI LEKO","DESA LUBUK BINTIALO","Prop. Sumatera Selatan","SMA","-2.4769000","103.3453000"
"10604726","SMAN 4 OGAN KOMERING ULU","JL. KOL.H. WAHAB SAROBU","Prop. Sumatera Selatan","SMA","-4.1107000","104.1918000"
"10645129","SMAN 2 PENUKAL UTARA","JL. ANGKATAN 45","Prop. Sumatera Selatan","SMA","-3.1119000","103.9577000"
"10643829","SMA YAPEMNU III MERAJAT","JL. Raya Provinsi Dusun 2","Prop. Sumatera Selatan","SMA","-3.3375000","104.6655000"
"10600494","SMAN 1 CENGAL","JL. RAYA DESA CENGAL","Prop. Sumatera Selatan","SMA","-3.5053000","105.4257000"
"10609322","SMAS MERANTI","JL. BUSTANI REKAP","Prop. Sumatera Selatan","SMA","-3.4900000","104.8254000"
"10643844","SMA YAA SRIBANDUNG","JL. PESANTREN DS. 11 SERI BANDUNG","Prop. Sumatera Selatan","SMA","-3.3532000","104.6026000"
"10605583","SMAN 1 BATANG HARI LEKO","DESA TANAH ABANG","Prop. Sumatera Selatan","SMA","-2.6838000","103.7684000"
"10604731","SMAN 9 OGAN KOMERING ULU","JALAN LINTAS SUMATERA (BATURAJA - MUARA ENIM) KM. 28","Prop. Sumatera Selatan","SMA","-4.0791000","103.9730000"
"10648290","SMAS BAIT AL-QUR AN","JL. SEPUCUK KELURAHAN PERIGI","Prop. Sumatera Selatan","SMA","-3.3860000","104.8714000"
"10610049","SMA BSI PALEMBANG","JL. HM RYACUDU NO 24","Prop. Sumatera Selatan","SMA","-3.0005000","104.7698000"
"10643901","SMAN BINGIN TELUK","JL. PANGERAN MOHD AKIB","Prop. Sumatera Selatan","SMA","-2.4962060","102.9743100"
"10609646","SMA KARYA IBU PALEMBANG","JL. SOSIAL NO. 510 KM. 5","Prop. Sumatera Selatan","SMA","-2.9512000","104.7382000"
"10609659","SMA MUHAMMADIYAH 02 PALEMBANG","JL. KH. A. DAHLAN NO. 23B","Prop. Sumatera Selatan","SMA","-2.9892000","104.7506000"
"69946916","SMA NEGERI 3 TANAH ABANG","Jln. Raya Dusun Modong","Prop. Sumatera Selatan","SMA","-3.3016340","104.1820648"
"10644250","SMAS NU IX LAHAT","JLN. LETNAN MARZUKI TALANG KAPUK PASAR LAMA LAHAT","Prop. Sumatera Selatan","SMA","-3.7855000","103.5380000"
"10644909","SMAS KARYA 45 BANGUN REJO","JL. VETERAN DESA BANGUN REJO","Prop. Sumatera Selatan","SMA","-3.2403000","103.1605000"
"10645827","SMAS PRATAMA PUTRA","DESA SUKARAJA - KARANG AGUNG ULU","Prop. Sumatera Selatan","SMA","-2.5915000","104.2113000"
"10646107","SMAN 14 OGAN KOMERING ULU","Jl. Poros Batumarta IV","Prop. Sumatera Selatan","SMA","-4.0317000","104.3079000"
"10645114","SMA BHAKTI BANGSA","JL.MERDEKA JALUR NO.41 SALEH MUKTI","Prop. Sumatera Selatan","SMA","-2.6361000","105.0323000"
"10609705","SMA XAVERIUS 02 PALEMBANG","JL. SUKABANGUN  1 PLG","Prop. Sumatera Selatan","SMA","-2.9380000","104.7377000"
"10609643","SMA INSAN CENDIKIA SRIWIJAYA PALEMBANG","JL.KH. Balki Lr. Banten III Kel, 16 Ulu Palembang","Prop. Sumatera Selatan","SMA","-2.9997000","104.7820000"
"10609674","SMA PEMBINA PALEMBANG","JL. JEND. BAMBANG UTOYO 179 PLG","Prop. Sumatera Selatan","SMA","-2.9704000","104.7793000"
"10604734","SMAS SENTOSA BHAKTI BATURAJA","JL.HUSNI THAMRIN SUKARAYA BATURAJA","Prop. Sumatera Selatan","SMA","-4.1221000","104.1758000"
"10646139","SMA NEGERI 2 MUARA KUANG","DESA MUNGGU KEC. M. KUANG","Prop. Sumatera Selatan","SMA","-3.7776000","104.5053000"
"10643839","SMA NEGERI 1 KANDIS","Jl. AMD Dusun 1 Desa Kandis 1 Kec. Kandis Kab. Ogan Ilir Prov. SUMSEL","Prop. Sumatera Selatan","SMA","-3.4123000","104.7848000"
"10648097","SMAS AL HIJRAH SIRAH PULAU PADANG","Desa Rawang Besar Kec.SP.Padang Ogan Komering Ilir ( OKI )","Prop. Sumatera Selatan","SMA","-3.2816000","104.8313000"
"10647682","SMA NEGERI 22 PALEMBANG","JL. KELAPA GADING TALANG KEPALA","Prop. Sumatera Selatan","SMA","-2.9349000","104.6875000"
"10605599","SMAS PGRI 268 PKL KERSIK","DESA BEROJAYA TIMUR","Prop. Sumatera Selatan","SMA","-2.3719000","104.3157000"
"10609676","SMA PGRI 02 PALEMBANG","JL. JEND. A YANI PALEMBANG","Prop. Sumatera Selatan","SMA","-2.9950000","104.7756000"
"10648905","SMA PALEMBANG HARAPAN ","JL. POM IX  KAMPUS","Prop. Sumatera Selatan","SMA","-3.0090000","104.7362000"
"10604382","SMA NUSA LUBUKLINGGAU","JL. KEMANG I WATERVANG","Prop. Sumatera Selatan","SMA","-3.2757000","102.8941000"
"10645004","SMAN 1 MUARA TELANG","JALUR 08 JEMBATAN 2 DESA TELANG JAYA","Prop. Sumatera Selatan","SMA","-2.6200000","104.8856000"
"10610269","SMAS MUHAMMADIYAH 1 MUARADUA","JL. PANCUR PUNGAH","Prop. Sumatera Selatan","SMA","-4.4269000","103.9475000"
"10606613","SMAN 1 MADANG SUKU III","Jl. Raya Batumarta VIII","Prop. Sumatera Selatan","SMA","-4.0781000","104.4885000"
"10603863","SMA NEGERI 07 PALEMBANG","JL. TAQWA  MATAMERAH  KEL SEI SELINCAH","Prop. Sumatera Selatan","SMA","-2.9583000","104.8346000"
"10645173","SMAN 1 SUNGAI ROTAN","JL. HARAPAN NO. 5","Prop. Sumatera Selatan","SMA","-3.1290000","104.3335000"
"10643746","SMAS PGRI PRABUMULIH","JL. KAPTEN ABDULLAH NO. 74","Prop. Sumatera Selatan","SMA","-3.4199000","104.2416000"
"69775697","SMAN KARYA SAKTI","Jalan Tapak Libok Blok A","Prop. Sumatera Selatan","SMA","-3.0060000","103.1291000"
"10643899","SMAN BANGUN JAYA","JL. JENE","Prop. Sumatera Selatan","SMA","-3.2868000","103.3745000"
"10606626","SMAS LPB BELITANG","JL. KANTOR POLISI NO. 2","Prop. Sumatera Selatan","SMA","-4.2306000","104.5846000"
"69897285","SMAN 2 PENUKAL","Jln.Lintas Sekayu Simpang Belimbing Desa Mangku Negara Kec.Penukal Kab.Pali","Prop. Sumatera Selatan","SMA","-3.2070000","104.1430000"
"69888886","SMAN 2 SEMBAWA","JALAN PALEMBANG - BETUNG  KM.21","Prop. Sumatera Selatan","SMA","-2.9121000","104.5163000"
"10603862","SMA NEGERI 14 PALEMBANG","JL. PANGERAN AYIN PALEMBANG","Prop. Sumatera Selatan","SMA","-2.9097000","104.7709000"
"10644647","SMAN 13 OGAN KOMERING ULU","JL. BATURAJA - MUARADUA PENYANDINGAN","Prop. Sumatera Selatan","SMA","-4.2043000","104.1256000"
"10644258","SMAN 1 TALANG PADANG","JALAN RAYA DESA LAMPAR BARU","Prop. Sumatera Selatan","SMA","-3.6992000","102.9445000"
"10606611","SMAS MUHAMMADIYAH MARTAPURA","JL. LINTAS SUMATRA","Prop. Sumatera Selatan","SMA","-4.3261000","104.3490000"
"10603855","SMA NEGERI 08 PALEMBANG","JL.  PERTAHANAN PALEMBANG","Prop. Sumatera Selatan","SMA","-2.9991000","104.7955000"
"10645052","SMAS MUHAMMADIYAH 1 MUARA PADANG","JALUR 18 AIR SUGIHAN DESA DAYA  MAKMUR","Prop. Sumatera Selatan","SMA","-2.5949000","105.1234000"
"10603856","SMA NEGERI 19 PALEMBANG","JL. GUBENUR H. AHMAD BASTARI PALEMBANG","Prop. Sumatera Selatan","SMA","-3.0472000","104.7910000"
"10646396","SMAS MUHAMMADIYAH MAKARTI JAYA","MAKARTI JAYA","Prop. Sumatera Selatan","SMA","-2.4861000","104.9705000"
"10601462","SMAS PGRI 1 LAHAT","JLN. KEMALA BANDAR AGUNG LAHAT","Prop. Sumatera Selatan","SMA","-3.7803000","103.5565000"
"10605914","SMA LINGUA PRIMA","JL. LINTAS TIMUR KM. 35 INDRALAYA","Prop. Sumatera Selatan","SMA","-3.2374000","104.6687000"
"10646120","SMAN 1 PENUKAL UTARA","JL. RAYA DESA TEMPIRAI","Prop. Sumatera Selatan","SMA","-3.1536000","103.8743000"
"10609672","SMA NURUL QOMAR PALEMBANG","JL. PERINTIS KEMERDEKAAN","Prop. Sumatera Selatan","SMA","-2.9766000","104.7798000"
"10644266","SMAN 1 LINTANG KANAN","JL. RAYA DESA MUARA DANAU","Prop. Sumatera Selatan","SMA","-3.9895000","103.0336000"
"69851411","SMAN 2 BABAT SUPAT","JL. PALEMBANG JAMBI KM. 86","Prop. Sumatera Selatan","SMA","-2.8105000","104.1234000"
"10646580","SMA NEGERI 3 RAMBANG KUANG","DESA TANJUNG MIRING","Prop. Sumatera Selatan","SMA","-3.5383000","104.5295000"
"10610295","SMAN NIBUNG","JL. BUNGA RAMPAI","Prop. Sumatera Selatan","SMA","-2.5282000","102.9747000"
"10605603","SMAS RAHMANIYAH SEKAYU","JL. LAUT KEL. SERASAN JAYA","Prop. Sumatera Selatan","SMA","-2.8966000","103.8453000"
"10603353","SMAN 1 BUAY MADANG","Jl. Raya Belitang-Buay Madang","Prop. Sumatera Selatan","SMA","-4.1509000","104.5625000"
"10646153","SMA AMANIYAH BETUNG","JL. RAYA BETUNG","Prop. Sumatera Selatan","SMA","-3.2879000","103.9368000"
"10645380","SMA PGRI MUARA ENIM","JL. PGRI NO. 76 KELURAHAN PASAR III","Prop. Sumatera Selatan","SMA","-3.6866000","103.8381000"
"69756069","SMAN 1 AIR KUMBANG","JALAN SP 3","Prop. Sumatera Selatan","SMA","-2.8403000","105.0653000"
"69756065","SMAN 1 SEMBAWA","Jl.Limau Desa Limau","Prop. Sumatera Selatan","SMA","-2.9108000","104.5522000"
"69896980","SMAN 3 MUARA ENIM","JL. RAYA MUARA ENIM PALEMBANG DESA KEPUR","Prop. Sumatera Selatan","SMA","-3.6830000","103.8197000"
"10609748","SMA NEGERI 6 LUBUKLINGGAU","JL. AIR TEMAM","Prop. Sumatera Selatan","SMA","-3.2853000","102.9455000"
"10647461","SMA NEGERI 1 RANTAU PANJANG","JL. RAYA RANTAU PANJANG","Prop. Sumatera Selatan","SMA","-3.2797000","104.7485000"
"10646582","SMA NEGERI 1 PEMULUTAN BARAT","JL. MAYOR  ISKANDAR","Prop. Sumatera Selatan","SMA","-3.1919000","104.7448190"
"10608963","SMAN 3 SEKAYU","DESA LUMPATAN","Prop. Sumatera Selatan","SMA","-2.7857000","103.8683000"
"69822717","SMAN 1 SALING","JL. LINTAS SUMATERA","Prop. Sumatera Selatan","SMA","-3.4503000","103.0412000"
"69897278","SMAN 5 TALANG UBI","Jln.Lintas Muara Enim Sekayu Dusun II Desa Karta Dewa Kab.Pali","Prop. Sumatera Selatan","SMA","-3.3340000","103.9722000"
"10602504","SMAN 1 BANYUASIN I","JL. SEPAKAT NO.96","Prop. Sumatera Selatan","SMA","-2.9719000","104.8776000"
"69799883","SMAN SEMANGUS","JL. LINTAS MURA - MUBA DESA SEMANGUS","Prop. Sumatera Selatan","SMA","-3.2381000","103.5194000"
"10606487","SMAS NURUL ILHAM","JL. RAYA BETITANG KM 11","Prop. Sumatera Selatan","SMA","-4.2289000","104.3400000"
"10645002","SMAN 1 MUARA PADANG","DESA SUMBER MAKMUR JALUR 20 AIR SUGIHAN I","Prop. Sumatera Selatan","SMA","-2.6724000","105.1317000"
"69901471","SMAN 3 TUNGKAL JAYA","JL. POROS TRANSMIGRASI B1-B4 DESA BERO JAYA TIMUR","Prop. Sumatera Selatan","SMA","-2.7451780","103.7074140"
"10606624","SMAS XAVERIUS I","JL. RS. CHARITAS NO. 602","Prop. Sumatera Selatan","SMA","-4.2071000","104.6657000"
"10609636","SMA DAARUL AITAM PALEMBANG","JL. NAGA SWIDAK","Prop. Sumatera Selatan","SMA","-2.9889000","104.7799000"
"10609697","SMA TRI DHARMA PALEMBANG","JL JAKSA AGUNG R. SOEPRAPTO PALEMBANG","Prop. Sumatera Selatan","SMA","-2.9874000","104.7431000"
"10606621","SMAS PANGUDI LUHUR SUKARAJA","DESA SUKARAJA","Prop. Sumatera Selatan","SMA","-4.2480000","104.4492000"
"10610275","SMAN 1 MUARADUA","JL. SUMBER JAYA","Prop. Sumatera Selatan","SMA","-4.5554000","104.0812000"
"10647909","SMA NURUL IHSAN","JL. PANGERAN MAS","Prop. Sumatera Selatan","SMA","-3.3398000","104.6309000"
"10608930","SMAN 1 LEMPUING JAYA","JL. LINTAS TIMUR KM. 127","Prop. Sumatera Selatan","SMA","-3.7851000","104.8954000"
"10609712","SMA IBA PALEMBANG","JL. MAYOR RUSLAN PALEMBANG","Prop. Sumatera Selatan","SMA","-2.9645000","104.7641000"
"10604544","SMAN 2 PRABUMULIH","JL. BASUKI RAHMAD","Prop. Sumatera Selatan","SMA","-3.4737000","104.2329000"
"10648297","SMAN 2 PULAU BERINGIN","JL. RAYA DESA KEMU","Prop. Sumatera Selatan","SMA","-4.5535000","103.7188000"
"10646237","SMA NEGERI 1 SUNGAI PINANG","DESA SUNGAI PINANG","Prop. Sumatera Selatan","SMA","-3.3456000","104.7903000"
"10643817","SMA IT RAUDHATUL ULUM","SAKATIGA INDRALAYA KAB. OGAN ILIR","Prop. Sumatera Selatan","SMA","-3.2524000","104.6853000"
"10604722","SMAN 11 OGAN KOMERING ULU","JL. RAYA BATURAJA - PRABUMULIH KM. 16","Prop. Sumatera Selatan","SMA","-4.0487000","104.1983000"
"10609782","SMA XAVERIUS LUBUKLINGGAU","JL. TAPAK LEBAR II / 449 KEL SIDOREJO","Prop. Sumatera Selatan","SMA","-3.2645000","102.8552000"
"10609684","SMA QUR ANIYAH PALEMBANG","JL. SEGARAN 15 ILIR PALEMBANG","Prop. Sumatera Selatan","SMA","-2.9823000","104.7632000"
"10645130","SMAN 2 MUARA ENIM","JL. ASTADIN NO. 333","Prop. Sumatera Selatan","SMA","-3.6738000","103.7809000"
"10644252","SMAS IT AL-KAUTSAR LAHAT","JLN. RAYA TANJUNG PAYANG LAHAT","Prop. Sumatera Selatan","SMA","-3.8111000","103.5352000"
"10648016","SMAN SUMATERA SELATAN","JL. PANGERAN RATU","Prop. Sumatera Selatan","SMA","-3.0208000","104.7777000"
"10600239","SMAN 1 SEKAYU","JL. MERDEKA LK. III SEKAYU","Prop. Sumatera Selatan","SMA","-2.8934000","103.8415000"
"10644856","SMAS MUHAMMADIYAH 3 PENANGGUNGAN","JL. RAYA DESA PENANGGUNGAN","Prop. Sumatera Selatan","SMA","-4.4722000","103.9927000"
"10646502","SMAN SUKA KARYA","JL. PERTAMINA DESA CIPTODADI","Prop. Sumatera Selatan","SMA","-3.2437000","103.2287000"
"10600493","SMAN 1 TULUNG SELAPAN","JL. MARDEKA","Prop. Sumatera Selatan","SMA","-3.0581000","105.8225000"
"10645018","SMAS PGRI BETUNG","JL. TAJA RAYA LINGKUNGAN II","Prop. Sumatera Selatan","SMA","-2.8519000","104.2301000"
"10601401","SMAN 1 MULAK ULU","JLN. PANGERAN SOHAR DESA MUARA TIGA","Prop. Sumatera Selatan","SMA","-4.0390000","103.5663000"
"10646273","SMAS MUHAMMADIYAH TEBING TINGGI","JL. TEBING BENTENG","Prop. Sumatera Selatan","SMA","-3.5906000","103.0816000"
"10605574","SMAS BI 2 SEKAYU","JL. Tembus Bundaran - Randik","Prop. Sumatera Selatan","SMA","-3.0111000","103.8673000"
"10646233","SMAN 2 RAMBANG DANGKU","DESA MANUNGGAL JAYA","Prop. Sumatera Selatan","SMA","-3.4360000","104.1277000"
"10644253","SMAS SANGSAPURBA LAHAT","JLN. MAYOR SAI HUSIN","Prop. Sumatera Selatan","SMA","-3.7966000","103.5291000"
"10604721","SMAN 10 OGAN KOMERING ULU","Jln. Raya Baturaja-Muaradua KM 29","Prop. Sumatera Selatan","SMA","-4.3237000","104.0881000"
"69901183","SMAN 3 SUNGAI KERUH","Jalan Jirak - Sopa","Prop. Sumatera Selatan","SMA","-2.9228000","103.5811000"
"10643845","SMA JAMIYAH ISLAMIYAH","JL. MERDEKA NO.28 TG. PINANG","Prop. Sumatera Selatan","SMA","-3.3398000","104.6497000"
"10600559","SMAN 1 KAYUAGUNG","JL. LETNAN MUKHTAR SALEH NO.7","Prop. Sumatera Selatan","SMA","-3.3814000","104.8274000"
"10601960","SMAN MUARA LAKITAN","JL. TERMINAL BIS LAMA","Prop. Sumatera Selatan","SMA","-2.8666000","103.3148000"
"10609398","SMAS XAVERIUS 5 BELITANG","Jln. Belitang Martapura BK. 9 OKU TIMUR SUM-SEL","Prop. Sumatera Selatan","SMA","-4.2147000","104.6610000"
"69883640","SMAN 17 OKU","DESA MAKARTI JAYA","Prop. Sumatera Selatan","SMA","-3.9012800","104.3408350"
"10600236","SMAN 2 SEKAYU","JL. KOL WAHID UDIN KAYUARA","Prop. Sumatera Selatan","SMA","-2.8903000","103.8579000"
"69854724","SMA NEGERI 2 INDRALAYA UTARA","KOMPLEK BUMI INDRALAYA PERMAI (BIP) KELURAHAN TIMBANGAN","Prop. Sumatera Selatan","SMA","-3.1928760","104.6643300"
"10645833","SMAN 1 RAMBANG DANGKU","JL. JENDRAL SUDIRMAN","Prop. Sumatera Selatan","SMA","-3.5266000","104.0251000"
"10604405","SMA NEGERI 5 LUBUKLINGGAU","Jl. Fatmawati Soekarno","Prop. Sumatera Selatan","SMA","-3.3057000","102.8708000"
"10646563","SMAN 2 MUARA KELINGI","KAWASAN TERPADU KOTA MANDIRI","Prop. Sumatera Selatan","SMA","-3.0265000","103.0899000"
"10645003","SMAN 1 MUARA SUGIHAN","DESA CENDANA JALUR 14 KECAMATAN MUARA SUGIHAN KABUPATEN BANYUASIN","Prop. Sumatera Selatan","SMA","-2.4835000","105.2610000"
"10644248","SMAS MUHAMMADIYAH LAHAT","JLN. LETNAN AMIR HAMZAH II LAHAT","Prop. Sumatera Selatan","SMA","-3.7916000","103.5391000"
"10608897","SMAN 2 SEM BARAT","DESA BETUNG","Prop. Sumatera Selatan","SMA","-3.8550000","104.6404000"
"10604719","SMAS MUHAMMADIYAH TANJUNG LENGKAYAP","DESA TANJUNG LENGKAYAP","Prop. Sumatera Selatan","SMA","-4.0625000","103.8472000"
"10609629","SMA BINA JAYA PALEMBANG","JALAN KI MEROGAN LRG. NGABEHI 733","Prop. Sumatera Selatan","SMA","-3.0373280","104.7450040"
"10646018","SMA BUKIT ASAM TANJUNG ENIM","JL. BULURAN TALANG JAWA","Prop. Sumatera Selatan","SMA","-3.7351000","103.8686000"
"10643748","SMAS TUNAS BAKTI","JL.BARU NO. 218 KEL. SUKARAJA","Prop. Sumatera Selatan","SMA","-3.4534000","104.2403000"
"10609316","SMAS BINA DHARMA MANDIRA","INFRA MODUL II JALUR 35/36","Prop. Sumatera Selatan","SMA","-3.9288000","105.8709000"
"10600903","SMAN 1 TALANG UBI","Jl. Beringin Talang Subur","Prop. Sumatera Selatan","SMA","-3.2829000","103.8269000"
"10609710","SMA PATRA MANDIRI 01 PALEMBANG","JL KELAPA SAWIT KOMPERTA PLAJU","Prop. Sumatera Selatan","SMA","-2.9961000","104.8229000"
"69932597","SMA AL BAAQII","JL. SIMPANG SIKU KELUANG KM. 02 DUSUN IV","Prop. Sumatera Selatan","SMA","-2.6189000","104.0873000"
"10609764","SMA MAARIF LUBUKLINGGAU","JL. Jendral Besar H. M. Soeharto","Prop. Sumatera Selatan","SMA","-3.2731000","102.9653000"
"10602546","SMAN 1 TALANG KELAPA","JL. PERINTIS SUKAMORO","Prop. Sumatera Selatan","SMA","-2.9262000","104.6310000"
"10647684","SMAS SINAR PEMBANGUNAN RANTAU DURIAN","DESA RANTAU DURIAN","Prop. Sumatera Selatan","SMA","-3.6938000","104.9478000"
"10603849","SMA NEGERI 11 PALEMBANG","JL. INSP. MARZUKI NO.2552 PLG","Prop. Sumatera Selatan","SMA","-2.9625000","104.7245000"
"10645001","SMAN 1 RAMBUTAN","JL RAYA RAMBUTAN KM.30","Prop. Sumatera Selatan","SMA","-3.1296000","104.9185000"
"10601972","SMAN 1 MUARA BELITI","JL. RAYA PALEMBANG KM. 24 KECAMATAN MUARA BELITI KABUPATEN MUSI RAWAS 31661","Prop. Sumatera Selatan","SMA","-3.2534450","103.0435633"
"10601348","SMAN 2 LAHAT","JLN. JAKSA AGUNG R. SUPRAPTO LAHAT","Prop. Sumatera Selatan","SMA","-3.7791000","103.5522000"
"10609716","SMA BAKTI IBU 5 PALEMBANG","JL. PURWOSARI II BUKIT SANGKAL PLG","Prop. Sumatera Selatan","SMA","-2.9433000","104.7934000"
"10606628","SMAS YPPI BELINTANG","Jl.Darussalam no.001 Wonorejo Belitang OKU Timur","Prop. Sumatera Selatan","SMA","-4.2019000","104.6490000"
"60724686","SMA DEWITA","DUSUN III","Prop. Sumatera Selatan","SMA","-2.7171000","104.9338000"
"10601347","SMAN 2 TEBING TINGGI","JL. Brigjen Yahya Bahar Talang Gunung RT.03 Rw.03","Prop. Sumatera Selatan","SMA","-3.6672000","103.0662000"
"10604720","SMAS MUHAMMADIYAH TUBOHAN","DESA TUBOHAN","Prop. Sumatera Selatan","SMA","-4.0721000","103.9986000"
"69775439","SMAS Pelita Insani Prabumulih","Jln. Lingkar Timur Kelurahan Gunung Ibul Prabumulih Timur","Prop. Sumatera Selatan","SMA","-3.4957000","104.2732000"
"69768245","SMAN 1 BELITANG MADANG RAYA","TUGU MULYO","Prop. Sumatera Selatan","SMA","-4.1845000","104.6600000"
"10645893","SMAN 1 TANJUNG LAGO","JL TANJUNG API-API KM 37 SUKADAMAI","Prop. Sumatera Selatan","SMA","-2.5979000","104.7753000"
"10647925","SMA PGRI ALAI","DESA ALAI SELATAN","Prop. Sumatera Selatan","SMA","-3.4149000","104.3704000"
"10605601","SMAS PGRI LALAN","Rt 22 dusun IV desa galih sari kecamatan lalan, kab musi banyuasin","Prop. Sumatera Selatan","SMA","-2.0255000","103.9175000"
"10647855","SMAN MUARA KULAM","JL. POROS ULU RAWAS","Prop. Sumatera Selatan","SMA","-2.9305000","102.2535000"
"10648895","SMAN 1 BUAY RUNJUNG","DESA BEDENG BLAMBANGAN","Prop. Sumatera Selatan","SMA","-4.5252000","103.8643000"
"10601445","SMAN 2 KIKIM TENGAH","JLN. SUKARAJA DESA PURBA MAS KEC. KIKIM TENGAH","Prop. Sumatera Selatan","SMA","-3.5915000","103.2641000"
"10646177","SMAS YADIKA BATURAJA","JL. SULTAN MAHMUD BADARUDDIN II SUKARAYA","Prop. Sumatera Selatan","SMA","-4.1179000","104.1777000"
"10603842","SMA NEGERI 05 PALEMBANG","JL. RE. MARTADINATA, GOTONG ROYONG SUNGAI BUAH PALEMBANG","Prop. Sumatera Selatan","SMA","-2.9707000","104.7916000"
"10609723","SMA YWKA PALEMBANG","JL. KI. MEROGAN LR PORKA PALEMBANG","Prop. Sumatera Selatan","SMA","-3.0197000","104.7517000"
"69756070","SMAN 2 TUNGKAL ILIR","JALAN SIMPANG BULIAN","Prop. Sumatera Selatan","SMA","-2.6102000","104.2529000"
"10645758","SMAN 2 KIKIM TIMUR","Jln. Trans Bumi Lampung","Prop. Sumatera Selatan","SMA","-3.6804000","103.4170000"
"10601946","SMAN TUGUMULYO","JL. JENDRAL SUDIRMAN DESA F. TRIKOYO","Prop. Sumatera Selatan","SMA","-3.1806767","102.9486350"
"10610277","SMAN 1 PULAU BERINGIN","JL. TEDUNG SAWANGAN NO.360 PULAU BERINGIN","Prop. Sumatera Selatan","SMA","-4.5052000","103.6386000"
"10610073","SMAN TERAWAS","JL. LINTAS SUMATERA KM. 30","Prop. Sumatera Selatan","SMA","-3.0649000","102.8255000"
"10609640","SMA FITRA ABDI PALEMBANG","JALAN TEGAL BINANGUN","Prop. Sumatera Selatan","SMA","-3.0120000","104.8138000"
"10609671","SMA NURUL IMAN PALEMBANG","JL. MAYOR SALIM BATU BARA NO. 358 PALEMBANG","Prop. Sumatera Selatan","SMA","-2.9655000","104.7576000"
"10643847","SMA BAKTI SUCI","JL. MERDEKA/ MASJID ALFALAH","Prop. Sumatera Selatan","SMA","-3.3421000","104.6205000"
"10643838","SMA NEGERI 1 RANTAU ALAI","JL. KDT. ALI HANAFIAH DS.MEKAR S","Prop. Sumatera Selatan","SMA","-3.4106000","104.7433000"
"10609718","SMA SETIA DARMA PALEMBANG","JL. DI. PANJAITAN LR. PASUNDAN","Prop. Sumatera Selatan","SMA","-2.9948000","104.8124000"
"10643894","SMAS PLUS BINA SATRIA RUPIT (B)","JL. POS DAN GIRO MUARA RUPIT","Prop. Sumatera Selatan","SMA","-2.7234000","102.9095000"
"10646280","SMAN 1 RANAU SELATAN","JL. PANTAI LAMA","Prop. Sumatera Selatan","SMA","-4.8884000","103.9886000"
"10609624","SMA AZHARYAH PALEMBANG","JL.KH. AZHARI PLG","Prop. Sumatera Selatan","SMA","-2.9906000","104.7699000"
"10604065","SMA MUHAMMADIYAH 01 PALEMBANG","JL. BALAYUDHA KM. 4,5 NO. 21A PLG","Prop. Sumatera Selatan","SMA","-2.9587000","104.7391000"
"10644912","SMAN SIMPANG SEMAMBANG","JL. SYAHRIAL OESMAN","Prop. Sumatera Selatan","SMA","-3.1813000","103.1571000"
"69899712","SMAN 4 TALANG UBI","Desa Talang Akar Kec.Talang Ubi Kab.Penukal Abab Lematang Ilir","Prop. Sumatera Selatan","SMA","-3.2003000","103.8083000"
"10609714","SMA PUSRI PALEMBANG","JL MAYOR ZEN PALEMBANG","Prop. Sumatera Selatan","SMA","-2.9690000","104.8185000"
"10610288","SMAN KARANG DAPO","JL.H.M. SYUEB TAMAT","Prop. Sumatera Selatan","SMA","-2.7050000","103.0025000"
"10604400","SMA PGRI 1 LUBUKLINGGAU","JL. MAYOR TOHA","Prop. Sumatera Selatan","SMA","-3.2529000","102.9325000"
"10601346","SMAN 3 LAHAT","JLN. PENGHIJAUAN BANDAR JAYA LAHAT","Prop. Sumatera Selatan","SMA","-3.7720000","103.5558000"
"10643749","SMAS YAYASAN BAKTI","JL. URIP SUMOHARJO NO. 377","Prop. Sumatera Selatan","SMA","-3.4302000","104.2330000"
"10600481","SMAN 1 SIRAH PULAU PADANG","JL. RAYA DESA BUNGIN TINGGI","Prop. Sumatera Selatan","SMA","-3.2661000","104.8842000"
"10647788","SMAN 3 BANYUASIN III","DESA PANGKALAN PANJI","Prop. Sumatera Selatan","SMA","-2.9200000","104.4664000"
"10609663","SMA MUHAMMADIYAH 06 PALEMBANG","JL. JEND. SUDIRMAN PALEMBANG","Prop. Sumatera Selatan","SMA","-2.9577000","104.7382000"
"10648166","SMAN 4 SEKAYU","JL. KOL. WAHID UDIN LK. II","Prop. Sumatera Selatan","SMA","-2.8501000","103.8345000"
"10605586","SMAN 1 LAIS","DESA TELUK KIJING II","Prop. Sumatera Selatan","SMA","-2.9464000","103.9720000"
"10644267","SMAN 1 PULAU PINANG","JLN. RAYA LAHAT - PAGARALAM DESA JATI Km.09 KECAMATAN PULAU PINANG LAHAT","Prop. Sumatera Selatan","SMA","-3.8235000","103.5225000"
"10609702","SMA WIDYA BHAKTI PALEMBANG","JL. KIMEROGAN LR. YAKIN RT II NO. 591","Prop. Sumatera Selatan","SMA","-3.0322000","104.7537000"
"10609317","SMAS DARUL FALAH KEMANG INDAH","JL. BANI ISRAIL","Prop. Sumatera Selatan","SMA","-3.7530000","105.2673000"
"10609655","SMA METHODIST 01 PALEMBANG","JL. JEND. SUDIRMAN KM. 3.5 PALEMBANG","Prop. Sumatera Selatan","SMA","-2.9641000","104.7457000"
"10604725","SMAN 3 OGAN KOMERING ULU","JL. GATOT SUBROTO NO. 21 BATURAJA","Prop. Sumatera Selatan","SMA","-4.1427000","104.1546000"
"10609630","SMA BINA KARYA PALEMBANG","JL. LETNAN KASNARIYANSYAH 1200 PLG","Prop. Sumatera Selatan","SMA","-2.9582000","104.7321000"
"","SMA KRISTEN IPEKA PALEMBANG","JL. RESIDEN H. ABDUL ROZAK Lr. BAKTI LKMD PALEMBANG","Prop. Sumatera Selatan","SMA","-2.9698360","104.8450198"
"10646236","SMAN 1 SUNGAI ARE","JL. Berangin Indah","Prop. Sumatera Selatan","SMA","-4.5194000","104.1117000"
"10646239","SMAN 1 MERAPI SELATAN","JLN. AIR SUBAN PERANGAI","Prop. Sumatera Selatan","SMA","-3.8540000","103.6491000"
"10602505","SMAN 1 BANYUASIN II","JL. EKA JAYA SUNGSANG I","Prop. Sumatera Selatan","SMA","-2.3628000","104.8966000"
"69946498","SMAN 3 BANYUASIN I","JALAN BELITUNG, DESA MERAH MATA","Prop. Sumatera Selatan","SMA","-2.9180000","104.8514000"
"10600905","SMAN 1 UNGGULAN MUARA ENIM","JL. PERWIRA NO. 1","Prop. Sumatera Selatan","SMA","-3.6545000","103.7795000"
"10644681","SMAS TARUNA TUNAS BANGSA BATURAJA","JL.GANESHA  BATURAJA","Prop. Sumatera Selatan","SMA","-4.1285000","104.1991000"
"10605580","SMAS MUHAMMADIYAH JIRAK","DESA JIRAK","Prop. Sumatera Selatan","SMA","-3.0949000","103.7586000"
"10648040","SMAN BP PELIUNG","DESA BANTAN","Prop. Sumatera Selatan","SMA","-4.1320000","104.4787000"
"10645834","SMAN 1 GELUMBANG","JL. RAYA GELUMBANG","Prop. Sumatera Selatan","SMA","-3.3186000","104.4533000"
"10603853","SMA NEGERI 06 PALEMBANG","JL. SERSAN SANI BASUKI RAHMAT PALEMBANG","Prop. Sumatera Selatan","SMA","-2.9474000","104.7492000"
"10609633","SMA BINA WARGA 01 PALEMBANG","JL. BINA WARGA NO. 525 PLG","Prop. Sumatera Selatan","SMA","-2.9607000","104.7734000"
"10604718","SMAS MUHAMMADIYAH GUNUNG LIWAT","DESA GUNUNG LIWAT","Prop. Sumatera Selatan","SMA","-4.0579000","103.8651000"
"10609621","SMA ANTARA PALEMNBANG","JL. SUKABANGUN II KM. 6 PLG","Prop. Sumatera Selatan","SMA","-2.9371000","104.7327000"
"10609761","SMA AR-RISALAH LUBUKLINGGAU","JL. LAPTER SILAMPARI","Prop. Sumatera Selatan","SMA","-3.2781000","102.9133000"
"10610270","SMAS PGRI GUNUNG RAYA","JL. LINTAS GUNUNG RAYA","Prop. Sumatera Selatan","SMA","-4.8936000","104.1100000"
"10648897","SMAN 2 MUARADUA KISAM","Jalan Raya Lawang Agung","Prop. Sumatera Selatan","SMA","-4.3820000","103.6723000"
"69830121","SMA TAMAN SISWA PAGARALAM","JL. DEMPO RAYA NO 96","Prop. Sumatera Selatan","SMA","-4.0248000","103.2365000"
"10643910","SMAN 5 PRABUMULIH","JL. LINTAS GUNUNG KEMALA","Prop. Sumatera Selatan","SMA","-3.4695000","104.1985000"
"10603301","SMAN 1 BELITANG","Jl. M.P. Bangsa Raja","Prop. Sumatera Selatan","SMA","-4.1090000","104.6380000"
"10609669","SMA NU PALEMBANG","JL. JEND. AHMAD YANI PLG","Prop. Sumatera Selatan","SMA","-2.9959000","104.7761000"
"10605593","SMAN 2 LAIS","Jalan Raya Palembang-Sekayu","Prop. Sumatera Selatan","SMA","-3.0405000","104.0373000"
"10603845","SMA NEGERI 02 PALEMBANG","JL. PUNCAK SEKUNING NO.84","Prop. Sumatera Selatan","SMA","-2.9851000","104.7369000"
"10646052","SMAN 1 BELIMBING","JL. RAYA PENDOPO","Prop. Sumatera Selatan","SMA","-3.3565000","103.8458000"
"10646003","SMA PGRI TALANG UBI","JL. TALANG AKAR PENDOPO SIMPANG LIMA","Prop. Sumatera Selatan","SMA","-3.2391000","103.8018000"
"10646349","SMA AL FATTAH IHSANIYAH","Jln Raya Tanah Abang Modong","Prop. Sumatera Selatan","SMA","-3.3015000","104.1950000"
"10606609","SMAS MUHAMMADIYAH 2 KARANG TENGAH","DESA KARANG TENGAH","Prop. Sumatera Selatan","SMA","-4.1813000","104.5492000"
"10648898","SMAN 1 KISAM ILIR","JL.RAYA MUARADUA KISAM","Prop. Sumatera Selatan","SMA","-4.4420000","103.8939000"
"10643833","SMA NEGERI 2 TANJUNG RAJA","JL. SULTAN MAHMUD BADARUDDIN.II TANJUNG  RAJA","Prop. Sumatera Selatan","SMA","-3.3602000","104.7681000"
"10603329","SMAN 1 CEMPAKA","DESA CAMPANG TIGA","Prop. Sumatera Selatan","SMA","-3.7587000","104.6496000"
"10645131","SMAN 1 KELEKAR","JL. AMD MANUNGGAL IV","Prop. Sumatera Selatan","SMA","-3.3714000","104.4771000"
"10604724","SMAN 2 OGAN KOMERING ULU","JL. Tanzania No. 235","Prop. Sumatera Selatan","SMA","-4.1518000","104.2931000"
"10648275","SMAN 16 OGAN KOMERING ULU","Jl. Simpang Tanjung Lengkayap KM. 14","Prop. Sumatera Selatan","SMA","-4.3151000","104.0047000"
"69896913","SMAN 2 KIKIM SELATAN","DESA NANJUNGAN KECAMATAN KIKIM SELATAN","Prop. Sumatera Selatan","SMA","-3.6999000","103.1893000"
"10647948","SMAN 3 PULAU RIMAU","DESA TELUK BETUNG","Prop. Sumatera Selatan","SMA","-2.4865000","104.6221000"
"10609749","SMA NEGERI 7 LUBUKLINGGAU","JL. GAJAH MADA NO. 23 RT. 05 KEC. LUBUKLINGGAU UTARA II","Prop. Sumatera Selatan","SMA","-3.2553000","102.9190000"
"69880556","SMA HIJROTUL MUNAWAROH","DESA KARANG TIRTA","Prop. Sumatera Selatan","SMA","-2.3690190","104.2877770"
"60725489","SMAS ISLAM TERPADU","TANAH MERAH","Prop. Sumatera Selatan","SMA","-4.1574000","104.6876000"
"10609711","SMA PATRA MANDIRI 02 PALEMBANG","JL FLAMBOYAN KOMPERTA SUNGAI GERONG","Prop. Sumatera Selatan","SMA","-2.9906000","104.8528000"
"10605592","SMAN 1 TUNGKAL JAYA","RT 04 RW 02 Desa Peninggalan Kec. Tungkal Jaya Kab. Muba Prop. SUMSEL","Prop. Sumatera Selatan","SMA","-2.4290000","104.2910000"
"10603866","SMA NEGERI 09 PALEMBANG","JL. MATARAM KERTAPATI","Prop. Sumatera Selatan","SMA","-3.0348000","104.7558000"
"10609690","SMA SUMSEL JAYA PALEMBANG","JL.LETKOL ISKANDAR NO.453","Prop. Sumatera Selatan","SMA","-2.9823000","104.7608000"
"69752763","SMAS TELADAN JAYA","JL. KENANGA DESA MUARA BURNAI II","Prop. Sumatera Selatan","SMA","-3.6402000","104.9273000"
"10609318","SMAS DARUSSALAM KAYUAGUNG","JL. LINTAS TIMUR","Prop. Sumatera Selatan","SMA","-3.4106000","104.8219000"
"10645825","SMAN 1 RANTAU BAYUR","JL. RAYA PENGUMBUK","Prop. Sumatera Selatan","SMA","-2.9680780","104.3041930"
"10644254","SMAS ISLAMIC CENTER LAHAT","Jln. Ahmad Yani No.193 Kel. Pagar Agung Kode Pos 31417","Prop. Sumatera Selatan","SMA","-3.7872000","103.5277000"
"10646553","SMAN 7 PRABUMULIH","Jln. Lingkar Timur","Prop. Sumatera Selatan","SMA","-3.4279000","104.2739000"
"10644256","SMAN 1 ULU MUSI","DESA PADANG TEPONG","Prop. Sumatera Selatan","SMA","-3.7648000","102.7918000"
"10645819","SMA YKPP PENDOPO","JL. CEMARA NO. 18P KOMPERTA PENDOPO","Prop. Sumatera Selatan","SMA","-3.2483000","103.9033000"
"10606619","SMAN 1 MADANG SUKU II","DESA KOTA NEGARA","Prop. Sumatera Selatan","SMA","-4.0719000","104.4534000"
"10645379","SMA YPL MUARA ENIM","JL. PROKLAMASI NO. 80","Prop. Sumatera Selatan","SMA","-3.6576000","103.8086000"
"10605578","SMAS BUDI LUHUR","DESA SRIMULYO","Prop. Sumatera Selatan","SMA","-2.2367000","104.2358000"
"10644646","SMAN 12 OGAN KOMERING ULU","JL.SIMPANG TIGA TANJUNG KEPAYANG DESA ULAK LEBAR KEC.ULU OGAN KAB.OKU","Prop. Sumatera Selatan","SMA","-4.1079000","103.7598000"
"10609717","SMA BHAKTI IBU 8 PALEMBANG","JL. GOTONG ROYONG KM. 13 PLG","Prop. Sumatera Selatan","SMA","-2.9066000","104.6801000"
"10643903","SMAN MEGANG SAKTI","JL. KEBUN KULIM MEGANG SAKTI 5","Prop. Sumatera Selatan","SMA","-3.0210000","103.0154000"
"10644271","SMAN 1 KIKIM BARAT","JLN. LINTAS SUMATERA DESA SAUNG NAGA","Prop. Sumatera Selatan","SMA","-3.5477000","103.2135000"
"10609680","SMA PGRI 05 PALEMBANG","JL. PARAMESWARA NO. 18 PLG","Prop. Sumatera Selatan","SMA","-2.9874000","104.7231000"
"10644265","SMAN 1 TANJUNG SAKTI PUMU","JLN. TUGU PERJUANGAN DESA BATU RANCING","Prop. Sumatera Selatan","SMA","-4.1212000","103.0284000"
"10645022","SMAS BINA MANDIRI","JL. RAYA PALEMBANG- BETUNG KM 14","Prop. Sumatera Selatan","SMA","-2.9136000","104.6721000"
"10645166","SMA YPIP PENDOPO","JL. TELAGA SAID NO. 2 PENDOPO","Prop. Sumatera Selatan","SMA","-3.2822000","103.8356000"
"10644268","SMAN 1 PAGAR GUNUNG","Jl Lintas Pagun-Mulak Ulu Ds. Siring Agung Kec. Pagar Gunung Kab. Lahat","Prop. Sumatera Selatan","SMA","-3.9181000","103.5825000"
"10609662","SMA MUHAMMADIYAH 05 PALEMBANG","JL. URIP SUMOHARJO / WAHID ALI 2 ILIR PLG","Prop. Sumatera Selatan","SMA","-2.9658000","104.7877000"
"10600906","SMAN 1 GUNUNG MEGANG","JL. NEGARA GUNUNG MEGANG","Prop. Sumatera Selatan","SMA","-3.4560000","103.8774000"
"10646251","SMAN 2 PLAKAT TINGGI","DESA SIDO MUKTI","Prop. Sumatera Selatan","SMA","-2.7333000","103.6905000"
"10645016","SMAS SANUDIN","JL. CAHAYA BERLIAN NO.81","Prop. Sumatera Selatan","SMA","-2.8898000","104.4016000"
"10600526","SMAN 1 PEDAMARAN","JL. SERSAN DAHLAN","Prop. Sumatera Selatan","SMA","-3.5043000","104.8297000"
"10646296","SMAS HANURA","jln. Bintang Alam","Prop. Sumatera Selatan","SMA","-4.6581000","104.2210000"
"10609899","SMAN 3 PAGAR ALAM","JL. MERDEKA BUMI AGUNG","Prop. Sumatera Selatan","SMA","-4.0650000","103.1487000"
"10609651","SMA KUSUMA BANGSA PALEMBANG","JL. RESIDEN H. ABDUL ROZAK PLG","Prop. Sumatera Selatan","SMA","-2.9493000","104.7770000"
"10603340","SMAN 1 MARTAPURA","DESA KOTA BARU BARAT","Prop. Sumatera Selatan","SMA","-4.3324000","104.3466000"
"10648258","SMAN 3 LAIS","Jalan Serda Cik Uding Dusun 3 Desa Petaling Kec. Lais Kab. Musi Banyuasin","Prop. Sumatera Selatan","SMA","-2.9361000","104.0753000"
"10646365","SMAN 2 PULAU RIMAU","JL. NAVIGASI SELAT KUNINGAN","Prop. Sumatera Selatan","SMA","-2.5394000","104.5488000"
"10606612","SMA MUHAMMADIYAH 9 RAWA BENING","RAWA BENING BK 3","Prop. Sumatera Selatan","SMA","-4.1971000","104.5312000"
"10609654","SMA MARDI WACANA PALEMBANG","JL. TANJUNG API-API NO 2594 PALEMBANG","Prop. Sumatera Selatan","SMA","-2.9174000","104.7131000"
"10609706","SMA XAVERIUS 03 PALEMBANG","JL. KOL ATMO NO. 132 PLG","Prop. Sumatera Selatan","SMA","-2.9838000","104.7594000"
"10604715","SMAS KADER PEMBANGUNAN BATURAJA","DR. MOHAMMAD HATTA NO.283-C BATURAJA","Prop. Sumatera Selatan","SMA","-4.1798000","104.2100000"
"10609693","SMA TAMAN SISWA PALEMBANG","JL. TAMANSISWA NO. 261 PLG","Prop. Sumatera Selatan","SMA","-2.9760000","104.7584000"
"10606485","SMAN 1 SEM TIMUR","Jln.Raya Karang Melati Kec.Semendawai Timur","Prop. Sumatera Selatan","SMA","-4.2691000","104.3675000"
"10643897","SMAS YPBI 3 TUGUMULYO","JL. JEND. SUDIRMAN","Prop. Sumatera Selatan","SMA","-3.1762567","102.9488400"
"10610278","SMAN 1 SIMPANG","JL. RA KARTINI","Prop. Sumatera Selatan","SMA","-4.8480000","104.3163000"
"10604730","SMAN 8 OGAN KOMERING ULU","JL.LINTAS FCC NO.1 BATUMARTA XII","Prop. Sumatera Selatan","SMA","-3.9608000","104.4054000"
"10646224","SMAS ISLAM DARUSSALAM","JL. LINTAS TIMUR TUGUMULYO","Prop. Sumatera Selatan","SMA","-3.8474000","104.8948000"
"10609310","SMAN 1 PANGKALAN LAMPAM","JL. RAYA PANGKALAN LAPAM","Prop. Sumatera Selatan","SMA","-3.2036000","105.0987000"
"10609638","SMA DIPONEGORO PALEMBANG","36 ILIR PLG","Prop. Sumatera Selatan","SMA","-3.0141000","104.7413000"
"10643911","SMAN 6 PRABUMULIH","JL. Pipa Modong Cambai","Prop. Sumatera Selatan","SMA","-3.3700000","104.2767000"
"10609657","SMA METHODIST 03 PALEMBANG","JL. JEND. A. YANI , TEMBOK BARU NO 777","Prop. Sumatera Selatan","SMA","-2.9962000","104.7731000"
"10605587","SMAN 1 LALAN","DESA. BANDAR AGUNG","Prop. Sumatera Selatan","SMA","-2.2894000","104.4347000"
"10645053","SMAS SATRIA NUSANTARA","JL. PALEMBANG JAMBI KM 67.5","Prop. Sumatera Selatan","SMA","-2.8433000","104.2243000"
"69940035","SMA NEGERI 1 TANJUNG TEBAT","Jl. Letjend. Harun Sohar Km.32 Desa Air Dingin Kec. Tanjung Tebat","Prop. Sumatera Selatan","SMA","-3.9912380","103.4350700"
"10648130","SMA NEGERI 8 LUBUKLINGGAU","JL. Fatmawati soekarno","Prop. Sumatera Selatan","SMA","-3.3004000","102.8890000"
"10643818","SMA NEGERI 1 INDRALAYA UTARA","Jl Pesirah Mat Nang","Prop. Sumatera Selatan","SMA","-3.2225000","104.6338000"
"10645134","SMAN 2 UNGGULAN TALANG UBI","JL. BONGAS NO. 421 TALANG KERANGAN","Prop. Sumatera Selatan","SMA","-3.2358000","103.8716000"
"10609628","SMA BINA CIPTA PALEMBANG","JL. BINA CIPTA NO. 18 PALEMBANG","Prop. Sumatera Selatan","SMA","-2.9398000","104.7740000"
"10643834","SMA NEGERI 3 TANJUNG RAJA","DESA ULAK KERBAU BARU","Prop. Sumatera Selatan","SMA","-3.3150000","104.7327000"
"10609634","SMA BINA WARGA 02 PALEMBANG","JL. BINA WARGA NO. 252 PLG","Prop. Sumatera Selatan","SMA","-2.9607000","104.7733000"
"60725233","SMAN 1 PSEKSU","JLN. LINNTAS SALING ULU","Prop. Sumatera Selatan","SMA","-3.8037000","103.3878000"
"10643904","SMAN SURULANGUN (B)","JL. JEND. SUDIRMAN NO. 06","Prop. Sumatera Selatan","SMA","-2.6379000","102.7248000"
"10604728","SMAN 6 OGAN KOMERING ULU","JL.LINTAS SUMATERA KM 45","Prop. Sumatera Selatan","SMA","-4.0529000","103.8760000"
"10645174","SMAN 1 LEMBAK","Jln. By Pass Km. 16 Prabumulih – Palembang Kec. Lembak 31171 Muara Enim","Prop. Sumatera Selatan","SMA","-3.4652720","104.3669840"
"10609326","SMAS YAPEMNU KAYUAGUNG","JL. VETERAN NO. 84","Prop. Sumatera Selatan","SMA","-3.3937000","104.8285000"
"10644264","SMAS MUHAMMADIYAH JARAI","JLN. ADE IRMA SURYANI NASUTION JARAI","Prop. Sumatera Selatan","SMA","-3.9505000","103.2507000"
"10605575","SMAS BINA BANGSA PP AL FALAH","Jl. Palembang-Jambi Km.105","Prop. Sumatera Selatan","SMA","-2.7315000","104.0713000"
"10645030","SMAN 1 BELITANG III","DESA NUSA BAKTI","Prop. Sumatera Selatan","SMA","-4.2276000","104.6656000"
"10648826","SMAN 2 TUNGKAL JAYA ","JL. MERDEKA No 99","Prop. Sumatera Selatan","SMA","-2.2805000","104.3310000"
"10605594","SMAN 2 SUNGAI KERUH","DESA JIRAK","Prop. Sumatera Selatan","SMA","-3.1719000","103.7912000"
"10600560","SMAN 1 MESUJI","JL. LINTAS TIMUR KM 173","Prop. Sumatera Selatan","SMA","-4.0308000","105.0851000"
"10609871","SMAS MUHAMMADIYAH PAGAR ALAM","JL. KOMBES H. UMAR NO. 1123","Prop. Sumatera Selatan","SMA","-4.0151000","103.1521000"
"10609642","SMA GAJAH MADA 03 PALEMBANG","JL. KH. WAHID HASYIM LR. BAKTI RT. 11 PLG","Prop. Sumatera Selatan","SMA","-3.0135000","104.7532000"
"10646579","SMA NEGERI 2 RAMBANG KUANG","DESA KUANG DALAM","Prop. Sumatera Selatan","SMA","-3.5383000","104.6162000"
"69849617","SMAN 8 PRABUMULIH","JL. WISATA","Prop. Sumatera Selatan","SMA","-3.4844000","104.1638000"
"10609762","SMA BAKTI KELUARGA LUBUKLINGGAU","JL. YOS SUDARSO KM 6,5","Prop. Sumatera Selatan","SMA","-3.2776000","102.9089000"
"10603848","SMA NEGERI 12 PALEMBANG","JL. SYAKIAKIRTI PALEMBANG","Prop. Sumatera Selatan","SMA","-3.0139000","104.7399000"
"10647844","SMA LUQMANUL HAKIM LUBUKLINGGAU","JL. SOEKARNO-HATTA KM. 12","Prop. Sumatera Selatan","SMA","-3.2056000","102.8383000"
"10605604","SMAS YP SUNGAI LILIN","SUNGAI LILIN","Prop. Sumatera Selatan","SMA","-2.5233000","103.9688000"
"10609872","SMAN 2 PAGAR ALAM","JL. MASIK SIAGIM SP. BACANG","Prop. Sumatera Selatan","SMA","-4.0493000","103.3009000"
"10646265","SMA MUHAMMADIYAH 4 KURIPAN","JL. KABUPATEN","Prop. Sumatera Selatan","SMA","-3.3772000","104.0620000"
"10643835","SMA YP PUNCAK GEMILANG","JL. BELANTI","Prop. Sumatera Selatan","SMA","-3.3445000","104.7679000"
"10644262","SMAN 1 MUARA PINANG","JL. RAYA LUBUK TANJUNG","Prop. Sumatera Selatan","SMA","-3.8421000","103.0343000"
"69946576","SMA Darun Najah","Jl. SDN 1 Banpres","Prop. Sumatera Selatan","SMA","-3.1464363","103.1328219"
"10604723","SMAN 1 OGAN KOMERING ULU","JL. DR. MOH. HATTA NO. 261 BATURAJA","Prop. Sumatera Selatan","SMA","-4.1270000","104.1811000"
"10603847","SMA NEGERI 13 PALEMBANG","JL. ADI SUCIPTO NO. 2803 PALEMBANG POS 30154","Prop. Sumatera Selatan","SMA","-2.9127000","104.7020000"
"10609687","SMA SHAILENDRA PALEMBANG","JL. DI. PANJAITAN, LR. CIVO PLAJU PLJU PALEMBANG","Prop. Sumatera Selatan","SMA","-2.9930000","104.8082000"
"10644651","SMAN 1 BETUNG","JL. PENGHULU ALI BASIR LINGK 1 BETUNG","Prop. Sumatera Selatan","SMA","-2.8485000","104.2397000"
"10605590","SMAN 1 SUNGAI KERUH","DESA TEBING BULANG","Prop. Sumatera Selatan","SMA","-3.0748000","103.7569000"
"10643820","SMA NEGERI 1 INDRALAYA SELATAN","JL. PENDIDIKAN DESA TANJUNG LUBUK","Prop. Sumatera Selatan","SMA","-3.2936000","104.6815000"
"69756067","SMAN 1 AIR SALEH","Jl. Sultan Agung   Jalur 8 Jembatan 3","Prop. Sumatera Selatan","SMA","-2.6335000","105.0218000"
"10643902","SMAN KARANG JAYA","JL. LINTAS SUMATERA KM. 56","Prop. Sumatera Selatan","SMA","-2.8596000","102.8061000"
"10606615","SMAN 2 MARTAPURA","Jl. Merdeka No. 400","Prop. Sumatera Selatan","SMA","-4.2964000","104.3332000"
"10610320","SMAS PLUS ALHANNAN","JL.RAYA  SALI PAYAK DESA ULUDANAU KECAMATAN SIDANG DANAU","Prop. Sumatera Selatan","SMA","-4.4456000","103.5636000"
"69946458","SMAN 1 SUAK TAPEH","JALAN PALEMBANG - BETUNG KM. 51 KECAMATAN SUAK TAPEH","Prop. Sumatera Selatan","SMA","-2.8554000","104.3551000"
"69856916","SMA IGNATIUS GLOBAL SCHOOL (IGS) PALEMBANG","JL. VETERAN NO. F3","Prop. Sumatera Selatan","SMA","-2.9684930","104.7637130"
"10609652","SMA LTI IGM PALEMBANG","JL. KOL.H.BURLIAN KM. 9,5 PALEMBANG","Prop. Sumatera Selatan","SMA","-2.9218000","104.7093000"
"69725571","SMAN 2 SANGA DESA","JL. SEKAYU- LUBUK LINGGAU DESA KEBAN 2","Prop. Sumatera Selatan","SMA","-2.6804000","103.4915000"
"10609639","SMA ETHIKA PALEMBANG","JL. SEI SEPUTIH NO.3264 PLG","Prop. Sumatera Selatan","SMA","-2.9638000","104.7335000"
"10645013","SMA PUSPITA","Jl. Inpres Dusun IV Cintamanis Baru KM XI Kec.Air Kumbang Kab.Banyuasin","Prop. Sumatera Selatan","SMA","-2.9302000","105.0006000"
"10609660","SMA MUHAMMADIYAH 03 PALEMBANG","JL. JEND. A. YANI 13 ULU KOMP. UMP PAALEMBANG","Prop. Sumatera Selatan","SMA","-2.9971000","104.7790000"
"10600908","SMAN 1 TANAH ABANG","JL. PENDOPO TANAH ABANG","Prop. Sumatera Selatan","SMA","-3.3099000","104.0597000"
"10609679","SMA PGRI 04 PALEMBANG","JL. TAQWA MATA MERAH KEL. SEI SELINCA","Prop. Sumatera Selatan","SMA","-2.9631000","104.8230000"
"10604403","SMA NEGERI 3 LUBUKLINGGAU","JL. SOEKARNO HATTA KM. 11","Prop. Sumatera Selatan","SMA","-3.2225000","102.8439000"
"10604623","SMAN 1 PAGAR ALAM","KAPTEN SANAP NO. 52","Prop. Sumatera Selatan","SMA","-4.0139000","103.2495000"
"69923465","SMA KARYA DHARMA 02 Palembang","JL. MERDEKA NO.23","Prop. Sumatera Selatan","SMA","-2.9907000","104.7506000"
"10645863","SMA TARUNA BANGSA PALEMBANG","JL. PDAM Tirta Musi No. 1125","Prop. Sumatera Selatan","SMA","-3.0054000","104.7346000"
"69896910","SMAN 3 KIKIM TIMUR","DESA SUKOHARJO KECAMATAN KIKIM TIMUR","Prop. Sumatera Selatan","SMA","-3.6890000","103.3251000"
"10645049","SMA KARYA SEMBAWA","JL. PETERNAKAN No. 43 KM. 29","Prop. Sumatera Selatan","SMA","-2.9244000","104.5431000"
"10643837","SMA MUHAMMADIYAH TANJUNG RAJA","JL. OLAH RAGA NO. 188 TANJUNG RAJA","Prop. Sumatera Selatan","SMA","-3.3378000","104.7729000"
"10609722","SMA YULIS PALEMBANG","JL. INSP. MARZUKI NO. 2505 PAKJO UJUNG PLG","Prop. Sumatera Selatan","SMA","-2.9666000","104.7172000"
"10643848","SMA NEGERI 1 PAYARAMAN","JL. LANANG KUASO","Prop. Sumatera Selatan","SMA","-3.4217000","104.5217000"
"10646501","SMAN TIANG PUMPUNG KEPUNGUT","JL. LINTAS SUMATERA KM 36","Prop. Sumatera Selatan","SMA","-3.3431000","103.0621000"
"10648294","SMAN 1 BELITANG JAYA","Jln. Raya Desa Karsajaya","Prop. Sumatera Selatan","SMA","-4.1935000","104.7037000"
"10609309","SMAN 1 MESUJI RAYA","DESA SUMBU SARI SKPD 1","Prop. Sumatera Selatan","SMA","-3.7892000","105.0071000"
"10645956","SMAN 1 BELITANG II","DESA SUMBER JAYA","Prop. Sumatera Selatan","SMA","-4.0289000","104.7866000"
"10645113","SMAS BINA NUSA","JL. PALEMBANG JAMBI KM 69 SEDOMPO","Prop. Sumatera Selatan","SMA","-2.8510000","104.2408000"
"69901469","SMAN 2 BAYUNG LENCIR","JL. Raya Palembang-Jambi  KM. 183 Desa Kali Berau Kec.Bayung Lencir","Prop. Sumatera Selatan","SMA","-2.2099000","103.7631000"
"10603025","SMA NEGERI 1 INDRALAYA","JL. LINTAS TIMUR KM. 36 INDRALAYA","Prop. Sumatera Selatan","SMA","-3.2439000","104.6692000"
"10645835","SMAN 1 SEMENDE DARAT LAUT","JL. RAYA LAHAT","Prop. Sumatera Selatan","SMA","-3.3062000","103.6987000"
"10646208","SMAS NURUL MARIFAH","DESA ULAK TEMBAGA","Prop. Sumatera Selatan","SMA","-3.1249000","104.8527000"
"10646323","SMA BIMA BANGSA","JL. PUSTU DESA SIDO MAKMUR","Prop. Sumatera Selatan","SMA","-2.6160000","105.1428000"
"10601459","SMAN 1 KIKIM TIMUR","JLN. SIMPANG MUARA DANAU KIKIM TIMUR","Prop. Sumatera Selatan","SMA","-3.7075680","103.3734620"
"10645023","SMAS METHODIST 4","JL. RAYA PALEMBANG - BETUNG KM. 18,5","Prop. Sumatera Selatan","SMA","-2.9145000","104.6256000"
"10609780","SMA PGRI 2 LUBUKLINGGAU","JL. YOS SUDARSO","Prop. Sumatera Selatan","SMA","-3.3086000","102.9291000"
"10643747","SMAS TAMAN SISWA","JL. MANGGA NO. 93","Prop. Sumatera Selatan","SMA","-3.4323000","104.2315000"
"10609783","SMA YADIKA LUBUKLINGGAU","JL. YOS SUDARSO NO. 90 RT. 01","Prop. Sumatera Selatan","SMA","-3.2782000","102.8956000"
"69949016","SMAN 1 MUARA BELIDA","DESA HARAPAN MULIA","Prop. Sumatera Selatan","SMA","-3.0809956","104.5704460"
"10643842","SMA NEGERI 1 LUBUK KELIAT","DESA BETUNG","Prop. Sumatera Selatan","SMA","-3.4421000","104.5841000"
"69900056","SMA IT JANNATUL FIRDAUS","Dusun IV Maur Baru","Prop. Sumatera Selatan","SMA","-2.8015300","102.8227030"
"10610272","SMAN 1 BUAY PEMACA","JL. LINGKAR","Prop. Sumatera Selatan","SMA","-4.6113000","104.1152000"
"10643830","SMA NEGERI 1 PEMULUTAN","Jalan Raya Pemulutan RT. 04 Dusun II","Prop. Sumatera Selatan","SMA","-3.1088000","104.7639000"
"10609675","SMA PGRI 01 PALEMBANG","JL. PDAM TIRTA MUSI","Prop. Sumatera Selatan","SMA","-3.0088000","104.7319000"
"10602525","SMAN 1 BANYUASIN III","Jalan Bukit Indah No 72 Kelurahan Pangkalan Balai Kec.Banyuasin III","Prop. Sumatera Selatan","SMA","-2.8973000","104.4026000"
"10648903","SMA IT AL FURQON PALEMBANG","JL. HBR MOTIK KM 8 RT.48 RW.08","Prop. Sumatera Selatan","SMA","-2.9355000","104.7093000"
"10646031","SMA PGRI GELUMBANG","JL. PIPA PERTAMINA GELUMBANG","Prop. Sumatera Selatan","SMA","-3.2470000","104.4350000"
"10609315","SMAN 4 KAYUAGUNG","JL. LINTAS TIMUR","Prop. Sumatera Selatan","SMA","-3.4143000","104.8148000"
"10610292","SMAN JAYALOKA","JL. SUNAN MANJURAN KAMPUNG VI","Prop. Sumatera Selatan","SMA","-3.3500000","103.2540000"
"10604727","SMAN 5 OGAN KOMERING ULU","JL. AK. GANI 439 BATURAJA","Prop. Sumatera Selatan","SMA","-4.1304000","104.1695000"
"10601359","SMAN 1 TANJUNG SAKTI PUMI","JLN. LETDA. ABDUL KARIM NO. 02 DESA PENANDINGAN","Prop. Sumatera Selatan","SMA","-3.9376000","103.6060000"
"10605582","SMAS MUHAMMADIYAH 3 ULAK PACEH","Dusun 3 Desa Ulak Paceh Jaya Kec. Lawang Wetan Kab. Musi Banyuasin","Prop. Sumatera Selatan","SMA","-2.8082000","103.7115000"
"10644843","SMAN 2 MUARADUA","JL. KI HAJAR DEWANTARA","Prop. Sumatera Selatan","SMA","-4.3712000","103.9872000"
"10609618","SMA ADABIYAH PALEMBANG","JL. DR. M. ISA","Prop. Sumatera Selatan","SMA","-2.9727000","104.7695000"
"10644251","SMAS ARIEF BUDIMAN LAHAT","JLN. A. YANI KM. 1,5 PAGAR AGUNG LAHAT","Prop. Sumatera Selatan","SMA","-3.7889000","103.5215000"
"10610291","SMAN PURWODADI","JL. PENDIDIKAN BANGUN SARI","Prop. Sumatera Selatan","SMA","-3.0989067","102.9581883"
"10643841","SMA NEGERI 1 RAMBANG KUANG","JL. BERINGIN DESA TAMBANGAN RAMBANG","Prop. Sumatera Selatan","SMA","-3.5575000","104.5063000"
"10609307","SMAN 1 LEMPUING","JL. LINTAS TIMUR","Prop. Sumatera Selatan","SMA","-3.9105000","104.9223000"
"10609653","SMA MANDIRI PALEMBANG","JL. PANGERAN AYIN PALEMBANG","Prop. Sumatera Selatan","SMA","-2.9120000","104.7695000"
"10643832","SMA NEGERI 1 PEMULUTAN SELATAN","DESA SUNGAI LEBUNG","Prop. Sumatera Selatan","SMA","-3.2698000","104.7620000"
"10609661","SMA MUHAMMADIYAH 04 PALEMBANG","JL. DI PANJAITAN PLAJU ILIR PALEMBANG","Prop. Sumatera Selatan","SMA","-2.9956000","104.8165000"
"10609694","SMA TARUNA INDONESIA PALEMBANG","JL. PENDIDIKAN SUKABANGUN II PLG","Prop. Sumatera Selatan","SMA","-2.9234000","104.7438000"
"10644257","SMA NEGERI 1 SIKAP DALAM","DESA TANGGA RASA","Prop. Sumatera Selatan","SMA","-3.7850000","102.8843000"
"10609665","SMA MUHAMMADIYAH 08 PALEMBANG","JL. TP.SOPYAN KENAWAS","Prop. Sumatera Selatan","SMA","-3.0145000","104.6907000"
"10609677","SMA PGRI 03 PALEMBANG","JL. SRIJAYA KM.5,5 PLG","Prop. Sumatera Selatan","SMA","-2.9522000","104.7298000"
"10610279","SMAN 1 RANAU TENGAH","Jl. Raya Kota Batu","Prop. Sumatera Selatan","SMA","-4.8226000","104.0006000"
"10604729","SMAN 7 OGAN KOMERING ULU","JL. PUTRI CANDI PENINJAUAN","Prop. Sumatera Selatan","SMA","-3.8665000","104.3800000"
"10646266","SMA MUHAMMADIYAH 3 MUARA ENIM","JL. JEND. SUDIRMAN PELAWARAN","Prop. Sumatera Selatan","SMA","-3.6786000","103.8053000"
"10645021","SMAS SANDIKA SUKAJADI","JL.RAYA PALEMBANG - BETUNG KM.14,5","Prop. Sumatera Selatan","SMA","-2.9127000","104.6666000"
"10609707","SMA XAVERIUS 04 PALEMBANG","JL. BANGAU NO. 60/1258 PLG","Prop. Sumatera Selatan","SMA","-2.9672000","104.7639000"
"10609683","SMA PRAMULA PALEMBANG","JL. PASUNDAN","Prop. Sumatera Selatan","SMA","-2.9571000","104.8059000"
"10646503","SMAN RAKSA BUDI","JL. LASKAR PELANGI","Prop. Sumatera Selatan","SMA","-3.4627000","103.3494000"
"10605598","SMAS PERINTIS NGULAK","KEL. NGULAK","Prop. Sumatera Selatan","SMA","-2.7183000","103.3930000"
"10609719","SMA TUNAS BANGSA PALEMBANG","JL. RESIDEN H. ABDUL ROZAK PLG","Prop. Sumatera Selatan","SMA","-2.9507000","104.7740000"
"69875549","SMAS ILMU AL QURAN","JL. LINTAS TIMUR NO.1 VILLA KUDA MAS","Prop. Sumatera Selatan","SMA","-3.4204160","104.8135840"
"69775698","SMAN MARGA BARU","DESA MARGA BARU","Prop. Sumatera Selatan","SMA","-3.2262000","103.5928000"
"10609626","SMA BHAKTI PERTIWI PALEMBANG","JL. GOTONG ROYONG SUNGAI BUAH PLG","Prop. Sumatera Selatan","SMA","-2.9700000","104.7921000"
"10644247","SMAN 1 GUMAY TALANG","JLN. LINTAS SUMATERA KM.14 DESA SUKARAMI","Prop. Sumatera Selatan","SMA","-3.7613000","103.4668000"
"10646367","SMAS ISLAM DARUL MUTTAQIN","DESA DAYA MULYA","Prop. Sumatera Selatan","SMA","-2.5868000","104.4335000"
"10609700","SMA VETERAN PLAJU PALEMBANG","JL GANG ADIL BAGUS KUNING PLAJU","Prop. Sumatera Selatan","SMA","-2.9955000","104.8068000"
"10600573","SMAN 1 PAMPANGAN","JL. RAYA KABUPATEN","Prop. Sumatera Selatan","SMA","-3.2080000","105.0142000"
"10644272","SMAN 1 PAJAR BULAN","JLN. LINGKAR KOTA RAYA LEMBAK PAJAR BULAN","Prop. Sumatera Selatan","SMA","-3.9421000","103.2885000"
"10647853","SMAN SUMBER HARTA","JL. JEND. SUDIRMAN","Prop. Sumatera Selatan","SMA","-3.0957000","102.9136000"
"10648311","SMA NEGERI 9 LUBUKLINGGAU","JL. Jend Pol Moch Hasan","Prop. Sumatera Selatan","SMA","-3.3319000","102.8309000"
"10609765","SMA MAFAZA LUBUKLINGGAU","JL. KALIANDA NO. 06","Prop. Sumatera Selatan","SMA","-3.2777000","102.8595000"
"10646348","SMA AZHARIYAH LUBUKLINGGAU","JL. GENTAYU NO.37 RT, IX","Prop. Sumatera Selatan","SMA","-3.2579000","102.7847000"
"10605581","SMAS MUHAMMADIYAH SEKAYU","JL. KH. A. DAHLAN LK. 1 SEKAYU","Prop. Sumatera Selatan","SMA","-2.8698000","103.8311000"
"10646227","SMAN 1 TELUK GELAM","JL. K. H. M. NUR","Prop. Sumatera Selatan","SMA","-3.4951000","104.8021000"
"10601973","SMAN MUARA KELINGI","JL. MERDEKA  RT IX.KP.IV","Prop. Sumatera Selatan","SMA","-3.0740000","103.2303000"
"10643743","SMAS BUDI UTOMO","JL. PROF. M. YAMIN NO. 1","Prop. Sumatera Selatan","SMA","-3.4236000","104.2432000"
"10606610","SMAS MUHAMMADIYAH BELITANG 1","Jl. K.H. Ahmad Dahlan No.458 Kauman","Prop. Sumatera Selatan","SMA","-4.1241000","104.6453000"
"10647445","SMAN 3 TEBING TINGGI","JL. NOERDIN PANDJI KM.3 DESA MEKARJAYA KEL. TANJUNG KUPANG KEC. TEBING TINGGI","Prop. Sumatera Selatan","SMA","-3.5817000","103.1190000"
"10609314","SMAN 2 MESUJI RAYA","DESA KERTA MUKTI","Prop. Sumatera Selatan","SMA","-3.7384000","105.1484000"
"10604733","SMAS PGRI 3 BATURAJA","JL. DR. MOH HATTA NO.260 BATURAJA","Prop. Sumatera Selatan","SMA","-4.1262000","104.1808000"
"10604404","SMA NEGERI 4 LUBUKLINGGAU","JL. SEHASE","Prop. Sumatera Selatan","SMA","-3.2588000","102.9204000"
"69899475","SMA IT IZZATUNA","JL. TANJUNG API API 1.5 KM SIMPANG BANDARA","Prop. Sumatera Selatan","SMA","-2.9420000","104.7312000"
"10610274","SMAN 1 BUAY SANDANG AJI","JL. RAYA MUARADUA KISAM","Prop. Sumatera Selatan","SMA","-4.5356000","103.9466000"
"10648296","SMAN JAYAPURA","JAYAPURA","Prop. Sumatera Selatan","SMA","-4.3870000","104.3286000"
"69829194","SMAN 2 BANYUASIN I","JALAN INPRES DUSUN II RT 10","Prop. Sumatera Selatan","SMA","-2.9545000","104.9196000"
"10601453","SMAN 1 TEBING TINGGI","JL. PEMBANGUNAN NO.80","Prop. Sumatera Selatan","SMA","-3.5484000","103.0220000"
"10644269","SMAN 1 MERAPI TIMUR","JLN. LINTAS SUMATERA KM. 20 MERAPI TIMUR","Prop. Sumatera Selatan","SMA","-3.7352000","103.6794000"
"69932091","SMA NU DARUL MUTTAQIN","DESA BERLIAN MAKMUR","Prop. Sumatera Selatan","SMA","-2.5321069","104.0399745"
"10604543","SMAN 1 PRABUMULIH","JL. PROF. M. YAMIN NO. 62","Prop. Sumatera Selatan","SMA","-3.4308000","104.2376000"
"69774820","SMAN 1 TIGA DIHAJI","Jalan Raya Pulau Beringin Desa Peninggiran Kecamatan Tiga Dihaji","Prop. Sumatera Selatan","SMA","-3.1178000","102.8565000"
"10643898","SMAN 2 MUARA BELITI","JL.LINTAS SUMATERA KM. 10","Prop. Sumatera Selatan","SMA","-3.2482167","103.0008967"
"69899880","SMA MUHAMMADIYAH 1 AIR SALEH","DESA SRIKATON JALUR 10 JEMBATAN 2","Prop. Sumatera Selatan","SMA","-2.7082000","105.0098000"
"10600238","SMAN 1 SUNGAI LILIN","JL. RAYA PLG-JAMBI KM. 115 KEC. SUNGAI LILIN","Prop. Sumatera Selatan","SMA","-2.5421000","103.9428000"
"10604401","SMA NEGERI 1 LUBUKLINGGAU","JL. GARUDA KM. 2","Prop. Sumatera Selatan","SMA","-3.3069000","102.8454000"
"10609632","SMA BINA LESTARI PALEMBANG","JL. KADIR TKR PALEMBANG","Prop. Sumatera Selatan","SMA","-3.0141000","104.7413000"
