"schoolId","schoolName","schoolAddress","province","school_level","lat","long"
"10810216","SMAN 1 SEMAKA","JL. ALIM ULAMA KARANG REJO SEMAKA","Prop. Lampung","SMA","-5.5174000","104.5380000"
"10807030","SMA S FRANSISCUS","JL.BUMIMENANTI 2","Prop. Lampung","SMA","-5.3734000","105.2505000"
"69949194","SMA Islam Al Fattah","Kampung Tanjung Tiga Kecamatan Rebang Tangkas","Prop. Lampung","SMA","-4.6545763","104.3258625"
"10805049","SMAN 2 KOTA AGUNG","JL. SOEKARNO HATTA NO. 2 KOMPLEK ISLAMIC CENTER KOTAAGUNG","Prop. Lampung","SMA","-5.4872000","104.6427000"
"10809290","SMAN 1 MENGGALA","JL. CENDANA NO.5","Prop. Lampung","SMA","-4.5168000","105.2317000"
"10805043","SMAS XAVERIUS PRINGSEWU","JL. MAWAR I NO. 32","Prop. Lampung","SMA","-5.3594000","104.9784000"
"10809706","SMAN 17 BANDAR LAMPUNG","JL.SOEKARNO HATTA","Prop. Lampung","SMA","-5.4634000","105.3249000"
"10801947","SMAS PANCAKRIDA","JL. RAYA SRIMULYO KALIREJO","Prop. Lampung","SMA","-5.2070000","104.9599000"
"10806009","SMAS MA ARIF 3 SEKAMPUNG UDIK","JL. SUNAN AMPEL NO.08","Prop. Lampung","SMA","-5.3292000","105.5815000"
"69759260","SMAN 2 WAY SERDANG","JL. MERDEKA NO.07 DESA HADI MULYO","Prop. Lampung","SMA","-4.1738000","105.2268000"
"69949091","SMAN 1 BAKAUHENI","Jl. Pariwisata Batu Alif Desa Kelawi","Prop. Lampung","SMA","-5.8552000","105.7243000"
"10805032","SMAS PGRI 2 PRINGSEWU","JL. JOHAR NO.11","Prop. Lampung","SMA","-5.3617000","104.9872000"
"10806080","SMAN 1 RAMAN UTARA","JL.Raya Raman Aji","Prop. Lampung","SMA","-5.0190000","105.4215000"
"10814594","SMAS MAARIF 1 SUKATANI","JL. KI SUNTARA NO. 05","Prop. Lampung","SMA","-5.6509000","105.6131000"
"10815051","SMAN 1 ABUNG TINGGI","JL.A.GHAFAR NO.40","Prop. Lampung","SMA","-4.8796000","104.6401000"
"10807590","SMAS MA ARIF 1 METRO","JL. MR GELE HARUN 15 KAUMAN","Prop. Lampung","SMA","-5.1173000","105.3063000"
"10810592","SMAS ISLAM MA ARIF P PASIR","JL LINTAS TIMUR  SUMATERA BAKAUHENI","Prop. Lampung","SMA","-5.6728000","105.7800000"
"10809508","SMAS BHAKTI JAYA","JL. NEGERI CAMPANG JAYA","Prop. Lampung","SMA","-4.7099000","104.7613000"
"10802064","SMAN 1 TRIMURJO","JL.KARANG BOLONG 11 F","Prop. Lampung","SMA","-5.1150000","105.2523000"
"10806003","SMAS TELADAN WAY JEPARA","JL. PRAMUKA LABUHAN RATU 1","Prop. Lampung","SMA","-5.1676000","105.7450000"
"10807058","SMAN 12 BANDAR LAMPUNG","JL. LETK. HENDRO SURATMIN","Prop. Lampung","SMA","-5.3817000","105.3016000"
"10805990","SMAS MUHAMMADIYAH 1 GUNUNG PELINDUNG","Jalan KH Ahmad Dahlan Nomor 48 Gang VI Pelindung Jaya","Prop. Lampung","SMA","-5.4266000","105.7546000"
"10800683","SMAS MUTIARA","JL. RAYA NATAR PEMANGGILAN","Prop. Lampung","SMA","-5.3286000","105.2048000"
"10806031","SMAS IBNU SINA WAY JEPARA","JL. KAMPUS IBNU SINA","Prop. Lampung","SMA","-5.1508000","105.7919000"
"69948538","SMAN 1 ABUNG TENGAH","Jalan Raya Subik","Prop. Lampung","SMA","-4.9289139","104.7355005"
"10802002","SMAS DARUL ARAFAH BM RT NB","JL. LINTAS SUMATERA","Prop. Lampung","SMA","-5.1228000","105.1908000"
"10815098","SMAS AL HUSNA","Jl Imam Bonjol Gg Terong 31","Prop. Lampung","SMA","-5.4259000","105.1599000"
"69734078","SMAN 2 NATAR","Dusun 4 DESA PANCASILA","Prop. Lampung","SMA","-5.2399000","105.2810000"
"69829361","SMA IT MIFTAHUL JANNAH","Jl. Bhayangkara Gg. Kutilang LK.I No.41","Prop. Lampung","SMA","-5.3536150","105.2406190"
"10816150","SMAS YADIKA","JL. SOEKARNO HATTA","Prop. Lampung","SMA","-5.3561070","105.2568260"
"60728552","SMAS MA ARIF NU 5 PURBOLINGGO","JL. Dr. SUSILO","Prop. Lampung","SMA","-4.9686000","105.5020000"
"69944243","SMA NEGERI 1 RAWA JITU UTARA","Jl. Wachid Hasyim","Prop. Lampung","SMA","-4.0638000","105.6307000"
"10807038","SMAS PANGUDI LUHUR","JL. RATU DIBALAU NO. 176","Prop. Lampung","SMA","-5.3566000","105.2625000"
"10800737","SMAS DARUL ULUM","JL. UTAMA WAY SULAN","Prop. Lampung","SMA","-5.4801000","105.5253000"
"10810248","SMAN 1 NGAMBUR","JL. LINTAS BARAT SUMATERA SUMBER AGUNG","Prop. Lampung","SMA","-5.4334000","104.1098000"
"10807577","SMAS MUHAMMADIYAH 2 METRO","JL. KH. AHMAD DAHLAN NO.1","Prop. Lampung","SMA","-5.1115330","105.3070410"
"10814936","SMAS ISLAM TERPADU AL MUNIR","JALAN. SRIGADING NO. 01 SUKOHARJO","Prop. Lampung","SMA","-5.3028000","104.9775000"
"10800703","SMAN 1 PENENGAHAN","JL. RAYA KELATEN","Prop. Lampung","SMA","-5.7318000","105.6916000"
"10801956","SMAS MAARIF 05 PADANG RATU","JL. KH. WAHID HASYIM","Prop. Lampung","SMA","-5.0998000","104.9717000"
"69754001","SMAN 2 GEDONG TATAAN","DESA TAMAN SARI GEDONG TATAAN","Prop. Lampung","SMA","-5.7047000","105.7646000"
"10807022","SMAS PERSADA BANDAR LAMPUNG","JL.IMAM BONJOL KM11 NO.8","Prop. Lampung","SMA","-5.4229000","105.2239000"
"69945686","SMAN 2 DENTE TELADAS","Jl. Poros Kp. Pasiran Jaya Kec. Dente Teladas","Prop. Lampung","SMA","-4.4722232","105.7243605"
"10801954","SMAS MA ARIF 2 BANGUNREJO","JL. KH. WAHID HASYIM NO. 1","Prop. Lampung","SMA","-5.1128000","104.9959000"
"10809293","SMAN 01 SIMPANG PEMATANG","JL.JENDRAL SUDIRMAN, SP. PEMATANG","Prop. Lampung","SMA","-3.9964000","105.2468000"
"10805033","SMAS PGRI TALANG PADANG","JL. MASJID KOTARAJA TALANG PADANG","Prop. Lampung","SMA","-5.3618000","104.7871000"
"69864634","SMA ISLAM DARUSSA`ADAH","Kota Way","Prop. Lampung","SMA","-4.6701420","104.4269910"
"10807564","SMAS TELADAN 1 METRO","JL. TONGKOL NO. 48","Prop. Lampung","SMA","-5.1166370","105.3235900"
"10802968","SMAN 1 ABUNG TIMUR","JL.RAYA ABUNG TIMUR","Prop. Lampung","SMA","-4.8139000","104.9344000"
"10807576","SMAS PGRI","JL. BATAM 22","Prop. Lampung","SMA","-5.1046000","105.2934000"
"10809592","SMAS PERINTIS 2 BANDAR LAMPUNG","JL.KHAIRIL ANWAR N0.106","Prop. Lampung","SMA","-5.4277000","105.2329000"
"10807008","SMAS SURYA DHARMA 2 KEDATON","JL. KI MAJA GG PERTAMA NO.1 KEDATON","Prop. Lampung","SMA","-5.3839000","105.2673000"
"10807019","SMAS BPK PENABUR","JL. PERINTIS KEMERDEKAAN","Prop. Lampung","SMA","-5.4138000","105.2618000"
"10814892","SMA NEGERI 2 LIWA","JL. GAJAH MADA NO.1 SERANGGAS","Prop. Lampung","SMA","-5.0343000","104.0859000"
"10814057","SMAN 1 SEKAMPUNG UDIK","JL. IR. SUTAMI KM.36","Prop. Lampung","SMA","-5.3145000","105.5485000"
"10815046","SMAS PONDOK MAKKAH N BATIN","Kampung Karta Jaya Kecamatan Negara Batin,Way Kanan","Prop. Lampung","SMA","-4.3546000","104.8923000"
"10807065","SMAN 4 BANDAR LAMPUNG","JL. DR. CIPTOMANGUNKUSUMO","Prop. Lampung","SMA","-5.4355000","105.2699000"
"10800688","SMAS MA SINDANG SARI","JL. TEUKU UMAR SINDANG SARI","Prop. Lampung","SMA","-5.5159000","105.5213000"
"10810398","SMAN 1 REBANG TANGKAS","Jl. Pramuka No.02","Prop. Lampung","SMA","-4.6642000","104.3750000"
"10802974","SMAS SLAMET RIYADI","JL. MANGGABESAR SUKUNG, KELURAHAN TANJUNG HARAPAN","Prop. Lampung","SMA","-4.8382000","104.8949000"
"10804196","SMAN 01 TANJUNG RAYA","KAMP. BRABASAN KEC. TANJUNG RAYA","Prop. Lampung","SMA","-4.0759000","105.3799000"
"10803534","SMAN 1 PESISIR SELATAN","JL. Kapten Yazid Aziz Biha Kec. Pesisir Selatan","Prop. Lampung","SMA","-5.3212000","104.0184000"
"10800705","SMAN 1 PADANG CERMIN","Jl. Pramuka no. 7 HANURA","Prop. Lampung","SMA","-5.5258000","104.9776000"
"69948204","SMA ISLAM TERPADU DARUL HIKMAH","DESA PASIR SAKTI KEC. PASIR SAKTI","Prop. Lampung","SMA","-5.5021832","105.7872375"
"10806774","SMAS PANGASTUTI BL UMPU","KP. UMPU BHAKTI","Prop. Lampung","SMA","-4.5071000","104.4856000"
"10811206","SMAN 2 BESAR","KP SRI BASUKI","Prop. Lampung","SMA","-4.4257000","104.8866000"
"69945401","SMA NEGERI 2 SIMPANG PEMATANG","Jln. Desa Rejo Binangun","Prop. Lampung","SMA","-3.9968725","105.2421488"
"10810441","SMAS KRIDA UTAMA G SUGIH","Jln. Karangsari","Prop. Lampung","SMA","-4.9986000","105.1430000"
"69894202","SMA NEGERI 2 BANGKUNAT BELIMBING","JL. SUMUR PITU PEKON WAY HARU","Prop. Lampung","SMA","-5.8736000","104.5832000"
"10807588","SMAS KARTIKATAMA","JL. KAPTEN P. TENDEAN","Prop. Lampung","SMA","-5.1417000","105.2999000"
"10814901","SMAN 1 JATI AGUNG","JL. RAYA MARGOMULYO","Prop. Lampung","SMA","-5.3492000","105.4137000"
"10812432","SMAS ASSALAM","JL. KEMALA INDAH NO. 1","Prop. Lampung","SMA","-4.8939000","105.0376000"
"10825076","SMAN 1 RAJABASA","RAJABASA","Prop. Lampung","SMA","-5.8334000","105.6480000"
"10809266","SMAS PGRI TUMIJAJAR","DAYAASRI","Prop. Lampung","SMA","-4.7201000","105.0887000"
"10801970","SMAS WIRATAMA KOTAGAJAH","JL. JEND. SUDIRMAN NO. 17","Prop. Lampung","SMA","-4.9802000","105.3284000"
"10811225","SMAN 1 LIMAU","JL. RAYA  KURIPAN  No. 2007","Prop. Lampung","SMA","-5.6027000","104.8148000"
"10814626","SMAN 1 BANJAR AGUNG","Jl. Kampung Moris Jaya, Unit 3","Prop. Lampung","SMA","-4.3167000","105.3297000"
"10801973","SMAS PURNAMA TRIMURJO","JL. KYAI NUSIN","Prop. Lampung","SMA","-5.1050000","105.2458000"
"10803026","SMAN 3 KOTA BUMI","JL. SERSAN LABA  GOLE NO.45 KOTA ALAM","Prop. Lampung","SMA","-4.8389000","104.8765000"
"10809287","SMAN 1 GEDUNG AJI","KP.KECUBUNG JAYA","Prop. Lampung","SMA","-4.3678000","105.4628000"
"60726120","SMAN 02 NEGERI AGUNG","KALIPAPAN","Prop. Lampung","SMA","-4.5970000","104.6453000"
"10800685","SMAS MUHAMMADIYAH 1 SIDOMULYO","JL. TIRTOSARI NO. 02","Prop. Lampung","SMA","-5.5848000","105.5189000"
"10802971","SMAN 1 ABUNG BARAT","JL. LINTAS SUMATRA","Prop. Lampung","SMA","-4.9260000","104.7642000"
"10807024","SMA S AL KAUTSAR ","JL. SOEKARNO HATTA","Prop. Lampung","SMA","-5.3588000","105.2154000"
"10805051","SMAN 1 TALANG PADANG","JL. BANJARSARI TALANG PADANG","Prop. Lampung","SMA","-5.3841000","104.7566000"
"10814061","SMAN 2 SEKAMPUNG","JL. SIDOMULYO SEKAMPUNG","Prop. Lampung","SMA","-5.1759000","105.4284000"
"69775302","SMA N 1 LAMBU KIBANG","DS. GUNUNG SARI","Prop. Lampung","SMA","-4.4709000","105.1363000"
"10814642","SMAN 1 PENAWAR AJI","Panca Tunggal Jaya","Prop. Lampung","SMA","-4.3579000","105.4395000"
"10801945","SMAS PARAMARTA 1 SEP BANYAK","JL. RAYA SUMBER BARU","Prop. Lampung","SMA","-4.8479000","105.4683000"
"60726635","SMAS ASSHIDDIQIYAH","DUSUN IV PUTRA BUYUT KEC. GUNUNGSUGIH","Prop. Lampung","SMA","-4.9018000","105.3081000"
"10807021","SMA N 10 BANDAR LAMPUNG","JL. GATOT SUBROTO No. 81","Prop. Lampung","SMA","-5.4288000","105.2762000"
"60726122","SMAN 2 KASUI","TANJUNG BULAN","Prop. Lampung","SMA","-4.6863000","104.4027000"
"10806077","SMAN 1 WAY JEPARA","JL. PRAMUKA LABUHAN RATU 1","Prop. Lampung","SMA","-5.1725000","105.6902000"
"10812424","SMAN BHAKTI MULYA BUNGA MAYANG","JL. RAYA MAKARTI No. 33 Rt. 09 Rw. 01","Prop. Lampung","SMA","-4.6796000","104.9095000"
"10810759","SMAN 1 ANAK RATU AJI","JL. RUJUNGAN MUDA NO.1","Prop. Lampung","SMA","-4.9293000","104.9377000"
"10803610","SMA SWASTA AR-RAHMAN","JL. RAYA LIWA - RANAU KM. 20","Prop. Lampung","SMA","-4.9368000","104.0323000"
"10809701","SMAS TMI ROUDLATUL QUR`AN","JL. MUKTI PRAJA","Prop. Lampung","SMA","-5.1343000","105.2936000"
"10806030","SMAS KOSGORO SEKAMPUNG","JL. MATARAM","Prop. Lampung","SMA","-5.1320000","105.4457000"
"10806001","SMAN 1 BANDAR SRIBHAWONO","JL. IR. SUTAMI KM.59","Prop. Lampung","SMA","-5.2996000","105.6921000"
"10807014","SMAS UTAMA 3","JL. Jend. Sudirman No. 39 Kecamatan Enggal Kota Bandar Lampung","Prop. Lampung","SMA","-5.4223000","105.2592000"
"10802958","SMAS PGRI 1 KOTABUMI","JL. SOEKARNO HATTA NO. 62","Prop. Lampung","SMA","-4.8394000","104.8846000"
"10806790","SMAN 1 BANJIT","JL.AK. GANI BALI SADHAR SELATAN","Prop. Lampung","SMA","-4.7724000","104.4899000"
"10811216","SMAS ASYAFI YAH","Seray","Prop. Lampung","SMA","-5.2019276","103.9368880"
"10802067","SMAN 1 SEPUTIH SURABAYA","JL. PENDIDIKAN GAYA BARU VIII","Prop. Lampung","SMA","-4.6798000","105.6228000"
"10801958","SMAS PGRI 1 TERBANGGI BESAR","JL.8 Kopel, Poncowati, Terbanggi Besar","Prop. Lampung","SMA","-4.8798000","105.2180000"
"69759137","SMAS BAHRUL ULUM MAMBAIYYAH","RUMBIA BARAT DESA KRAWANGSARI","Prop. Lampung","SMA","-5.2706000","105.2682000"
"10814648","SMAN 1 BANYUMAS","JL. RAYA MURNI BAHUDIN BANYUMAS","Prop. Lampung","SMA","-5.2849000","104.9185000"
"10801977","SMAS KRISTEN 3 TERBANGGI BESAR","JL. HASANUDDIN NO. 48","Prop. Lampung","SMA","-4.9377000","105.2075000"
"69947672","SMA DAARUL MA`RIFAT","Jalan Raden Amapuradirja No.86","Prop. Lampung","SMA","-4.9140692","104.6139150"
"69888436","SMA MUHAMMADIYAH ANAK RATU AJI","Jln. RESO ADI PAWIRO, KARANG JAWA","Prop. Lampung","SMA","-4.9411840","104.9435490"
"10806793","SMAN 1 GUNUNG LABUHAN","JL. GULA TEBU GN.LABUHAN","Prop. Lampung","SMA","-4.7813000","104.5799000"
"10801942","SMAS PGRI 1 SEPUTIH RAMAN","JL. PENTAS TARI BALI","Prop. Lampung","SMA","-4.9202000","105.3649000"
"10810638","SMAS MA ARIF 1 SEP BANYAK","JL. KH. HASYIM ASHARI NO. 8","Prop. Lampung","SMA","-4.8523000","105.4082000"
"10807561","SMAN 1 METRO","JL. AH. NASUTION NO. 222","Prop. Lampung","SMA","-5.1085000","105.3302000"
"69905548","SMA ROUDHOTUL ULUM",": JL. RAYA BANGUN REJO KM 1.5","Prop. Lampung","SMA","-5.6788000","105.7793000"
"10801946","SMAS PANCASILA SEPUTIH MATARAM","JL. AMD. WIRATA AGUNG","Prop. Lampung","SMA","-4.7774000","105.3616000"
"10806775","SMAS PERSIAPAN REBANG TANGKAS","REBANG TANGKAS","Prop. Lampung","SMA","-4.6351000","104.3243000"
"10814713","SMA NEGERI 1 DENTE TELADAS","Jalan Poros Kampung Way Dente","Prop. Lampung","SMA","-4.4221000","105.7914000"
"10811747","SMA MANBA`UL `ULUM SEPUTIH AGUNG","JL. PESANTREN No. 04","Prop. Lampung","SMA","-4.9080000","105.1319000"
"69892653","SMA YADIKA PAGELARAN","Jl. Raya Gumuk Mas, Desa Gumuk Mas, Kecamatan Pagelaran Kabupaten Pringsewu","Prop. Lampung","SMA","-5.3497415","104.8928509"
"10812445","SMAS KELAUTAN SWADIPHA P SEBESI","DESA TEJANG PULAU SEBESI","Prop. Lampung","SMA","-5.9349000","105.5090000"
"69758128","SMAN 2 PUNDUH PEDADA","PUNDUH PEDADA","Prop. Lampung","SMA","-5.6632000","105.1076000"
"10801962","SMAN 1 PUNGGUR","JL. RAYA NUNGGALREJO","Prop. Lampung","SMA","-5.0716000","105.2817000"
"10810509","SMAN 1 CANDIPURO","JL. MAJAPAHIT DS. TITI WANGI","Prop. Lampung","SMA","-5.5619000","105.5564000"
"10800710","SMAS KARYA MATARAM","JL. PEJUANG NO. 45","Prop. Lampung","SMA","-5.4571000","105.4100000"
"10801950","SMAS MUHAMMADIYAH 1 KALIREJO","JL. KH. AGUS SALIM NO. 03","Prop. Lampung","SMA","-5.2262000","104.9649000"
"10810191","SMAN 2 BUMI AGUNG","JL. PANGERAN PUTTING MARGA","Prop. Lampung","SMA","-4.3609000","104.5442000"
"10809275","SMAS MANDALA UTAMA","JL. KH. AGUS SALIM NO. 1","Prop. Lampung","SMA","-4.6006000","105.8499000"
"69725552","SMAN 2 KATON","JL.BRANTI RAYA NEGERI KATON","Prop. Lampung","SMA","-5.2746000","105.1534000"
"10810337","SMAS MUHAMMADIYAH 1 SENDANG AGUNG","JL. KH. AHMAD DAHLAN","Prop. Lampung","SMA","-5.1883000","104.8918000"
"10806779","SMAN 1 BUAY BAHUGA","Jl. Mesir Ilir No. 03 Bumiharjo Kec. Buay Bahuga","Prop. Lampung","SMA","-4.2828000","104.6272000"
"10807566","SMAN 3 METRO","JL NAGA","Prop. Lampung","SMA","-5.1021640","105.2758620"
"10810369","SMAN 1 PESISIR UTARA","JL. KHOLIFAH ALAM GG. AMD NO.1","Prop. Lampung","SMA","-5.0255000","103.7679000"
"10805036","SMAS MUHAMMADIYAH 1 KOTA AGUNG","JL. SAMUDRA 33 KURIPAN KOTA AGUNG","Prop. Lampung","SMA","-5.4921000","104.6225000"
"10809509","SMAS LKMD A TIMUR","JL. JEND. A. YANI NO. 100","Prop. Lampung","SMA","-4.7564000","105.0123000"
"10809746","SMAN 1 ADILUWIH","ADILUWIH","Prop. Lampung","SMA","-5.1347000","105.0225000"
"69762799","SMAN 1 ANAK TUHA","Negara Bumi Ilir","Prop. Lampung","SMA","-4.9729000","105.0679000"
"10807560","SMAN 2 METRO","JL. SRI WIJAYA","Prop. Lampung","SMA","-5.1484470","105.2741750"
"10807035","SMA S MUHAMMADIYAH 2","JL. Z..A. PAGAR ALAM NO. 14","Prop. Lampung","SMA","-5.3731000","105.2513000"
"60725072","SMAN 1 MESUJI LAMPUNG","JL. Z.A PAGAR ALAM PASIR INTAN KP SUNGAI BADAK KEC.MESUJI KAB.MESUJI","Prop. Lampung","SMA","-3.8477000","105.4223000"
"69815421","SMAS Islam Cendikia","Jl. Tamin Gg. Hi. Abdurahman","Prop. Lampung","SMA","-5.4019000","105.2299000"
"10814699","SMAN 1 BUMI NABUNG","Abung Kiwah Bumi Nabung","Prop. Lampung","SMA","-4.6721000","105.5299000"
"10802065","SMAN 1 TERUSAN NUNYAI","JL. NEGARA KM. 84 BANDAR AGUNG","Prop. Lampung","SMA","-4.7665000","105.2217000"
"10802003","SMAS BUSTANUL ULUM ANAK TUHA","JL. KAWISTA NO. 15","Prop. Lampung","SMA","-5.0870000","105.0637000"
"10807059","SMAN 13 BANDAR LAMPUNG","JL. PADAT KARYA SINAR HARAPAN","Prop. Lampung","SMA","-5.3466000","105.2561000"
"10804119","SMAS MUHAMMADIYAH MESUJI TIMUR","KMP. TANJUNG MAS REJO MESUJI TIMUR","Prop. Lampung","SMA","-3.9945000","105.5552000"
"10814435","SMAS BAKTI UTAMA","JL. PANGLIMA POLIM NO. 2A","Prop. Lampung","SMA","-5.3882000","105.2136000"
"10815233","SMAN 2 TANJUNG RAJA","JL. KARANG WARINGIN","Prop. Lampung","SMA","-4.9976000","104.6861000"
"10807066","SMAN 5 BANDAR LAMPUNG","Jl. Soekarno-Hatta (By Pass)","Prop. Lampung","SMA","-5.3792000","105.2848000"
"10809885","SMA S DARMA BANGSA","JL ZA PAGAR  ALAM 93 A","Prop. Lampung","SMA","-5.3780000","105.2504000"
"69786763","SMA PGRI PEMATANG SAWA","Jln. Pramuka Tampang Muda","Prop. Lampung","SMA","-5.9194000","104.6789000"
"10805988","SMAS MUHAMMADIYAH BRAJA SELEBAH","JL. KI BAGUS HADIKUSUMO NO. 10","Prop. Lampung","SMA","-5.1747000","105.7830000"
"10806033","SMAS BUANA BANDAR SRIBAWONO","JL. RAYA SRIBAWONO-PANJANG NO.454","Prop. Lampung","SMA","-5.3040000","105.7434000"
"10805993","SMAN 1 MELINTING","JL. PANGERAN PAKSI","Prop. Lampung","SMA","-5.3684000","105.7581000"
"10805986","SMAS MUHAMMADIYAH 1 SEKAMPUNG UDIK","JL. BARU","Prop. Lampung","SMA","-5.2718000","105.5800000"
"10805979","SMAS PGRI PEKALONGAN","Jl. Setuju Blok 17","Prop. Lampung","SMA","-5.0555000","105.3564000"
"10810741","SMAS MIFTAHUL ULUM","MAHA BANG","Prop. Lampung","SMA","-4.4904000","105.7484000"
"10804204","SMAN 1 TULANG BAWANG UDIK","JL. RATU PENGADILAN NO. 113","Prop. Lampung","SMA","-4.6018000","104.9874000"
"10810729","SMAS PEMBINA MENGGALA","JL. Gala Ratu Komplek Perkantoran Pemda Tulang Bawang","Prop. Lampung","SMA","-4.4894000","105.2217000"
"10809742","SMAS MUHAMMADIYAH GISTING","JL. BREAK MEAYER KUTADALOM GISTING","Prop. Lampung","SMA","-5.4375000","104.7147000"
"69831996","SMA NEGERI 1 AIR HITAM","Jl. Raya Air Hitam pekon gunung terang","Prop. Lampung","SMA","-5.1268610","104.4263750"
"10807020","SMA N 1 BANDAR LAMPUNG","JL.JENDERAL SUDIRMAN NO.41","Prop. Lampung","SMA","-5.4223810","105.2652410"
"10801967","SMAN 1 BANGUNREJO","JL. RAYA SIDOREJO","Prop. Lampung","SMA","-5.1678000","105.0132000"
"69903025","SMA ALAM LAMPUNG","JL. AIRAN RAYA","Prop. Lampung","SMA","-5.2677640","105.3138576"
"10802966","SMAS PRIMA","JL. PERJUANGAN","Prop. Lampung","SMA","-4.8323000","104.8954000"
"10802005","SMAS BANGUN CIPTA RUMBIA","JL. RAYA REKSO BINANGUN","Prop. Lampung","SMA","-4.7525000","105.5370000"
"10804187","SMAN 1 MERAKSA AJI","JL. RAYA BINA BUMI NO. 4","Prop. Lampung","SMA","-4.2759000","105.4557000"
"10806258","SMAS MA ARIF SRIMINOSARI","JL. PRAJA 3 SRIMINOSARI","Prop. Lampung","SMA","-5.2891000","105.8075000"
"69759182","SMAS PAHAWANG","Desa Pulau Pahawang","Prop. Lampung","SMA","-5.6723000","105.2213000"
"10805983","SMAS MUHAMMADIYAH PURBOLINGGO","JL. RAWA PATAH NO 34","Prop. Lampung","SMA","-4.9700000","105.4968000"
"10803535","SMAN 1 PESISIR TENGAH","JL. ABDUL HAMID PUCAK RAWAS","Prop. Lampung","SMA","-5.2018550","103.9432567"
"10806792","SMAN 1 BLAMBANGAN UMPU","JL. JENDERAL SUDIRMAN KM.1","Prop. Lampung","SMA","-4.5088020","104.5182770"
"10807026","SMAS BINA MULYA KEDATON","JL. BADAK NO. 335 A KEDATON","Prop. Lampung","SMA","-5.3949000","105.2551000"
"10810522","SMAN 1 BENGKUNAT","JL. LINTAS BARAT SUKARAME","Prop. Lampung","SMA","-5.6409000","104.4223000"
"10801998","SMAS GAYABARU SEPUTIH SURABAYA","JL. KH. DEWANTARA NO. 162","Prop. Lampung","SMA","-4.6953000","105.6317000"
"10814586","SMAN 2 PADANG CERMIN","JL. Raya Ceringin Asri","Prop. Lampung","SMA","-5.5815000","105.0434000"
"69763264","SMAN 2 ABUNG SEMULI","JL. LADA  NO 94","Prop. Lampung","SMA","-4.8415000","105.0775000"
"10807037","SMAS NUSANTARA BANDARLAMPUNG","JL. GELATIK TJ. AGUNG NO. 16","Prop. Lampung","SMA","-5.4143000","105.2648000"
"10807565","SMAS TARUNA GAJAH MADA","JL. JEND. SUDIRMAN","Prop. Lampung","SMA","-5.1254000","105.2882000"
"10803531","SMA NEGERI 1 BELALAU","JL. P. DIPONEGORO NO. 001","Prop. Lampung","SMA","-5.0076000","104.1877000"
"10807013","SMA S UTAMA 2","JL. JEND. SUDIRMAN NO. 39","Prop. Lampung","SMA","-5.4221000","105.2589000"
"69795838","SMA N 2 ULU BELU","Jl. Tanjung Baru","Prop. Lampung","SMA","-5.2691000","104.5708000"
"69763263","SMAN 1 SUNGKAI JAYA","JL. RAYA CEMPAKA NO.53","Prop. Lampung","SMA","-4.7847000","104.8228000"
"10800691","SMAN 1 KALIANDA","JL. KOL. MAKMUN RASYID NO 149","Prop. Lampung","SMA","-5.7269000","105.5885000"
"10807068","SMAN 7 BANDAR LAMPUNG","JL.TEUKU CIK DITIRO NO.2","Prop. Lampung","SMA","-5.4042000","105.2009000"
"69772321","SMAS NASIONAL MENGGALA","MENGGALA","Prop. Lampung","SMA","-4.4739000","105.3062000"
"10803627","SMAS NUSANTARA SUOH","JL. WISATA SUOH","Prop. Lampung","SMA","-5.2447000","104.3196000"
"10809295","SMAN 1 TULANG BAWANG TENGAH","Jl.  Dahlia No. 02, Kec. Tulang Bawan Tengah, Kab. Tulang Bawang Barat","Prop. Lampung","SMA","-4.5363000","105.0903000"
"10800708","SMAN 1 MERBAU MATARAM","JL. BATIN PUTRA NO. 41 TALANG JAWA","Prop. Lampung","SMA","-5.4691000","105.4913000"
"10802087","SMAN 1 SEPUTIH MATARAM","JL. MERAPI FAJAR MATARAM","Prop. Lampung","SMA","-4.8495000","105.3096000"
"10809297","SMAN 1 TUMIJAJAR","JL. JENDERAL SUDIRMAN NO. 92","Prop. Lampung","SMA","-4.6350000","105.0742000"
"10809855","SMAN 2 TUMIJAJAR","MARGOMULYO","Prop. Lampung","SMA","-4.6343000","105.1280000"
"69763270","SMAS IT BAITUL MUSLIM","DESA LABUAN RATU lll","Prop. Lampung","SMA","-5.1538000","105.6776000"
"10803041","SMAN 1 SUNGKAI SELATAN","JL.PG BUNGA MAYANG","Prop. Lampung","SMA","-4.7349980","104.8275880"
"10801965","SMAN 1 KALIREJO","jl. Raya Sridadi Kecamatan Kalirejo","Prop. Lampung","SMA","-5.2007000","104.9639000"
"10801972","SMAS SUGAR GROUP B MATARAM","SITE GULA PUTIH MATARAM","Prop. Lampung","SMA","-4.5759000","105.4086000"
"10814045","SMAN 1 GUNUNG PELINDUNG","JL. H. NASIR NEGERI AGUNG","Prop. Lampung","SMA","-5.4539000","105.7441000"
"10801957","SMAS MA ARIF 3 BUMI NABUNG","JL. RAYA SRI KENCONO NO. 721","Prop. Lampung","SMA","-4.7072000","105.5746000"
"10800677","SMAS PERSADA KETAPANG","JL.LINTAS TIMUR","Prop. Lampung","SMA","-5.8294000","105.7575000"
"10810271","SMAN 1 BANJAR MARGO","JL. LINTAS TIMUR KM 159","Prop. Lampung","SMA","-4.1950000","105.2340000"
"10806029","SMAS KOSGORO SRI BHAWONO","JL. Ir. Soetami Km.60","Prop. Lampung","SMA","-5.3122000","105.7431000"
"10809267","SMAS PLUS MMT BANGUN JAYA","Jl.POROS LAPANGAN SUKU III BANGUN JAYA","Prop. Lampung","SMA","-4.3064000","105.0400000"
"69901605","SMA TERUSAN BANGSA","Jln. Raya Way Terusan SP 2","Prop. Lampung","SMA","-4.6779000","105.4507000"
"10809854","SMA N 1 GUNUNG TERANG","JL. POROS PAKUAN TOTO MULYO","Prop. Lampung","SMA","-4.4185000","105.0519000"
"10809916","SMAS MUHAMMADIYAH BANJIT","Jl. Bendungan Irigasi Way Umpu","Prop. Lampung","SMA","-4.7881000","104.5025000"
"69932641","SMA ASY-SYIFA DARUSSALAM","Jl.Simpang Saprodi, Dusun Bumi Rahayu","Prop. Lampung","SMA","-4.7309840","104.9298960"
"10807069","SMAN 8 BANDAR LAMPUNG","JL.LAKSAMAN MALAHAYATI NO. 10","Prop. Lampung","SMA","-5.4624000","105.2478000"
"10805031","SMAS SANTOPIUS GISTING","JL. MATA AIR DAM GISTING BAWAH, KECAMATAN GISTING, KABUPATEN TANGGAMUS","Prop. Lampung","SMA","-5.4396000","104.7357000"
"10800671","SMAS TRI SUKSES","KOMP. PONPES NURUL HUDA","Prop. Lampung","SMA","-5.3433000","105.2260000"
"10805995","SMAN 1 LABUHAN MARINGGAI","JL. PASIKAN","Prop. Lampung","SMA","-5.3124000","105.7536000"
"10812659","SMAS AL IRSYAD","JL.RADIN INTAN","Prop. Lampung","SMA","-5.7296000","105.5942000"
"10809292","SMAN 1 PENAWARTAMA","JL. Lintas Rawajitu 105  RT 01 RW 04","Prop. Lampung","SMA","-4.1884000","105.4776000"
"69907616","SMA Islam Bina Sejahtera","Kampung Simpang asam Kecamatan Banjit Kabupaten Way Kanan","Prop. Lampung","SMA","-4.8007819","104.4662969"
"10814042","SMAS MINHAJUTTULAB","JL. syuhada km 03 Des.Margayu Kel. Labuhan Ratu Satu Baru Kec Way Jepara","Prop. Lampung","SMA","-5.1664000","105.7256000"
"10800706","SMAN 1 KATON","JL. RAYA DESA SIDOMULYO No. 01","Prop. Lampung","SMA","-5.2611000","105.0713000"
"69757268","SMAS DARUSY SYAFAAH","JL. RAYA KAUMAN KOTAGAJAH","Prop. Lampung","SMA","-4.9819000","105.3163000"
"69761959","SMAS DCC GLOBAL SCHOOL","JL. PAGAR ALAM - MATA RUSYDI","Prop. Lampung","SMA","-5.3863000","105.2224000"
"10809288","SMAN 1 GEDUNG MENENG","JL. POROS ILP KM.52","Prop. Lampung","SMA","-4.3866000","105.6470000"
"10810787","SMAS TUNAS BANGSA","JL. FLAMBOYAN","Prop. Lampung","SMA","-5.4097000","105.5132000"
"10816209","SMAN 1 PAGAR DEWA","JL. LUAS-SIDOMULYO","Prop. Lampung","SMA","-4.9242000","104.3003000"
"10805058","SMAN 1 KOTA AGUNG","JL. BHAYANGKARA NO. 77 KOTAAGUNG","Prop. Lampung","SMA","-5.4891000","104.6231000"
"10809270","SMAS PGRI WIRALAGA MESUJI","DSN. 03 WIRALAGA MESUJI","Prop. Lampung","SMA","-3.9816000","105.5168000"
"10805037","SMAS MUHAMMADIYAH GADINGREJO","JL. RAYA TEGALSARI NO. 53","Prop. Lampung","SMA","-5.3670000","105.0606000"
"10814701","SMAN 1 BANDAR SURABAYA","Jln. Rajawali No. 13","Prop. Lampung","SMA","-4.6826000","105.7237000"
"10807589","SMAS KRISTEN 1 METRO","JL FLORES NO. 21","Prop. Lampung","SMA","-5.1215000","105.2881000"
"69959972","SMAN 1 BATU PUTIH","TIYUH TOTO KATON","Prop. Lampung","SMA",".0000000",".0000000"
"10810735","SMAS LEBUNG KACCAH INDAH","PANARAGAN JAYA","Prop. Lampung","SMA","-4.4943000","105.0955000"
"10802955","SMAN 1 KOTABUMI","JL. GANESA 5A","Prop. Lampung","SMA","-4.8631000","104.8893000"
"69822723","SMAN 3 MENGGALA","Jalan Lintas Timur, Menggala","Prop. Lampung","SMA","-4.4851000","105.2552000"
"10807017","SMA S YP UNILA","JL. JEND. SUPRAPTO NO. 88","Prop. Lampung","SMA","-5.4138000","105.2448000"
"10811093","SMAN KETIBUNG","JL. RADEN AWAS","Prop. Lampung","SMA","-5.5437000","105.4852000"
"10807064","SMAN 3 BANDAR LAMPUNG","JL. KHAIRIL ANWAR PALAPA","Prop. Lampung","SMA","-5.4222000","105.2394000"
"69725547","SMAS TAMAN SISWA","JL.A.YANI NO.67 GEDONG TATAAN","Prop. Lampung","SMA","-5.3686000","105.1097000"
"10806002","SMAS YPS SIDOREJO","JL. PANJANG SRIBHAWONO KM. 45","Prop. Lampung","SMA","-5.3126000","105.6462000"
"10805996","SMAN 1 KIBANG","JL. RAYA KIBANG","Prop. Lampung","SMA","-5.1996000","105.3201000"
"10815118","SMA IT AL MUJTAMA","KARANG ANYAR","Prop. Lampung","SMA","-5.3093000","105.3028000"
"10802972","SMAS WIYATA MANDALA","JL. KAPTEN MUSTAFA GG. MERAK  NO. 329","Prop. Lampung","SMA","-4.7938000","104.9994000"
"10801961","SMAN 1 RUMBIA","JL. SMAN 1 RUMBIA","Prop. Lampung","SMA","-4.7862000","105.5534000"
"10800686","SMAS MUHAMMADIYAH 1 CANDIPURO","JL. KH. AHMAD DAHLAN NO. 17","Prop. Lampung","SMA","-5.5253000","105.5380000"
"10807063","SMAN 2 BANDAR LAMPUNG","JL.AMIR HAMZAH NO.01","Prop. Lampung","SMA","-5.4235000","105.2488000"
"10807062","SMAN 16 BANDAR LAMPUNG","JL.DARUSSALAM","Prop. Lampung","SMA","-5.4024000","105.2292000"
"10807061","SMAN 15 BANDAR LAMPUNG","JL.TURI RAYA","Prop. Lampung","SMA","-5.3603000","105.2679000"
"10801963","SMAN 1 PADANGRATU","Jalan Kopral A. Wahab No 15 Haduyang Ratu","Prop. Lampung","SMA","-5.0460000","104.9504000"
"10800735","SMAS DBP SIDOMULYO","JL. NUGROHO NOTOSUSANTO 74","Prop. Lampung","SMA","-5.5794000","105.5016000"
"10810190","SMAN 1 BUMI AGUNG","JL. PROTOKOL NO.1 PISANG BARU","Prop. Lampung","SMA","-4.3368000","104.4512000"
"10805985","SMAS MUHAMMADIYAH 1 WAY JEPARA","JL. RAYA KM. 107 WAY JEPARA","Prop. Lampung","SMA","-5.1747000","105.7135000"
"10807018","SMAS YPPL PANJANG","JL. KP. BARUNARIA","Prop. Lampung","SMA","-5.4661000","105.3222000"
"10815009","SMAS DARUL FALAH","JL. Sultan Agung","Prop. Lampung","SMA","-4.9278000","105.0148000"
"10809298","SMAN 01 WAY SERDANG","JL. GAJAH MADA NO. 25 BUKO POSO","Prop. Lampung","SMA","-4.2274000","105.2313000"
"10806742","SMAS BERINGIN RATU/P RT","KP.SERUPA INDAH","Prop. Lampung","SMA","-4.4392000","104.7457000"
"10810983","SMAS PGRI PAGELARAN","JL. AMPERA GUMUKMAS","Prop. Lampung","SMA","-5.3621000","104.8885000"
"10800672","SMAS SWADHIPA","JL. SWADHIPA NO 217","Prop. Lampung","SMA","-5.2868000","105.1970000"
"69822722","SMAN 1 AIR NANINGAN","Jalan Raya Air Naningan Pekon Air Kubang","Prop. Lampung","SMA","-5.4383000","104.4845000"
"10814705","SMAS YAMAMA","JL.GIRI JAYA","Prop. Lampung","SMA","-5.4044000","105.1917000"
"69775304","SMAN 3 TULANG BAWANG TENGAH","DS. PENUMANGAN","Prop. Lampung","SMA","-4.5620000","105.1760000"
"10801953","SMAS MA ARIF 4 SELAGAI LINGGA","JL. DAIM JAJULI","Prop. Lampung","SMA","-5.0683000","104.7588000"
"10807027","SMAS BODHISATVA","JL. DR. SETIA BUDI NO. 7/8","Prop. Lampung","SMA","-5.4509000","105.2543000"
"10810335","SMAN 1 SENDANG AGUNG","JL. RAYA SENDANG REJO","Prop. Lampung","SMA","-5.2025000","104.9000000"
"69945692","SMA NEGERI 1 RAWAPITU","KP. ANDALAS CERMIN","Prop. Lampung","SMA","-4.3213000","105.5584000"
"10807067","SMAN 6 BANDAR LAMPUNG","JL. KH. AGUS ANANG NO. 35","Prop. Lampung","SMA","-5.4384000","105.2962000"
"10810872","SMAS DARUL FIKRI","JL.Hi. Sulaiman No.04 Pekon Sumanda","Prop. Lampung","SMA","-5.4735000","104.8076000"
"10805052","SMAN 1 SUMBEREJO","JL. RAYA GUNUNG BATU KM. 82,7 SUMBERREJO","Prop. Lampung","SMA","-5.3881000","104.6856000"
"10800673","SMAS SUNAN KALIJAGA","JL. Desa Sumber Jaya No.64","Prop. Lampung","SMA","-5.2957000","105.3719000"
"10801960","SMAN 1 SEPUTIH AGUNG","Jln. Panca Bhakti S. Agung","Prop. Lampung","SMA","-4.9575000","105.1597000"
"10800684","SMAS MUHAMMADIYAH TEGINENENG","JL. KH. DAHLAN NO. 7","Prop. Lampung","SMA","-5.1758000","105.1177000"
"10809291","SMAN 01 MESUJI TIMUR","JALAN. PANGERAN DIPONEGORO","Prop. Lampung","SMA","-4.0115000","105.5053000"
"10810186","SMA NEGERI 1 BANDAR NEGERI SUOH","JL. RAYA BANDAR AGUNG","Prop. Lampung","SMA","-5.2542000","104.2990000"
"10809943","SMAS BINA MULYA","GADINGREJO","Prop. Lampung","SMA","-5.4037000","104.9883000"
"10805994","SMAN 1 MARGA TIGA","JL. RAYA NEGERI TUA","Prop. Lampung","SMA","-5.1368000","105.5248000"
"10802004","SMAS BINAKARYA PUTRA RUMBIA","Jln. Merdeka No. 01 Binakarya Utama, Kec. Putra Rumbia Lampung Tengah KP 34157","Prop. Lampung","SMA","-4.8152310","105.5860820"
"69879433","SMA ISLAM TERPADU DAAR EL FIKRI","JL BENDUNGAN RK.5 SIMPANG MESUJI","Prop. Lampung","SMA","-3.9841170","105.2034610"
"10814647","SMA NEGERI 1 RAWAJITU SELATAN","JL. Raya Rawajitu Kamp. Medasari Kec. Rawajitu Selatan","Prop. Lampung","SMA","-4.3345000","105.7942000"
"10801966","SMAN 1 GUNUNG SUGIH","JL. JENDERAL SUDIRMAN","Prop. Lampung","SMA","-4.9829000","105.2050000"
"10806771","SMAN 1 NEGARA BATIN","JL. BGD NEGARA","Prop. Lampung","SMA","-4.3393000","104.8786000"
"69947673","SMA AL-FALAH","Jalan Amapoera Dirja No.30","Prop. Lampung","SMA","-4.8801384","104.6294667"
"10807015","SMAS WIJAYA KEDATON","JL. KANGURU KEDATONNO. 38","Prop. Lampung","SMA","-5.3891000","105.2261000"
"10800736","SMAS DHARMA ASIH WATES","JL. RAYA WATES WAY RATAI","Prop. Lampung","SMA","-5.5782000","105.0716000"
"10807039","SMAS AL - AZHAR","JL. M. NUR 1","Prop. Lampung","SMA","-5.3803000","105.2705000"
"10805050","SMAN 1 WONOSOBO","JL. GATOT SINAGA SIRING BETIK WONOSOBO","Prop. Lampung","SMA","-5.4197000","104.4437000"
"69775305","SMAN 1 WAY KENANGA","Jl. Poros Pagar Buana","Prop. Lampung","SMA","-4.3557000","105.1569000"
"10800674","SMAS PIRI","JL. RAYA MARGODADI","Prop. Lampung","SMA","-5.3213000","105.3685000"
"10814928","SMAN 1 SRAGI","JL. LAPANGAN JATI","Prop. Lampung","SMA","-5.6387000","105.7201000"
"10810017","SMA NEGERI 1 BATUBRAK","JL. SUKABUMI-Pekon Balak","Prop. Lampung","SMA","-5.0224000","104.1644000"
"10810569","SMAS AL ISMANILIYUN","JL. PROTOKOL NO.68","Prop. Lampung","SMA","-5.2383000","105.3064000"
"69762684","SMAN 1 PARDASUKA","PARDASUKA","Prop. Lampung","SMA","-5.4643000","104.9326000"
"69775303","SMAN 2 TULANG BAWANG UDIK","DS. MARGA KENCANA","Prop. Lampung","SMA","-4.6850000","105.0358000"
"10815037","SMAN 02 GUNUNG LABUHAN","JL. HI. ABD RAHMAN","Prop. Lampung","SMA","-4.7472000","104.6384000"
"10805984","SMAS MUHAMMADIYAH 1 PEKALONGAN","JL. RAYA PEKALONGAN","Prop. Lampung","SMA","-5.0386000","105.3541000"
"10809289","SMA N 1 GUNUNG AGUNG","JL. DIPONEGORO NO. 65","Prop. Lampung","SMA","-4.2402000","105.0548000"
"10807033","SMAS ISLAMIYAH","JL. LAKSAMAN MALAHAYATI NO. 50","Prop. Lampung","SMA","-5.4594000","105.2527000"
"10809922","SMAS LENTERA HARAPAN","JL. LINTAS TIMUR","Prop. Lampung","SMA","-4.3319000","105.2943000"
"10805030","SMAS XAVERIUS PAGELARAN","JL. RAYA PAGELARAN","Prop. Lampung","SMA","-5.3613000","104.8948000"
"10800687","SMAS PLUS MUH NATAR","JL.KH AHMAD DAHLAN NO.17","Prop. Lampung","SMA","-5.2643000","105.2346000"
"69830525","SMA KEBANGSAAN","DESA PISANG","Prop. Lampung","SMA","-5.7873000","105.7145000"
"10806079","SMAN 1 SEKAMPUNG","DUSUN IV, DESA HARGOMULYO","Prop. Lampung","SMA","-5.1431000","105.4963000"
"10809263","SMAS HMPTI","JL. ETHANOL","Prop. Lampung","SMA","-4.3443000","105.2500000"
"10800709","SMAS LENTERA HARAPAN","JL.JATI AGUNG","Prop. Lampung","SMA","-5.3331000","105.4582000"
"10810810","SMAN 1 WAY LIMA","JL. Raya Desa Baturaja","Prop. Lampung","SMA","-5.4162000","105.0162000"
"10802066","SMAN 1 TERBANGGI BESAR","JL. AHMAD YANI NO. 1","Prop. Lampung","SMA","-4.8983000","105.2119000"
"10810192","SMAN 2 BUAY BAHUGA","jln. Rya Chudu no. 04","Prop. Lampung","SMA","-4.3258000","104.5609000"
"10806095","SMAN 1 PURBOLINGGO","JL.KIHAJAR DEWANTORO KM.2","Prop. Lampung","SMA","-4.9636000","105.5112000"
"69888811","SMA PGRI KATIBUNG","JL. SOEKARNO HATTA","Prop. Lampung","SMA","-5.5923225","105.4176021"
"10803539","SMA NEGERI 1 WAY TENONG","JL. PASAR SENIN","Prop. Lampung","SMA","-5.0527000","104.3991000"
"10800700","SMAN 2 KALIANDA","JL. TRANS SUMATERA","Prop. Lampung","SMA","-5.7253000","105.6120000"
"10815152","SMAN 2 TULANG BAWANG TENGAH","Jl. SILIWANGI NO. 07","Prop. Lampung","SMA","-4.6192000","105.1532000"
"10810229","SMAN 1 KARYA PENGAWA","JL. LINTAS BENGKULU","Prop. Lampung","SMA","-5.0919000","103.9330000"
"10805054","SMAN 1 PULAU PANGGUNG","JL. PENANTIAN PULAU PANGGUNG","Prop. Lampung","SMA","-5.3090000","104.7663000"
"69849582","SMA ISLAM SABILUNNAJAH","JL. HAFIDZ NO.06","Prop. Lampung","SMA","-4.9264730","105.3696300"
"69952549","SMAN 1 ABUNG KUNANG","Jalan Raya Desa Sabuk Empat Kec. Abung Kunang Kab. Lampung Utara","Prop. Lampung","SMA","-4.8757000","104.7955000"
"10805047","SMAN 2 PRINGSEWU","Jl. Mekarsari No. 288","Prop. Lampung","SMA","-5.3324000","104.9818000"
"10800676","SMAS PGRI 01 PADANG CERMIN","JL. RAYA WAY RATAI","Prop. Lampung","SMA","-5.5258000","104.9776000"
"10814969","SMAN 1 GUNUNG ALIP","JL. M IDRIS BANJAR NEGERI GUNUNG ALIP","Prop. Lampung","SMA","-5.4138000","104.7586000"
"10805048","SMAN 1 AMBARAWA","JL. SAPUHANDA NO.01","Prop. Lampung","SMA","-5.2451000","104.5779000"
"10809702","SMAN 5 METRO","JL. WOLTER MONGINSIDI","Prop. Lampung","SMA","-5.0914670","105.3199130"
"10802960","SMAS PERINTIS","JL. MELATI INDAH","Prop. Lampung","SMA","-4.6360000","104.8598000"
"10810655","SMAS MUHAMMADIYAH 1 MENGGALA","JL. DUSUN CIMANGGUK","Prop. Lampung","SMA","-4.5601000","105.2018000"
"10809262","SMAS CATUR KARYA","JL. LINTAS RAWAJITU","Prop. Lampung","SMA","-4.2374000","105.2736000"
"10806758","SMAS JURAI WIRA N AG","KP.TG REJO N.AGUNG","Prop. Lampung","SMA","-4.5296000","104.7046000"
"69944725","SMA ISLAM AL-ANSHOR PUTRI","Jln. Way Bayas","Prop. Lampung","SMA","-5.3724542","105.0074467"
"10815084","SMAN 2 GADINGREJO","JLN. KI HAJAR DEWANTARA NO. 01 WONOSARI KEC. GADINGREJO","Prop. Lampung","SMA","-5.3858000","105.0396000"
"10825009","SMAS AL HIDAYAH SINAR HARAPAN","JL. HI. NAWI GANG HASANUDIN","Prop. Lampung","SMA","-4.7873110","104.6698680"
"10807031","SMA S GAJAH MADA","Jl. Soekarno Hatta No. 1 Tanjung Senang, Bandar Lampung","Prop. Lampung","SMA","-5.3724000","105.2771000"
"10805997","SMAN 1 JABUNG","JL. LAPANGAN MERDEKA NEGARA BATIN","Prop. Lampung","SMA","-5.4568000","105.6753000"
"10802973","SMAS WIYATA KARYA","JL. GANESA","Prop. Lampung","SMA","-4.8279000","104.8777000"
"10805055","SMAN 1 PRINGSEWU","JL. OLAHRAGA","Prop. Lampung","SMA","-5.3510000","104.9691000"
"10807010","SMA S SRIWIJAYA ","JL. M. BANGSAWAN NO. 12 A","Prop. Lampung","SMA","-5.3853000","105.2516000"
"10814711","SMAS BUDI KARSA","JL. Simpang Lima Sungai Nibung","Prop. Lampung","SMA","-4.4938000","105.8571000"
"69900246","SMAN 1 BANJAR BARU","SMAN 1 BANJAR BARU","Prop. Lampung","SMA","-4.3467224","105.3083487"
"10810802","SMAS MIF ULUM SEPUTIH SURABAYA","JL. KY. HASYIM ASYARI","Prop. Lampung","SMA","-4.6813000","105.5841000"
"10800732","SMAS IT BABUL HIKMAH","Komplek Pondok Pesantren Babul Hikmah","Prop. Lampung","SMA","-5.8188472","105.6079589"
"10800702","SMAN 1 SIDOMULYO","JL. MURIA 101 SELORENTO","Prop. Lampung","SMA","-5.6157000","105.5218000"
"10810732","SMA N 1 PAGAR DEWA","Jl. Raya Unit VI","Prop. Lampung","SMA","-4.4925000","105.1048000"
"10814053","SMAN 1 PEKALONGAN","JL. KAMBOJA","Prop. Lampung","SMA","-4.9737000","105.3279000"
"10807143","SMAS ADIGUNA","JL. KHAIRIL ANWAR NO. 79","Prop. Lampung","SMA","-5.4280000","105.2214000"
"10805035","SMAS MUHAMMADIYAH PRINGSEWU","JL. Pirngadi No. 56","Prop. Lampung","SMA","-5.3523000","104.9784000"
"10814062","SMAN 1 LABUHAN RATU","JL. SUTAN LIYU KM 2","Prop. Lampung","SMA","-5.1292000","105.6681000"
"10802964","SMAS PGRI SUBIK","JL. PROTOKOL","Prop. Lampung","SMA","-4.9708000","104.7673000"
"10805039","SMAS 17 PAGELARAN","JL. KESEHATAN NO. 17","Prop. Lampung","SMA","-5.3733000","104.8915000"
"10803028","SMAN 1 TANJUNG RAJA","JL. MERAMBUNG DESA TULUNG BALAK","Prop. Lampung","SMA","-4.9942000","104.6673000"
"10815064","SMAS BUDIDAYA SIDOMULYO","JL. TRANS POLRI","Prop. Lampung","SMA","-5.6225000","105.4994000"
"10807005","SMAS UTAMA 1","JL. DR. HARUN KOTABARU","Prop. Lampung","SMA","-5.4163000","105.2730000"
"69775683","SMAS IT AR RAIHAN ","JL. PURNAWIRAWAN No. 114","Prop. Lampung","SMA","-5.3797000","105.2087000"
"10815040","SMAS PGRI BLAMBANGAN UMPU","KP. BUMI BARU","Prop. Lampung","SMA","-4.4528000","104.4331000"
"10800682","SMAN 1 TEGINENENG","JL. KRESNOWIDODO","Prop. Lampung","SMA","-5.2463000","105.1244000"
"10806760","SMAN 1 NEGERI BESAR","JL. SERUNTING SAKTI","Prop. Lampung","SMA","-4.4266000","104.9539000"
"10802965","SMAS PRAMUKA BHAKTI","JL. NOOR ALI NO. 556","Prop. Lampung","SMA","-4.9054000","104.9784000"
"10805038","SMAS BIMA SAKTI","JL. Raya Datarajan Pekon Datarajan Blok 1","Prop. Lampung","SMA","-5.3414000","104.6100000"
"10807591","SMAS MUHAMMADIYAH 1 METRO","JL. KAHAIRBRAS NO. 65","Prop. Lampung","SMA","-5.1276000","105.2968000"
"10803537","SMA NEGERI 1 SUKAU","JL. LINTAS LOMBOK","Prop. Lampung","SMA","-4.9120000","104.0175000"
"69861172","SMA NEGERI 1 PANCA JAYA","KOMPLEK SEKOLAH TERPADU MESUJI","Prop. Lampung","SMA","-3.9375410","105.2400680"
"10800707","SMAN 1 NATAR","JL. DAHLIA  III NATAR","Prop. Lampung","SMA","-5.3185000","105.2074000"
"10806027","SMAS LENTERA HARAPAN SKP","JL. RAYA BUMI AGUNG","Prop. Lampung","SMA","-5.1255000","105.5484000"
"10811572","SMAS MA ARIF BUMI RESTU PALAS","JL KH. BISRI MUSTOFA KM 18 BUMIRESTU","Prop. Lampung","SMA","-5.5863000","105.6420000"
"69822720","SMAN 1 WAY SULAN","Dusun Asri Mulyo Desa Karang Pucung","Prop. Lampung","SMA","-5.4942000","105.5163000"
"10806025","SMAS MA ARIF 2 NURUL HUDA ADIREJO","JL. RAYA ADIREJO","Prop. Lampung","SMA","-5.4867000","105.7410000"
"10809741","SMAS ISLAM KEBUMEN","Jalan Raya Kebumen","Prop. Lampung","SMA","-5.3422160","104.7500510"
"10806770","SMAN 1 NEGERI AGUNG","JL. BANDAR DALAM","Prop. Lampung","SMA","-4.5831000","104.5920000"
"10810288","SMAS YADIKA NATAR","JL. SITARA NO. 84 MUARA PUTIH","Prop. Lampung","SMA","-5.3118000","105.1975000"
"10814991","SMAN 6 METRO","JL. FKPPI RT.27 RW.07","Prop. Lampung","SMA","-5.1652000","105.3168000"
"10825022","SMAN 2 NEGARA BATIN","JL. BGD ADI JAYA","Prop. Lampung","SMA","-4.3426000","104.9686000"
"10807040","SMAN 11 BANDAR LAMPUNG","JL. RE. MARTADINATA KM. 4 SUKAMAJU","Prop. Lampung","SMA","-5.4726000","105.2432000"
"10806005","SMAS PGRI 2 MARGA TIGA","JL. RAYA MARGA TIGA","Prop. Lampung","SMA","-5.2184000","105.5611000"
"10811025","SMAN 1 KELUMBAYAN","JL. RAYA PANTAI HARAPAN KELUMBAYAN","Prop. Lampung","SMA","-5.7085000","105.0923000"
"10807034","SMAS MUHAMMADIYAH 1","JL. WOLTER MONGINSIDI","Prop. Lampung","SMA","-5.4311000","105.2412000"
"69947674","SMA - IT NURUL MUHAJIRIN","Jalan Masjid  Nurul Muhajirin","Prop. Lampung","SMA","-4.6454501","104.7538797"
"10801964","SMAN 1 KOTA GAJAH","JL. RAYA KOTA GAJAH","Prop. Lampung","SMA","-4.9834000","105.3296000"
"10805044","SMAN 1 CUKUH BALAK","JL. PENDIIDKAN CUKUH BALAK, TANGGAMUS","Prop. Lampung","SMA","-5.6392000","104.9029000"
"10800734","SMAS FATAHILLAH","JL.  Way Gowan No.1","Prop. Lampung","SMA","-5.2523000","105.3656000"
"10802068","SMAN 1 SEPUTIH RAMAN","JL. RAYA SEPUTIH RAMAN","Prop. Lampung","SMA","-4.8999000","105.3832000"
"10800680","SMAS PEMBANGUNAN","JL. TJINDAR BUMI NO. 266","Prop. Lampung","SMA","-5.7492000","105.5870000"
"10807060","SMAN 14 BANDAR LAMPUNG","BUKIT KEMILING PERMAI","Prop. Lampung","SMA","-5.3802000","105.2126000"
"10807028","SMAS BUDAYA","JL.PENDIDIKAN NO.32","Prop. Lampung","SMA","-5.3914000","105.2098000"
"10807036","SMA S NURUL ISLAM","JL.GATOT SUBROTO GG HI. SY. PAYAKUN 55","Prop. Lampung","SMA","-5.4413000","105.2920000"
"10816145","SMAS PELITA BANGSA","JL. P EMIR M NOER NO. 33","Prop. Lampung","SMA","-5.3868000","105.2292000"
"10809708","SMAS BIMA SUCI WAY","Jl. CUT MEUTIA NO. 19","Prop. Lampung","SMA","-4.4359000","104.3657000"
"10815169","SMAN 1 GEDUNG AJI BARU","Jln Lintas Rawajitu Kampung Sidomukti Gang Poncowolo","Prop. Lampung","SMA","-5.0331000","105.0469000"
"10801944","SMAS PELITA BANGUNREJO","JL. PELITA JAYA NO. 87","Prop. Lampung","SMA","-5.1454000","105.0262000"
"10814058","SMAN 1 SUKADANA","JL. KI HAJAR DEWANTARA NO. 1","Prop. Lampung","SMA","-5.0606000","105.5511000"
"69892474","SMA N 1 WAY BUNGUR","JL. WAY PENGUBUAN NO . 1 KEC. WAY BUNGUR","Prop. Lampung","SMA","-4.9358715","105.5369182"
"69907243","SMA Alfalakhussaadah","Kampung Tanjung Serupa Kecamatan Pakuan Ratu Kabupaten Way Kanan","Prop. Lampung","SMA","-4.3475000","104.8147000"
"69725659","SMAN 1 KETAPANG","DESA SRIPENDOWO KEC.KETAPANG","Prop. Lampung","SMA","-5.7257000","105.7610000"
"10812003","SMAS MULIA PLUS","JL. IR SUTAMI KM 36","Prop. Lampung","SMA","-5.3051000","105.4766000"
"10802063","SMAN 1 WAY PENGUBUAN","JL.SILIWANGI","Prop. Lampung","SMA","-4.8840000","105.0650000"
"10802970","SMAN 1 ABUNG SELATAN","JL. LINTAS SUMATERA SIMPANG PROPAU","Prop. Lampung","SMA","-4.6105000","104.9081000"
"10809299","SMAN 2 MENGGALA","Jl. Lintas Timur No. 2 Tiuh Toho Menggala Tulang Bawang","Prop. Lampung","SMA","-4.5449000","105.2203000"
"69901616","SMA ISLAM TERPADU SMART INSANI","Jln. Negara No. 102","Prop. Lampung","SMA","-4.8488778","105.2332652"
"10800733","SMAS ISLAM KALIANDA","JL. SERMA M. TAMIMI RAHMAN, RAWA-RAWA","Prop. Lampung","SMA","-5.6837000","105.5863000"
"69762800","SMAN 1 PUBIAN","Kampung Negeri Ratu","Prop. Lampung","SMA","-5.0755000","104.9496000"
"10807029","SMA S DIRGANTARA ","JL. PANGERAN ANTASARI NO. 12","Prop. Lampung","SMA","-5.4135000","105.2860000"
"10802976","SMAS JAYABAYA KOTABUMI","JL. JAYABAYA SKIP","Prop. Lampung","SMA","-4.8357000","104.8799000"
"10815065","SMA S TUNAS MEKAR INDONESIA ","JL. ARIF RAHMAN HAKIM NO. 30","Prop. Lampung","SMA","-5.3975000","105.2836000"
"10805045","SMAN 1 GADINGREJO","JL. RAYA TEGAL SARI NO. 001","Prop. Lampung","SMA","-5.3493000","105.0688000"
"10805057","SMAN 1 PAGELARAN","JL. RAYA GUMUKMAS","Prop. Lampung","SMA","-5.3714000","104.9311000"
"69757215","SMAN 1 WAY KHILAU","JL.RAYA SUKAJAYA","Prop. Lampung","SMA","-5.5185000","105.0230000"
"10805056","SMAN 1 BULOK","JL. RAYA SUKAMARA BULOK","Prop. Lampung","SMA","-5.4845000","104.8907000"
"10803532","SMAN 1 LEMONG","JL. PRAMUKA NO. 190","Prop. Lampung","SMA","-4.9715000","103.7817000"
"10800738","SMAS BINTANG TIMUR","JL. RAYA DESA WAWASAN","Prop. Lampung","SMA","-5.3682000","105.5036000"
"10803536","SMAN 1 SEKINCAU","JL. PASAR BARU GIHAM","Prop. Lampung","SMA","-5.0302000","104.3074000"
"10802967","SMAN 1 BUKIT KEMUNING","JL. BATU RAJA","Prop. Lampung","SMA","-4.8528000","104.5743000"
"10806773","SMAS MMT PAKUAN RATU","JALAN RADEN INTAN","Prop. Lampung","SMA","-4.4130000","104.7271000"
"10810206","SMA NEGERI 1 KEBUN TEBU","JL. RAYA BUNGIN","Prop. Lampung","SMA","-5.0818000","104.4872000"
"10807032","SMAS IMMANUEL BANDAR LAMPUNG","JL. DR. SUSILO NO. 6","Prop. Lampung","SMA","-5.4294000","105.2639000"
"10807016","SMA S XAVERIUS BANDAR LAMPUNG","JL. CENDANA NO. 31 RAWA LAUT","Prop. Lampung","SMA","-5.4229000","105.2556000"
"10809745","SMAS YASMIDA AMBARAWA","JL.UTAMA NO.05","Prop. Lampung","SMA","-5.2460000","104.5753000"
"10801949","SMAS MUHAMMADIYAH 1 SEPUTIH BANYAK","JL. KH. AHMAD DAHLAN","Prop. Lampung","SMA","-4.8465000","105.4458000"
"10802956","SMAS PGRI SUNGKAI BARAT","JL. HI. AHMAD RIFAI NO. 63","Prop. Lampung","SMA","-4.8459000","104.7041000"
"10810189","SMAN 1 PAKUAN RATU","JL. NEGARA PAKUAN RATU","Prop. Lampung","SMA","-4.3434000","104.7235000"
"10801951","SMAS MUHAMMADIYAH 1 BANGUNREJO","JL. RAYA TANJUNGJAYA","Prop. Lampung","SMA","-5.0849000","105.0654000"
"10814620","SMAN 1 ABUNG PEKURUN","ABUNG PEKURUN","Prop. Lampung","SMA","-4.8341000","104.6733000"
"10814587","SMAN 2 TEGINENENG","JL. NGUDI ILMU NO. 25","Prop. Lampung","SMA","-5.1871000","105.1227000"
"69889022","SMA NEGERI OLAHRAGA LAMPUNG","JL. RAYA STADION TEJOSARI","Prop. Lampung","SMA","-5.1518000","105.3323000"
"10803533","SMA NEGERI 1 LIWA","Jl. Piere Tendean 1/3","Prop. Lampung","SMA","-5.0392000","104.0987000"
"10802989","SMAS HANGTUAH PROKIMAL","JL. RAYA PROMIKAL KM 11","Prop. Lampung","SMA","-4.7592000","104.8323000"
"69900696","SMAN 1 PEMATANG SAWA","Jl. Pramuka Tampang Muda","Prop. Lampung","SMA","-5.8882000","104.6811000"
"10810747","SMAN 1 KEDONDONG","JL. TRITURA  NO. 8","Prop. Lampung","SMA","-5.4654000","104.9985000"
"10807070","SMAN 9 BANDAR LAMPUNG","JL. PANGLIMA POLIM NO. 18","Prop. Lampung","SMA","-5.3908000","105.2484000"
"10810670","SMAS AL HIDAYAH WAY SEPUTIH","JL. LINTAS TIMUR SIMP. RANDU","Prop. Lampung","SMA","-4.8265000","105.4892000"
"10807568","SMAN 4 METRO","JL. RAYA STADION","Prop. Lampung","SMA","-5.1492690","105.3336790"
"10801976","SMAS LENTERA HARAPAN W P","JL. LINTAS TIMUR SUMATERA","Prop. Lampung","SMA","-4.7963000","105.2257000"
"10801996","SMAS KESUMA BAKTI BEKRI","JL. KARIO AMIN NO. 2","Prop. Lampung","SMA","-5.1024000","105.1592000"
"10800701","SMAN 1 TANJUNG BINTANG","JL. ANTARA KALIAYU","Prop. Lampung","SMA","-5.4288000","105.4316000"
"69903983","SMA LIFE SKILLS KESUMA BANGSA","Kecamatan Natar Kabupaten Lampung Selatan","Prop. Lampung","SMA","-5.2940000","105.1914000"
"10805998","SMAN 1 BATANGHARI","JL. KAPTEN HARUN 47","Prop. Lampung","SMA","-5.1409000","105.3784000"
"10801952","SMAS MUHAMMADIYAH TRIMURJO","JL. RAYA ADIPURO","Prop. Lampung","SMA","-5.1583000","105.2274000"
"10814910","SMAS KARYA UTAMA","JL. POROS JEMBATAN KUNING","Prop. Lampung","SMA","-3.9927000","105.5588000"
"10801974","SMAS PGRI 1 SEPUTIH MATARAM","JL. PENDIDIKAN","Prop. Lampung","SMA","-4.7628000","105.3872000"
"69900098","SMAN 1 BANDAR MATARAM","Mataram Udik","Prop. Lampung","SMA","-4.5705948","105.5115482"
"10814031","SMAS MUHAMMADIYAH 1 SRIBHAWONO","JL. KH. A  DAHLAN NO. 4","Prop. Lampung","SMA","-5.2994000","105.7432000"
"10815162","SMA ISLAM TERPADU AL HIDAYAH","Jalan Way Sekampung","Prop. Lampung","SMA","-5.3503000","104.9080000"
"10806791","SMAN 1 BARADATU","JL. TUAN RATU MARGA","Prop. Lampung","SMA","-4.7559000","104.5368000"
"10803538","SMAN 1 SUMBERJAYA","JL. PASUNDAN","Prop. Lampung","SMA","-5.0141000","104.4888000"
"69824946","SMA PGRI 1 PUGUNG","Jl. Raya PTPN VII Tangkit Serdang Pugung","Prop. Lampung","SMA","-5.3729380","104.8374840"
"60726124","SMAN 2 BLAMBANGAN UMPU","SIDOARJO","Prop. Lampung","SMA","-4.6059000","104.5515000"
"10810244","SMAN 1 BANGKUNAT BELIMBING","JL. LINTAS BARAT WAY HENI","Prop. Lampung","SMA","-5.6217000","104.3629000"
"10814694","SMAS WIYATA DARMA","JL. MANUNGGAL No. 01","Prop. Lampung","SMA","-4.6939000","104.7821000"
"10810986","SMAN 1 ABUNG SEMULI","JL. BELIBIS","Prop. Lampung","SMA","-4.7526000","105.0181000"
"10807006","SMAS TUNAS HARAPAN","JLK.HI.ZA.P.ALAM NO.43","Prop. Lampung","SMA","-5.3683000","105.2204000"
"10803029","SMAN 1 SUNGKAI UTARA","JL. PRAMUKA II","Prop. Lampung","SMA","-4.6693000","104.7273000"
"10807007","SMAS TAMAN SISWA TELUK BETUNG UTARA","JL. WR. SUPRATMAN NO. 74","Prop. Lampung","SMA","-5.4446000","105.2659000"
"10803612","SMAS BINA ISLAMI","JL. KH.MHD THOHIR NO. 059, BALAI KENCANA","Prop. Lampung","SMA","-5.2377467","103.9574983"
"10801959","SMAS PGRI 1 PUNGGUR","JL. PENDIDIKAN NO. 5","Prop. Lampung","SMA","-5.0336000","105.2393000"
"10814585","SMAN 1 PUNDUH PEDADA","JL. RAKITO ARIFIN","Prop. Lampung","SMA","-5.6819000","105.1513000"
"69824967","SMA CENDIKIA","Jl. Wisata Suoh KM 30","Prop. Lampung","SMA","-5.1514140","104.3353490"
"10800704","SMAN 1 PALAS","JL.   PALAS AJI","Prop. Lampung","SMA","-5.6368000","105.6820000"
"10805978","SMAN 1 PASIR SAKTI","JL. PASIR LUHUR, MULYOSARI","Prop. Lampung","SMA","-5.5508000","105.7761000"
"10803027","SMAN 2 KOTABUMI","JL. RAYA PROKIMAL KM. 15","Prop. Lampung","SMA","-4.7342000","104.8257000"
"10800740","SMAS AL HUDA","Jalan Pesantren Al-huda","Prop. Lampung","SMA","-5.3300000","105.2932000"
"10802963","SMAS MUHAMMADIYAH","Jalan Taman Siswa No. 160","Prop. Lampung","SMA","-4.8233000","104.8931000"
"69815420","SMAS 5 Oktober","Jl.Sam Ratulangi Gg. Anggrek 2 No.3","Prop. Lampung","SMA","-5.3961000","105.2274000"
"10810205","SMA NEGERI 2 WAYTENONG","JL. LINTAS LIWA PEKON SUKANANTI","Prop. Lampung","SMA","-5.1020000","104.3550000"
"10807025","SMA S ARJUNA","JL. TULANG BAWANG No. 35","Prop. Lampung","SMA","-5.4183000","105.2507000"
"10807023","SMAS PERINTIS 1 BANDAR LAMPUNG","JL. CUT NYAK DIEN NO.4","Prop. Lampung","SMA","-5.4175000","105.2481000"
"69900152","SMA DARMA UTAMA","Jln. Lapangan Tunggal No. 1","Prop. Lampung","SMA","-5.0767000","105.0093000"
"69727447","SMAS GLOBAL MADANI ","JL. KAVLING RAYA 14 NO. 1 PRAMUKA","Prop. Lampung","SMA","-5.3687000","105.2247000"
"10803516","SMAS PGRI KRUI","JL. ABDUL HAMID RAWAS PUNCAK","Prop. Lampung","SMA","-5.2028427","103.9431242"
"10801941","SMAN 1 SEPUTIH BANYAK","JL. SRI BASUKI","Prop. Lampung","SMA","-4.8433000","105.4446000"
"10806032","SMAS CATURSAKTI MARGATIGA","JL. TRANS POLRI JAYAGUNA I","Prop. Lampung","SMA","-5.2188000","105.5025000"
"10811792","SMAN 1 KELUMBAYAN BARAT","JL. JAFAR SIDIK, LENGKUKAI KELUMBAYAN BARAT","Prop. Lampung","SMA","-5.6862000","105.0052000"
"10806757","SMAS HIDAYATUL M NEG BATIN","KP.BUMI JAYA","Prop. Lampung","SMA","-4.5435000","104.7489000"
"10800739","SMAS ASSALAM","JL.RAYA KERTOSARI","Prop. Lampung","SMA","-5.3319000","105.4686000"
"10810020","SMAN 1 ULUBELU","JL. RAYA NGARIP ULU BELU","Prop. Lampung","SMA","-5.2705000","104.5138000"
"69947962","SMAN 1 WAY SEPUTIH","Kampung Suko Binangun","Prop. Lampung","SMA","-4.8181776","105.4818383"
"10814589","SMAS DWI MULYA","JL. LINTAS SUMATERA","Prop. Lampung","SMA","-5.2088000","105.1742000"
"10800681","SMAS NURUL HIDAYAH","JL. DIPONEGORO NO. 08","Prop. Lampung","SMA","-5.4724000","105.5486000"
"10802957","SMAS PGRI BK KEMUNING","JL. BATU RAJA","Prop. Lampung","SMA","-4.8315000","104.6242000"
"69901222","SMA ISLAM TERPADU LANGIT BUMI","Jl. Khasudin Negara Batin","Prop. Lampung","SMA","-5.4514930","104.5772970"
"10802975","SMAS BHAYANGKARI","JL. PERWAKILAN KOTA BUMI","Prop. Lampung","SMA","-4.8249000","104.8801000"
"10811212","SMAS PERINTIS NEGERI AGUNG","Jl. Wiyata Mandala RT.1 RW. 4","Prop. Lampung","SMA","-4.4063000","104.6180000"
"10814059","SMAN 1 WAWAY KARYA","JL. RAYA DS. KARYA BASUKI","Prop. Lampung","SMA","-5.4323000","105.5711000"
"10807562","SMAS YOS SUDARSO","JL. GUNUNG LAWU NO.42","Prop. Lampung","SMA","-5.1166000","105.3203000"
"69822721","SMAN SUNGKAI BARAT","JL. CAHAYA MAS","Prop. Lampung","SMA","-4.8113000","104.8293000"
"10806743","SMAS BAKTI BARADATU","JL. DATU NO 001","Prop. Lampung","SMA","-4.7243000","104.5516000"
"10806772","SMAN 1 KASUI","JL. BUKIT SULING,KASUI","Prop. Lampung","SMA","-4.7044000","104.4552000"
"10805053","SMAN 1 SUKOHARJO","Jln. Waringinsari Barat - Dadirejo (Waringinsari Timur)","Prop. Lampung","SMA","-5.2694000","104.9930000"
"10800690","SMAN 1 GEDONG TATAAN","JL. SWADAYA","Prop. Lampung","SMA","-5.3829000","105.1045000"
"10803611","SMAS BHAKTI MULYA","JL. SUKABUMI SANGGI NO 79","Prop. Lampung","SMA","-5.2965000","104.3010000"
"10803025","SMAN 4 KOTABUMI","JL.SATRIA KOTABUMI","Prop. Lampung","SMA","-4.8717000","104.8828000"
"69880813","SMA DARUL ARAFAH KEDATUAN","Jln. H. JAHARI","Prop. Lampung","SMA","-5.0652390","105.1239980"
"10806761","SMAN 1 WAY TUBA","JL. CHAIRIL ANWAR NO. 03","Prop. Lampung","SMA","-4.3865000","104.4106000"
"10802988","SMAS ISLAM IBNU RUSYD KTB","JL. SOEKARNO HATTA NO. 103","Prop. Lampung","SMA","-4.7244000","104.6565000"
