"schoolId","schoolName","schoolAddress","province","school_level","lat","long"
"30101954","SMAS PELITA JAYA JANGKANG","DUSUN ENGKOLAI JANGKANG","Prop. Kalimantan Barat","SMA",".5537000","110.8143000"
"30105453","SMAS PGRI 1 SINGKAWANG","JL. H. THALIB","Prop. Kalimantan Barat","SMA",".9139000","108.9952000"
"30106139","SMAN 4 SEKADAU","JL. Poros Setor Karya","Prop. Kalimantan Barat","SMA",".1801000","110.9490000"
"30102510","SMAN 1 SINTANG","JL. S. PARMAN 86 SINTANG","Prop. Kalimantan Barat","SMA",".0766000","111.4958000"
"30105086","SMAS SANTO PAULUS PONTIANAK","JL. AR. HAKIM","Prop. Kalimantan Barat","SMA","-.0280000","109.3357000"
"69948915","SMA NEGERI 2 JONGKONG","JL, LINTAS SENARA","Prop. Kalimantan Barat","SMA",".5987260","112.3036070"
"30100359","SMAS MUHAMMADIYAH SAMBAS","JL. MASUDI","Prop. Kalimantan Barat","SMA","1.3672000","109.3090000"
"30102506","SMAN 1 KET HULU","JL. PAHLAWAN No. 1","Prop. Kalimantan Barat","SMA",".9257000","110.8969000"
"69946354","SMA NEGERI 2 SIDING","KECAMATAN SIDING","Prop. Kalimantan Barat","SMA","1.2947060","109.8785810"
"30101105","SMAN 1 SUNGAI PINYUH","JL. PENDIDIKAN","Prop. Kalimantan Barat","SMA",".2751000","109.0781000"
"30101940","SMAN 1 NOYAN","JL.PETUNGUN","Prop. Kalimantan Barat","SMA",".6665000","110.5515000"
"30109656","SMAS TUNAS BANGSA","JL. ARTERI  SUPADIO","Prop. Kalimantan Barat","SMA","-.0870000","109.3684000"
"30109706","SMA ISLAM AL-ASY ARIYYAH","JL.PARWASAL","Prop. Kalimantan Barat","SMA","-.0154000","109.3433000"
"30100388","SMAN 1 SUBAH","JL.RAYA SUBAH SATAI","Prop. Kalimantan Barat","SMA","1.1607000","109.4800000"
"30102527","SMAS SINAR KASIH SINTANG","JL. AKCAYA II BLOK B NO. 3 SINTANG","Prop. Kalimantan Barat","SMA",".0722000","111.4980000"
"30105471","SMAS SOELTHAN M TSJAFIOEDDIN SINGKAWANG","JL. SM. TSJAFIOEDDIN NO. 84 SINGKAWANG","Prop. Kalimantan Barat","SMA",".9093000","108.9812000"
"30104505","SMAN 1 NGABANG","JL. VETERAN NGABANG","Prop. Kalimantan Barat","SMA",".5900000","110.0936000"
"30105079","SMAS ISLAM BAWARI","JL. MERDEKA NO 173","Prop. Kalimantan Barat","SMA","-.0220000","109.3301000"
"30101074","SMAN 2 MEMPAWAH HILIR","JL. CHANDRAMIDI","Prop. Kalimantan Barat","SMA",".3523000","108.9595000"
"30106122","SMAN 1 BELITANG HILIR","JL. ADI SUCIPTO SEI AYAK II","Prop. Kalimantan Barat","SMA",".1346000","111.2355000"
"30109893","SMAS AL RAHMAH SEKADAU","JLN. MERDEKA TIMUR KM. 7 SEKADAU","Prop. Kalimantan Barat","SMA","-.0421000","111.0059000"
"30102507","SMAN 1 KETUNGAU TENGAH","JL. SILIWANGI MERAKAI","Prop. Kalimantan Barat","SMA",".7059000","111.4496000"
"30101104","SMAN 1 SUNGAI RAYA","JL. ADISUCIPTO","Prop. Kalimantan Barat","SMA","-.0761000","109.3760000"
"30105211","SMAN 2 PONTIANAK","JL. RE. MARTADINATA","Prop. Kalimantan Barat","SMA","-.0153000","109.3163000"
"30103478","SMAN 1 NANGA TAYAP","JL. PROPINSI KM.1 NANGA TAYAP","Prop. Kalimantan Barat","SMA","-1.5282000","110.5615000"
"30104459","SMAS PAK KASIH SIDAS","JL. RAYA SIDAS","Prop. Kalimantan Barat","SMA",".3715000","109.8059000"
"69830120","SMAN 1 SIMPANG DUA","JL. KABUPATEN DESA SEMANDANG KANAN","Prop. Kalimantan Barat","SMA","-.7622210","110.2710640"
"30103480","SMAN 1 KETAPANG","JL. BASUKI RAHMAT NO. 63 KETAPANG","Prop. Kalimantan Barat","SMA","-1.8307000","109.9870000"
"30102513","SMAN 3 SINTANG","JL. PENDIDIKAN SINTANG","Prop. Kalimantan Barat","SMA",".0608000","111.4949000"
"30108133","SMAN 1 SAJAD","DESA TENGGULI KECAMATAN SAJAD","Prop. Kalimantan Barat","SMA","1.4025000","109.3741000"
"30106129","SMAN 1 SEKADAU","JL. MERDEKA NO. 40/B","Prop. Kalimantan Barat","SMA",".0144000","110.8748000"
"30107322","SMAN 1 KAYAN HILIR","NANGA MAU KEC. KAYAN HILIR","Prop. Kalimantan Barat","SMA","-.1098000","111.9202000"
"69949241","SMAN 1 MUARA PAWAN","JL. TANJUNG PURA","Prop. Kalimantan Barat","SMA","-1.8025072","110.0515533"
"69915792","SMA AL-BAYAN MUARA PAWAN","JL. PRAMUKA RT.2, RW.1 DESA SUKAMAJU","Prop. Kalimantan Barat","SMA","-1.7358823","110.1048532"
"69859358","SMA NEGERI 3 SUKADANA","Jl. Semanjak","Prop. Kalimantan Barat","SMA","-1.1813160","110.0788530"
"30102907","SMAN 1 EMBALOH HULU","JL. TAMANGGUNG L. KASSO","Prop. Kalimantan Barat","SMA","1.0965000","112.4620000"
"30101072","SMAN 1 SEGEDONG","JL. SY. ABUBAKAR","Prop. Kalimantan Barat","SMA",".1534000","109.1988000"
"30107325","SMAS KARYA KASIH MERAKAI","JL. MERAKAI - SINTANG","Prop. Kalimantan Barat","SMA",".6891000","111.5146000"
"30109717","SMAN 3 SUI RAYA","DESA SUI ASAM","Prop. Kalimantan Barat","SMA","-.2155000","109.5405000"
"30107740","SMAN 1 KUALA BEHE","JL.RAYA KUALA BEHE","Prop. Kalimantan Barat","SMA",".5329000","110.0820000"
"30105082","SMAS ISLAM HARUNIYAH PONTIANAK","JL. TANJUNG RAYA I","Prop. Kalimantan Barat","SMA","-.0357000","109.3530000"
"30106210","SMAN 2 TELUK KERAMAT","JALAN RAYA PIMPINAN","Prop. Kalimantan Barat","SMA","1.5560680","109.2166630"
"30108273","SMAS METHODIST SANGGAU LEDO","JL. SUMONDO","Prop. Kalimantan Barat","SMA","1.1442000","109.7001000"
"69831639","SMA Kristen Filadelfia Sadaniang","Jl. Dusun Tikalong","Prop. Kalimantan Barat","SMA",".6051490","109.1964050"
"69830077","SMA ISLAM AL-AZHAR PONTIANAK","Jl. Ahmad Yani, No. 2 Pontianak","Prop. Kalimantan Barat","SMA","-.0582000","109.3511000"
"30100390","SMAN 1 TEKARANG","JL.RAYA TEKARANG","Prop. Kalimantan Barat","SMA","1.2750000","109.1421000"
"30107739","SMAN 2 MANDOR","JL. RAYA NGARAK","Prop. Kalimantan Barat","SMA",".3449000","109.2965000"
"30108076","SMAN 2 MELIAU","Jl Kapuas RT 2 RW 1","Prop. Kalimantan Barat","SMA","-.1008000","110.3714000"
"30101942","SMAN 1 MELIAU","JL. PENDIDIKAN MELIAU","Prop. Kalimantan Barat","SMA","-.1238000","110.2928000"
"69870878","SMAN 5 SUNGAI RAYA","Jl. Diponegoro","Prop. Kalimantan Barat","SMA","-.1196800","109.4889010"
"30104908","SMAN 1 SAYAN","JL.Madya Raya Km 59, Kec. Sayan","Prop. Kalimantan Barat","SMA","-.7198000","111.6758000"
"30107504","SMAS MEKAR TANJUNG","JL.LAPANGAN SEPAK BOLA AIR HITAM","Prop. Kalimantan Barat","SMA","-2.6147000","110.5444000"
"30101078","SMAS TARUNA BUMI KHATULISTIWA","JL. Arteri Supadio","Prop. Kalimantan Barat","SMA","-.0962000","109.3804000"
"30105465","SMAN 4 SINGKAWANG","JL. RAYA SEDAU","Prop. Kalimantan Barat","SMA",".8599000","108.9271000"
"30104478","SMAS PELITA NGABANG","JL.PEMUDA G. KARYA NGABANG","Prop. Kalimantan Barat","SMA",".6133000","110.1359000"
"69948065","SMA NEGERI 02 NANGA TAYAP","Jalan Tanah Merah - Tanjungpura. Dusun Tanah Merah. Desa Sungai Kelik","Prop. Kalimantan Barat","SMA","-1.5055504","110.7615844"
"30102529","SMAS MUHAMADIYAH SINTANG","JL. M. SAAD SINTANG","Prop. Kalimantan Barat","SMA",".0751000","111.4955000"
"69899318","SMA NEGERI 2 TELUK BATANG","JALAN MAS BANGUN","Prop. Kalimantan Barat","SMA","-.9773196","109.7800008"
"30107277","SMAN 6 SINGKAWANG","JL. DEMANG AKUB","Prop. Kalimantan Barat","SMA",".9549000","109.0173000"
"30107357","SMA SANTO PETRUS KETAPANG","JL.SUDIRMAN NO. 23 KETAPANG","Prop. Kalimantan Barat","SMA","-1.8182000","109.9598000"
"30104437","SMAS BERKAT BAGI BANGSA SENAKIN","JL. RAYA SENAKIN","Prop. Kalimantan Barat","SMA",".4279000","109.6427000"
"69931733","SMAI AL FARIQ","Dusun Ambangah Timur","Prop. Kalimantan Barat","SMA","-.0627833","109.7834094"
"30105080","SMAS BINA UTAMA PONTIANAK","Jl. H. Rais A. Rahman","Prop. Kalimantan Barat","SMA","-.0228000","109.3133000"
"69771082","SMAS TAKHASSUS AL QURAN","JALAN RAYA PULAU BENDU","Prop. Kalimantan Barat","SMA",".4720000","109.9759000"
"30109871","SMAS ISLAM HISADA","JL. KEBANGKITAN NASIONAL / JL. PURNAJAYA","Prop. Kalimantan Barat","SMA",".0126000","109.3249000"
"30110089","SMAN 4 KETAPANG","JL. SYARIF HASAN","Prop. Kalimantan Barat","SMA","-1.8958000","110.0063000"
"30102525","SMAS BORNEO SEPAUK","DESA MANIS RAYA SKPH SP I SEPAUK","Prop. Kalimantan Barat","SMA","-.0190000","111.1707000"
"30101107","SMAN 1 SUNGAI KAKAP","JL. RAYA SUNGAI KAKAP","Prop. Kalimantan Barat","SMA","-.0565000","109.2021000"
"30106120","SMAN 1 BELITANG","JL. HM. SALEH ALI, BELITANG II","Prop. Kalimantan Barat","SMA",".1346000","111.2355000"
"30109941","SMA JOSEPH KHATULISTIWA","JL. SINTANG-PONTIANAK KM 12","Prop. Kalimantan Barat","SMA",".0099000","111.4994000"
"30104495","SMAS PGRI 1 MENYUKE","Jalan Raya Simpang Tiga","Prop. Kalimantan Barat","SMA",".6282000","109.7222000"
"30104439","SMAS DAYA PELITA MENJALIN","JL. RAYA MENJALIN","Prop. Kalimantan Barat","SMA",".5868000","109.3373000"
"30102951","SMAN 1 KALIS","JL. SEJAHTERA NO. 18 NANGA KALIS","Prop. Kalimantan Barat","SMA",".6945000","112.9134000"
"30101952","SMAS PGRI 02 KEMBAYAN","JL. Raya Kembayan No.26","Prop. Kalimantan Barat","SMA",".5557000","110.4041000"
"30104087","SMAS HARAPAN BANGSA SAMALANTAN","JL. RAYA SAMALANTAN","Prop. Kalimantan Barat","SMA","1.1481000","109.7019000"
"30106485","SMAS PERMATA KASIH NANGA PINOH","JL. MARHABAN 1","Prop. Kalimantan Barat","SMA","-.3386000","111.7487000"
"30101121","SMAN 1 KUBU","JL. SUPARTO 2","Prop. Kalimantan Barat","SMA","-.4880000","109.3814000"
"30107729","SMAN 1 SEKADAU HULU","JL.RAYA RAWAK -TAMAN","Prop. Kalimantan Barat","SMA","-.1552000","110.8641000"
"30102908","SMAS MUHAMMADIYAH PUTUSSIBAU","JL. ABDURRAHMAN 09 PUTUSSIBAU","Prop. Kalimantan Barat","SMA","1.3542000","113.0967000"
"30110072","SMAS BINA MANDIRI","DUSUN PENDAMAR","Prop. Kalimantan Barat","SMA","-.2886000","109.3273000"
"30108272","SMAN 1 SUNGAI BETUNG","JL. RAYA SUNGAI BETUNG","Prop. Kalimantan Barat","SMA",".8123850","109.3941750"
"30103475","SMA NEGERI 1 SUKADANA","JL. MODEL NO.11","Prop. Kalimantan Barat","SMA","-1.2331000","109.9542000"
"69774933","SMAN 2 Kubu","Desa Jangkang I","Prop. Kalimantan Barat","SMA","-.4185000","109.5255000"
"30103015","SMAN 1 SILAT HILIR","JL. LINTAS PENAI NO. 1 NANGA SILAT","Prop. Kalimantan Barat","SMA",".2491000","111.8657000"
"30109984","SMA NEGERI 1 PULAU MAYA","Jalan Pendidikan, RT 27","Prop. Kalimantan Barat","SMA","-1.1049000","109.4681000"
"30107320","SMAN 1 AMBALAU","Dusun Sungai Ombak","Prop. Kalimantan Barat","SMA","-.2395000","112.7079000"
"30107672","SMAN 2 SEKAYAM","JL. RAYA LINTAS SEKAYAM","Prop. Kalimantan Barat","SMA",".8084000","110.4145000"
"30104508","SMAN 2 NGABANG","JL. RAYA KM 14 PLASMA NGB","Prop. Kalimantan Barat","SMA",".4015000","109.8567000"
"30107570","SMAS ARASTAMAR AIR UPAS","DESA AIR UPAS","Prop. Kalimantan Barat","SMA","-2.2703000","110.8386000"
"30104476","SMAS PANCA BAHKTI MENJALIN","JL. RAYA MENJALIN","Prop. Kalimantan Barat","SMA",".5815000","109.3669000"
"69774934","SMAN 3 SUNGAI AMBAWANG","Dusun Koasa","Prop. Kalimantan Barat","SMA","-.1313000","109.6528000"
"30101090","SMAN 1 SIANTAN","JL. RAYA SUNGAI NIPAH","Prop. Kalimantan Barat","SMA",".0789000","109.1881000"
"69896723","SMAN 2 TERIAK","Jalan Sepogot, Desa Sekaruh Kecamatan Teriak","Prop. Kalimantan Barat","SMA",".7853000","109.5683000"
"30104496","SMAS RENTAWAN JELIMPO","JL. RAYA JELIMPO","Prop. Kalimantan Barat","SMA",".4248000","110.1719000"
"30103441","SMAN 1 KENDAWANGAN","JL. PANGERAN CAKRA NO 17 KENDAWANGAN","Prop. Kalimantan Barat","SMA","-2.4857000","110.4557000"
"30105085","SMAS KAPUAS PONTIANAK","JL. TABRANI AKHMAD","Prop. Kalimantan Barat","SMA","-.0164000","109.3117000"
"30103477","SMAN 1 MATAN HILIR SELATAN","Jl. Provinsi Ketapang-Kendawangan Km. 34 Desa Pesaguan Kanan","Prop. Kalimantan Barat","SMA","-2.0450000","110.1183000"
"30101075","SMAS INDONESIA MUDA SUNGAI RAYA","JL. ADISUCIPTO 14,5","Prop. Kalimantan Barat","SMA","-.1260000","109.4092000"
"69774931","SMAN 4 SUNGAI RAYA","Jl. Ayani III .Gg Pendidikan Ds Wonodadi","Prop. Kalimantan Barat","SMA","-.1698000","109.3941000"
"30106507","SMAN 1 CAPKALA","JL. RAYA SIMPANG DALAM","Prop. Kalimantan Barat","SMA",".6484000","109.0332000"
"30100360","SMAS PANCA BAKTI SAMBAS","JL. NAGUR PENAKALAN DESA JAGUR","Prop. Kalimantan Barat","SMA","1.3683000","109.3020000"
"30100385","SMAN 1 SEJANGKUNG","JL.PLN DESA PARIT RAJA","Prop. Kalimantan Barat","SMA","1.4399000","109.3162000"
"30104504","SMAN 1 MENYUKE","JL. RAYA DARIT","Prop. Kalimantan Barat","SMA",".6075000","109.7522000"
"30107350","SMAS SANTA URSULA","JL.RAYA TIANG TANJUNG","Prop. Kalimantan Barat","SMA",".5970000","109.4995000"
"69945473","SMAN 2 SEKADAU HULU","Desa Sungai Sambang","Prop. Kalimantan Barat","SMA","-.1605083","111.0368583"
"30107406","SMAN 1 KUALA MANDOR B","JL. TRANS KALIMANTAN","Prop. Kalimantan Barat","SMA","-.0341000","109.4981000"
"69856218","SMA PESONA DANAU LINDUNG","DESA EMPANGAU","Prop. Kalimantan Barat","SMA",".7710040","112.5999790"
"30102516","SMAS PANCA SETYA SINTANG","JL. IMAM BONJOL NO. 59 SINTANG","Prop. Kalimantan Barat","SMA",".0770000","111.4996000"
"30106486","SMAS SINAR KASIH NG PINOH","JL.PATI KRAMA NANGA PINOH","Prop. Kalimantan Barat","SMA","-.3424000","111.7394000"
"30101941","SMAN 1 JANGKANG","JL. MERAKAI-BI .SEBUT","Prop. Kalimantan Barat","SMA",".5071000","110.9296000"
"30103481","SMAN 2 KETAPANG","JL. WOLTER MONGINSIDI NO 9 KETAPANG","Prop. Kalimantan Barat","SMA","-1.8442000","109.9538000"
"69947231","SMA NEGERI 2 PULAU MAYA","Dusun Sukamandi, Kemboja","Prop. Kalimantan Barat","SMA","-1.0993048","109.7001296"
"30105468","SMAN 1 SINGKAWANG","JL. PAHLAWAN GG. TAMA","Prop. Kalimantan Barat","SMA",".9028000","109.0140000"
"30104494","SMAN 2 SENGAH TEMILA","JL.RAYA PAHAUMAN","Prop. Kalimantan Barat","SMA",".4140000","109.7664000"
"30105455","SMAS ADVENT SINGKAWANG","JL. RAYA PAJINTAN NO. 21 SINGKAWANG","Prop. Kalimantan Barat","SMA",".8837000","109.0245000"
"69897044","SMA ISLAM AL HAMIDIYAH","PARIT SERIBUT","Prop. Kalimantan Barat","SMA","-.0545440","109.7156040"
"30102505","SMAN 1 KELAM PERMAI","JL. RAYA JETAK KEC. KLM. PERMAI","Prop. Kalimantan Barat","SMA",".0757000","111.6060000"
"30104452","SMAS HARAPAN PAHAUMAN","JL. RAYA PAHAUMAN","Prop. Kalimantan Barat","SMA",".3162000","109.6656000"
"30102524","SMAS 17 AGUSTUS","JL. AKCAYA II SINTANG","Prop. Kalimantan Barat","SMA",".0634000","111.5516000"
"69888687","SMA AL-BAITUL ATIIQ","JL. RAHADI ISMAIL Desa Padang","Prop. Kalimantan Barat","SMA","-1.7247070","110.3047970"
"30102889","SMAN 1 BUNUT HULU","JL. LINTAS SELATAN NANGA SEMANGUT","Prop. Kalimantan Barat","SMA",".3649000","112.5703000"
"30102993","SMAN 1 PUTUSSIBAU","JL. GAJAH MADA NO. 2 PUTUSSIBAU","Prop. Kalimantan Barat","SMA",".8813000","112.9276000"
"30107297","SMAS SENTOSA PEMANGKAT","JL. GEREJA GG. ABADI","Prop. Kalimantan Barat","SMA","1.1720000","108.9928000"
"30112529","SMA NEGERI 3 SIMPANG HILIR","JL. AMPERA","Prop. Kalimantan Barat","SMA","-1.1490000","109.9561000"
"30102511","SMAN 1 SEI TEBELIAN","JL. STG. - NA. PINOH KM 21","Prop. Kalimantan Barat","SMA","-.0037000","111.4948000"
"30100386","SMAN 1 SELAKAU","JL.PANTAI POLARIA SELAKAU","Prop. Kalimantan Barat","SMA","1.0422000","108.9735000"
"30105066","SMAS MUHAMMADIYAH 1 PONTIANAK","JL. PARIT HAJI HUSEIN II","Prop. Kalimantan Barat","SMA","-.0693000","109.3522000"
"69768270","SMAN 2 SEPAUK","SEPAUK","Prop. Kalimantan Barat","SMA",".2303000","111.3597000"
"30101122","SMAN 1 BATU AMPAR","JL. KOTALAYA","Prop. Kalimantan Barat","SMA","-.4548000","109.7905000"
"30107569","SMAN 1 SANDAI","JL. JENDRAL SUDIRMAN SANDAI","Prop. Kalimantan Barat","SMA","-1.2416000","110.5304000"
"69827637","SMA IT AL-FITYAN","Jl. RAYA KAKAP PAL 7","Prop. Kalimantan Barat","SMA","-.0709380","109.2361740"
"69944596","SMA REMNANT BELIA CERDAS","Jl. Trans Kalimantan Km. 50","Prop. Kalimantan Barat","SMA",".0475681","109.8093745"
"30105140","SMAS SANTUN UNTAN PONTIANAK","JL DAYA NASIONAL (KP. UNTAN)","Prop. Kalimantan Barat","SMA","-.0508000","109.3521000"
"69899652","SMA NEGERI 2 KENDAWANGAN","JL. SEPAK BOLA DESA AIR HITAM HULU","Prop. Kalimantan Barat","SMA","-2.3405000","110.3481000"
"30104497","SMAS RIA SINIR ANIK","JL. RAYA ANIK","Prop. Kalimantan Barat","SMA",".5344000","109.7309000"
"30109723","SMAN 1 BIKA","JL. RAYA BIKA N0. 10 BIKA","Prop. Kalimantan Barat","SMA",".6908000","112.7195000"
"30107410","SMAN 1 TERENTANG","JL. PENDIDIKAN","Prop. Kalimantan Barat","SMA","-.3894000","109.6284000"
"30106127","SMAN 1 NANGA TAMAN","JL. RAYA TAMAN - MAHAP","Prop. Kalimantan Barat","SMA","-.2836000","110.8125000"
"30107421","SMAS PANCASILA SUNGAI KAKAP","JL. RAYA SUI KAKAP","Prop. Kalimantan Barat","SMA","-.0583000","109.2646000"
"69947126","SMAN 2 NANGA TAMAN","Nanga Koman","Prop. Kalimantan Barat","SMA","-.3832091","110.9319320"
"69924861","SMAN 3 BATU AMPAR","JL. Winara II","Prop. Kalimantan Barat","SMA","-.7390000","109.2868000"
"30104085","SMAS ST FRANS ASISI BENGKAYANG","JL. SULENCO NO.31","Prop. Kalimantan Barat","SMA",".8099862","109.4745720"
"30101946","SMAN 2 SANGGAU","JL. SUTAN SYAHRIR","Prop. Kalimantan Barat","SMA",".1265000","110.5954000"
"30107838","SMAS BUDI OETOMO PONTIANAK","JL. PARIT H. HUSIN II","Prop. Kalimantan Barat","SMA","-.0718000","109.3551000"
"30107690","SMAN 4 SINTANG","JL. Laksemana Dipa","Prop. Kalimantan Barat","SMA",".0885000","111.4876000"
"30101944","SMAN 1 SEKAYAM","JL. RAYA ENTIKONG KM. 2","Prop. Kalimantan Barat","SMA",".8431000","110.4190000"
"30105065","SMAS MUHAMMADIYAH 2 PONTIANAK","JL. DR. SUTOMO GG. KARYA I","Prop. Kalimantan Barat","SMA","-.0480000","109.3161000"
"30107715","SMAN 1 TOBA","JL.KALIMANTAN NO.2","Prop. Kalimantan Barat","SMA","-.2326000","110.1027000"
"30103587","SMAS PGRI KETAPANG","JL. LETJEND S. PARMAN KETAPANG","Prop. Kalimantan Barat","SMA","-1.7875000","110.0193000"
"30105206","SMAS TUNAS BHAKTI PONTIANAK","JL. TEBU","Prop. Kalimantan Barat","SMA","-.0094000","109.3098000"
"69899042","SMA NEGERI 2 LEDO","Jalan Sejadis, Desa Suka Damai, Kec. Ledo","Prop. Kalimantan Barat","SMA","1.1230000","109.5677000"
"30104083","SMAN 1 BENGKAYANG","JL. SANGGAU LEDO NO. 17","Prop. Kalimantan Barat","SMA",".8332764","109.4869225"
"30100391","SMAN 1 TELUK KERAMAT","JL. AMD SEKURA","Prop. Kalimantan Barat","SMA","1.4651000","109.2200000"
"30102508","SMAN 1 SEPAUK","JL. TANJUNG RIA SEPAUK","Prop. Kalimantan Barat","SMA",".0072000","111.2434000"
"30107389","SMAS BINA MULIA PONTIANAK","Jl. Abdul Rachman Saleh No. A1","Prop. Kalimantan Barat","SMA","-.0571000","109.3553000"
"30106137","SMAS PGRI TAPANG SEMADAK","Jalan Sekadau - Sintang KM.25","Prop. Kalimantan Barat","SMA","-.0037000","111.0894000"
"30107738","SMAN 1 SOMPAK","JL.DESA PAKUMBANG","Prop. Kalimantan Barat","SMA",".5674000","109.4268000"
"30110052","SMA NEGERI 1 PINOH SELATAN","JL. Andalehat","Prop. Kalimantan Barat","SMA","-.7730000","111.3070000"
"69899791","SMAN 1 SUNGAI RAYA","Jalan Baru, RT/RW :002/004, Dusun Cahaya Selatan","Prop. Kalimantan Barat","SMA",".9310000","109.4690000"
"30100383","SMAN 1 PEMANGKAT","JL. PANGSUMA PEMANGKAT","Prop. Kalimantan Barat","SMA","1.1735000","108.9899000"
"30100389","SMAN 1 TEBAS","JL. PEMBANGUNAN TEBAS","Prop. Kalimantan Barat","SMA","1.2242000","109.1387000"
"30102910","SMAN 1 EMBALOH HILIR","JL. PENDIDIKAN NANGA EMBALOH","Prop. Kalimantan Barat","SMA","1.0685000","112.8822000"
"30105466","SMAN 3 SINGKAWANG","JL. PAHLAWAN","Prop. Kalimantan Barat","SMA",".9039000","109.0054000"
"30100339","SMAS AMKUR PEMANGKAT","JL.GEREJA PEMANGKAT","Prop. Kalimantan Barat","SMA","1.1761000","108.9768000"
"30105209","SMAS MARANATHA PONTIANAK","JL. GST. SITUT MACHMUD NO. 113","Prop. Kalimantan Barat","SMA","-.0183000","109.3447000"
"30109575","SMA NEGERI 1 SEPONTI","JL. RAHADI OESMAN N0.70","Prop. Kalimantan Barat","SMA","-.8700000","109.8402000"
"30107321","SMAN 1 BINJAI HULU","JL. SINTANG - NA. KETUNGAU BINJAI HULU","Prop. Kalimantan Barat","SMA",".1994000","111.4292000"
"30108274","SMAN 1 LUMAR","Jalan Raya Jelatok","Prop. Kalimantan Barat","SMA",".9415404","109.4621693"
"30102988","SMAN 1 BADAU","JL. DEBU NO. 50 BADAU","Prop. Kalimantan Barat","SMA","1.0451000","111.8924000"
"30107280","SMAN 9 SINGKAWANG","JL. LATSITARDA SINGKAWANG","Prop. Kalimantan Barat","SMA",".8937000","108.9735000"
"30101088","SMAN 1 TOHO","JL. RAYA TOHO","Prop. Kalimantan Barat","SMA",".4156000","109.2184000"
"30101895","SMAN 3 SANGGAU","JL. H. ABAS NO. 41","Prop. Kalimantan Barat","SMA",".1289000","110.5989000"
"30102607","SMAS MUJAHIDIN SINTANG","JL. M. SAAD NO. 68 SINTANG","Prop. Kalimantan Barat","SMA",".0748000","111.4956000"
"30104078","SMAN 1 SELUAS","JL. RAYA SELUAS","Prop. Kalimantan Barat","SMA","1.2693000","109.8441000"
"30112048","SMA NEGERI 2 BUNUT HULU","JL RAYA NANGA  SURUK","Prop. Kalimantan Barat","SMA",".3982000","112.5386000"
"30107642","SMAN 1 TAYAN HULU","JL. RAYA SOSOK-TAYAN","Prop. Kalimantan Barat","SMA",".2493000","110.2105000"
"69831556","SMAN 1 LEMBAH BAWANG","Lembah Bawang","Prop. Kalimantan Barat","SMA",".9124030","109.2320710"
"30104088","SMAS DWI DHARMA SEI DURI","JL. WIRA GUNA","Prop. Kalimantan Barat","SMA",".5647000","108.9297000"
"30105210","SMAN 1 PONTIANAK","JL. JOHAN IDRUS","Prop. Kalimantan Barat","SMA","-.0420000","109.3293000"
"30107862","SMAS BINA SETIA DARIT","JL.RAYA DARIT","Prop. Kalimantan Barat","SMA",".6302000","109.6680000"
"30105069","SMAS PGRI 1 PONTIANAK","Jl. Tanjung Raya 2 Gg. Karya I","Prop. Kalimantan Barat","SMA","-.0381600","109.3563430"
"30109801","SMAN 10 PONTIANAK","JL PURNAMA KP. PURNAMA AGUNG","Prop. Kalimantan Barat","SMA","-.0584000","109.3301000"
"69888670","SMAN 4 TELUK KERAMAT","Jalan Raya Semantir","Prop. Kalimantan Barat","SMA","1.4935000","109.3014000"
"69786432","SMAN 1 SIDING","DUSUN KADOK , DESA SUNGKUNG DUA","Prop. Kalimantan Barat","SMA","1.0488000","110.0044000"
"69896785","SMAN 2 SELUAS","Jalan Malindo, Dusun Malo, Desa Sahan, Kec. Seluas","Prop. Kalimantan Barat","SMA","1.1883990","109.7691250"
"30101109","SMAN 1 RASAU JAYA","JL. PENDIDIKAN NO. 6","Prop. Kalimantan Barat","SMA","-.2625000","109.3667000"
"30107691","SMAN 1 KET HILIR","JL. SINTANG MERAKAI","Prop. Kalimantan Barat","SMA",".3697000","111.6254000"
"69880583","SMA BOYAN PERMAI","JALAN SUNGAI TUI","Prop. Kalimantan Barat","SMA",".5527110","112.5131380"
"30108269","SMAN 1 TERIAK","JL. RAYA PONTIANAK","Prop. Kalimantan Barat","SMA",".7468000","109.5457000"
"30109701","SMAS ABDUSSALAM","JL. PARIT SURABAYA","Prop. Kalimantan Barat","SMA","-.1259000","109.5683000"
"30105205","SMAN 7 PONTIANAK","JL. SULAWESI DALAM NO. 10 PONTIANAK","Prop. Kalimantan Barat","SMA","-.0385000","109.3347000"
"30107324","SMAN 1 TEMPUNAK","jalan Raden Prabu Cakra Negara Rt 1 Rw 1 Dusun Surya","Prop. Kalimantan Barat","SMA",".0236000","111.3871000"
"30107353","SMAN 1 DEDAI","JL. Sepanegara  Nanga  Dedai","Prop. Kalimantan Barat","SMA","-.0118000","111.6792000"
"30112115","SMAN 1 HULU SUNGAI","JL. RAYA DESA MENYUMBUNG","Prop. Kalimantan Barat","SMA","-1.4336000","111.0289000"
"69947562","SMA ANAK NEGERI","Dusun Sanjan Desa Sei. Mawang Kec. Kapuas Kab. Sanggau","Prop. Kalimantan Barat","SMA",".1093024","110.5914566"
"30105212","SMAN 3 PONTIANAK","JL. WR. SUPRATMAN","Prop. Kalimantan Barat","SMA","-.0365000","109.3401000"
"30107395","SMAS WALISONGO PONTIANAK","JL. AMPERA","Prop. Kalimantan Barat","SMA","-.0596000","109.3053000"
"30105071","SMAS RAHADI OESMAN PONTIANAK","JL. ALIANYANG no. 123","Prop. Kalimantan Barat","SMA","-.0336000","109.3201000"
"30108783","SMAN 1 JELIMPO","JL. RAYA  JELIMPO","Prop. Kalimantan Barat","SMA",".3173000","110.0992000"
"30108268","SMAN 2 BENGKAYANG","JL. SANGGAULEDO","Prop. Kalimantan Barat","SMA",".8708597","109.5110744"
"30103479","SMAN 1 MARAU","JL. DAENG UTIH MARAU","Prop. Kalimantan Barat","SMA","-2.1194000","110.7126000"
"30108595","SMAN 2 SUNGAI RAYA","JL RAYA DESA KAPUR","Prop. Kalimantan Barat","SMA","-.0798000","109.3961000"
"69880740","SMAS ARASTAMAR NGABANG","JL. NGEDANG DESA TEBEDAK","Prop. Kalimantan Barat","SMA",".3157990","109.9889980"
"30105068","SMAS PANCA BHAKTI PONTIANAK","SEI JAWI DALAM","Prop. Kalimantan Barat","SMA","-.0674000","109.3216000"
"30110152","SMAN 2 GALING","JL. Tanjung Pura","Prop. Kalimantan Barat","SMA","1.5612000","109.4185000"
"30100387","SMAN 1 SEMPARUK","JL.H. TAURAN A MAJID","Prop. Kalimantan Barat","SMA","1.1878000","109.0883000"
"30107633","SMAN 1 BEDUAI","JL. RAYA BEDUAI","Prop. Kalimantan Barat","SMA",".7262000","110.3922000"
"30108665","SMAN 1 BATANG LUPAR","JL. LINTAS NANGA BUNUT LANJAK","Prop. Kalimantan Barat","SMA","1.0317000","112.2438000"
"30104898","SMAN 1 NANGA PINOH","JL. JUANG NANGA PINOH","Prop. Kalimantan Barat","SMA","-.3373000","111.7432000"
"30105214","SMAN 5 PONTIANAK","JL. KHATULISTIWA","Prop. Kalimantan Barat","SMA",".0022000","109.3246000"
"30104901","SMAS PGRI ELLA HILIR","JL. ELLA PINOH KM 1 ELLA HILIR","Prop. Kalimantan Barat","SMA","-.4046000","112.0056000"
"30107628","SMAS WIDYA BHAKTI JANGKANG","DUSUN TUNGGAL BHAKTI","Prop. Kalimantan Barat","SMA",".4317000","110.9041000"
"30102992","SMAN 2 PUTUSSIBAU","JL. LINTAS SELATAN GG. TANI KEDAMIN HILIR","Prop. Kalimantan Barat","SMA",".8444000","112.9193000"
"30101108","SMAN 1 SUNGAI AMBAWANG","JL. MANUNGGAL XVIII","Prop. Kalimantan Barat","SMA","-.0304000","109.3923000"
"30104457","SMAS MANIAMAS NGABANG","JL.PEMUDA G. KARYA NGABANG","Prop. Kalimantan Barat","SMA",".3871000","109.9538000"
"69948864","SMA NEGERI 2 SELAKAU","Jalan Raya Semelagi Besar, Kecamatan Selakau, Kabupaten Sambas","Prop. Kalimantan Barat","SMA","1.0365471","109.0000780"
"30102517","SMAS NUSANTARA INDAH SINTANG","JL. MT. HARYONO SINTANG","Prop. Kalimantan Barat","SMA",".0466000","111.4927000"
"30104905","SMAS MUHAMMADIYAH NANGA PINOH","JL. KOTA BARU KM. 2 NANGGA PINOH","Prop. Kalimantan Barat","SMA","-.3425000","111.7455000"
"30101968","SMAS DON BOSCO SANGGAU","JL. JENDR. SUDIRMAN","Prop. Kalimantan Barat","SMA",".1247000","110.5795000"
"30107323","SMAN 1 KAYAN HULU","Jl. Nanga Mau - Nanga Tebidah","Prop. Kalimantan Barat","SMA","-.1439000","112.0835000"
"30104438","SMAS BORNEO MANDIRI KARANGAN","Jl Raya Karangan - Bakung No.18","Prop. Kalimantan Barat","SMA",".6250000","109.4035000"
"69955255","SMA NEGERI 3 KETUNGAU TENGAH","DESA PANGGI AGUNG","Prop. Kalimantan Barat","SMA",".6244600","111.3561960"
"30105213","SMAN 4 PONTIANAK","JL. DR. WAHIDIN SUDIROHUSODO","Prop. Kalimantan Barat","SMA","-.0331000","109.3058000"
"30112528","SMA NEGERI 2 SEPONTI","JL. PERJUANGAN I","Prop. Kalimantan Barat","SMA","-.8471000","110.0607000"
"30107276","SMAN 5 SINGKAWANG","JL. RATU SEPUDAK","Prop. Kalimantan Barat","SMA",".9646000","108.9828000"
"30102990","SMAN 1 JONGKONG","JL. PADAT KARYA JONGKONG KIRI HILIR","Prop. Kalimantan Barat","SMA",".4035000","112.1770000"
"69942663","SMA GRACIA INDAH","Jln.Sintang-Pontianak KM5","Prop. Kalimantan Barat","SMA",".0262271","111.5411449"
"30100392","SMAN 2 SAMBAS","DESA SEI RAMBI","Prop. Kalimantan Barat","SMA","1.3207000","109.2756000"
"30107428","SMAN 1 MATAN HILIR UTARA","JL. KETAPANG SUKADANA KM 51","Prop. Kalimantan Barat","SMA","-1.4662000","110.1278000"
"30102995","SMAN 1 SELIMBAU","JLN. MUNGGUK BATU DS. GUDANG HULU KEC. SELIMBAU","Prop. Kalimantan Barat","SMA",".5454000","112.1721000"
"30100377","SMAN 2 TEBAS","JL.RAYA SEI KELAMBU","Prop. Kalimantan Barat","SMA","1.1720000","109.1249000"
"30105203","SMAN 9 PONTIANAK","JL. TANJUNG RAYA 2","Prop. Kalimantan Barat","SMA","-.0497000","109.3718000"
"69934033","SMA MIFTAHUL ULUM","Jl. Trans Kalimantan Parit Masigi","Prop. Kalimantan Barat","SMA","-.1179590","109.6957775"
"30104455","SMAS MAKEDONIA NGABANG","Jalan MIKA Plasma V Km. 14 Ngabang","Prop. Kalimantan Barat","SMA",".4153000","109.9096000"
"30109708","SMAN 3 BENGKAYANG","JL.Bambang Ismoyo","Prop. Kalimantan Barat","SMA",".8232897","109.4737300"
"69952470","SMA Negeri 1 Tanah Pinoh Barat","Jl. Ulak Muid - Kota Baru Km 1","Prop. Kalimantan Barat","SMA","-.6951538","111.4075833"
"30107636","SMAN 1 BONTI","JL. RAYA BONTI","Prop. Kalimantan Barat","SMA",".4144000","110.5415000"
"30106484","SMAN 1 MENUKUNG","JL. PEDIDIKAN NO. 66","Prop. Kalimantan Barat","SMA","-.4190000","112.2325000"
"30103588","SMAS PGRI TUMBANG TITI","JL. DERMALA MERIAL NO. 12 TUMBANG TITI","Prop. Kalimantan Barat","SMA","-1.7970000","110.6456000"
"30101970","SMAS KARYA KASIH PARINDU","JL. MERDEKA","Prop. Kalimantan Barat","SMA",".8165000","110.2605000"
"69877295","SMA ISLAM AL ISHAQI","Parit Hidup Baru","Prop. Kalimantan Barat","SMA",".0556930","109.6430380"
"30107674","SMAS KRISTEN SETIA PUTUSSIBAU","JL. P. TENDEAN KOMP. KODIM PUTUSSIBAU","Prop. Kalimantan Barat","SMA",".8858000","112.9248000"
"30101945","SMAN 1 TAYAN HILIR","JL. G. HUJAN MAS","Prop. Kalimantan Barat","SMA","-.0232000","110.1023000"
"69952468","SMA Negeri 2 Belimbing","Desa Belonsat","Prop. Kalimantan Barat","SMA","-.4238373","111.5340960"
"30105215","SMAN 6 PONTIANAK","JL. Tani, Tanjung Raya II","Prop. Kalimantan Barat","SMA","-.0393000","109.3658000"
"30100379","SMAN 1 GALING","JL.RAYA GALING","Prop. Kalimantan Barat","SMA","1.5037000","109.3562000"
"30108360","SMAN 2 SUBAH","JL. RAYA SATAI","Prop. Kalimantan Barat","SMA","1.2410000","109.4090000"
"30104499","SMAS YARA AIRO","JL. RAYA KASTURI-MANDOR KM 87","Prop. Kalimantan Barat","SMA",".3282000","109.4142000"
"69900852","SMA NEGERI 2 KUALA BEHE","Jalan Raya Belimbing","Prop. Kalimantan Barat","SMA",".5974007","109.9982015"
"69870887","SMAS PELITA RAYA","Jl. Raya Kumpai","Prop. Kalimantan Barat","SMA","-.2717960","109.5034240"
"30101071","SMAS BINA BANGSA SUNGAI RAYA","Jln. KH Abdurrahman Wahid Desa Sungai Asam","Prop. Kalimantan Barat","SMA","-.3086000","109.5749000"
"30105064","SMAS KRISTEN IMMANUEL","JL. LETJEN SUTOYO DALAM","Prop. Kalimantan Barat","SMA","-.0505000","109.3408000"
"30105063","SMAS KOPERASI PONTIANAK","JL. KOMODOR YOS SUDARSO","Prop. Kalimantan Barat","SMA","-.0074000","109.3056000"
"69774932","SMAN 3 Sui Kakap","Jl. Bujama Parit Keraka Pal IX Kec. Sungai Kakap","Prop. Kalimantan Barat","SMA","-.1181000","109.2084000"
"30107278","SMAN 7 SINGKAWANG","JL. RAYA BAGAK SAHWA","Prop. Kalimantan Barat","SMA",".8661000","109.0962000"
"69929465","SMA SUNGAI KEHIDUPAN","Jln RAYA KOTA BARU KM.17 Desa Manggala","Prop. Kalimantan Barat","SMA","-.5244378","111.8343733"
"30104079","SMAN 1 SANGGAU LEDO","JL. SUMONDO","Prop. Kalimantan Barat","SMA","1.1481000","109.7018000"
"69921972","SMAN 2 SUNGAI BEMBAN","JL. Setia Harapan","Prop. Kalimantan Barat","SMA","-.4181795","109.3777059"
"30107260","SMAS MIFTAHUL HUDA SUI RAYA","JL. RAYA KUMPAI","Prop. Kalimantan Barat","SMA","-.2419000","109.5266000"
"69824845","SMAN 1 Belimbing Hulu","Beloyang","Prop. Kalimantan Barat","SMA","-.3279170","111.5841140"
"30100381","SMAN 1 JAWAI SELATAN","Jalan Nunuk","Prop. Kalimantan Barat","SMA","1.2365000","109.0222000"
"30105462","SMAS SANTO IGNASIUS SINGKAWANG","JL. S.M. TSJAFIOEDDIN SINGKAWANG","Prop. Kalimantan Barat","SMA",".9066000","108.9842000"
"69899615","SMA NEGERI 1 PINOH UTARA","DESA TEKELAK","Prop. Kalimantan Barat","SMA","-.2683638","111.9425950"
"30104501","SMAN 1 MANDOR","JL. RAYA MANDOR","Prop. Kalimantan Barat","SMA",".3221000","109.3313000"
"69899134","SMA SWASTA NUSA HARAPAN","JL. Pancasila","Prop. Kalimantan Barat","SMA","-.0465551","109.2056877"
"30107918","SMAS PELANGI NUSANTARA PUNGGUR","Jalan Syuhada No. 02 Punggur Sui. kakap KKR","Prop. Kalimantan Barat","SMA","-.1269000","109.2476000"
"30105192","SMAS SULTAN SYARIF ABDURRAHMAN","JL. JEND. A. YANI","Prop. Kalimantan Barat","SMA","-.0379000","109.3345000"
"30107426","SMAN 1 SUNGAI LAUR","JL. TRANS KALIMANTAN","Prop. Kalimantan Barat","SMA","-.9739000","110.5170000"
"30107348","SMAN 1 SEBANGKI","JL. RAYA SEBANGKI","Prop. Kalimantan Barat","SMA",".1796000","109.7192000"
"30106578","SMAN 1 NANGA MAHAP","JL. BATU BERTULIS, NANGA MAHAP","Prop. Kalimantan Barat","SMA","-.4243000","110.7631000"
"30101066","SMAS AMKUR SUNGAI PINYUH","JL. SELIUNG","Prop. Kalimantan Barat","SMA",".2773000","109.0850000"
"30110053","SMAN 1 MERANTI","Desa/Kel MERANTI","Prop. Kalimantan Barat","SMA",".7636000","109.7824000"
"69895695","SMA ISLAM TERPADU","Jl. Rahadi Usman Km 15","Prop. Kalimantan Barat","SMA","-2.0537350","110.2821460"
"30103476","SMA NEGERI 1 SIMPANG HILIR","JL. PRAMUKA","Prop. Kalimantan Barat","SMA","-1.0971000","109.9587000"
"30104450","SMAS DAYA PELITA SIDAS","JL. RAYA SIDAS","Prop. Kalimantan Barat","SMA",".3831000","109.7950000"
"30107425","SMAN 1 MANIS MATA","JL. RATU ELOK MANIS MATA","Prop. Kalimantan Barat","SMA","-2.4631000","111.0314000"
"30101070","SMAS HIDAYATUL MUBTADIIN","JL. RAYA KUALA DUA","Prop. Kalimantan Barat","SMA","-.2703000","109.5560000"
"30104902","SMAS PGRI 1 NANGA PINOH","JL. KOTA BARU KM. 1 NANGA PINOH","Prop. Kalimantan Barat","SMA","-.3415000","111.7438000"
"69877618","SMA NEGERI 2 TEMPUNAK","Jln. Poros  SKP.C - SP.1 Desa Mengkurat Baru Kec. Tempunak Kab.Sintang","Prop. Kalimantan Barat","SMA","-.0967000","111.2763000"
"30107411","SMAS TAKHASUS AL-FALAH MEMPAWAH","JL.RADEN KUSNO","Prop. Kalimantan Barat","SMA",".3652000","108.9530000"
"30109672","SMAN 2 SELIMBAU","Jl. Raya Desa Piasak","Prop. Kalimantan Barat","SMA",".6773000","112.1793000"
"30102996","SMAN 1 SEMITAU","JL. PENDIDIKAN NO. 2 SEMITAU","Prop. Kalimantan Barat","SMA",".5508000","111.9677000"
"30104502","SMAN 1 MEMPAWAH HULU","Jalan Raya Karangan No.15","Prop. Kalimantan Barat","SMA",".5383000","109.5076000"
"30109719","SMAS TAMAN MULIA","DESA KUALA DUA","Prop. Kalimantan Barat","SMA","-.1250000","109.4004000"
"30107803","SMAN 1 ANJONGAN","JL.RAYA ANJONGAN KM.62","Prop. Kalimantan Barat","SMA",".3393000","109.1506000"
"69955200","SMA NEGERI 2 RASAU JAYA","JL. Pendidikan 1","Prop. Kalimantan Barat","SMA","-.2568370","109.3675390"
"30112510","SMAN 2 KUALA MANDOR B","JL. PARIT SRIWIJAYA","Prop. Kalimantan Barat","SMA",".1136000","109.5440000"
"30101086","SMAS KEMALA BHAYANGKARI","JL. ADISUCIPTO","Prop. Kalimantan Barat","SMA","-.0678000","109.3722000"
"30104907","SMAS KRISTEN EKKLESIA NANGA PINOH","JL. Markhasan Dusun Serundung Permai","Prop. Kalimantan Barat","SMA","-.3413000","111.7374000"
"30105077","SMAS ABDI AGAPE PONTIANAK","Jl. Selat Sumba III Siantan","Prop. Kalimantan Barat","SMA","-.0130000","109.3470000"
"30101067","SMAS ADISUCIPTO SUNGAI RAYA","JL. ADISUCIPTO","Prop. Kalimantan Barat","SMA","-.1046000","109.3966000"
"30104086","SMAS SHALOM BENGKAYANG","JL. GEREJA PROTESTAN NO. 71","Prop. Kalimantan Barat","SMA",".8174162","109.4800185"
"30107279","SMAN 8 SINGKAWANG","JL.RAYA PANGMILANG","Prop. Kalimantan Barat","SMA",".8106000","109.0082000"
"69831558","SMAN 1 TUJUH BELAS","SInar Tebudak","Prop. Kalimantan Barat","SMA","1.0450520","109.7366560"
"69949408","SMA NEGERI 2 PEMANGKAT","DESA PENJAJAP, KECAMATAN PEMANGKAT, KABUPATEN SAMBAS","Prop. Kalimantan Barat","SMA","1.1455915","108.9483519"
"30103473","SMAN 1 TUMBANG TITI","JL. TANTEMAK TUMBANG TITI","Prop. Kalimantan Barat","SMA","-1.8137000","110.6419000"
"30101083","SMAS MUHAMMADIYAH BAKAU KECIL","JL. RAYA BAKAU KECIL","Prop. Kalimantan Barat","SMA",".3105000","109.0086000"
"69947339","SMAN 2 NANGA MAHAP","Lembah Beringin","Prop. Kalimantan Barat","SMA","-.5266799","110.8227229"
"30104897","SMAN 1 TANAH PINOH","JL. P. AGUNG KERTASARI","Prop. Kalimantan Barat","SMA","-.7904000","111.5442000"
"30112104","SMAN 3 SEKADAU HILIR","JL. RAYA SEKADAU - SINTANG KM. 18","Prop. Kalimantan Barat","SMA","-.3761000","110.7406000"
"69924903","SMA NEGERI 3 TEMPUNAK","Jalan Lintas Saran, Desa Kupan Jaya,  Kecamatan Tempunak","Prop. Kalimantan Barat","SMA","-.3493000","111.3875000"
"30107281","SMAN 10 SINGKAWANG","Jl. Yos Sudarso Gg. Mathan Sibu","Prop. Kalimantan Barat","SMA",".9175000","108.9720000"
"30104081","SMAN 1 LEDO","JL. RAYA LEDO","Prop. Kalimantan Barat","SMA","1.0244000","109.6004000"
"30105204","SMAN 8 PONTIANAK","JL. AMPERA","Prop. Kalimantan Barat","SMA","-.0513000","109.2983000"
"30106118","SMAS KARYA SEKADAU","JL. RAWAK NO. 124/B","Prop. Kalimantan Barat","SMA","-.0636000","111.0655000"
"30108801","SMAN 2 SEKADAU","JL. SEBERANG KAPUAS, SEKADAU HILIR","Prop. Kalimantan Barat","SMA",".1776000","110.9760000"
"30104503","SMAN 1 MENJALIN","JL. RAYA MENJALIN","Prop. Kalimantan Barat","SMA",".5716000","109.3289000"
"30107259","SMAS HIDAYATUL MUHSININ","JL. PERDAMAIAN UJUNG","Prop. Kalimantan Barat","SMA","-.0766000","109.3053000"
"30104498","SMAS SANTO THOMAS NGABANG","JL. RAYA NGABANG","Prop. Kalimantan Barat","SMA",".3838000","109.9728000"
"30112512","SMAN 2 BATU AMPAR","JL.Karya Bhakti","Prop. Kalimantan Barat","SMA","-.5770000","109.6015000"
"69947899","SMAN 2 BELITANG HULU","Dusun Terduk Dampak","Prop. Kalimantan Barat","SMA",".5993000","111.1618000"
"69831557","SMAN 1 MONTERADO","Monterado","Prop. Kalimantan Barat","SMA",".8460000","109.1192000"
"69883261","SMA ISLAM UMMU QURO","Sungai Purun Kecil","Prop. Kalimantan Barat","SMA",".2766590","109.1563690"
"30104089","SMAS BORNEO BENGKAYANG","JL. PANGLIMA LIBAO","Prop. Kalimantan Barat","SMA",".8263051","109.4855673"
"30107392","SMAS NAHDLATUS SYUBBAN","JL. APEL GG. APEL VII","Prop. Kalimantan Barat","SMA","-.0143000","109.3196000"
"30102906","SMAS KARYA BUDI PUTUSSIBAU","JL. A. YANI NO. 35 PUTUSSIBAU","Prop. Kalimantan Barat","SMA",".8610000","112.9244000"
"30101106","SMAN 1 SUNGAI KUNYIT","JL. RAYA SUNGAI KUNYIT","Prop. Kalimantan Barat","SMA",".4879000","108.9151000"
"30105467","SMAN 2 SINGKAWANG","JL. CIMANDIRI NO. 43","Prop. Kalimantan Barat","SMA",".9038000","108.9734000"
"30106483","SMAN 1 BELIMBING","JL.PROPINSI NO.51 PEMUAR","Prop. Kalimantan Barat","SMA","-.3048000","111.6401000"
"30102991","SMAN 1 HULU GURUNG","JL. LINTAS SELATAN NANGA TEPUAI","Prop. Kalimantan Barat","SMA",".3734000","112.2918000"
"69945961","SMA ENGLISH LEARNING AREA (ELA)","Parit Pak Sela","Prop. Kalimantan Barat","SMA",".0508137","109.4702063"
"30103592","SMAS ANTHIOKIA KETAPANG","JL. PENAMBAHAN BANDALA KETAPANG","Prop. Kalimantan Barat","SMA","-1.8313000","109.9730000"
"30102994","SMAN 1 SEBERUANG","JL. CHRISTIANUS PALIL NO. 144 TAJAU MADA","Prop. Kalimantan Barat","SMA",".4688000","112.0004000"
"30109805","SMAN 3 TELUK KERAMAT","JL. Raya Sungai Baru","Prop. Kalimantan Barat","SMA","1.3450000","109.1726000"
"30100378","SMAS ST BONA VENTURA","JL.GUSTI HAMZAH SAMBAS","Prop. Kalimantan Barat","SMA","1.3627000","109.2993000"
"30105208","SMAS YPK PONTIANAK","JL. P TENDEAN","Prop. Kalimantan Barat","SMA","-.0096000","109.3095000"
"30107765","SMAN 3 MANDOR","JL.RAYA SEBADU","Prop. Kalimantan Barat","SMA",".3864000","109.4752000"
"30104506","SMAN 1 SENGAH TEMILA","JL. RAYA SENAKIN","Prop. Kalimantan Barat","SMA",".4117000","109.6342000"
"69903526","SMA WIDYA PRATAMA","JL. ADISUCIPTO Km.9,4","Prop. Kalimantan Barat","SMA","-.2088365","109.4896801"
"69786433","SMAN 2 SAMALANTAN","JALAN RAYA BENGKAYANG","Prop. Kalimantan Barat","SMA",".8010000","109.2978000"
"30105072","SMAS ST FRANSISKUS ASISI","JL. SELAT SUMBA 3","Prop. Kalimantan Barat","SMA","-.0168000","109.3459000"
"30102989","SMAN 1 BUNUT HILIR","JL. BERINGIN JAYA","Prop. Kalimantan Barat","SMA",".6255000","112.5821000"
"30105067","SMAS MUJAHIDIN PONTIANAK","JL. JEND. A. YANI KOMP MASJID RAYA MUJAHIDIN","Prop. Kalimantan Barat","SMA","-.0434000","109.3377000"
"30102916","SMAN 1 BOYAN TANJUNG","JL. PENDIDIKAN NO. 04","Prop. Kalimantan Barat","SMA",".6085000","112.4596000"
"69861086","SMA NURUSSHIBYAN","Jln. Santri","Prop. Kalimantan Barat","SMA",".9198570","108.9902940"
"30104080","SMAN 1 SAMALANTAN","JL. RAYA SAMALANTAN","Prop. Kalimantan Barat","SMA",".8137000","109.1915000"
"69956504","SMA NEGERI 2 KETUNGAU TENGAH","NANGA SERAN","Prop. Kalimantan Barat","SMA",".0000000",".0000000"
"30105075","SMAS GEMBALA BAIK PONTIANAK","JL. JEND. A. YANI","Prop. Kalimantan Barat","SMA","-.0685000","109.3591000"
"30101936","SMAS PGRI 3 TAYAN HULU","JL. RAYA SOSOK NO. 45","Prop. Kalimantan Barat","SMA",".2779000","110.3019000"
"30101069","SMAS MUHAMMADIYAH AIR PUTIH","JL. SUDIRMAN","Prop. Kalimantan Barat","SMA","-.4459000","109.3525000"
"30104458","SMAS NGARIMANAN SOMPAK","JL.RAYA SOMPAK","Prop. Kalimantan Barat","SMA",".5569000","109.4855000"
"30102950","SMAN 1 SILAT HULU","JL. MERDEKA 31 NANGA DANGKAN","Prop. Kalimantan Barat","SMA",".2094000","112.0023000"
"30104077","SMAN 1 SUNGAI RAYA KEPULAUAN","JL. RAYA SUNGAI RAYA","Prop. Kalimantan Barat","SMA",".7238000","108.8833000"
"30102914","SMAN 1 MENTEBAH","JL. LINTAS SELATAN MENTEBAH","Prop. Kalimantan Barat","SMA",".5509000","112.8049000"
"69945720","SMA AL FAQIHIL MUQODDAM","Parit Gondang Legi","Prop. Kalimantan Barat","SMA","-.0757658","109.5075311"
"69945702","SMA SWASTA PERINTIS TEBAS","JL. RAYA TEBAS, DESA MEKAR SEKUNTUM","Prop. Kalimantan Barat","SMA","1.1903276","109.1762266"
"69824844","SMA NEGERI 2 NANGA PINOH","Tembawang Panjang","Prop. Kalimantan Barat","SMA","-.3800410","111.7691510"
"30104899","SMAN 1 SOKAN","JL.A. HUSNI HAMZAH SOKAN","Prop. Kalimantan Barat","SMA","-.9563000","111.5856000"
"30103589","SMAS MUHAMMADIYAH KETAPANG","JL. KH. MANSYUR KETAPANG NO. 119","Prop. Kalimantan Barat","SMA","-1.8386000","109.9728000"
"30110029","SMAN 1 SINGKUP","SINGKUP","Prop. Kalimantan Barat","SMA","-2.3488000","110.8138000"
"30104082","SMAN 1 JAGOI BABANG","JL. YAMAKER SEI TAKE","Prop. Kalimantan Barat","SMA","1.3268000","109.8857000"
"69945998","SMAN 4 SENGAH TEMILA","JL. RAYA DUSUN SINGKUT BULUH","Prop. Kalimantan Barat","SMA",".3970774","109.6246255"
"30106133","SMAS PGRI RAWAK","JL. RAYA RAWAK - TAMAN, SKD. HULU","Prop. Kalimantan Barat","SMA","-.1501000","110.8674000"
"30110043","SMAN 1 BANYUKE HULU","Jalan Raya Darit","Prop. Kalimantan Barat","SMA",".6053000","109.5390000"
"69896807","SMA BHAKTI SETIA","DESA KENUAL","Prop. Kalimantan Barat","SMA","-.3852790","111.7556340"
"30109983","SMA NEGERI 2 SUKADANA","JL. SUKADANA-KETAPANG","Prop. Kalimantan Barat","SMA","-1.3084000","110.0421000"
"30101089","SMAN 1 TELUK PAKEDAI","JL. TELADAN","Prop. Kalimantan Barat","SMA","-.2562000","109.1382000"
"30105078","SMAS AL - ISLAH BAITUL MAL","JL. HRA.RAHMAN GG LAWU","Prop. Kalimantan Barat","SMA","-.0203000","109.3124000"
"30105084","SMAS ISLAMIYAH PONTIANAK","JL. IMAM BONJOL NO.88","Prop. Kalimantan Barat","SMA","-.0484000","109.3568000"
"30107804","SMAN 2 PALOH","DESA TEMAJUK KECAMATAN PALOH","Prop. Kalimantan Barat","SMA","2.0077000","109.6099000"
"30105469","SMAS TALENTA SINGKAWANG","JL. NUSANTARA NO.1 SINGKAWANG","Prop. Kalimantan Barat","SMA",".9094000","108.9921000"
"30107349","SMAN 3 SENGAH TEMILA","JL. RAYA SAHAM","Prop. Kalimantan Barat","SMA",".3444000","109.7270000"
"30105073","SMAS KI HAJAR DEWANTARA","JL. APEL","Prop. Kalimantan Barat","SMA","-.0458000","109.3060000"
"30101966","SMAN 1 BALAI","JL.ANGKASA PURI","Prop. Kalimantan Barat","SMA",".1390000","110.0943000"
"30107832","SMAS BHAKTI KARYA","Jl Pematang Kayu Are","Prop. Kalimantan Barat","SMA","-1.8536000","110.0604000"
"30106208","SMAN 1 SEBAWI","JL. RAYA SEBAWI","Prop. Kalimantan Barat","SMA","1.2869000","109.2178000"
"30101943","SMAN 1 SANGGAU","JL. JENDR. SUDIRMAN","Prop. Kalimantan Barat","SMA",".1258000","110.5690000"
"30101967","SMAS WIYATA MANDALA BALAI","JL. RAYA BT. TARANG","Prop. Kalimantan Barat","SMA",".1446000","110.1125000"
"30106125","SMAN 1 BELITANG HULU","JL. RAYA BALAI SEPAUK","Prop. Kalimantan Barat","SMA",".4510000","111.2157000"
"30101938","SMAS PGRI SANGGAU","DR.SETIA BUDI NO.58","Prop. Kalimantan Barat","SMA",".1216000","110.5935000"
"30100380","SMAN 1 JAWAI","JL.PERTANIAN SENTEBANG","Prop. Kalimantan Barat","SMA","1.3182810","109.0538850"
"69947165","SMAN 3 SEKADAU HULU","SMAN 3 SEKADAU HULU","Prop. Kalimantan Barat","SMA","-.1155398","110.8162988"
"30110151","SMAN 3 TEBAS","SEGARAU PARIT","Prop. Kalimantan Barat","SMA","1.2570000","109.0810000"
"30105074","SMA KATOLIK SANTU PETRUS PONTIANAK","Jl. K.S. Tubun No. 3","Prop. Kalimantan Barat","SMA","-.0378000","109.3319000"
"30103615","SMAN 1 SIMPANG HULU","JL. PETEBANG - BALAI BERKUAK","Prop. Kalimantan Barat","SMA","-.5815000","110.2835000"
"30107941","SMAS DARUT TAUHID SUNGAI RAYA","JL. KH ABDURRAHMAN WAHID","Prop. Kalimantan Barat","SMA","-.2145000","109.4672000"
"30109718","SMAN 2 SUNGAI KAKAP","JL. PRIMER 1","Prop. Kalimantan Barat","SMA","-.0017000","109.1999000"
"30106135","SMAS PGRI 6 BELITANG","DS. PADAK, BELITANG","Prop. Kalimantan Barat","SMA",".3019000","111.1829000"
"30100384","SMAN 1 SAMBAS","JL. AHMAD SOOD SAMBAS","Prop. Kalimantan Barat","SMA","1.3690380","109.3096560"
"30102526","SMAS IMMANUEL SINTANG","JL. TELUK MENYURAI","Prop. Kalimantan Barat","SMA",".0841000","111.5131000"
"30104900","SMAS SANTA MARIA","Jl. Pati Kerama","Prop. Kalimantan Barat","SMA","-.3416000","111.7420000"
"30112530","SMA NEGERI 4 SIMPANG HILIR","DESA MATAN JAYA","Prop. Kalimantan Barat","SMA","-1.0996000","110.3216000"
"30108262","SMAN 1 SUNGAI MELAYU RAYAK","JL. RAYA PELANG TUMBANG TITI","Prop. Kalimantan Barat","SMA","-1.7188000","110.4328000"
"30100382","SMAN 1 PALOH","JL. RAYA NIBUNG PALOH","Prop. Kalimantan Barat","SMA","1.7280000","109.3137000"
"30104453","SMAS KADESI TUNANG","Jl. Raya Pontianak - Bengkayang KM.119 Tunang","Prop. Kalimantan Barat","SMA",".6831000","109.4262000"
"30107358","SMAS PANGUDI LUHUR SANTO YOHANES KETAPANG","JL. LETJEND S. PARMAN KETAPANG NO.03","Prop. Kalimantan Barat","SMA","-1.8106000","109.9300000"
"69763253","SMAN 1 SALATIGA","Jalan Tunas Bangsa","Prop. Kalimantan Barat","SMA","1.0924000","109.0733000"
"69822724","SMAS BINA SETIA SEKILAP","SEKILAP-MANDOR","Prop. Kalimantan Barat","SMA",".3759000","109.5124000"
"30101073","SMAN 2 SUI AMBAWANG","JL. TRANS KALIMANTAN","Prop. Kalimantan Barat","SMA","-.0271000","109.6170000"
"69877617","SMA NEGERI 2 DEDAI","SIMPANG MEDANG","Prop. Kalimantan Barat","SMA","-.0528130","111.6931910"
"30105193","SMAS ABDI WACANA PONTIANAK","JL. JEND. A. YANI","Prop. Kalimantan Barat","SMA","-.0429000","109.3399000"
"30104507","SMAN 2 MENYUKE","JL. RAYA ANIK","Prop. Kalimantan Barat","SMA",".5231000","109.7391000"
"30104454","SMAS SANTO BENEDIKTUS PAHAUMAN","JL. RAYA PAHAUMAN","Prop. Kalimantan Barat","SMA",".1920000","109.6415000"
"30105463","SMAS SANTO PAULUS SINGKAWANG","JL. RAYA NYARUMKOP SINGKAWANG","Prop. Kalimantan Barat","SMA",".8730000","109.0695000"
"30102509","SMAN 1 SERAWAI","JL. HARAPAN KM 2","Prop. Kalimantan Barat","SMA","-.3341000","112.4306000"
"30103474","SMA NEGERI 1 TELUK BATANG","JL. RAYA TELUK BATANG","Prop. Kalimantan Barat","SMA","-.9972000","109.7921000"
"30109578","SMA NEGERI 2 SIMPANG HILIR","JL.PROVINSI SUKADANA-TELUK BATANG KM.049","Prop. Kalimantan Barat","SMA","-1.0704000","109.8347000"
"69951983","SMA Islam Al-Baisuny","Jl. Petani No.4","Prop. Kalimantan Barat","SMA","-.0311359","109.3288624"
"30104500","SMAN 1 AIR BESAR","JL. Melanggar-Serimbu","Prop. Kalimantan Barat","SMA",".7485000","110.1164000"
"30101947","SMAN 1 KEMBAYAN","JL. RAYA  KEMBAYAN","Prop. Kalimantan Barat","SMA",".5539000","110.3958000"
"30107427","SMAN 1 JELAI HULU","JL. BUDI UTOMO","Prop. Kalimantan Barat","SMA","-1.7286000","110.9127000"
"69896724","SMAN 3 SAMALANTAN","Jalan Kubu Kelawit - Desa Sabau Kec. Samalantan - Kab. Bengkayang","Prop. Kalimantan Barat","SMA",".7590000","109.2220000"
"69786434","SMAN 1 SUTI SEMARANG","JALAN RAYA SUTI SEMARANG","Prop. Kalimantan Barat","SMA",".8794000","109.8094000"
"30103482","SMAN 3 KETAPANG","JL. GATOT SUBROTO NO. 18 KETAPANG","Prop. Kalimantan Barat","SMA","-1.8287000","109.9675000"
"30105454","SMAS MUHAMMADIYAH SINGKAWANG","JL. RATU SEPUDAK GG.SEPAKAT","Prop. Kalimantan Barat","SMA",".9318000","108.9841000"
"30102913","SMAN 1 PENGKADAN","JL. LINTAS SELATAN KM. 102 SIRAJAYA","Prop. Kalimantan Barat","SMA",".4913000","112.2500000"
"69870688","SMAN 3 KUBU","Jl. Raya Seruat 2","Prop. Kalimantan Barat","SMA","-.4511000","109.2005000"
"30105207","SMAS WISUDA PONTIANAK","JL. PROF. M YAMIN GG. GUNUNG KOTA","Prop. Kalimantan Barat","SMA","-.0381000","109.3407000"
"30112114","SMAS MA ARIF","JL. PULAU SERIBU GG. PONTREN","Prop. Kalimantan Barat","SMA","-1.8538000","109.9615000"
"30101125","SMAS KHATOLIK TALINO","JL. TRANS KALIMANTAN","Prop. Kalimantan Barat","SMA","-.0378000","109.5609000"
"30101120","SMAN 1 MEMPAWAH HILIR","JL. RADEN KUSNO","Prop. Kalimantan Barat","SMA",".3624000","108.9558000"
"30102512","SMAN 2 SINTANG","JL. MT. HARYONO SINTANG","Prop. Kalimantan Barat","SMA",".0680000","111.4776000"
