"schoolId","schoolName","schoolAddress","province","school_level","lat","long"
"30200287","SMAN 1 KAPUAS BARAT","JL. PEMUDA KM. 1 MANDOMAI KEC.KAPUAS BARAT, KAB.KAPUAS.PROV.KALIMANTAN TENGAH","Prop. Kalimantan Tengah","SMA","-2.8382430","114.3928630"
"30203965","SMAS PERSIAPAN MONTALLAT","JL. GUNUNG TIMANG-MONTALLAT","Prop. Kalimantan Tengah","SMA","-1.3696000","114.7702000"
"30204214","SMAN 2 KATINGAN HILIR","JL.TJILIK RIWUT KM.2,5","Prop. Kalimantan Tengah","SMA","-1.8886000","113.3998000"
"69761873","SMAS HARAPAN DUSUN UTARA","DESA MARAWAN LAMA","Prop. Kalimantan Tengah","SMA","-1.5148000","114.7947000"
"30201455","SMAN 1 MENTAYA HULU","JL.YC RANGKAP RT.07 RW 3","Prop. Kalimantan Tengah","SMA","-2.1476000","112.3877000"
"30205406","SMAN 8 PALANGKARAYA","KEL. KAMELOH BARU","Prop. Kalimantan Tengah","SMA","-2.2649000","114.0641000"
"30205232","SMA NEGERI SATU ATAP 1 DUSUN UTARA","JALAN PEMBANGUNAN, DESA TARUSAN","Prop. Kalimantan Tengah","SMA","-1.5019000","114.8757000"
"30208764","SMAN 1 BUKIT RAYA","Jalan Raden Sura Rakit","Prop. Kalimantan Tengah","SMA","-.9401690","112.2522600"
"30204481","SMA NEGERI 2 DANAU SEMBULUH","JL. JARENANG NO.01 TELAGA PULANG","Prop. Kalimantan Tengah","SMA","-2.8650000","112.2700000"
"69896450","SMA NEGERI 2 TEWAH","Rangan Mihing","Prop. Kalimantan Tengah","SMA","-.9526000","113.6306000"
"69899253","SMA NEGERI 1 PAJU EPAT","Jl. Negara Tamiang Layang - Telang KM. 17","Prop. Kalimantan Tengah","SMA","-2.0897094","114.9707593"
"30200285","SMAS MUHAMMADIYAH KUALA KAPUAS","JL. BARITO NO. 11 KUALA KAPUAS","Prop. Kalimantan Tengah","SMA","-3.0094000","114.3950000"
"30203487","SMAS MUHAMMADIYAH 1","JL. RTA. MILONO KM. 1 NO.","Prop. Kalimantan Tengah","SMA","-2.2200000","113.9208000"
"30200286","SMAS ISLAM TERPADU BABUSSALAM","JL. PATIH RUMBIH NO. 22 RT 07/04  K KAPUAS","Prop. Kalimantan Tengah","SMA","-2.9914000","114.3859000"
"30200960","SMAS PGRI TUMPUNG LAUNG","DESA PARING LAHUNG,KEC.MONTALLAT","Prop. Kalimantan Tengah","SMA","-1.1935000","114.8264000"
"30202457","SMAN 1 BENUA LIMA","JL. PADAT KARYA  PASAR PANAS","Prop. Kalimantan Tengah","SMA","-2.1881000","115.2276000"
"30202255","SMA KATOLIK ST. ARNOLDUS JANSSEN KUALA KURUN","JL.DAMANG GAMAN NO.1 KUALA KURUN","Prop. Kalimantan Tengah","SMA","-1.1032000","113.8685000"
"30207361","SMA NEGERI 1 TANAH SIANG SELATAN","Jl.Putir Sikan KM. 4","Prop. Kalimantan Tengah","SMA","-.2485000","114.3832000"
"30203412","SMAS KATOLIK P RAYA","JL. TJILIK RIWUT KM 1 NO","Prop. Kalimantan Tengah","SMA","-1.9764000","113.8307000"
"30201850","SMAN 1 KOTAWARINGIN LAMA","JL. PANGKALAN MUNTAI KM.2","Prop. Kalimantan Tengah","SMA","-2.4757000","111.4275000"
"30200792","SMAN 1 KARAU KUALA","JL. BARITO RAYA","Prop. Kalimantan Tengah","SMA","-2.0418000","114.8960000"
"30203097","SMAS ASSERUYANIYYAH","JL. LETJEND S PARMAN","Prop. Kalimantan Tengah","SMA","-3.3698000","112.5529000"
"30203477","SMAN 3 PALANGKA RAYA","JL. G. OBOS NO","Prop. Kalimantan Tengah","SMA","-2.2158000","113.9162000"
"30203482","SMAS PARINTIS","JL.BENGARIS BUKIT PINANG.","Prop. Kalimantan Tengah","SMA","-2.2414000","113.9694000"
"30201430","SMAS MARANATHA SAMPIT","JL. S.PARMAN NO.27 SAMPIT","Prop. Kalimantan Tengah","SMA","-2.5374000","112.9621000"
"30203101","SMAN 1 SERUYAN TENGAH","JL. Tajudin Kusuma","Prop. Kalimantan Tengah","SMA","-1.9127000","112.1077000"
"30203799","SMAS PGRI -2 SAMPIT","Jl.II. DS.TERANTANG","Prop. Kalimantan Tengah","SMA","-2.4041000","113.0589000"
"30202960","SMA NEGERI 1 BATANG KAWA","JL. MANTIKEI NO. 8","Prop. Kalimantan Tengah","SMA","-1.7535000","111.2226000"
"30205270","SMAN 1 MIRI MANASA","Jl. Sma No. 01","Prop. Kalimantan Tengah","SMA","-.5789000","113.5384000"
"30204462","SMAN 3 DUSUN SELATAN","JL.PAKUSUALAM NO. 58","Prop. Kalimantan Tengah","SMA","-1.7808000","114.8036000"
"69830676","SMA ISLAM UBUDIYAH MANTANGAI","Jl. Muslimin RT. 07 Mantangai Hilir, Kabupaten Kapuas","Prop. Kalimantan Tengah","SMA","-2.5126000","114.4935000"
"30201460","SMAN 2 SAMPIT","JL.GN KERINCI NO.3 SAMPIT","Prop. Kalimantan Tengah","SMA","-2.5237942","112.9464995"
"69760561","SMAS BINA MANDIRI","JL. PADAT KARYA RT 01 RW 01","Prop. Kalimantan Tengah","SMA","-2.5717000","112.4418000"
"30204237","SMA KRISTEN YARA AIRO KASONGAN","JL.SUKARAMAI, BUKIT BATU","Prop. Kalimantan Tengah","SMA","-1.9088000","113.2585000"
"30200793","SMAN 1 DUSUN UTARA","JL. PADAT KARYA","Prop. Kalimantan Tengah","SMA","-1.5019000","114.8757000"
"30205365","SMA NEGERI 2 BULIK","DS. BERUTA KM. 4,5","Prop. Kalimantan Tengah","SMA","-2.0186820","111.4937210"
"30202756","SMAN 1 PULAU MALAN","JL.PADAT KARYA NO.2","Prop. Kalimantan Tengah","SMA","-1.7306000","113.1246000"
"30205272","SMAN 1 DAMANG BATU","TUMBANG MARIKOI","Prop. Kalimantan Tengah","SMA","-.8292770","113.4497300"
"30203253","SMA NEGERI 1 TANAH SIANG","JL.TOMANGGUNG TIONG NO.10 SARIPOI","Prop. Kalimantan Tengah","SMA","-.5436000","114.5057000"
"69759012","SMA NEGERI 1 SUNGAI BABUAT","DESA SUNGAI BABUAT","Prop. Kalimantan Tengah","SMA",".1420000","114.2756000"
"30203843","SMAN 1 DANAU SEMBULUH","JL.DARLAN ATJEH RT 05","Prop. Kalimantan Tengah","SMA","-2.7365000","112.3789000"
"69940471","SMA PGRI MIRAH LESTARI","Desa Mirah Kalanaman","Prop. Kalimantan Tengah","SMA","-1.5257300","113.0002490"
"30202759","SMAS MUHAMMADIYAH KASONGAN","JL.TJILIK RIWUT KM.1","Prop. Kalimantan Tengah","SMA","-1.8968000","113.3873000"
"69949504","SMA NEGERI 1 BATU AMPAR","JL. A.YANI SANDUL","Prop. Kalimantan Tengah","SMA","-2.1832922","112.0723965"
"30205112","SMAN 2 BANAMA TINGANG","JL. LINTAS TRANS KALIMANTAN DS. HANUA RAMANG","Prop. Kalimantan Tengah","SMA","-1.6099000","114.0048000"
"69822734","SMAS PERSIAPAN NEGERI 3 KAHAYAN KUALA","BAHAUR BATU RAYA","Prop. Kalimantan Tengah","SMA","-3.1524000","114.0595000"
"69822725","SMAN 1 LAHEI BARAT","Jln. Padat Karya Benao Hilir","Prop. Kalimantan Tengah","SMA","-.5815000","115.0509000"
"30205116","SMAN 1 JABIREN RAYA","JL. TRANS KALIMANTAN KM.56 JABIREN","Prop. Kalimantan Tengah","SMA","-2.5269000","114.1863000"
"30203610","SMAN 1 BASARANG","BASARANG KM .11 KEC.BASARANG","Prop. Kalimantan Tengah","SMA","-2.9318000","114.2964000"
"30204463","SMAN 3 GUNUNG BINTANG AWAI","JL. PALO REJO","Prop. Kalimantan Tengah","SMA","-1.6343000","115.1520000"
"30201448","SMAN 4 SAMPIT","JL SUDIRMAN KM 5,5 SAMPIT","Prop. Kalimantan Tengah","SMA","-2.5345000","112.8926000"
"30203941","SMA NEGERI 1 MENTHOBI RAYA","KKN UNPAR","Prop. Kalimantan Tengah","SMA","-2.0705630","111.6334530"
"30202089","SMAN 1 KAHAYAN HILIR","JL. TAJAHAN ANTANG NO. 09 PULANG PISAU","Prop. Kalimantan Tengah","SMA","-2.5387000","114.2023000"
"30202454","SMAN 1 PEMATANG KARAU","JL. NEGARA -AMPAH BUNTOK KM. 16 BAMBULUNG","Prop. Kalimantan Tengah","SMA","-1.8099000","115.0273000"
"30204162","SMAN 1 TASIK PAYAWAN","JL.MUHAMMAD DAMPE NO.203","Prop. Kalimantan Tengah","SMA","-2.0708000","113.4572000"
"30203238","SMA NEGERI 1 MURUNG","JL. VETERAN NO. 25 PURUK  CAHU","Prop. Kalimantan Tengah","SMA","-.6185000","114.5666000"
"69952981","SMA PGRI PULAU HANAUT","Jl. Bapinang Pegatan Sungai Rungan","Prop. Kalimantan Tengah","SMA","-2.8423227","113.0166747"
"30203896","SMAN 1 KAHAYAN TENGAH","JL. KARYA PUTRA JANGGA DESA BAHU PALAWA","Prop. Kalimantan Tengah","SMA","-2.4096000","113.8654000"
"30201846","SMAN 3 PANGKALAN BUN","JL. CILIK RIWUT II","Prop. Kalimantan Tengah","SMA","-2.7075000","111.6303000"
"30202452","SMAN 1 PATANGKEP TUTUI","JL. AMD 2 RT 2 BENTOT","Prop. Kalimantan Tengah","SMA","-2.0575000","115.3327000"
"30202750","SMAN 1 TEWANG SANGALANG GARING","JL.PADAT KARYA NO.38","Prop. Kalimantan Tengah","SMA","-1.8111660","113.2651500"
"30203481","SMAS PGRI 1","JL. PUTRI JUNJUNG BUIH III","Prop. Kalimantan Tengah","SMA","-2.2338000","113.9268000"
"69772621","SMAS SATAP 2 Dusun Selatan","PENDA ASAM","Prop. Kalimantan Tengah","SMA","-1.6688000","114.8071000"
"30202727","SMA GARING TARANTANG","Jln. UPM No.100 RT. 11 /  RW. 04","Prop. Kalimantan Tengah","SMA","-1.3277000","113.0911000"
"30203801","SMAN 1 CEMPAGA HULU","JL.CILIK RIWUT KM .129  PUNDU","Prop. Kalimantan Tengah","SMA","-1.9783000","113.0367000"
"30200289","SMAN 1 KAPUAS KUALA","TAMBAN BARU KM 20 KD POS 73583","Prop. Kalimantan Tengah","SMA","-3.2991260","114.3239000"
"30200294","SMAN 1 TIMPAH","JL. LINTAS KALIMANTAN NO.02 KEC.TIMPAH","Prop. Kalimantan Tengah","SMA","-1.6896000","114.5238000"
"30204231","SMAN 2 KATINGAN KUALA","JL.PEMBANGUNAN NOMOR 250B","Prop. Kalimantan Tengah","SMA","-2.8194000","113.3852000"
"69788531","SMA NEGERI 2 SUMBER BARITO","JL. KAYU TANGIS NO.01 TUMBANG MASAO","Prop. Kalimantan Tengah","SMA","-.3930000","114.2069000"
"30203802","SMAN 1 KOTA BESI","JL. TENGKU GEMBO, KOTA BESI","Prop. Kalimantan Tengah","SMA","-2.3971000","112.9953000"
"69830406","SMA MUHAMMADIYAH PURUK CAHU","JL. TEMANGGUNG SILAM NO.15","Prop. Kalimantan Tengah","SMA","-.6049310","114.5644590"
"30203479","SMAN 1 PALANGKA RAYA","JL. A.I.S. NASUTION NO.02","Prop. Kalimantan Tengah","SMA","-2.2102000","113.9285000"
"30204461","SMAN 1 JENAMAS","JL. PELAJAR NO. 66 RANTAU KUJANG","Prop. Kalimantan Tengah","SMA","-2.3891000","114.9249000"
"30203239","SMA NEGERI 1 SUMBER BARITO","JL. MERDEKA NO. 1","Prop. Kalimantan Tengah","SMA","-.1123000","114.2823000"
"69847240","SMA NEGERI 1 UUT MURUNG SATU ATAP","Jl. Pelajar Rt. 03","Prop. Kalimantan Tengah","SMA",".1160000","114.5241000"
"30205237","SMAN 1 KAHAYAN HULU UTARA","JL. HANTIPAN NO. 103 TUMBANG MIRI","Prop. Kalimantan Tengah","SMA","-.9247000","113.5517000"
"30202439","SMAN 1 DUSUN TENGAH","JL. AMPAH - MUARA TEWEH KM. 3,5","Prop. Kalimantan Tengah","SMA","-1.6449000","115.1473000"
"30203613","SMAN 2 KAPUAS MURUNG","JL. TRANS PALINGKAU KEC.KPS MURUNG","Prop. Kalimantan Tengah","SMA","-2.8157000","114.5070000"
"30205495","SMA NEGERI 4 LAUNG TUHUP","JALAN DAMANG DALAM NO. 1 RT. 01","Prop. Kalimantan Tengah","SMA","-.3233000","114.8037000"
"30202453","SMAN 1 AWANG LAPAI","JL. BIWAN-DANAU KM. 01 HAYAPING","Prop. Kalimantan Tengah","SMA","-1.9587000","115.2495000"
"30208913","SMAN 2 KAHAYAN HILIR","JL. Kasturi","Prop. Kalimantan Tengah","SMA","-2.5564000","114.2106000"
"30202744","SMAS KRISTEN KASONGAN","JL.SEMADI NO.1","Prop. Kalimantan Tengah","SMA","-1.9133000","113.3912000"
"30200729","SMAS MUHAMMADIYAH BUNTOK","JL. PELITA  RAYA","Prop. Kalimantan Tengah","SMA","-1.7268000","114.8382000"
"30201848","SMAN 1 PANGKALAN BUN","JL. ALI PANDI SARJAN NO. 44","Prop. Kalimantan Tengah","SMA","-2.6808000","111.6294000"
"30202088","SMAN 1 MALIKU","JL. POROS PANGKOH VI MALIKU","Prop. Kalimantan Tengah","SMA","-2.9345000","114.1422000"
"30202752","SMAN 1 KATINGAN HULU","JL.HASANUDIN NO.25","Prop. Kalimantan Tengah","SMA","-1.2464000","112.3082000"
"30200959","SMAN 1 TEWEH TIMUR","JL BENANGIN","Prop. Kalimantan Tengah","SMA","-.9857000","115.3743000"
"30203100","SMAN 1 SERUYAN HULU","JL.CILIK RIWU T  NO. 5","Prop. Kalimantan Tengah","SMA","-1.3067000","111.9261000"
"30200731","SMAS KRISTEN BUNTOK","JL. CUT NYAK DIEN","Prop. Kalimantan Tengah","SMA","-1.7247000","114.8346000"
"30203968","SMAN 1 LAHEI","Jl. Padat Karya Rt. 07","Prop. Kalimantan Tengah","SMA","-.8611000","114.9286000"
"30200293","SMAN 1 MANTANGAI","MANTANGAI HULU RT IV KEC. MANTANGAI","Prop. Kalimantan Tengah","SMA","-2.6636000","114.4431000"
"30201454","SMAN 1 MENTAYA HILIR SELATAN","JL.PADAT KARYA BASIRIH HILIR SAMUDA","Prop. Kalimantan Tengah","SMA","-2.8841000","112.9579000"
"30202291","SMAN 1 TEWAH","JL. GUNUNG MAS NO. 75 TEWAH","Prop. Kalimantan Tengah","SMA","-1.0608000","113.7242000"
"30203488","SMAN 4 PALANGKA RAYA","JL. SISINGAMANGARAJA III NO.3","Prop. Kalimantan Tengah","SMA","-2.2237490","113.9105320"
"30204465","SMAN 2 KARAU KUALA","JL. BEGAU RAYA NO. 01 BABAI","Prop. Kalimantan Tengah","SMA","-1.9089000","114.8484000"
"69822731","SMAN 2 TANAH SIANG SATU ATAP","JL BELAWAN, RT III. NO 01","Prop. Kalimantan Tengah","SMA","-.5761000","114.4467000"
"30208705","SMA NEGERI 3 LAUNG TUHUP","BATU BUA I","Prop. Kalimantan Tengah","SMA","-.2948000","114.8092000"
"69822727","SMAN 2 BUKIT RAYA","Jl. Timbang Tawo, No.05 desa Tbg Gaei, Kecamatan Bukit Raya, Kabupaten Katingan","Prop. Kalimantan Tengah","SMA","-.9673990","112.2121100"
"30203686","SMAN 2 KUMAI","JL. AHMAD YANI KM. 18","Prop. Kalimantan Tengah","SMA","-2.6149000","111.7423000"
"30200791","SMAN 2 DUSUN SELATAN","JL. KH DEWANTARA BUNTOK","Prop. Kalimantan Tengah","SMA","-1.7244000","114.8359000"
"30202455","SMAN 1 TAMIANG LAYANG","JL. NANSARUNAI  TAMIANG LAYANG","Prop. Kalimantan Tengah","SMA","-2.1081000","115.1739000"
"69954921","SMA  PERSIAPAN NEGERI 5 KAHAYAN KUALA","JALAN HIDAYATULLAH NO.123 DESA CEMANTAN","Prop. Kalimantan Tengah","SMA","-3.4625010","113.7536830"
"69851432","SMAN-4 TANAH SIANG SATU ATAP","TANAH SIANG","Prop. Kalimantan Tengah","SMA","-.5015120","114.5024020"
"30200290","SMAN 1 KAPUAS MURUNG","JL. NUGROHO NOTOSUSANTO NO. 02 KEC. DADAHUP","Prop. Kalimantan Tengah","SMA","-2.6524000","114.5996000"
"69761866","SMAS SATAP 1 DUSUN HILIR","DESA LEHAI","Prop. Kalimantan Tengah","SMA","-2.1680000","114.8673000"
"69800051","SMA PRESIDENT","KOMPLEK CHRISTIAN CENTER, PURUK CAHU","Prop. Kalimantan Tengah","SMA","-.6590538","114.5895138"
"30203754","SMAN 1 JELAI","JL. PATIANOM NO. 33","Prop. Kalimantan Tengah","SMA","-2.9881620","110.7396770"
"30202575","SMAN 1 SUKAMARA","JL. ISKANDAR","Prop. Kalimantan Tengah","SMA","-2.7186267","111.1686950"
"30207362","SMA NEGERI 2 LAUNG TUHUP","MUARA TUHUP","Prop. Kalimantan Tengah","SMA","-.3912000","114.7764000"
"30205332","SMAS ISLAM TERPADU AL-MADANIYAH SAMUDA","Jl. Partoe Muksin","Prop. Kalimantan Tengah","SMA","-2.9302000","112.8452000"
"30202755","SMA NEGERI 1 SANAMAN MANTIKEI","JL. SOEKARNO-HATTA","Prop. Kalimantan Tengah","SMA","-1.3477000","113.0973000"
"30203614","SMAN 2 KUALA KAPUAS","JL. PEMUDA NO. 74","Prop. Kalimantan Tengah","SMA","-2.9904000","114.3971000"
"30202576","SMAN 1 PANTAI LUNCI","JL. PEMBANGUNAN","Prop. Kalimantan Tengah","SMA","-2.9927933","111.1815133"
"30203696","SMAN 1 PANGKALAN BANTENG","JL. PARIWISATA NO. 1","Prop. Kalimantan Tengah","SMA","-2.4798733","111.9007867"
"69758960","SMAS ISLAM ALHASYIMIYYAH","JL. AHMAD YANI KM.2","Prop. Kalimantan Tengah","SMA","-2.4928000","111.7112000"
"69899267","SMA NEGERI 1 KARUSEN JANANG","Jl. Negara Tamiang Layang - Ampah KM. 24","Prop. Kalimantan Tengah","SMA","-1.9849986","115.1107943"
"30203611","SMAN 1 KAPUAS HILIR","JL. KAPUAS SEBERANG II HAMPATUNG NO. 101","Prop. Kalimantan Tengah","SMA","-3.0158000","114.4068000"
"30201462","SMAN 3 SAMPIT","Jl. Gunung Kerinci No. 2 Sampit","Prop. Kalimantan Tengah","SMA","-2.5250362","112.9463154"
"30205238","SMAN 2 KAHAYAN KUALA","Jl. Sei Rungun RT. 1 RW. 1 No. 1 Kec. Kahayan Kuala Kab. Pulang Pisau","Prop. Kalimantan Tengah","SMA","-3.2278000","113.9153000"
"30203967","SMAN 1 GUNUNG TIMANG","JL. PEMUDA RT IV KOMP JAPUS","Prop. Kalimantan Tengah","SMA","-1.2500000","115.1100000"
"69765041","SMA NEGERI 1 BARITO TUHUP RAYA","Makunjung","Prop. Kalimantan Tengah","SMA","-.5315000","114.9385000"
"30207366","SMA NEGERI 1 SERIBU RIAM","DESA MUARA JOLOI","Prop. Kalimantan Tengah","SMA",".1905000","114.3632000"
"30204464","SMA NEGERI 2 GUNUNG BINTANG AWAI","JALAN DESA MUARA SINGAN","Prop. Kalimantan Tengah","SMA","-1.5357000","115.1577000"
"60729185","SMAS DHARMA BAKTI DAMPARAN","Jl. Patianom RT 009 RW 05","Prop. Kalimantan Tengah","SMA","-2.2016000","114.8087000"
"30205115","SMAS PGRI PULANG PISAU","JL. PEMDA NO. 65 PULANG PISAU","Prop. Kalimantan Tengah","SMA","-2.5660000","114.1887000"
"30205496","SMAN 3 MUARA TEWEH","Jl. Nusa Indah No. 07","Prop. Kalimantan Tengah","SMA","-1.0441000","114.8973000"
"30201451","SMAN 1 CEMPAGA","JL.CILIK RIWUT KM 29  SEI. PARING","Prop. Kalimantan Tengah","SMA","-2.3652000","112.9922000"
"30203478","SMAN 2 PALANGKA RAYA","JL. KS.TUBUN NO 2","Prop. Kalimantan Tengah","SMA","-2.2099000","113.9289000"
"30202258","SMAN 1 KURUN","JL. TJILIK RIWUT NO. 104 KUALA KURUN","Prop. Kalimantan Tengah","SMA","-1.1028000","113.8640000"
"30208747","SMAS PGRI MANTANGAI","MANUSUP","Prop. Kalimantan Tengah","SMA","-2.6639000","114.4432000"
"30203483","SMAS PANANTIRING","JL.TJILIK RIWUT KM.34","Prop. Kalimantan Tengah","SMA","-1.9870000","113.7625000"
"69899752","SMAN 1 SATU ATAP LAUNG TUHUP","Jl. Pelajar","Prop. Kalimantan Tengah","SMA","-.2785030","114.6712140"
"30201449","SMAS PGRI-1 SAMPIT","JL. JENDRAL SUDIRMAN  KM.1,5 SAMPIT","Prop. Kalimantan Tengah","SMA","-2.5365000","112.9288000"
"30204160","SMAN 1 MARIKIT","JL.ABDUL RASYID NO.1","Prop. Kalimantan Tengah","SMA","-1.0168000","112.6289000"
"30202965","SMA NEGERI 1 BELANTIKAN RAYA","JL. ZAKARIAS HAMAN DESA BAYAT","Prop. Kalimantan Tengah","SMA","-1.7528000","111.3774000"
"30201852","SMAS PGRI 1 PANGKALAN BUN","JL. KAWITAN I NO.40","Prop. Kalimantan Tengah","SMA","-2.6863000","111.6344000"
"30203480","SMAS PURNAMA","JL. PATIH RUMBIH","Prop. Kalimantan Tengah","SMA","-2.2127000","113.9221000"
"30203403","SMAS GARUDA PALANGKA RAYA","JL.RAJAWALI III","Prop. Kalimantan Tengah","SMA","-2.1897000","113.8852000"
"69881363","SMAN 1 RAREN BATUAH","JL. AMPAH - MUARA TEWEH","Prop. Kalimantan Tengah","SMA","-1.6915140","115.1607120"
"69822729","SMAS PGRI TELAGA","DESA TELAGA","Prop. Kalimantan Tengah","SMA","-2.3981000","113.5578000"
"30202728","SMAN 1 KATINGAN KUALA","JL.PANTAI LAUT NO.42 PEGATAN","Prop. Kalimantan Tengah","SMA","-3.2677000","113.3337000"
"30202961","SMA NEGERI 1 BULIK","JL. Jend. A.Yani No. 001 Nanga Bulik","Prop. Kalimantan Tengah","SMA","-2.1782000","111.4514000"
"30203844","SMAN 2 KUALA PEMBUANG","JL. PUTRI JUNJUNG BUIH","Prop. Kalimantan Tengah","SMA","-3.3405000","112.5987000"
"30203969","SMAN 1 MONTALLAT","JL. TABIB RT 8 TUMPUNG LAUNG II","Prop. Kalimantan Tengah","SMA","-1.3254000","114.8153000"
"30200975","SMAN 4 MUARA TEWEH","JL. A. YANI NO. 84 MUARA TEWEH","Prop. Kalimantan Tengah","SMA","-.9585000","114.8962000"
"30205271","SMAN 1 MANUHING RAYA","JL. PELITA KEL. MANUHING RAYA","Prop. Kalimantan Tengah","SMA","-1.0396000","113.1845000"
"30203098","SMAN 1 HANAU","JL. BAKRI ENTONG","Prop. Kalimantan Tengah","SMA","-2.4913000","112.1189000"
"69900058","SMA PGRI SERUYAN RAYA","JL. ANTANG PATAHU BANGKAL","Prop. Kalimantan Tengah","SMA","-2.4952926","112.3126726"
"30205117","SMAN 1 KAHAYAN KUALA","JL. BAHAUR TENGAH","Prop. Kalimantan Tengah","SMA","-3.2131000","114.1047000"
"30203254","SMA NEGERI 1 LAUNG TUHUP","JL. A. YANI NO.02 MUARA LAUNG","Prop. Kalimantan Tengah","SMA","-.6075000","114.7354000"
"30200288","SMAN 1 KAPUAS HULU","Jln. Pelajar No. 04 RT. 02","Prop. Kalimantan Tengah","SMA","-.5504000","113.9164000"
"69859696","SMA NEGERI 2 KURUN","Jl. Swadaya Desa Tumbang Hakau","Prop. Kalimantan Tengah","SMA","-1.1080600","113.8138800"
"30204386","SMAN 7 PALANGKARAYA","Jl. Lintas Palangka-Talaken KM. 56","Prop. Kalimantan Tengah","SMA","-1.8034000","113.6541000"
"30203706","SMAS PGRI 2","JL.TJILIK RIWUT KM.7","Prop. Kalimantan Tengah","SMA","-2.1710000","113.8684000"
"30202758","SMAS MUHAMMADIYAH KATINGAN TENGAH","JL.MINUN DEHEN NO.04","Prop. Kalimantan Tengah","SMA","-1.4571000","113.0946000"
"30203897","SMAN 2 KAHAYAN TENGAH","JL.LAMIANG DESA BUKIT RAWI","Prop. Kalimantan Tengah","SMA","-2.5450000","113.8530000"
"30202260","SMAN 1 RUNGAN","JL. HENDRIK TIMANG NO. 445 JAKATAN RAYA","Prop. Kalimantan Tengah","SMA","-1.2842000","113.5708000"
"30203803","SMAN 1 MENTAYA HILIR UTARA","JL. H. M. ARSYAD KM.27 BAGENDANG","Prop. Kalimantan Tengah","SMA","-2.7430000","112.8916000"
"30203841","SMA NEGERI 2 SERUYAN TENGAH","JL. TRANSMIGRASI SUKAMANDANG G1","Prop. Kalimantan Tengah","SMA","-2.1666000","112.1669000"
"30203966","SMAN 2 GUNUNG TIMANG","JL. POROS DESA BATU RAYA I","Prop. Kalimantan Tengah","SMA","-1.3630000","114.9365000"
"69847241","SMAN 1 SATAP MURUNG","Jl. Muhammad Seman","Prop. Kalimantan Tengah","SMA","-.6262000","114.5709000"
"69860791","SMA PERSIAPAN NEGERI 4 KAHAYAN KUALA","DESA KIAPAK RT.03 KECAMATAN KAHAYAN KUALA","Prop. Kalimantan Tengah","SMA","-3.3090600","114.1197320"
"30203099","SMAN 1 KUALA PEMBUANG","JL. BUDI UTOMO RT 20","Prop. Kalimantan Tengah","SMA","-3.3857000","112.5387000"
"30200734","SMAS ADVENT T LAYUNG","JL. AMPAH-MUARA TEWEH","Prop. Kalimantan Tengah","SMA","-1.4542000","115.1603000"
"30204817","SMAS DARUL MA RIFAT SAMPIT","JL. CILIK RIWUT KM. 2,2 Sampit No HP 085249234209","Prop. Kalimantan Tengah","SMA","-2.5196183","112.9448400"
"30203693","SMAS PGRI 5 PIRSUS","PIRSUS 2 PANGKALAN BANTENG","Prop. Kalimantan Tengah","SMA","-2.4011383","111.8674183"
"30208765","SMAN 1 PETAK MALAI","Jl. Pendidikan no 1 Tumbang Baraoi","Prop. Kalimantan Tengah","SMA","-.5988000","112.8522000"
"69756256","SMA NEGERI 2 PAJU EPAT","JURU BANU","Prop. Kalimantan Tengah","SMA","-2.0547000","114.9448000"
"30204466","SMAS SATU ATAP DUSUN SELATAN","JL. SEPAKAT","Prop. Kalimantan Tengah","SMA","-1.6873000","114.7886000"
"30203672","SMAS ABDI PANGKALAN BUN","JL. KAWITAN I NO. 34","Prop. Kalimantan Tengah","SMA","-2.6851000","111.6362000"
"30203800","SMAS PGRI TEGUH SEMPURNA","DS.PEMANTANG ESTATE","Prop. Kalimantan Tengah","SMA","-2.1844000","112.4116000"
"30203484","SMAS NUSANTARA","JL. WAHIDIN SUDIROHUSODO NO. 18","Prop. Kalimantan Tengah","SMA","-2.2098000","113.9250000"
"30200727","SMAN 1 G B AWAI","JL. PP DINAN RT IX TABAK KANILAN","Prop. Kalimantan Tengah","SMA","-1.5387000","115.0645000"
"30203501","SMAS KRISTEN P RAYA","JL. DIPONEGORO NO,01","Prop. Kalimantan Tengah","SMA","-2.2139000","113.9211000"
"30203404","SMAS BINA CITA UTAMA","JL.TJILIK RIWUT KOMP.RUNGAN SARI","Prop. Kalimantan Tengah","SMA","-1.9686000","113.7460000"
"30202963","SMA NEGERI 1 LAMANDAU","JL.JENDRAL SUDIRMAN NO.5 TAPIN BINI","Prop. Kalimantan Tengah","SMA","-1.8249000","111.0834000"
"30202751","SMAN 1 KATINGAN TENGAH","JL. SMA No.1","Prop. Kalimantan Tengah","SMA","-1.4615000","113.1014000"
"30201431","SMAS MUHAMMADIYAH SAMPIT","JL.A.YANI NO.44 SAMPIT","Prop. Kalimantan Tengah","SMA","-2.5881000","112.8522000"
"30201458","SMAN 1 PARENGGEAN","JL.RUKMANA PRIYATNA","Prop. Kalimantan Tengah","SMA","-2.0210000","112.7936000"
"30207363","SMA NEGERI 2 MURUNG","JLN. BHAYANGKARA KM 5","Prop. Kalimantan Tengah","SMA","-.6544000","114.5259000"
"30202760","SMAS KRISTEN TUMBANG SAMBA","JL. SMA No.34 SAMBA DANUM, TUMBANG SAMBA","Prop. Kalimantan Tengah","SMA","-1.4577000","113.0944000"
"30202259","SMAN 1 MANUHING","JL. NEGARA NO. 48 TUMBANG TALAKEN","Prop. Kalimantan Tengah","SMA","-1.3636000","113.3781000"
"30205287","SMAS BINA ILMU","JL. PEMUDA","Prop. Kalimantan Tengah","SMA","-2.3416000","114.8792000"
"30203695","SMAN 1 ARUT UTARA","JL. MANJUNG HINGKAT","Prop. Kalimantan Tengah","SMA","-2.1861000","111.9279000"
"30201847","SMAN 2 PANGKALAN BUN","JL. PASANAH NO. 15","Prop. Kalimantan Tengah","SMA","-2.7249000","111.6557000"
"30202964","SMA NEGERI 1 SEMATU JAYA","JL. LINTAS KALIMANTAN","Prop. Kalimantan Tengah","SMA","-2.2254000","111.5152000"
"30205120","SMAN 2 MALIKU","JL. PELAJAR DESA TAHAI JAYA","Prop. Kalimantan Tengah","SMA","-3.0408000","114.2042000"
"30200291","SMAN 1 KAPUAS TENGAH","JL. HARAPAN III PUJON KEC.KAPUAS TENGAH","Prop. Kalimantan Tengah","SMA","-1.3517000","114.3675000"
"69896452","SMA PERSIAPAN NEGERI 1 MIHING RAYA","Tumbang Empas","Prop. Kalimantan Tengah","SMA","-1.3536000","113.9189000"
"30205118","SMAN 1 SEBANGAU KUALA","JL. DIPONEGORO","Prop. Kalimantan Tengah","SMA","-2.9188000","113.8122000"
"30202276","SMAN 1 SEPANG","JL. PEMDA NO. 77 SEPANG SIMIN","Prop. Kalimantan Tengah","SMA","-1.4894000","113.8942000"
"30202753","SMAN 1 KATINGAN HILIR","JL.KASONGAN-TUMBANG LITING NO.6","Prop. Kalimantan Tengah","SMA","-1.9329000","113.3838000"
"30202105","SMAN 1 BANAMA TINGANG","JL. DANDANG TINGANG DESA BAWAN","Prop. Kalimantan Tengah","SMA","-1.6300000","113.9190000"
"69796870","SMAN 9 PALANGKA RAYA","JL. RAKUMPIT RAYA","Prop. Kalimantan Tengah","SMA","-1.6463760","113.6980560"
"30204467","SMA NEGERI  3 DUSUN UTARA","JL. PT SINDO LUMBER","Prop. Kalimantan Tengah","SMA","-1.4687000","114.9334000"
"30205494","SMAN 5 MUARA TEWEH","Jl. Padat Karya","Prop. Kalimantan Tengah","SMA","-.9841000","114.7911000"
"30203401","SMAS KARYA P RAYA","JL.SAKAN NO.","Prop. Kalimantan Tengah","SMA","-2.1952000","113.9070000"
"30203612","SMAN 1 KUALA KAPUAS","JL. LETJEND SOEPRAPTO NO. 66","Prop. Kalimantan Tengah","SMA","-3.0221000","114.3906000"
"69888826","SMAN 10 PALANGKA RAYA","Jl. Petuk Katimpun Km. 10 Cilik riwut","Prop. Kalimantan Tengah","SMA","-2.1496000","113.8537000"
"69757486","SMAN 1 PERMATA KECUBUNG","JL. KYAI MOJO SEMBIKUAN PERMATA KECUBUNG","Prop. Kalimantan Tengah","SMA","-2.1900000","111.1551000"
"30200806","SMAN 1 DUSUN SELATAN","JL. KH. DEWANTARA NO. 54 BUNTOK","Prop. Kalimantan Tengah","SMA","-1.7234000","114.8347000"
"30203939","SMA NEGERI 1 BULIK TIMUR","JL. P3DT","Prop. Kalimantan Tengah","SMA","-1.8489420","111.6136100"
"30203486","SMAS MUHAMMADIYAH 2","jalan demak, no 1","Prop. Kalimantan Tengah","SMA","-2.2803000","114.0149000"
"30205235","SMAN 1 PULAU PETAK","JL.SEWARGA","Prop. Kalimantan Tengah","SMA","-2.8888000","114.4749000"
"30203500","SMAN 6 PALANGKA RAYA","JL. TJILIK RIWUT KM 29,5 NO.","Prop. Kalimantan Tengah","SMA","-2.0153000","113.7638000"
"30202438","SMAN 1 PAKU","JL. AMPAH-TAMIANG LAYANG KM.21","Prop. Kalimantan Tengah","SMA","-1.9394000","115.1146000"
"69772566","SMAN 1 RUNGAN BARAT","JL. TJILIK RIWUT RABAMBANG","Prop. Kalimantan Tengah","SMA","-.9805000","113.4983000"
"30202962","SMA NEGERI 1 DELANG","JL. LINTAS KALIMANTAN NO.4 KUDANGAN","Prop. Kalimantan Tengah","SMA","-1.6964000","111.0625000"
"30200958","SMAN 2 MUARA TEWEH","JL. Negara Muara Teweh - Banjarmasin Km. 7 No. 43","Prop. Kalimantan Tengah","SMA","-.9798000","114.8922000"
"30203252","SMA NEGERI 1 PERMATA INTAN","JL. SUNGAI GULA ,TUMBANG LAHUNG","Prop. Kalimantan Tengah","SMA","-.6921000","114.2971000"
"30200292","SMAN 1 KAPUAS TIMUR","ANJIR SERAPAT KM. 08 KEC KAPUAS TIMUR","Prop. Kalimantan Tengah","SMA","-3.0795000","114.4471000"
"30203685","SMAN 1 PANGKALAN LADA","JL. AHMAD YANI KM. 40","Prop. Kalimantan Tengah","SMA","-2.4770150","111.7681050"
"69822730","SMAN 1 SATAP TANAH SIANG","JL Ibo Tumeheng NO 05 RT. 01","Prop. Kalimantan Tengah","SMA","-.2142000","114.5026000"
"69919139","SMA PERSIAPAN NEGERI 1 PASAK TALAWANG","Desa Jangkang","Prop. Kalimantan Tengah","SMA","-1.0670589","114.1839242"
"69948647","SMAS GOLDEN CHRISTIAN SCHOOL","JL. PANGRANGO No: 30 - 34","Prop. Kalimantan Tengah","SMA","-2.2125360","113.7378025"
"69786235","SMA NEGERI 1 TEWEH BARU","JL.MUARA TEWEH BANJARMASIN KM. 27/34","Prop. Kalimantan Tengah","SMA","-.8415000","114.7894000"
"30203970","SMAN 1 MUARA TEWEH","JL. T. SURAPATI MUARA TEWEH","Prop. Kalimantan Tengah","SMA","-.9595000","114.8986000"
"30204092","SMAN 1 ANTANG KALANG","JL.PASAR DESA,TB KALANG","Prop. Kalimantan Tengah","SMA","-1.4956000","112.6444000"
"30203940","SMA NEGERI 2 LAMANDAU","JL.Lintas Kalimantan No. 102 RT. 03","Prop. Kalimantan Tengah","SMA","-1.7822000","111.0882000"
"30201849","SMAN 1 KUMAI","JL. PADAT KARYA NO. 1","Prop. Kalimantan Tengah","SMA","-2.7495000","111.6980000"
"30203489","SMAN 5 PALANGKA RAYA","JL. TINGANG KM 3.5","Prop. Kalimantan Tengah","SMA","-2.2061000","113.8726000"
"69822733","SMAS PERSIAPAN NEGERI 2 PANDIH BATU","Desa Belanti Siam, Kec. Pandih Batu","Prop. Kalimantan Tengah","SMA","-3.1518000","114.2067000"
"30200295","SMAN 3 KUALA KAPUAS","Jl. Pemuda Km. 5,5 Kuala Kapuas","Prop. Kalimantan Tengah","SMA","-2.9623000","114.4123000"
"30203753","SMAN 1 BALAI RIAM","JL. PANGERAN ANTASARI","Prop. Kalimantan Tengah","SMA","-2.3261000","111.1668000"
"69757899","SMA NEGERI 3 MURUNG","JL. JENDERAL SUDIRMAN RT. 03, KM.88 PURUK CAHU","Prop. Kalimantan Tengah","SMA","-.6262000","114.5709000"
"69852845","SMA 3 TANAH SIANG SATU ATAP","TANAH SIANG","Prop. Kalimantan Tengah","SMA","-.2035300","114.5243580"
"60726169","SMA NEGERI 3 BULIK","JL PANGERAN DIPONEGORO DESA ARGA MULYA","Prop. Kalimantan Tengah","SMA","-2.1476770","111.3894370"
"30203485","SMAS NU","JL. RTA MILONO KM. 3","Prop. Kalimantan Tengah","SMA","-2.2337000","113.9207000"
"30200728","SMAS PGRI BUNTOK","JL. PELITA IV BUNTOK","Prop. Kalimantan Tengah","SMA","-1.7251000","114.8430000"
"69873945","SMA PERSIAPAN NEGERI 2 TIMPAH","Jl. Pemuda Desa Petak Puti","Prop. Kalimantan Tengah","SMA","-1.6392260","114.5198260"
"30201459","SMAN 1 SAMPIT","JL.A YANI NO. 18 SAMPIT","Prop. Kalimantan Tengah","SMA","-2.5414000","112.9465000"
"30201413","SMAS TARUNA JAYA SAMPIT","JL.S. PARMAN NO. 22 SAMPIT","Prop. Kalimantan Tengah","SMA","-2.5477000","112.9536000"
"30208731","SMA PEMBANGUNAN JANGKANG BARU","JL. PEMBANGUNAN DESA JANGKANG BARU","Prop. Kalimantan Tengah","SMA","-.7733000","115.1568000"
"30202072","SMAN 1 PANDIH BATU","JL. PEMBANGUNAN I NO. 70 PANGKOH KOTA","Prop. Kalimantan Tengah","SMA","-3.0581000","114.1476000"
"30205114","SMAN 3 MALIKU","JL. SUKA MULYA","Prop. Kalimantan Tengah","SMA","-2.8842000","114.1587000"
"30203402","SMAS ISEN MULANG P RAYA","DR. WAHIDIN   SUDIROHUSODO NO. 50","Prop. Kalimantan Tengah","SMA","-2.2110378","113.9248340"
"30200794","SMAN 1 DUSUN HILIR","JL. KELURAHAN","Prop. Kalimantan Tengah","SMA","-2.2338000","114.8594000"
