"schoolId","schoolName","schoolAddress","province","school_level","lat","long"
"30303639","SMAN 1 SATUI","JL.WARGA BARU 2","Prop. Kalimantan Selatan","SMA","-3.7743000","115.3930000"
"69772943","SMAS Nusantara","Jl. Transmigrasi","Prop. Kalimantan Selatan","SMA","-3.1851000","115.9951000"
"30305377","SMAN 1 UPAU","JL. MTQ RT. IV NO. 106","Prop. Kalimantan Selatan","SMA","-2.0685000","115.6119000"
"30301004","SMAN 1 TABUKAN","JL. RUMPUN BAMBU","Prop. Kalimantan Selatan","SMA","-2.8375000","114.6587000"
"30304435","SMAS PGRI 1 BANJARMASIN","JL. SULTAN ADAM","Prop. Kalimantan Selatan","SMA","-3.3046000","114.6048000"
"30303861","SMAN 1 JUAI","JL. SETIA KARSA KOMP. PENDIDIKAN MUNGKUR UYAM","Prop. Kalimantan Selatan","SMA","-2.2693000","115.5779000"
"69754716","SMAN 1 MEKARSARI","JL. TAMAN SARI BUNGA","Prop. Kalimantan Selatan","SMA","-3.2847000","114.5007000"
"30301002","SMAN 1 WANARAYA","JL. KOLAM KIRI RT. 3","Prop. Kalimantan Selatan","SMA","-3.0616000","114.6188000"
"30301494","SMAS KARTIKA V-2 BINUANG","JL. RAYA TIMUR BINUANG","Prop. Kalimantan Selatan","SMA","-3.1569000","115.0909000"
"30301490","SMAN 1 TAPIN SELATAN","JL. MUNGGU KAPASAN NO. 165","Prop. Kalimantan Selatan","SMA","-3.0067000","115.1363000"
"30304600","SMAN 4 BANJARBARU","JL. JENDERAL A. YANI KM. 21,600","Prop. Kalimantan Selatan","SMA","-3.4352520","114.7137100"
"30302134","SMAN 3 BARABAI","JL. GRILYA HASAN BASERI NO. 4","Prop. Kalimantan Selatan","SMA","-2.5525000","115.4464000"
"30312602","SMAS HASBUNALLAH","JL LESTARI INDAH NO. 01 KOMP. PERUM. SWADHARMA","Prop. Kalimantan Selatan","SMA","-2.1800060","115.4178140"
"20275991","SMAS MAWAR PUTIH","JL. DESA KUIN KECIL","Prop. Kalimantan Selatan","SMA","-3.3751000","114.5508000"
"30303638","SMAN 1 SUNGAI LOBAN","Sebamban I Blok A RT. 03 RW. 01","Prop. Kalimantan Selatan","SMA","-3.5880000","115.7890000"
"30304521","SMAS PGRI 4 BANJARMASIN","JL. VETERAN KM. 4,5 SIMPANG SMP 7 DALAM GG. 10","Prop. Kalimantan Selatan","SMA","-3.3160000","114.6158000"
"30301079","SMAN 1 ANJIR MUARA","Jl. Handil Bahalang","Prop. Kalimantan Selatan","SMA","-3.1559000","114.5560000"
"69772940","SMAN 1 Kuranji","Jl. Trans Sebamban VI","Prop. Kalimantan Selatan","SMA","-3.5176000","115.7032000"
"30313811","SMAN 1 PAMINGGIR","JL. PAMINGGIR","Prop. Kalimantan Selatan","SMA","-2.5257000","114.8648000"
"30303655","SMAN 1 KUSAN HULU","Jl. Mandiri Bakti RT. 006","Prop. Kalimantan Selatan","SMA","-3.2269000","115.6816000"
"69830458","SMA ISLAM TERPADU UKHUWAH BANJARMASIN","JL. BUMI MAS RAYA KOMPLEK BUMI HANDAYANI XII A","Prop. Kalimantan Selatan","SMA","-3.3457000","114.6071000"
"30311681","SMAN 8 BARABAI","JL.SEPAKAT PANDAWAN","Prop. Kalimantan Selatan","SMA","-2.5707000","115.3508000"
"30304274","SMAS MUHAMMADIYAH 1","JL. S. PARMAN NO. 221","Prop. Kalimantan Selatan","SMA","-3.3060000","114.5876000"
"30305376","SMAN 1 JARO","JL. BATUNG RAYA RT. 01","Prop. Kalimantan Selatan","SMA","-1.8484000","115.6244000"
"30304596","SMAS PGRI 2 BANJAR BARU","JL. KEBUN KARET NO. 1","Prop. Kalimantan Selatan","SMA","-3.4443380","114.8047250"
"30304599","SMAN 3 BANJARBARU","Jalan Banua Praja Utara","Prop. Kalimantan Selatan","SMA","-3.4742620","114.8421900"
"30314151","SMAN 9 BARABAI","Jl. Kesatria Batu Tangga","Prop. Kalimantan Selatan","SMA","-2.5249000","115.5204000"
"30303011","SMAN 1 MUARA HARUS","JL. WILAS RT. 04","Prop. Kalimantan Selatan","SMA","-2.2459000","115.3272000"
"30305505","SMAN 1 KURIPAN","KURIPAN KAB BATOLA","Prop. Kalimantan Selatan","SMA","-2.6095000","114.7982000"
"30313820","SMAN 1 KELUMPANG BARAT","Jl. Provinsi Km. 350 Desa Batang Kulur","Prop. Kalimantan Selatan","SMA","-2.8300000","116.0706000"
"30304280","SMAN 1 BANJARMASIN","JL. MULAWARMAN NO. 25","Prop. Kalimantan Selatan","SMA","-3.3166000","114.5824000"
"30312896","SMAN 1 TABUNGANEN","JL. SIMPANG PALUI  TABUNGANEN TENGAH","Prop. Kalimantan Selatan","SMA","-3.4163000","114.4794000"
"30303658","SMAS TANAH BUMBU","JL. PROPINSI  KM.167","Prop. Kalimantan Selatan","SMA","-3.4848000","115.5663000"
"30303656","SMAN 1 KUSAN HILIR","JL. Kusuma Negara km 2,2","Prop. Kalimantan Selatan","SMA","-3.5770000","115.9830000"
"30311495","SMAN 1 PULAU LAUT TENGAH","JL. RAYA TJG. SERDANG KM. 36","Prop. Kalimantan Selatan","SMA","-3.4651000","116.0713000"
"30311501","SMAN 1 KELUMPANG UTARA","JL. BURUNG LEPAS RT 3 KP 72165","Prop. Kalimantan Selatan","SMA","-2.8576000","116.2870000"
"30301491","SMAN 1 RANTAU","JL. BRIGJEN. H. HASAN BASRY KM.2 RANTAU","Prop. Kalimantan Selatan","SMA","-2.9286000","115.1687000"
"69758487","SMAS IT ASSALAM","JL. ZAMRUD NO. 2","Prop. Kalimantan Selatan","SMA","-3.3843000","114.8446000"
"30302535","SMAN 1 DANAU PANGGANG","JL. SUKA RAMAI NO. 063 RT.4","Prop. Kalimantan Selatan","SMA","-2.4649000","115.1054000"
"30311958","SMAN 1 BERUNTUNG BARU","JL. PENDIDIKAN RT.02 RW.01","Prop. Kalimantan Selatan","SMA","-3.4977000","114.5755000"
"30311498","SMAS TUT WURI HANDAYANI","JL. POROS KALTIM","Prop. Kalimantan Selatan","SMA","-2.9193000","116.0288000"
"30304240","SMAS ISLAM SABILAL MUHTADIN","JL. SULTAN ADAM KOMPLEK MALKON TEMON RT.23 RW.9 BANJARMASIN","Prop. Kalimantan Selatan","SMA","-3.3173000","114.5902000"
"30302983","SMAN 3 TANJUNG","JL. JEND. BASUKI RAHMAT, KOMP. KARYA BAKTI TNI RT 02","Prop. Kalimantan Selatan","SMA","-2.1186000","115.3997000"
"30304272","SMAN 4 BANJARMASIN","JL. TELUK TIRAM LAUT NO.6","Prop. Kalimantan Selatan","SMA","-3.3336242","114.5807853"
"30301799","SMAN 3 KANDANGAN","JALAN KAMBOJA","Prop. Kalimantan Selatan","SMA","-2.7756000","115.2659000"
"30300240","SMAN 1 MATARAMAN","JL. JEND. A. YANI KM. 58,5","Prop. Kalimantan Selatan","SMA","-3.3236000","114.9706000"
"30305362","SMAN 1 ALUH-ALUH","JL. INPRES RT.02 RW.01","Prop. Kalimantan Selatan","SMA","-3.4610000","114.5585000"
"30300241","SMAN 1 PENGARON","JL PAHLAWAN","Prop. Kalimantan Selatan","SMA","-3.2985000","115.0900000"
"69768552","SMA NEGERI 2 JORONG",". A. Yani KM. 121 Desa Sungai Baru RT 10 Kec. Jorong Kab. Tanah Laut 70881","Prop. Kalimantan Selatan","SMA","-3.8912000","115.2393000"
"30304595","SMAS PGRI 1 BANJARBARU","JL. AL - JAFRI NO. 43 BANJARBARU","Prop. Kalimantan Selatan","SMA","-3.4523180","114.8302330"
"69851427","SMAN 2 HALONG","DESA UREN RT.1","Prop. Kalimantan Selatan","SMA","-2.3436000","115.7204000"
"30300984","SMAN 1 MARABAHAN","JL. AES. NASUTION MARABAHAN","Prop. Kalimantan Selatan","SMA","-2.9813000","114.7648000"
"30312527","SMAS ABD KADIR","JL. GUNUNG TIMAH","Prop. Kalimantan Selatan","SMA","-4.0685000","114.6436000"
"30311595","SMAN 1 JEJANGKIT","JL.JEJANGKIT PASAR","Prop. Kalimantan Selatan","SMA","-3.1765000","114.7746000"
"30300702","SMAS PGRI PELAIHARI","JL. A. SYAIRANI, KOMPLEK PERKANTORAN GAGAS","Prop. Kalimantan Selatan","SMA","-3.8035000","114.7879000"
"30305418","SMAS ISLAMI QARDHAN HASANA","JL.RAHAYU KOMP QARDHAN HASANA","Prop. Kalimantan Selatan","SMA","-3.4364180","114.8444400"
"30304257","SMAS KORPRI","JL. TANJUNG I PERUMNAS KAYU TANGI","Prop. Kalimantan Selatan","SMA","-3.2904000","114.5979000"
"30312528","SMAN 2 MARTAPURA","JL. SMP N 3 INDRA SARI","Prop. Kalimantan Selatan","SMA","-3.4398000","114.8760000"
"30304277","SMAS PGRI 6 BANJARMASIN","JL. BELITUNG DARAT RT. 29 NO. 26","Prop. Kalimantan Selatan","SMA","-3.3018000","114.5777000"
"30300700","SMAN 1 JORONG","JL. A. YANI KM.96","Prop. Kalimantan Selatan","SMA","-3.9588000","114.9173000"
"30314039","SMAS AL BALADUL AMIN","JL. MANDALA PERMAI","Prop. Kalimantan Selatan","SMA","-2.7437536","115.3350425"
"30305363","SMAS PGRI 1 MARTAPURA","JL. SEKUMPUL SEI KACANG","Prop. Kalimantan Selatan","SMA","-3.4360000","114.8619000"
"30312814","SMAN 1 BAKUMPAI","JL. ATAK IMBERAMSYAH","Prop. Kalimantan Selatan","SMA","-2.9726000","114.7714000"
"30305424","SMAS AL - QUR AN IKHWANUL MUSLIMIN PARINGIN","JL. RAYA MERDEKA RT. 8 NO. 09","Prop. Kalimantan Selatan","SMA","-2.3358000","115.4560000"
"30301785","SMAN 2 KANDANGAN","JALAN  GAMBAH DALAM NO. 40","Prop. Kalimantan Selatan","SMA","-2.7638000","115.2666000"
"30303660","SMAN 1 ANGSANA","JL. PROPINSI KM. 194","Prop. Kalimantan Selatan","SMA","-3.7101000","115.6019000"
"30304283","SMAN 12 BANJARMASIN","JL. ALALAK UTARA GG. PELITA","Prop. Kalimantan Selatan","SMA","-3.2709000","114.5726000"
"30311646","SMAN 1 BARAMBAI","JL. DESA BARAMBAI","Prop. Kalimantan Selatan","SMA","-3.0299000","114.6531000"
"30304285","SMAN 2 BANJARMASIN","JL. MULAWARMAN NO. 21","Prop. Kalimantan Selatan","SMA","-3.3167000","114.5833000"
"30311447","SMAS DUA DESEMBER","JL. KAMPUNG KARIUP","Prop. Kalimantan Selatan","SMA","-3.8130000","114.7920000"
"30304468","SMAS KRISTEN KANAAN","JL. KP. TENDEAN NO 50","Prop. Kalimantan Selatan","SMA","-3.3199650","114.5944880"
"30311969","SMAN 1 PULAU LAUT TIMUR","JL. RAYA BERANGAS KM. 27","Prop. Kalimantan Selatan","SMA","-3.3870000","116.2294000"
"30304271","SMAN 5 BANJARMASIN","JL. SULTAN ADAM NO.76","Prop. Kalimantan Selatan","SMA","-3.3063280","114.6023910"
"30305425","SMAN 1 AWAYAN","JL. TUNDAKAN NO. 01 KEC. AWAYAN KAB. BALANGAN","Prop. Kalimantan Selatan","SMA","-2.4099000","115.5508000"
"30300701","SMAN 1 BATI-BATI","JL. A. YANI KM. 33,3","Prop. Kalimantan Selatan","SMA","-3.5593000","114.7392000"
"30301493","SMAN 1 BINUANG","JL JEND. A. YANI NO. 27 BINUANG","Prop. Kalimantan Selatan","SMA","-3.1393000","115.0835000"
"60725447","SMAS GIBS","JL.TRANS KALIMANTAN","Prop. Kalimantan Selatan","SMA","-3.2300000","114.5991000"
"30304259","SMAN 6 BANJARMASIN","JL. BELITUNG DARAT NO. 130 RT.19 RW.02","Prop. Kalimantan Selatan","SMA","-3.3026000","114.5782000"
"30305419","SMAS AL - ISLAM NURUL MAAD","JL. A. YANI KM. 24 (LAP. GOLF)","Prop. Kalimantan Selatan","SMA","-3.4118620","114.7429230"
"30311509","SMAN 1 PAMUKAN BARAT","JL. KELAPA GADING","Prop. Kalimantan Selatan","SMA","-2.3423000","116.0415000"
"30303637","SMAN 1 MANTEWE","JL. RAYA TRANSMIGRASI KM.42","Prop. Kalimantan Selatan","SMA","-3.2648000","115.7713000"
"30301782","SMAN 1 DAHA UTARA","JALAN K. H. ABDULLAH","Prop. Kalimantan Selatan","SMA","-2.6568000","115.1350000"
"69822493","SMA Muhammadiyah Karang Intan","Jl.Melati No.63 RT.03","Prop. Kalimantan Selatan","SMA","-3.4328000","114.9250000"
"30300698","SMAN 1 KURAU","JL. SWADAYA","Prop. Kalimantan Selatan","SMA","-3.6276000","114.6254000"
"30303324","SMAN 1 PULAU LAUT BARAT","JL. ABDULLAH KAMPUNG BUGIS","Prop. Kalimantan Selatan","SMA","-3.9842000","116.0790000"
"69768553","SMA NEGERI BUMI MAKMUR","Jl. Swadaya","Prop. Kalimantan Selatan","SMA","-3.5861000","114.6244000"
"30304297","SMAS FRATER DON BOSCO","JL. RANTAUAN DARAT NO. 24","Prop. Kalimantan Selatan","SMA","-3.3318000","114.5876000"
"30311496","SMAN 1 PULAU SEBUKU","JL. TANJUNG MANGKOK","Prop. Kalimantan Selatan","SMA","-3.4001000","116.4111000"
"69762635","SMAS AL MUNAWWIR","PURWOSARI I RT. 09 KM. 06 TAMBAN BARITO KUALA","Prop. Kalimantan Selatan","SMA","-3.3256000","114.4799000"
"69786628","SMAN 1 TEBING TINGGI","JL. RAYA SUNGSUM RT. 1","Prop. Kalimantan Selatan","SMA","-2.4484000","115.5963000"
"30304278","SMAS PGRI 7 BANJARMASIN","JL.STD.LAMBUNG MANGKURAT NO.214","Prop. Kalimantan Selatan","SMA","-3.3443000","114.6166000"
"30303657","SMAN 1 SIMPANG EMPAT","JL. TRANSMIGRASI KM.03","Prop. Kalimantan Selatan","SMA","-3.4071000","115.9868000"
"30302135","SMAN 5 BARABAI","JL. DIVISI IV ALRI HARUYAN","Prop. Kalimantan Selatan","SMA","-2.6994000","115.3590000"
"30303323","SMAN 1 KOTABARU","JL. BERANGAS KM. 4,5 NO 39 A","Prop. Kalimantan Selatan","SMA","-3.2246000","116.2490000"
"30311479","SMAS AL - HIDAYAH","JL. AHMAD YANI KM. 1","Prop. Kalimantan Selatan","SMA","-3.8681000","115.2041000"
"30303307","SMAS GARUDA KOTABARU","JL. BIMA NO. 134 KOTA BARU","Prop. Kalimantan Selatan","SMA","-3.2425000","116.2307000"
"30311610","SMAN 1 BELAWANG","JL. BELAWANG RT.3","Prop. Kalimantan Selatan","SMA","-3.1795000","114.5230000"
"30315142","SMAN BANUA KAL SEL","JL. A. YANI KM. 17 GAMBUT","Prop. Kalimantan Selatan","SMA","-3.4267000","114.6863000"
"30303341","SMAN 1 PULAU LAUT SELATAN","JL. HASANUDDIN RT. 02","Prop. Kalimantan Selatan","SMA","-3.8912000","116.2985000"
"30303325","SMAN 1 PAMUKAN UTARA","JL. SERDANG BAKAU","Prop. Kalimantan Selatan","SMA","-2.4805000","116.3268000"
"30303016","SMAN 1 BINTANG ARA","JL BATU PUJUNG","Prop. Kalimantan Selatan","SMA","-1.9879000","115.4470000"
"30303015","SMAN 1 TANTA","JL. PEMBANGUNAN I RT IV","Prop. Kalimantan Selatan","SMA","-2.2056000","115.3756000"
"30304273","SMAN 3 BANJARMASIN","JL. VETERAN NO. 381","Prop. Kalimantan Selatan","SMA","-3.3185000","114.6158000"
"69830118","SMA DARUL HIJRAH PUTRA","Cindai Alus Rt.8 Martapura Kab. Banjar","Prop. Kalimantan Selatan","SMA","-3.4066688","114.7907495"
"30312217","SMAS ITP TARJUN","JL.KOMPLEK ITP TARJUN  P12","Prop. Kalimantan Selatan","SMA","-3.2701000","116.0957000"
"30304262","SMAN 9 BANJARMASIN","JL. TATAH BANGKAL LUAR NO. 1 RT.32","Prop. Kalimantan Selatan","SMA","-3.3623000","114.5930000"
"30302133","SMAN 1 BARABAI","JL. MERDEKA NO. 1","Prop. Kalimantan Selatan","SMA","-2.5860000","115.3883000"
"30303013","SMAN 1 MUARA UYA","JL. IR. P. H.M. NOOR KM. 1.700","Prop. Kalimantan Selatan","SMA","-1.9073000","115.6045000"
"30302532","SMAN 2 AMUNTAI","JL. KEBAYURAN SEI DIKUM","Prop. Kalimantan Selatan","SMA","-2.4084090","115.2451770"
"30311443","SMAN 1 PANYIPATAN","JL. PENDIDIKAN","Prop. Kalimantan Selatan","SMA","-3.9705000","114.7570000"
"30300219","SMAS MUHAMMADIYAH MARTAPURA","JL. BHAKTI GG. BAUNTUNG 4 NO. 19","Prop. Kalimantan Selatan","SMA","-3.4150000","114.8469000"
"30313821","SMAN 1 PAMUKAN SELATAN","JL. PEMERINTAHAN","Prop. Kalimantan Selatan","SMA","-2.5910000","116.3850000"
"30305068","SMAS PLUS AL-BASHARIAH","JL. RAYA SETAGEN","Prop. Kalimantan Selatan","SMA","-3.2632000","116.2016000"
"30301093","SMAN 1 ANJIR PASAR","JL.TRANS KALIMANTAN KM.28","Prop. Kalimantan Selatan","SMA","-3.1408000","114.4980000"
"30304276","SMAS PGRI 3 BANJARMASIN","JL. AMPERA NO. 53 RT. 16","Prop. Kalimantan Selatan","SMA","-3.3330000","114.5660000"
"30313122","SMAN 1 ANGKINANG","JALAN TEMBOK REL KERETA","Prop. Kalimantan Selatan","SMA","-2.7343000","115.3041000"
"30302137","SMAN 4 BARABAI","JL. SURAPATI BANUA JINGAH","Prop. Kalimantan Selatan","SMA","-2.5658000","115.3990000"
"30304597","SMAN 1 BANJARBARU","JL. KERUING NO. 3 RT. 3 RW. 1","Prop. Kalimantan Selatan","SMA","-3.4449000","114.8272830"
"30301040","SMAN 1 MANDASTANA","JL. TABING RIMBAH KM. 4","Prop. Kalimantan Selatan","SMA","-3.2028000","114.6581000"
"69754213","SMAN 1 AMUNTAI UTARA","JL. AMUNTAI TANJUNG KM.7.5","Prop. Kalimantan Selatan","SMA","-2.3728000","115.2670000"
"30304578","SMAS BETHEL BANJAR BARU","JL. Kubis Ujung","Prop. Kalimantan Selatan","SMA","-3.4356120","114.8349370"
"30301003","SMAN 1 ALALAK","JL. BRIG. H. HASAN BASRI KM.11","Prop. Kalimantan Selatan","SMA","-3.2356000","114.6200000"
"30304598","SMAN 2 BANJARBARU","JL. PERHUTANI MENTAOS","Prop. Kalimantan Selatan","SMA","-3.4351720","114.8326030"
"30303010","SMAN 1 KELUA","JL. KARANGAN PUTIH KM. 4,5","Prop. Kalimantan Selatan","SMA","-2.2422000","115.2749000"
"30303009","SMAN 1 HARUAI","JL. KEMBANG KUNING","Prop. Kalimantan Selatan","SMA","-2.0446000","115.5222000"
"30300238","SMAN 1 KARANG INTAN","JL. P.M. NOOR KM. 47","Prop. Kalimantan Selatan","SMA","-3.4790000","114.9279000"
"30304284","SMAN 13 BANJARMASIN","JL. SETIA RT 37 NO. 24 B","Prop. Kalimantan Selatan","SMA","-3.3565000","114.6137000"
"30311508","SMAS PGRI PAMUKAN UTARA","JL. Poros Trans Desa Lintang Jaya","Prop. Kalimantan Selatan","SMA","-2.4199000","115.9626000"
"30301492","SMAN 1 CANDI LARAS SELATAN","JL. MARGASARI KM. 27","Prop. Kalimantan Selatan","SMA","-2.8785000","114.9620000"
"30301001","SMAN 1 TAMBAN","JL. PURWOSARI II KM 10","Prop. Kalimantan Selatan","SMA","-3.3198000","114.4550000"
"30304281","SMAN 10 BANJARMASIN","JL. TEMB. MANTUIL  NO.51","Prop. Kalimantan Selatan","SMA","-3.3386000","114.5727000"
"30303305","SMAN 1 KELUMPANG SELATAN","JL. HAJI ABDULLAH","Prop. Kalimantan Selatan","SMA","-3.0986000","116.1434000"
"30311680","SMAN 6 BARABAI","JL. TARUNA KASARANGAN","Prop. Kalimantan Selatan","SMA","-2.6310000","115.2999000"
"30300998","SMAN 1 RANTAU BADAUH","JL. H. ABDUL AZIS KM. 27","Prop. Kalimantan Selatan","SMA","-3.1598000","114.6890000"
"30311497","SMAN 1 KELUMPANG HULU","JL. Trans Kalimantan KM.310 Cantung","Prop. Kalimantan Selatan","SMA","-3.0530000","115.9814000"
"30302543","SMAN 1 SUNGAI PANDAN","JL. BANYU TAJUN PANGKALAN","Prop. Kalimantan Selatan","SMA","-2.4675000","115.2210000"
"69757353","SMAN 1 SALAM BABARIS","JL.TRANSMIGASI UTARA NO. 212","Prop. Kalimantan Selatan","SMA","-3.0490900","115.1883730"
"60702927","SMA NEGERI 1 TAMBANG ULANG ","Jl. A. YANI KM 49","Prop. Kalimantan Selatan","SMA","-3.6868000","114.7299000"
"30315138","SMAN 1 PULAU LAUT KEPULAUAN","Jalan Raya Tanjung lalak Km. 3 Kecamatan Pulau Laut Kepulauan Kotabaru Kalsel","Prop. Kalimantan Selatan","SMA","-3.9541000","116.1370000"
"69935847","SMA ISLAM AL-HIDAYAH","Jln. Alabio - Danau Panggang","Prop. Kalimantan Selatan","SMA","-2.4440121","115.1767918"
"30304275","SMAS PGRI 2 BANJARMASIN","JL. CEMPAKA SARI 3 NO. 115 Rt. 38","Prop. Kalimantan Selatan","SMA","-3.3307000","114.5764000"
"30304260","SMAN 7 BANJARMASIN","JL. DHARMA PRAJA V NO. 47","Prop. Kalimantan Selatan","SMA","-3.3396000","114.6205000"
"30300696","SMAN 1 TAKISUNG","JL. LAMBUNG MANGKURAT","Prop. Kalimantan Selatan","SMA","-3.8681000","114.6422000"
"30311679","SMAN 7 BARABAI","JL. H. ASNAWI RT. 4 ILUNG","Prop. Kalimantan Selatan","SMA","-2.5332000","115.4101000"
"30300239","SMAN 1 MARTAPURA","JL. JENDERAL A. YANI 59 A","Prop. Kalimantan Selatan","SMA","-3.4128000","114.8489000"
"30304976","SMAN 1 HALONG","JL. PEMBANGUNAN NO. 78 RT. V","Prop. Kalimantan Selatan","SMA","-2.3678000","115.7387000"
"69900828","SMA IT ARRAHMAN","JLN PONDOK BAMBU KOMPLEK ARRAHMAN","Prop. Kalimantan Selatan","SMA","-3.4292900","114.8006930"
"30311502","SMAN 1 KELUMPANGHILIR","JL. RATU INTAN","Prop. Kalimantan Selatan","SMA","-3.1336000","116.1759000"
"30303027","SMAN 2 TANJUNG","JL. IR. P. H. M. NOOR MABUUN","Prop. Kalimantan Selatan","SMA","-2.1733000","115.4057000"
"69851428","SMAN 2 JUAI","Desa Lalayau Rt.1","Prop. Kalimantan Selatan","SMA","-2.2210000","115.6269000"
"30302136","SMAN 2 BARABAI","JL. RAYA PANTAI HAMBAWANG","Prop. Kalimantan Selatan","SMA","-2.6390000","115.3364000"
"30305067","SMAS MODEL AL-KHAWARIZMI","JL. FUAD HASAN","Prop. Kalimantan Selatan","SMA","-3.6147000","116.3859000"
"69950608","SMA IT ANIC","Jalan Merak No 08","Prop. Kalimantan Selatan","SMA","-3.4605976","114.8789466"
"30301781","SMAS IBNU MAS UD PUTRI","JL. JENDRAL SUDIRMAN KM. 9","Prop. Kalimantan Selatan","SMA","-2.8603883","115.2404900"
"30311442","SMAN 1 BATU AMPAR","JL. H.M. SARBINI","Prop. Kalimantan Selatan","SMA","-3.8499000","114.8771000"
"30314342","SMAN 2 PARINGIN","JL. AHMAD YANI KOMPLEK PENDIDIKAN TERPADU KELURAHAN BATU PIRING","Prop. Kalimantan Selatan","SMA","-2.3736190","115.4718130"
"30305423","SMAS AL - HIDAYAH INAN","JL. TUMENGGUNG JALIL RT. III DS. INAN","Prop. Kalimantan Selatan","SMA","-2.3772000","115.5066000"
"69772944","SMAN 1 KARANG BINTANG","Karang Bintang","Prop. Kalimantan Selatan","SMA","-3.3235350","115.8820310"
"30304258","SMAS KRISTEN BANJARMASIN","JL. S. PARMAN NO.1 RT.6","Prop. Kalimantan Selatan","SMA","-3.3212000","114.5830000"
"30301783","SMAN 1 KANDANGAN","JALAN BATUAH NO.31","Prop. Kalimantan Selatan","SMA","-2.7960000","115.2605000"
"69851426","SMA NEGERI 1 LAMPIHONG","Jl. Lapangan Bumi Daya","Prop. Kalimantan Selatan","SMA","-2.3410000","115.3774000"
"30300697","SMAN 1 PELAIHARI","A. SYAIRANI KOMP. PERKANTORAN GAGAS","Prop. Kalimantan Selatan","SMA","-3.8027000","114.7869000"
"69864631","SMAN 1 TAPIN TENGAH","Jalan Hakim Samad Km 5","Prop. Kalimantan Selatan","SMA","-2.9421750","115.1123040"
"30300242","SMAN 1 SUNGAI TABUK","JL. GERILYA RT.03","Prop. Kalimantan Selatan","SMA","-3.3210000","114.7028000"
"30311505","SMAN 1 SAMPANAHAN","JL. BUMBU RAYA","Prop. Kalimantan Selatan","SMA","-2.5731000","116.3207000"
"30300699","SMAN 1 KINTAP","A. YANI-KASIH DANGSANAK RT 1 KM. 02","Prop. Kalimantan Selatan","SMA","-3.8733000","115.2062000"
"30304261","SMAN 8 BANJARMASIN","JL. SMAN 8 Banjarmasin","Prop. Kalimantan Selatan","SMA","-3.2751000","114.5703000"
"30312858","SMAN 2 KINTAP","JL. AHMAD YANI KM. 151 RT. 09/03","Prop. Kalimantan Selatan","SMA","-3.8506000","115.2901000"
"30300313","SMAS ISLAM ARRIYADH","JL. A. YANI KM. 76, 5 Simpang Maduratna, Madurejo","Prop. Kalimantan Selatan","SMA","-3.2397000","115.0734000"
"30305438","SMAN 1 PARINGIN","JL. A. YANI KOMP. PENDIDIKAN BATU PIRING","Prop. Kalimantan Selatan","SMA","-2.3394000","115.4584000"
"30300237","SMAN 1 GAMBUT","JL. GOTONG ROYONG KM.14.800","Prop. Kalimantan Selatan","SMA","-3.4086000","114.6762000"
"30302556","SMAN 1 AMUNTAI","JL. SUKMARAGA 325 AMUNTAI","Prop. Kalimantan Selatan","SMA","-2.4153000","115.2459000"
"30303306","SMAN 2 KOTABARU","JL. RAYA STAGEN KM. 11","Prop. Kalimantan Selatan","SMA","-3.3057000","116.1667000"
"30305020","SMAS MUHAMMADIYAH 2","JL.  MANGGA 3 RT. 22 NO. 47","Prop. Kalimantan Selatan","SMA","-3.3265000","114.6113000"
"30311504","SMAN 1 PULAU SEMBILAN","JL. LAPANGAN BOLA RT 06","Prop. Kalimantan Selatan","SMA","-3.2353000","116.0888000"
"30303014","SMAN 1 TANJUNG","JL.GELATIK, KOMP. PERTAMINA","Prop. Kalimantan Selatan","SMA","-2.1427000","115.3978000"
"30301784","SMAN 1 SIMPUR","JALAN GERILYA GUNUNG KASIANGAN","Prop. Kalimantan Selatan","SMA","-2.8284000","115.2319000"
"30314207","SMAN 1 DAHA BARAT","JL. Bajayau","Prop. Kalimantan Selatan","SMA","-2.7090000","114.9948000"
"30313819","SMAN 1 HAMPANG","Jl.Antuin Rt.1","Prop. Kalimantan Selatan","SMA","-2.8546000","115.7609000"
"30300312","SMAS DARUL HIJRAH PUTERI MARTAPURA","JL. BATUNG","Prop. Kalimantan Selatan","SMA","-3.4265000","114.8028000"
"30304282","SMAN 11 BANJARMASIN","JL. AMD SEI. ANDAI NO. 8","Prop. Kalimantan Selatan","SMA","-3.2914000","114.6149000"
"30304241","SMAS KARTIKA V-3","JL. MAYJEND. SOETOYO S NO. D.10","Prop. Kalimantan Selatan","SMA","-3.3209000","114.5860000"
"30311507","SMAS MUJAHIDIN TJ LALAK","JL.PENDIDIKAN","Prop. Kalimantan Selatan","SMA","-3.9814000","116.1957000"
"69768556","SMA NEGERI 1 BAJUIN","BAJUIN","Prop. Kalimantan Selatan","SMA","-3.7453000","114.8461000"
"30311682","SMAS PGRI BARABAI","JL. MUNTI RAYA KOMPLEK PELAJAR","Prop. Kalimantan Selatan","SMA","-2.5854000","115.3892000"
"30311499","SMAN 1 KELUMPANG TENGAH","JL. PANGERAN ARGA KUSUMA","Prop. Kalimantan Selatan","SMA","-2.9838000","116.2385000"
