"schoolId","schoolName","schoolAddress","province","school_level","lat","long"
"30402383","SMAN 1 MUARA PAHU","JL. BINA KAMPUNG","Prop. Kalimantan Timur","SMA","-.3497800","116.0228370"
"30404598","SMAS Tunas Kelapa Samarinda","Jl. M. Yamin No.6 Samarinda","Prop. Kalimantan Timur","SMA","-.4732150","117.1479250"
"30402081","SMAS ITCI PPU","JL. PELAWAN KM 5 RT. 07 NO. 33 KEL.MARIDAN","Prop. Kalimantan Timur","SMA","-1.0871000","116.6875000"
"30404452","SMAN 1 SANDARAN","JL. PERAPAT TUNGGAL","Prop. Kalimantan Timur","SMA","1.0149000","118.4431000"
"30400217","SMA NEGERI 1 MUARA MUNTAI","JL. DR. FL TOBING RT 03 NO.53","Prop. Kalimantan Timur","SMA","-.3555000","116.4017000"
"30405337","SMA TUKUNG MADING TABANG","JL. TUKUNG RITAN","Prop. Kalimantan Timur","SMA",".5833000","115.8704000"
"30405878","SMAN 1 BUSANG","Jl. Apau Belawing","Prop. Kalimantan Timur","SMA","1.1418000","116.4330000"
"30405329","SMA RAHMATULLAH MARANG KAYU","JL SAMARINDA - BONTANG","Prop. Kalimantan Timur","SMA","-.3894000","117.0143000"
"30405885","SMA NEGERI 2 MUARA BADAK","JL. POROS BADAK MARANG KAYU","Prop. Kalimantan Timur","SMA","-.2936000","117.4336000"
"30402073","SMAN 1 PPU","JL. PROVINSI KM. 3 KEL.PENAJAM KEC.PENAJAM","Prop. Kalimantan Timur","SMA","-1.2616000","116.7645000"
"30404461","SMAS Islam Samarinda","Jl. K.H. Achmad Dahlan No. 2","Prop. Kalimantan Timur","SMA","-.4958600","117.1548083"
"30405823","SMAN 1 LONG MESANGAT","JALAN PEMBANGUNAN","Prop. Kalimantan Timur","SMA",".5642000","116.5650000"
"30400100","SMAN 1 PASIR BELENGKONG","JL. SIMPANG BATU","Prop. Kalimantan Timur","SMA","-1.9978000","116.2192000"
"30400220","SMA NEGERI 1 TENGGARONG SEBERANG","JL. POROS SEPARI I","Prop. Kalimantan Timur","SMA","-.2608000","117.1137000"
"69786405","SMAN 4 SENDAWAR","Jl.Munaan Ore, Muara Asa","Prop. Kalimantan Timur","SMA",".0212000","115.7524000"
"30400223","SMA NEGERI 2 TENGGARONG","JL. PESUT RT VII NO.112","Prop. Kalimantan Timur","SMA","-.4485000","116.9923000"
"30400219","SMA NEGERI 1 SANGA-SANGA","JL. DRS. SYAHRIL DAHLAN IV","Prop. Kalimantan Timur","SMA","-.6433000","117.2376000"
"30407324","SMAN 1 BONGAN","JL. Mulawarman Muara Kedang","Prop. Kalimantan Timur","SMA","-1.0327000","116.0723000"
"30401487","SMAN 5 BALIKPAPAN SELATAN","JL. ABDI PRAJA BLOK F1 NO.119","Prop. Kalimantan Timur","SMA","-1.2420450","116.8975167"
"30404462","SMA Negeri 16 Samarinda","Jl. Piano No. 04","Prop. Kalimantan Timur","SMA","-.4883783","117.1495433"
"30405317","SMA YPK TENGGARONG","JL MAWAR I NO.48 TENGGARONG","Prop. Kalimantan Timur","SMA","-.4085000","116.9843000"
"30400557","SMAN 1 PENYINGGAHAN","JL. KI HAJAR DEWANTARA RT 03","Prop. Kalimantan Timur","SMA","-.3860000","116.2227000"
"30409891","SMA NEGERI 1 KENOHAN","JL. INPRES RT. 1","Prop. Kalimantan Timur","SMA",".8299000","115.7414000"
"30405308","SMA ISLAM SANIPAH SAMBOJA","JL. RAYA BALIKPAPAN","Prop. Kalimantan Timur","SMA","-.9679000","117.1567000"
"30405623","SMAN 2 SANGATTA UTARA","JL. SOEKARNO HATTA","Prop. Kalimantan Timur","SMA",".5337000","117.5534000"
"30405592","SMAN 7 BERAU","JL. KEDAUNG","Prop. Kalimantan Timur","SMA","2.1532000","117.4613000"
"30404584","SMAN 9 BALIKPAPAN UTARA","JL. SOEKARNO HATTA KM.16","Prop. Kalimantan Timur","SMA","-1.1453000","116.8759000"
"30400576","SMA NEGERI 1 LONG HUBUNG","JL. POROS, DESA DATAH BILANG","Prop. Kalimantan Timur","SMA",".2066910","115.5421650"
"30401780","SMAS TUNAS BANGSA","JL. RUBY EX.SUTOYO RT.46","Prop. Kalimantan Timur","SMA",".1135000","117.4817000"
"30409921","SMAN 3 SENDAWAR","JL. BETIRIN RT 8","Prop. Kalimantan Timur","SMA","-.1674000","115.7853000"
"69875545","SMAN 2 LINGGANG BIGUNG","JL. LINGGANG MELAPEH RT. 3","Prop. Kalimantan Timur","SMA","-.1103020","115.4445430"
"30401500","SMAS KATHOLIK ADI SUCIPTO","JL. MT HARYONO RT. 42","Prop. Kalimantan Timur","SMA","-1.2287000","116.8728000"
"30405309","SMA AL HAYAT SAMBOJA","JL BATUAH KM 36","Prop. Kalimantan Timur","SMA","-1.0105000","116.9740000"
"30404304","SMA Negeri 17 Samarinda","Jl. Pattimura","Prop. Kalimantan Timur","SMA","-.5277000","117.1493000"
"30409878","SMAN 10 BERAU","JL. RAJA ALAM 2 RT.3 BATU PUTIH","Prop. Kalimantan Timur","SMA","1.3756000","118.4354000"
"30400573","SMA NEGERI 1 LONG BAGUN","JL. BANG JUK, DS. UJOH BILANG RT IX","Prop. Kalimantan Timur","SMA",".6988000","114.3883000"
"30400113","SMAN 1 TANAH GROGOT","JL. ST. IBRAHIM KHALILUDDIN TANAH GROGOT","Prop. Kalimantan Timur","SMA","-1.9046000","116.1939000"
"30400562","SMAN 1 MUARA LAWA","JL. TRANS KALIMANTAN RT 2","Prop. Kalimantan Timur","SMA","-.4610000","115.7613000"
"30405312","SMA NEGERI 1 MUARA WIS","JL. KAKAP MUARA WIS SEBERANG","Prop. Kalimantan Timur","SMA","-.3584000","116.3893000"
"30405565","SMAN 1 TELUK PANDAN","JL. Poros Bontang - Sangatta KM. 17","Prop. Kalimantan Timur","SMA",".2265000","117.4641000"
"69822736","SMAN 14 BERAU","Jln. Poros Biatan No.01 Rt. 02 Kampung Karangan","Prop. Kalimantan Timur","SMA","1.7154000","118.0402000"
"30404355","SMAS PGRI 13 TANJUNG REDEB","DR. MURDJANI 2","Prop. Kalimantan Timur","SMA","2.1437000","117.5007000"
"30404270","SMAS Setia Marga Samarinda","Jl. Abdul Sani Gani RT.17 No.73","Prop. Kalimantan Timur","SMA","-.5192000","117.1255000"
"30405835","SMA NEGERI 2 SAMBOJA","JL. SOEKARNO-HATTA KM. 42","Prop. Kalimantan Timur","SMA","-.9669000","116.9844000"
"30403013","SMAS Syaichona Cholil Samarinda","Jl. Batu Indah RT. 41","Prop. Kalimantan Timur","SMA","-.3880000","117.1468000"
"30400326","SMA NEGERI 1 ANGGANA","JL. MASJID RT 6","Prop. Kalimantan Timur","SMA","-.5669000","117.2841000"
"30400574","SMAN 1 LONG IRAM","JL. DR SOEWONDO RT.VI","Prop. Kalimantan Timur","SMA","-.0124000","115.6317000"
"30401808","SMAS YKP MONAMAS BONTANG","JL. A. YANI NO. 70","Prop. Kalimantan Timur","SMA",".1310000","117.4899000"
"69769393","SMA IT NURUL ILMI TENGGARONG","JL. AHMAD DAHLAN NO. 47 TENGGARONG","Prop. Kalimantan Timur","SMA","-.3940000","116.9827000"
"30401054","SMA Negeri 8 Samarinda","Jl. Untung Suropati","Prop. Kalimantan Timur","SMA","-.5290000","117.1112000"
"30405826","SMAN 2 LONG IKIS","JL. SAWIT JAYA","Prop. Kalimantan Timur","SMA","-1.5838350","116.1556330"
"30401409","SMAS ADVENT","JL. KAPTEN PIERE TENDEAN NO.57","Prop. Kalimantan Timur","SMA","-1.2683533","116.8360483"
"30405591","SMAS RIYADLUS SOLIHIN","JL.DANAU PANJANG RT VII","Prop. Kalimantan Timur","SMA","2.0082000","117.3198000"
"30404178","SMAS Gotong Royong Samarinda","Jl. Marsda Aburrahman Saleh Gg. 3 RT. 22","Prop. Kalimantan Timur","SMA","-.4949000","117.1609000"
"30400381","SMAN 2 BERAU","JL. MARSMA ISWAHYUDI RT.02","Prop. Kalimantan Timur","SMA","2.4005000","116.5408000"
"69896292","SMA Negeri 2 Busang","Jalan Sentosa","Prop. Kalimantan Timur","SMA",".8310112","116.3101676"
"30400376","SMAN 3 BERAU","JL. SOEKARNO HATTA NO.98","Prop. Kalimantan Timur","SMA","1.5866000","118.1880000"
"30401063","SMAS Katolik W. R. Soepratman ","Jl. WR. Soepratman No.03","Prop. Kalimantan Timur","SMA","-.4995000","117.1425000"
"30404453","SMAN 1 SANGKULIRANG","JL. M. HUSNI THAMRIN NO.70","Prop. Kalimantan Timur","SMA",".9874000","117.9786000"
"30400575","SMAN 1 LINGGANG BIGUNG","JL. AHMAD YANI RT 07","Prop. Kalimantan Timur","SMA","-.1606000","115.5869000"
"30405315","SMA NEGERI 1 TENGGARONG","JL. MULAWARMAN RT XII","Prop. Kalimantan Timur","SMA","-.4100000","116.9881000"
"30402077","SMAN 5 PPU","JL. PROPINSI KM 15 KEL.GIRIMUKTI KEC PENAJAM","Prop. Kalimantan Timur","SMA","-1.3449000","116.6930000"
"30401488","SMAN 4 BALIKPAPAN SELATAN","JL. SEPINGGAN BARU III NO.36","Prop. Kalimantan Timur","SMA","-1.2461000","116.9068000"
"30405574","SMAN 8 BERAU","JL. MANUNGGAL 87 RT 04","Prop. Kalimantan Timur","SMA","1.2213000","118.7380000"
"30401066","SMA Negeri 1 Samarinda","Jl. Drs. H. Anang Hasyim","Prop. Kalimantan Timur","SMA","-.3958000","117.1751000"
"69786406","SMAS KRISTEN BALA KESELAMATAN","Jl. Pendidikan RT. 38","Prop. Kalimantan Timur","SMA",".1056000","115.9149000"
"69761840","SMAS Islam Bunga Bangsa","Jl. D.I Panjaitan No.51","Prop. Kalimantan Timur","SMA","-.5034430","117.0846310"
"30405336","SMA NEGERI 1 TABANG","JL. BHAYANGKARA","Prop. Kalimantan Timur","SMA",".5662000","116.0189000"
"30404438","SMAN 1 MUARA BENGKAL","JL. ASMAWI SY","Prop. Kalimantan Timur","SMA",".4488000","116.7174000"
"30407371","SMAS ISLAM BINA IMAN","NEGARA NO.32 RT.VII","Prop. Kalimantan Timur","SMA","-1.9528000","116.2110000"
"69889021","SMAS Budi Bakti","Jl. PM. Noor No. 9A","Prop. Kalimantan Timur","SMA","-.4507000","117.1531000"
"30401493","SMAS SYAICHONA CHOLIL","JL. MULAWARMAN RT 10 NO.59","Prop. Kalimantan Timur","SMA","-1.2535200","116.9193817"
"30402919","SMAS AL HASSAN","JL. TELAGA SARI KOMPLEK PELAJAR","Prop. Kalimantan Timur","SMA","-1.2699517","116.8314750"
"30404179","SMAS Sunodia Samarinda","Jl. Kartini No.112A","Prop. Kalimantan Timur","SMA","-.4933550","117.1570817"
"30405306","SMA HARAPAN SAMBOJA","JL PELAJAR RT IV","Prop. Kalimantan Timur","SMA","-1.0187000","117.0298000"
"30404266","SMAS Muhammadiyah 2 Samarinda","Jl. Slamet Riyadi","Prop. Kalimantan Timur","SMA","-.5101000","117.1154000"
"69728697","SMAN 11 BERAU","KAMPUNG EKA SAPTA","Prop. Kalimantan Timur","SMA","1.3770000","117.9544000"
"30400578","SMA SWASTA AWANG LONG","JL. KH. DEWANTARA RT.II","Prop. Kalimantan Timur","SMA",".8055000","114.4583000"
"30400216","SMA NEGERI 1 MUARA KAMAN","JL. MULAWARMAN","Prop. Kalimantan Timur","SMA","-.1468000","116.7326000"
"30405319","SMA NEGERI 1 SEBULU","JL. LATSITARDA RT. IV","Prop. Kalimantan Timur","SMA","-.2735000","116.9937000"
"30401055","SMA Negeri 9 Samarinda","Jl. Giri Rejo","Prop. Kalimantan Timur","SMA","-.4153000","117.1832000"
"30400327","SMA NEGERI 1 KOTA BANGUN","JL. KI HAJAR DEWANTARA","Prop. Kalimantan Timur","SMA","-.2652630","116.5947810"
"30403011","SMAS SF Assisi Samarinda","Jl. Belatuk No.23 RT.17","Prop. Kalimantan Timur","SMA","-.4758000","117.1546000"
"69930839","SMA INTEGRAL HIDAYATULLAH","SMA INTEGRAL HIDAYATULLAH","Prop. Kalimantan Timur","SMA","2.1378713","117.4951476"
"30401052","SMA Negeri 6 Samarinda","Jl. Trikora RT. 08","Prop. Kalimantan Timur","SMA","-.5654000","117.1706000"
"30401489","SMAN 3 BALIKPAPAN ","JL. WOLTER MONGINSIDI BARU RT 32","Prop. Kalimantan Timur","SMA","-1.2241950","116.8172150"
"30405307","SMA ISLAM ULUMUDDIN SAMBOJA","Jl. Balikpapan-Handil RT. 5 No. 219","Prop. Kalimantan Timur","SMA","-.9249000","117.2055000"
"30401809","SMAS YAYASAN PUPUK KALTIM BONTANG","JL. DAHLIA PC. VI PT PUPUK KALTIM","Prop. Kalimantan Timur","SMA",".1421000","117.4675000"
"30402381","SMAN 1 DAMAI","JL. TRANS KALIMANTAN RT.VI","Prop. Kalimantan Timur","SMA","-.3656000","115.7043000"
"30409925","SMAN 1 LONG PAHANGAI","JL. GOLGOTA KAMPUNG LONG PAHANGAI 1","Prop. Kalimantan Timur","SMA",".8841000","114.6929000"
"30400272","SMA NEGERI 1 MARANG KAYU","JL. BATU MENETES","Prop. Kalimantan Timur","SMA","-.2032000","117.3129000"
"30401785","SMAN 2 BONTANG","JL. H.M. ARDANS","Prop. Kalimantan Timur","SMA",".1155000","117.4652000"
"30400178","SMAS MUHAMMADIYAH TANAH GROGOT","JL. PANGERAN MENTERI TANAH GROGOT NO. 96 TANAH GROGOT-KAB.PASER KALTIM","Prop. Kalimantan Timur","SMA","-1.8988000","116.1937000"
"69786424","SMAN 1 TANJUNG HARAPAN","Jalan M. Dachri Tanjung Aru RT V","Prop. Kalimantan Timur","SMA","-2.1696000","116.5839000"
"30405327","SMA MUHAMMADIYAH MUARA BADAK","JL. KH DEWANTARA","Prop. Kalimantan Timur","SMA","-.3246000","117.4191000"
"30401787","SMAS YAYASAN PENDIDIKAN VIDYA DAHANA PATRA","JL. BADAK NO. 2 KOMPLEKS PT BADAK NGL","Prop. Kalimantan Timur","SMA",".1155000","117.4652000"
"69950015","SMA Islam Terpadu Granada","Jl.HM. Ardhans, Ringroad 3, RT.01","Prop. Kalimantan Timur","SMA","-.4580383","117.1259417"
"69875544","SMAN 1 MOOK MANAAR BULATN","JL. Camar RT. 4","Prop. Kalimantan Timur","SMA","-.0274400","115.8807920"
"30401829","SMAS HIDAYATULLAH","JL. IMAM BONJOL RT. 4 NO.63","Prop. Kalimantan Timur","SMA",".1307000","117.4819000"
"30400232","SMA NEGERI 1 MUARA BADAK","JL. GAS ALAM RT. 02","Prop. Kalimantan Timur","SMA","-.3807000","117.4279000"
"30400559","SMAS SARI MENTANANG","JL. MARTAWAY","Prop. Kalimantan Timur","SMA","-.4528000","115.7147000"
"30400323","SMA GOTONG ROYONG KOTA BANGUN","JL PAHLAWAN RT.11","Prop. Kalimantan Timur","SMA","-.2645000","116.6572000"
"30404265","SMAS Ma arif Samarinda","Jln. Raudah III","Prop. Kalimantan Timur","SMA","-.4969817","117.1322500"
"30404228","SMAN 4 BERAU","JL. BUKIT BERBUNGA KM.01 RT.03","Prop. Kalimantan Timur","SMA","2.1646000","117.5029000"
"30405576","SMAN 1 KUARO","JL. PATTIMURA","Prop. Kalimantan Timur","SMA","-1.8088000","116.0780000"
"30400215","SMA NEGERI 1 MUARA JAWA","JL. M. HATTA","Prop. Kalimantan Timur","SMA",".2101000","116.6718000"
"30405781","SMA NEGERI 2 LOA KULU","Jl. Poros RT 17 Dusun Pelita","Prop. Kalimantan Timur","SMA","-.5027000","116.8380000"
"30405330","SMA YP 17 MUARA KAMAN","JL. AWANG LONG","Prop. Kalimantan Timur","SMA","-.1675000","116.9082000"
"69766189","SMAS IT DAARUL HIKMAH","JL. SELAT KARIMATA","Prop. Kalimantan Timur","SMA",".1223000","117.4876000"
"30401068","SMA Negeri 11 Samarinda","Jl. Pelita IV Sambutan","Prop. Kalimantan Timur","SMA","-.5071000","117.1840000"
"30404268","SMA Negeri 14 Samarinda","Jl. Jakarta Perum KORPRI","Prop. Kalimantan Timur","SMA","-.5327000","117.0912000"
"30402379","SMA SWASTA MAHAKAM","JL. HIGANG WAN GANG PELAJAR RT.I","Prop. Kalimantan Timur","SMA",".2415150","115.2543220"
"30404264","SMAS Al - Khairiyah Samarinda","Jl. KH. Abul Hasan","Prop. Kalimantan Timur","SMA","-.4959033","117.1497883"
"30400218","SMA NEGERI 1 SAMBOJA","JL. GUNUNG PASIR RT 5","Prop. Kalimantan Timur","SMA","-1.0134000","117.0878000"
"30400554","SMAN 2 SENDAWAR","JL. Pendidikan RT. XIV Kel. Simpang Raya Kec. Barong Tongkok Kab. Kutai Barat","Prop. Kalimantan Timur","SMA","-.2474000","115.6864000"
"30401501","SMAS KARTIKA V-1","JL. TANJUNG PURA 1 BALIKPAPAN","Prop. Kalimantan Timur","SMA","-1.2744467","116.8247483"
"30401504","SMAN 7 BALIKPAPAN TIMUR","JL. MULAWARMAN","Prop. Kalimantan Timur","SMA","-1.1996233","116.9790283"
"30404551","SMA Negeri 15 Samarinda","Jl. Kalan Luas Makroman","Prop. Kalimantan Timur","SMA","-.5218000","117.2311000"
"30401491","SMAN 1 BALIKPAPAN ","JL. KAPTEN PIERE TENDEAN RT 30 NO.63","Prop. Kalimantan Timur","SMA","-1.2710067","116.8328483"
"30400311","SMA NEGERI 1 LOA KULU","JL. MT HARYONO RT 07","Prop. Kalimantan Timur","SMA","-.5186000","117.0179000"
"30405335","SMA KI HAJAR DEWANTARA KEMBANG JANGGUT","JL PEMBANGUNAN","Prop. Kalimantan Timur","SMA","-.0660000","116.6079000"
"69774826","SMAS Plus Melati","Jl. HAMM. Rifaddin","Prop. Kalimantan Timur","SMA","-.5540000","117.1221000"
"30405310","SMA BHINNEKA MUARA JAWA","JL RAYA DONDANG","Prop. Kalimantan Timur","SMA","-.0649000","116.7423000"
"69944364","SMA INTEGRAL LUQMAN AL HAKIM","Jl. Jenderal Ahmad Yani RT. 008 Kel. Kuaro Kec. Kuaro","Prop. Kalimantan Timur","SMA","-1.7247577","116.1749575"
"30407801","SMAN 9 BERAU","JL. RAYA PAYUNG - PAYUNG","Prop. Kalimantan Timur","SMA","2.2046000","118.5949000"
"30401058","SMA Negeri 3 Samarinda","Jl. Ir. H. Juanda No. 20 RT. 17","Prop. Kalimantan Timur","SMA","-.4853067","117.1290583"
"69862651","SMA NEGERI 2 MUARA MUNTAI","JL TRANS POROS KALIMANTAN","Prop. Kalimantan Timur","SMA","-.5071300","116.4078670"
"30404439","SMAN 1 BATU AMPAR","JL. BENGKIRAI Rt. 01","Prop. Kalimantan Timur","SMA",".5521000","116.9054000"
"30404430","SMAS PEMBANGUNAN","JL. GAJAH MADA","Prop. Kalimantan Timur","SMA",".2450000","116.7257000"
"30405331","SMA MARTADIPURA MUARA KAMAN","JL. DUSUN LOA LEBAN RT III","Prop. Kalimantan Timur","SMA",".1280000","116.8130000"
"30405358","SMAN 1 LONG IKIS","JALAN NEGARA KM 85 LONG IKIS","Prop. Kalimantan Timur","SMA","-1.6012000","116.1813000"
"69948015","SMA Madina Citra Insani","Jl. Mugirejo Gang Assaadah","Prop. Kalimantan Timur","SMA","-.4766772","117.1718796"
"69786404","SMAN 1 BENTIAN BESAR","Jl. Raden Bojer RT. 3 Dilang Puti","Prop. Kalimantan Timur","SMA","-.7856000","115.6048000"
"30401050","SMA Negeri 4 Samarinda","Jl. K.H. Harun Nafsi No. 40","Prop. Kalimantan Timur","SMA","-.5196000","117.2038000"
"30401059","SMA Negeri 2 Samarinda","Jl. Kemakmuran No. 27","Prop. Kalimantan Timur","SMA","-.4800000","117.1629000"
"30401498","SMAS MUHAMMADIYAH 2","JL. SOEKARNO HATTA KM. 10","Prop. Kalimantan Timur","SMA","-1.1294000","116.8790000"
"30400221","SMA NEGERI 2 MARANG KAYU","JL. KH. ABDULLAH NOOR RT.3","Prop. Kalimantan Timur","SMA","-.0123000","117.4841000"
"30404574","SMAN 1 BENGALON","JL. PORODISA","Prop. Kalimantan Timur","SMA",".7527000","117.5588000"
"30401494","SMAS SINAR PANCASILA","JL. KAPTEN TENDEAN KOMPLEK PELAJAR","Prop. Kalimantan Timur","SMA","-1.2697317","116.8316867"
"30404436","SMAN 1 KONGBENG","JL. PEMBANGUNAN NO. 01 Desa Miau Baru","Prop. Kalimantan Timur","SMA","1.2514000","117.0323000"
"30402377","SMAN 1 NYUATAN","JL. DANAU BELUQ KAMP.DEMPAR","Prop. Kalimantan Timur","SMA","-.3407000","115.5118000"
"30401060","SMA Negeri 12 Samarinda","Jl. Raya Samarinda-Bontang Km.32","Prop. Kalimantan Timur","SMA","-.4059000","117.2429000"
"69875543","SMA ADVENT SENDAWAR","JL. Juaq Asa RT. 1","Prop. Kalimantan Timur","SMA","-.1651570","115.6890290"
"30404269","SMAS Nabil Husein Samarinda","Jl. Rapak Indah","Prop. Kalimantan Timur","SMA","-.4284000","117.2209000"
"30405332","SMA NEGERI 1 KEMBANG JANGGUT","JL. H. RIDUANSYAH","Prop. Kalimantan Timur","SMA",".1386000","116.3744000"
"30404267","SMA Negeri 13 Samarinda","Jl. D. I. Panjaitan","Prop. Kalimantan Timur","SMA","-.4609000","117.1783000"
"69786425","SMAN 1 MUARA SAMU","Jalan Biu Muser","Prop. Kalimantan Timur","SMA","-2.1659000","115.8580000"
"30405339","SMA MUHAMMADIYAH TENGGARONG","JL. DANAU AJI","Prop. Kalimantan Timur","SMA","-.4228000","116.9844000"
"30402385","SMA NEGERI 1 LONG APARI","Jalan Tingang Liah, RT. 03 Tiong Ohang","Prop. Kalimantan Timur","SMA","1.0623000","113.9245000"
"69822735","SMAN 13 BERAU","Jalan. Raya Campur Sari","Prop. Kalimantan Timur","SMA","1.6078000","118.1363000"
"69859726","SMAN 2 MUARA WAHAU","Jl. Lais","Prop. Kalimantan Timur","SMA","1.0060950","117.0062200"
"30402920","SMAN 8 BALIKPAPAN BARAT","JL. AMD GN. IV RT 14","Prop. Kalimantan Timur","SMA","-1.2272750","116.8245167"
"30405385","SMA PGRI 25 MUARA SAMU","JL. BIU MUSER","Prop. Kalimantan Timur","SMA","-1.8398000","115.7936000"
"30401067","SMA Negeri 10 Samarinda","Jl. H.A.M.M. Rifaddin RT.25","Prop. Kalimantan Timur","SMA","-.5526000","117.1210000"
"30405573","SMA KERTAS NUSANTARA","KOMP. PT. KERTAS NUSANTARA","Prop. Kalimantan Timur","SMA","1.5800000","117.2000000"
"30402076","SMAN 4 PPU","JL. PROPINSI KM 47 RT. 02 KEL BABULU DARAT","Prop. Kalimantan Timur","SMA","-1.4958000","116.4658000"
"30404229","SMAN 5 BERAU","JL. H.R.M. AYOEB","Prop. Kalimantan Timur","SMA","1.8230000","117.8289000"
"69899868","SMA Negeri 2 Unggulan Tanah Grogot","Jl. Kesuma Bangsa KM. 08 Tanah Grogot","Prop. Kalimantan Timur","SMA","-1.8301040","116.1525450"
"30400577","SMAN 1 JEMPANG","JL.DANAU JEMPANG RT. IX RW.II","Prop. Kalimantan Timur","SMA","-.5150000","116.1376000"
"30404575","SMAN 1 RANTAU PULUNG","JL. PENDIDIKAN","Prop. Kalimantan Timur","SMA",".5963000","117.2988000"
"69815477","SMA NEGERI 12 BERAU","Jln. SMA Bangun No. 1 RT 01 Sei Bebanir Bangun","Prop. Kalimantan Timur","SMA","1.9945000","117.5439000"
"30401499","SMAS MUHAMMADIYAH 1","JL. LETJEND S. PARMAN RT 24 NO.19","Prop. Kalimantan Timur","SMA","-1.2547467","116.8436450"
"30401830","SMAS BAHRUL ULUM","JL. MT. HARYONO 03","Prop. Kalimantan Timur","SMA",".1443000","117.4972000"
"69948500","SMA Budi Luhur","Jl. Bugis RT. 2 Kelurahan Mugirejo Kecamatan Sungai Pinang","Prop. Kalimantan Timur","SMA","-.4697750","117.2177295"
"30405883","SMA NEGERI 3 MARANG KAYU","JL. SAMARINDA - BONTANG KM 73","Prop. Kalimantan Timur","SMA","-.1462000","117.3324000"
"30405326","SMA AL MUHAJIRIN MUARA BADAK","JL. BADAK MAKMUR","Prop. Kalimantan Timur","SMA","-.3349000","117.3760000"
"30405320","SMA NEGERI 2 SEBULU","JL. PENDIDIKAN NO.1","Prop. Kalimantan Timur","SMA","-.1689000","116.9644000"
"30401496","SMAS PATRA DHARMA","JL. WARUKIN III PANORAMA","Prop. Kalimantan Timur","SMA","-1.2449800","116.8311717"
"30404227","SMAS MUHAMADIYAH TANJUNG REDEB","JL. JENDERAL SUDIRMAN","Prop. Kalimantan Timur","SMA","1.5580000","118.1036000"
"30401053","SMA Negeri 7 Samarinda","Jl. Soekarno Hatta Km.1","Prop. Kalimantan Timur","SMA","-.5764000","117.0973000"
"30402074","SMAN 2 PPU","JL. RAYA WARU KM. 25 KEL.WARU KEC.WARU","Prop. Kalimantan Timur","SMA","-1.3870000","116.6222000"
"30400181","SMAN 1 BATU ENGAU","JL. KERANG DAYO KM 54","Prop. Kalimantan Timur","SMA","-2.2261000","116.0754000"
"30405318","SMA AL MUNAWWAROH TENGGARONG","JL. RAYA BUKIT BIRU","Prop. Kalimantan Timur","SMA","-.4587000","116.9867000"
"30400560","SMAN 1 SILUQ NGURAI","JL. TRANS KALIMANTAN RT.III","Prop. Kalimantan Timur","SMA","-.5385000","115.8987000"
"30402078","SMAN 6 PPU","JL. NEGARA KM. 7 RT. 12 KEL.SOTEK KEC.PENAJAM","Prop. Kalimantan Timur","SMA","-1.1940000","116.6100000"
"69860790","SMA IT AL-HIDAYAH TENGGARONG","Jl. Ruwan Rt 03","Prop. Kalimantan Timur","SMA","-.4469760","116.9794270"
"30407660","SMA Negeri Khusus Olahragawan","Komp. Stadion Utama Palaran","Prop. Kalimantan Timur","SMA","-.5882890","117.1283200"
"30400182","SMAN 1 BATU SOPANG","JL. RAYA KM. 144","Prop. Kalimantan Timur","SMA","-1.8215000","115.8944000"
"30404374","SMAN 3 BONTANG","JL. ARIF RAHMAN HAKIM KM. 3","Prop. Kalimantan Timur","SMA",".1688000","117.4628000"
"30405570","SMAN 6 BERAU","JL. BETET","Prop. Kalimantan Timur","SMA","2.0688000","117.3079000"
"30400325","SMA NEGERI 2 LOA JANAN","JL. EX. PT. CITA","Prop. Kalimantan Timur","SMA","-.8006000","116.8645000"
"30401828","SMAS ISLAM TERPADU YABIS BONTANG ","JL. BRIGJEND KATAMSO NO.40 RT 45","Prop. Kalimantan Timur","SMA",".1423000","117.4674000"
"30404450","SMAN 1 KAUBUN","JL. PENDIDIKAN","Prop. Kalimantan Timur","SMA","1.0475000","117.8608000"
"69896286","SMA Negeri 2 Muara Ancalong","Jln. Pendidikan","Prop. Kalimantan Timur","SMA",".3639000","116.5581000"
"30402075","SMAN 3 PPU","JL. NEGARA KM. 36 DS. TENGIN BARU KEC. SEPAKU","Prop. Kalimantan Timur","SMA","-.9135000","116.8111000"
"30404435","SMAN 1 KALIORANG","JL. PENDIDIKAN NO.1","Prop. Kalimantan Timur","SMA",".8762000","117.8681000"
"30400224","SMA NEGERI 2 TENGGARONG SEBERANG","JL. RAYA TELUK DALAM NO. 1 TENGGARONG SEBERANG","Prop. Kalimantan Timur","SMA","-.3854000","117.1105000"
"30405631","SMAN 8 PPU","JL. COASTAL ROAD KM.1,5 NIPAH-NIPAH","Prop. Kalimantan Timur","SMA","-1.3125000","116.7382000"
"30401497","SMAS NUSANTARA","JL. SOEKARNO HATTA KM. 1.5 GURINDA","Prop. Kalimantan Timur","SMA","-1.2328000","116.8423000"
"30405325","SMA YPM DIPONEGORO TENGGARONG SEBERANG","JL. FLAMBOYAN L.II/D","Prop. Kalimantan Timur","SMA","-.3810000","117.1113000"
"30400382","SMAN 1 BERAU","JL. MANGGA 1 NO.14","Prop. Kalimantan Timur","SMA","2.1513000","117.4960000"
"30405322","SMA NURUL YAQIN SEBULU","JL. KARYAWAN RT.1 NO.01","Prop. Kalimantan Timur","SMA","-.3297000","116.8331000"
"30404451","SMAN 1 MUARA WAHAU","JL. MULAWARMAN NO.20","Prop. Kalimantan Timur","SMA","1.0513000","116.8414000"
"69902911","SMA IT ASH SHOHWAH","Jl. Al Bina RT. 10","Prop. Kalimantan Timur","SMA","2.1435820","117.4637387"
"30405881","SMA NEGERI 1 LOA JANAN","JL. PEMBANGUNAN RT. V KM. 5","Prop. Kalimantan Timur","SMA","-.6172000","117.0851000"
"30401503","SMAN 6 BALIKPAPAN UTARA","JL. SOEKARNO HATTA KM 4.5","Prop. Kalimantan Timur","SMA","-1.2089000","116.8551000"
"69786426","SMAN 1 MUARA KOMAM","Jalan Raya KM 173 Muara Komam","Prop. Kalimantan Timur","SMA","-1.5159000","115.8062000"
"30401051","SMA Negeri 5 Samarinda","Jl.Ir. H. Juanda No. 01 RT. 17","Prop. Kalimantan Timur","SMA","-.4843150","117.1281417"
"30405316","SMA NEGERI 3 TENGGARONG","JL. PERUM KOPRI No.1","Prop. Kalimantan Timur","SMA","-.4199000","117.0282000"
"69901305","SMA IT AL AULIYA","MT. HARIONO RT. 43","Prop. Kalimantan Timur","SMA","-1.1717000","116.8953000"
"30401490","SMAN 2 BALIKPAPAN UTARA","JL. SOEKARNO HATTA STRAT IV","Prop. Kalimantan Timur","SMA","-1.2327000","116.8432000"
"30400179","SMA PGRI 7 TANJUNG HARAPAN","Jl. PONSONG NO.1,RT 01 RW 01","Prop. Kalimantan Timur","SMA","-2.2895390","116.4948140"
"30405205","SMAN 1 LONG KALI","JL. RAYA LONGKALI KM.68 RT IV","Prop. Kalimantan Timur","SMA","-1.5273000","116.3002000"
"30400565","SMAN 1 SENDAWAR","JL. PATIMURA","Prop. Kalimantan Timur","SMA","-.2319000","115.7980000"
"30404429","SMAS BAKTI SEJAHTERA","JL. PAHLAWAN","Prop. Kalimantan Timur","SMA","1.0731000","117.1557000"
"30405505","SMAN 1 SANGATTA SELATAN","JL. PERTAMINA KM 05","Prop. Kalimantan Timur","SMA",".4797000","117.5294000"
"30404576","SMAN 1 SANGATTA UTARA","JL. A. WAHAB SYAHRANI","Prop. Kalimantan Timur","SMA",".5143000","117.5399000"
"30401062","SMAS Immanuel Samarinda","Jl. Limau No.50 Vorvo Samarinda","Prop. Kalimantan Timur","SMA","-.4697783","117.1458117"
"30400558","SMAS SURYA MANDALA","JL. AWANG LONG SENOPATI","Prop. Kalimantan Timur","SMA","-.5279000","116.0450000"
"30404552","SMAS Widya Praja Samarinda","Jl. Lai No. 4","Prop. Kalimantan Timur","SMA","-.4727000","117.1446000"
"30405314","SMA NEGERI 2 KOTA BANGUN","JL. POROS SP. 3","Prop. Kalimantan Timur","SMA","-.3971000","116.5370000"
"30401786","SMAN 1 BONTANG","JL. DI.PANJAITAN GG.PIANO 11 NO.59","Prop. Kalimantan Timur","SMA",".1347000","117.4981000"
"30404437","SMAN 1 MUARA ANCALONG","JL. AMD RT VIII NO. 29","Prop. Kalimantan Timur","SMA",".3114000","116.6828000"
"69786427","SMAN 2 BATU ENGAU","Jalan Pengguren RT.02 Desa Pengguren Jaya Kecamatan Batu Engau Kabupaten Paser","Prop. Kalimantan Timur","SMA","-2.1720000","116.0351000"
"30401495","SMAS PJHI BALIKPAPAN","JL. MULAWARMAN KM. 17,5 BATAKAN","Prop. Kalimantan Timur","SMA","-1.2368117","116.9385950"
