"schoolId","schoolName","schoolAddress","province","school_level","lat","long"
"40102593","SMAS KORPRI MANADO","Jl. Rpark (kompleks Perum Pemda Propinsi)","Prop. Sulawesi Utara","SMA","1.4911000","124.8582000"
"40103070","SMAN 2 BITUNG","JL. SISWA","Prop. Sulawesi Utara","SMA","1.4477000","125.1683000"
"40100318","SMAN 1 BOLAANG","JL. RAYA AKD INOBONTO","Prop. Sulawesi Utara","SMA",".9176000","124.1137000"
"40102624","SMAS PGRI 3 MANADO","JL. POGIDON TUMUMPA MANADO","Prop. Sulawesi Utara","SMA","1.5207000","124.8482000"
"40102024","SMAN 1 TOMBATU","Jaga 4","Prop. Sulawesi Utara","SMA","1.0388000","124.6896000"
"40100325","SMAN 1 BOLANG ITANG","JALAN TRANS SULAWESI BOLANGITANG","Prop. Sulawesi Utara","SMA",".9023000","123.3073000"
"40104644","SMAN 2 SIAU TIMUR","LIA","Prop. Sulawesi Utara","SMA","2.7830000","125.4519000"
"40104775","SMAN 1 TAGULANDANG","TAGULANDANG","Prop. Sulawesi Utara","SMA","2.3483000","125.3816000"
"40100323","SMAN 2 KOTAMOBAGU","JL. AMAL NO 39 KOTAMOBAGU","Prop. Sulawesi Utara","SMA",".7291000","124.3025000"
"40103173","SMAS KRISTEN 2 TOMOHON","KOTA TOMOHON","Prop. Sulawesi Utara","SMA","1.3351000","124.8381000"
"40100911","SMAS D W PINELENG","JL. MANADO - TOMOHON","Prop. Sulawesi Utara","SMA","1.3904000","124.8400000"
"40101440","SMAN 1 TAMAKO","KAMPUNG BALANE","Prop. Sulawesi Utara","SMA","3.4637000","125.5163000"
"40103833","SMAN 1 PINELENG","Jln. Walana Desa Pineleng Dua Jaga II Kecamatan Pineleng, Kabupaten Minahasa","Prop. Sulawesi Utara","SMA","1.4010000","124.8244000"
"40102586","SMAS DON BOSCO","JL. WR. SUPRATMAN MANADO","Prop. Sulawesi Utara","SMA","1.4877000","124.8441000"
"40103069","SMAS MUHAMMADIYAH BITUNG","JL. R.E. MARTHADINATA  NO.14","Prop. Sulawesi Utara","SMA","1.4484000","125.1841000"
"40101745","SMAN 1 NANUSA","Jln. Taloara Desa Karatung Kec. Nanusa","Prop. Sulawesi Utara","SMA","4.7302000","127.0863000"
"40101996","SMAS PGRI POIGAR","JL. TRANS SULAWESI DESA POIGAR KEC. SINONSAYANG","Prop. Sulawesi Utara","SMA","1.0186000","124.3089000"
"40100900","SMAN 1 TOMBARIRI","JL. RANOWANGKO","Prop. Sulawesi Utara","SMA","1.3877000","124.6780000"
"40104902","SMAN 1 TOMBULU","JL. KEMBES SATU TOMBULU","Prop. Sulawesi Utara","SMA","1.3942000","124.8591000"
"40100311","SMAS KATOLIK THEODORUS KOTAMOBAGU","JL. DIPONEGORO","Prop. Sulawesi Utara","SMA",".7482000","124.3179000"
"69822745","SMAS  KATOLIK ST. FRANSISKUS DE SALLES KOKLEH","KOKOLEH SATU","Prop. Sulawesi Utara","SMA","1.6233000","125.0311000"
"40100869","SMAN 1 LEMBEAN TIMUR","JL. SAM RATULANGI","Prop. Sulawesi Utara","SMA","1.2045710","124.9813250"
"40101432","SMAS PETRA SAWANG JAUH","MOHONG SAWANG","Prop. Sulawesi Utara","SMA","3.7339000","125.4437000"
"40100314","SMAN 1 SANG TOMBOLANG","DESA LOLANAN KEC SANG TOMBOLANG","Prop. Sulawesi Utara","SMA",".8263000","123.8391000"
"40102590","SMAS KATOLIK ST LAURENTIUS","JL. MAESA NO.6","Prop. Sulawesi Utara","SMA","1.4850000","124.8656000"
"40103834","SMAN 2 PINELENG","JL. VETERAN DESA SEA","Prop. Sulawesi Utara","SMA","1.4057000","124.7998000"
"40100322","SMAN 1 DUMOGA","JL. RAYA  AKD IMANDI","Prop. Sulawesi Utara","SMA",".5788000","124.0642000"
"69900620","SMA Negeri 1 Touluaan Selatan","Kalait","Prop. Sulawesi Utara","SMA",".9893890","124.6261570"
"40102414","SMAS KRISTEN AIRMADIDI","AIRMADIDI BAWAH","Prop. Sulawesi Utara","SMA","1.4221000","124.9778000"
"40101753","SMAN 1 KABARUAN","DESA RARANGE","Prop. Sulawesi Utara","SMA","3.8169000","126.7660000"
"40100895","SMAN 1 KAKAS","JL. KAKAS LANGOWAN","Prop. Sulawesi Utara","SMA","1.1757000","124.8766000"
"40100316","SMAS SWADHARMA WERDI AGUNG","JL. SWADHARMA NO.2","Prop. Sulawesi Utara","SMA",".5503000","124.0301000"
"40103832","SMAN 2 LANGOWAN","JL. TANDENGAN","Prop. Sulawesi Utara","SMA","1.1567000","124.8186000"
"69949174","SMA NEGERI 1 PININGKATAN TULE","Desa Tule","Prop. Sulawesi Utara","SMA","4.0610490","126.7586361"
"69760563","SMAS YADIKA","JALAN AKD KOPANDAKAN II","Prop. Sulawesi Utara","SMA",".7079000","124.2736000"
"40102587","SMAS IMAM BONJOL","JL. KARPER NO. 19","Prop. Sulawesi Utara","SMA","1.5203000","124.8508000"
"40100894","SMAS YBP TATELI","JL. MANADO - TANAWONGKO","Prop. Sulawesi Utara","SMA","1.4438000","124.7587000"
"40105222","SMAN POSIGADAN","JL. TRANS SULAWESI","Prop. Sulawesi Utara","SMA",".3971000","123.8384000"
"40100870","SMAN 1 REMBOKEN","JL. TIMU TALIKURAN","Prop. Sulawesi Utara","SMA","1.2318000","124.8613000"
"40102631","SMAS NASIONAL MANADO","JL. SAM RATULANGI NO. 413","Prop. Sulawesi Utara","SMA","1.4383000","124.7839000"
"40103074","SMAN 3 BITUNG","JL. KELAPA DUA","Prop. Sulawesi Utara","SMA","1.4371567","125.2222550"
"40102020","SMAS KATOLIK AQUINO AMURANG","Jalan Pasar","Prop. Sulawesi Utara","SMA","1.1830000","124.5677000"
"69948345","SMA AL HIKAM","Jaga IV","Prop. Sulawesi Utara","SMA","1.0133192","124.8774040"
"40102004","SMAN 2 TARERAN","Jl. Kampis Jaga 3 Wuwuk Kec. Tareran","Prop. Sulawesi Utara","SMA","1.2340000","124.7039000"
"40101437","SMAN 1 TABUT","KAMPUNG LIKUANG","Prop. Sulawesi Utara","SMA","3.6610000","125.5558000"
"40101750","SMAS ADVENT AMBIA","JL. AMBIA - ESSANG","Prop. Sulawesi Utara","SMA","4.4062000","126.7046000"
"69830368","SMAN PINTARENG","PINTARENG","Prop. Sulawesi Utara","SMA","3.4405070","125.6332660"
"40100902","SMAS KRISTEN TANAWANGKO","JL. TANAWANGKO TOMOHON","Prop. Sulawesi Utara","SMA","1.3942000","124.6821000"
"40102628","SMAS AGAPE MANADO","JL. KELURAHAN ISLAM","Prop. Sulawesi Utara","SMA","1.5020000","124.8460000"
"69902042","SMA NEGERI 2 MELONGUANE DI KIAMA","Jln. Kiama-Tule","Prop. Sulawesi Utara","SMA","4.0014000","126.7213000"
"40102011","SMAS KRISTEN SULUUN","JL. DESA SULUUN TIGA KEC. SULUUN TARERAN","Prop. Sulawesi Utara","SMA","1.2795000","124.6988000"
"40103066","SMAS KRISTEN BITUNG","JL. EMPAT ENAM","Prop. Sulawesi Utara","SMA","1.4494000","125.1894000"
"40103090","SMAN 1 BITUNG","JL. WOLTER MONGINSIDI","Prop. Sulawesi Utara","SMA","1.4383000","125.1247000"
"40103170","SMAS KATOLIK SEMINARI KAKASKASEN TOMOHON","JL. OPO WORANG NO. 263","Prop. Sulawesi Utara","SMA","1.3403000","124.8273000"
"40103297","SMAN 1 TABTENG","KAMPUNG KUMA","Prop. Sulawesi Utara","SMA","3.5737000","125.5807000"
"40103485","SMAS UNKLAB AIRMADIDI","KAMPUS UNKLAB AIRMADIDI","Prop. Sulawesi Utara","SMA","1.4152000","124.9835000"
"40103169","SMAS KATOLIK KARITAS TOMOHON","KOTA TOMOHON","Prop. Sulawesi Utara","SMA","1.3218000","124.8392000"
"40101442","SMA LENTERA HARAPAN SANGIHE","JL. GEREJA-TAHUNA","Prop. Sulawesi Utara","SMA","3.6092000","125.4865000"
"40102404","SMAS AL KHAIRAAT KEMA","JL. KEMA LANSOT - JAGA X DESA KEMA III","Prop. Sulawesi Utara","SMA","1.3620000","125.0729000"
"40102617","SMAS WOLTER MONGINSIDI","JL. PANDU","Prop. Sulawesi Utara","SMA","1.5673000","124.8768000"
"40100321","SMAN 1 PINILOSIAN","JL. SISWA","Prop. Sulawesi Utara","SMA",".3935000","124.1142000"
"40104369","SMAN 1 AMURANG BARAT","KEC. AMURANG BARAT","Prop. Sulawesi Utara","SMA","1.1879933","124.5102300"
"40104774","SMAN 1 SIAU BARAT","PANIKI","Prop. Sulawesi Utara","SMA","2.7402000","125.3604000"
"40102009","SMAN 1 PUSUMAEN","JL.TRANS SULAWESI","Prop. Sulawesi Utara","SMA",".9847000","124.8651000"
"69822741","SMAS YADIKA LANGOWAN","JL. DESA WALEURE","Prop. Sulawesi Utara","SMA","1.1450000","124.8425000"
"40100343","SMAN 3 KOTAMOBAGU","JL. A. YANI NO 35 KOTAMOBAGU","Prop. Sulawesi Utara","SMA",".7450000","124.3131000"
"40104828","SMAN 1 SIAU TIMUR","ULU SIAU","Prop. Sulawesi Utara","SMA","2.7297000","125.4041000"
"40102626","SMAS SYALOM","JL. BETHEL NO. 8","Prop. Sulawesi Utara","SMA","1.4575000","124.8368000"
"40102418","SMAS KATOLIK DON BOSCO LEMBEAN","LEMBEAN","Prop. Sulawesi Utara","SMA","1.4034000","125.0056000"
"40103174","SMAS LOKON ST NIKOLAUS TOMOHON","JL. PERLOMBAAN NO. 99, KAKASKASEN DUA","Prop. Sulawesi Utara","SMA","1.3461000","124.8239000"
"40102634","SMAS PGRI 1 MANADO","JL. KEL. MALALAYANG DUA","Prop. Sulawesi Utara","SMA","1.4599000","124.7925000"
"40103316","SMAN 1 KALAWAT","JL. WALANDA MARAMIS","Prop. Sulawesi Utara","SMA","1.4481000","124.9424000"
"69900769","SMA NEGERI 1 LOBBO","Jln. Trans Beo-Essang Kompleks Perkantoran Kecamatan","Prop. Sulawesi Utara","SMA","4.2697280","126.7235430"
"40100903","SMAS KRISTEN SONDER","JL. JAGA I","Prop. Sulawesi Utara","SMA","1.2579000","124.7758000"
"40102022","SMAS KRISTEN PONTAK","JL. DESA PONTAK KEC. RANOYAPO","Prop. Sulawesi Utara","SMA",".9986000","124.4988000"
"40103068","SMAS KRISTEN AERTEMBAGA","JL. ARNOLDUS SOMPOTAN","Prop. Sulawesi Utara","SMA","1.4503000","125.2044000"
"40100868","SMAS PIONER TONDANO","JL. TONSEA NO. 342","Prop. Sulawesi Utara","SMA","1.3030000","124.9088000"
"40101998","SMAN 1 TARERAN","Desa Rumoong Atas Dua Kec. Tareran","Prop. Sulawesi Utara","SMA","1.1831000","124.5678000"
"69775299","SMAS Dian Harapan","Jl. Laut Aru I Lingkungan IV/103","Prop. Sulawesi Utara","SMA","1.4692000","124.8326000"
"40100317","SMAN 1 BINTAUNA","BINTAUNA","Prop. Sulawesi Utara","SMA",".8799000","123.5521000"
"40102588","SMAS KARSIA MANADO","JL. BABE PALAR","Prop. Sulawesi Utara","SMA","1.4630000","124.8678000"
"40100898","SMAN 1 TOMPASO","JL. KAYU MACIS","Prop. Sulawesi Utara","SMA","1.1807000","124.8113000"
"69907535","SMA NEGERI 1 TATOARENG","Kahakitang","Prop. Sulawesi Utara","SMA","3.1658344","125.5185259"
"40100319","SMA NEGERI 1 BOLAANG UKI","JL. KEMBANG MOLIBAGU","Prop. Sulawesi Utara","SMA",".3873000","123.9816000"
"40103904","SMA NEGERI 1 AMURANG","JL. TRANS SULAWESI, KEL. BITUNG, KEC. AMURANG","Prop. Sulawesi Utara","SMA","1.1912050","124.5807983"
"69758976","SMAN 1 BOLANGITANG TIMUR","BOHABAK","Prop. Sulawesi Utara","SMA",".8325000","123.4922000"
"40101751","SMAS UDAMAKAT RAYA MELONGUANE","Jln. Trans Melonguane - Mala","Prop. Sulawesi Utara","SMA","4.0198000","126.6868000"
"40102613","SMAS PIONER MANADO","JL. POMOROUW NO. 113","Prop. Sulawesi Utara","SMA","1.4749000","124.8554000"
"40102003","SMAN 2 RATAHAN","JL. MAAREY","Prop. Sulawesi Utara","SMA","1.0264000","124.7409000"
"40102405","SMAN 1 LIKUPANG","Jl. Raya Likupang-Manado","Prop. Sulawesi Utara","SMA","1.6625000","125.0603000"
"40102614","SMAS RAPI MANADO","JL. LORENG BAILANG","Prop. Sulawesi Utara","SMA","1.5327000","124.8516000"
"40102747","SMAN 6 MANADO","JL. SISWA NO 59","Prop. Sulawesi Utara","SMA","1.4700000","124.8629000"
"40101439","SMAN 1 TAHUNA","JL. STADION TONA DUMUHUNG","Prop. Sulawesi Utara","SMA","3.6100330","125.5060640"
"40103533","SMA NEGERI 2 BEO","Jl. Beo-Melonguane","Prop. Sulawesi Utara","SMA","4.2088000","126.7894000"
"40100901","SMAS KRISTEN TONDANO","JL. WALANDA MARIS NO. 149","Prop. Sulawesi Utara","SMA","1.3026000","124.9131000"
"40102010","SMAS MUHAMMADIYAH RATATOTOK","JL. J. W. LASUT","Prop. Sulawesi Utara","SMA",".8681000","124.7006000"
"40100897","SMAN 1 LANGOWAN","JL. SISWA","Prop. Sulawesi Utara","SMA","1.1641000","124.8468000"
"40102620","SMAN 2 MANADO","JL. TOLOLIU SUPIT","Prop. Sulawesi Utara","SMA","1.4590000","124.8547000"
"40103532","SMAN 1 RAINIS","JL.SISWA","Prop. Sulawesi Utara","SMA","4.2316000","126.8599000"
"69889078","SMA NEGERI 2 LIRUNG","Bitunuris","Prop. Sulawesi Utara","SMA","3.8620000","126.6843000"
"40100896","SMAN 1 KAWANGKOAN","JL. RANOWANGKO TALIKURAN 1","Prop. Sulawesi Utara","SMA","1.2083000","124.7885000"
"40102008","SMAN 1 TENGA","JL. DESA TENGA KEC. TENGA","Prop. Sulawesi Utara","SMA","1.1616000","124.4347000"
"69950912","SMA NEGERI 3 TAHUNA BARAT","Kolongan Mitung","Prop. Sulawesi Utara","SMA","3.6403544","125.4489414"
"40103581","SMAN 3 TONDANO","JL. Parkir Timur Stadion Maesa Tondano Kembuan","Prop. Sulawesi Utara","SMA","1.3161000","124.9163000"
"40102416","SMAS KOSGORO MAUMBI","MAUMBI","Prop. Sulawesi Utara","SMA","1.4799000","124.9051000"
"40104631","SMAN 1 PINOGALUMAN","PINOGALUMAN","Prop. Sulawesi Utara","SMA",".9188000","123.1349000"
"40100914","SMAS KRISTEN LANGOWAN","JL. RAYA WOLAANG","Prop. Sulawesi Utara","SMA","1.1547000","124.8394000"
"40102403","SMAS ADVENT TANAH PUTIH","JL. RAYA TANAH PUTIH","Prop. Sulawesi Utara","SMA","1.7154000","124.9792000"
"40102413","SMAS KRISTEN YOBEL KEMA","KEMA I","Prop. Sulawesi Utara","SMA","1.3689000","125.0739000"
"40100867","SMAN 1 SONDER","JL.KAMPUNG BARU","Prop. Sulawesi Utara","SMA","1.2600650","124.7814920"
"40102584","SMAS BUDI UTOMO MANADO","JL. 14 PEBRUARI","Prop. Sulawesi Utara","SMA","1.4501000","124.8382000"
"40100348","SMAN 1 KOTAMOBAGU","JL. A.R.HAKIM NO 91 KOTAMOBAGU","Prop. Sulawesi Utara","SMA",".7467000","124.3192000"
"40101434","SMAN 1 MANGANITU","KAMPUNG MALA","Prop. Sulawesi Utara","SMA","3.5635000","125.5172000"
"40100315","SMAS PGRI NANASI","JL. AKD NANASI-POIGAR","Prop. Sulawesi Utara","SMA",".9993000","124.3073000"
"40102592","SMAS KAT IGNATIUS MANADO","Jl. Wolter Mongisidi Malalayang I Barat","Prop. Sulawesi Utara","SMA","1.4558000","124.8109000"
"40102596","SMAS ANTHONIUS MANADO","JL. KAMPUS UNSRAT","Prop. Sulawesi Utara","SMA","1.4537000","124.8273000"
"69950911","SMA NEGERI 1 MANGANITU SELATAN","Lapango","Prop. Sulawesi Utara","SMA","3.4069990","125.6225590"
"40102597","SMAS AL KHAERAT MANADO","JL. COKROAMINOTO NO. 32","Prop. Sulawesi Utara","SMA","1.4933000","124.8467000"
"40100885","SMAN 1 TONDANO","JL. GUNUNG AGUNG NO. 315","Prop. Sulawesi Utara","SMA","1.2987000","124.9046000"
"40102021","SMAS KRISTEN A.O. TUMPAAN","JL. DESA TUMPAAN KEC. TUMPAAN","Prop. Sulawesi Utara","SMA","1.2380000","124.6128000"
"40102388","SMAN 1 WORI","WORI","Prop. Sulawesi Utara","SMA","1.5802000","124.8676000"
"40102005","SMA NEGERI 1 AMURANG TIMUR","JL. TRANS SULAWESI","Prop. Sulawesi Utara","SMA","1.1524000","124.6942000"
"40104643","SMAN 2 SIAU BARAT","MAKALEHI","Prop. Sulawesi Utara","SMA","2.7373000","125.1717000"
"40102623","SMAS PGRI 4 MANADO","JL. BW. LAPIAN NO. 2","Prop. Sulawesi Utara","SMA","1.4838000","124.8461000"
"40102014","SMAN 1 TOULUAAN","JL. RAYA LOBU-SILIAN","Prop. Sulawesi Utara","SMA","1.0590000","124.6584000"
"40103903","SMAN 1 KUMELEMBUAI","JL. DESA KUMELEMBUA I","Prop. Sulawesi Utara","SMA","1.0896000","124.4925000"
"69900621","SMA Negeri 1 Ratahan Timur","Wioi Dua","Prop. Sulawesi Utara","SMA","1.0454000","124.8219000"
"40102594","SMAS KRISTEN DIAKONIA","JL. SAMRATULANGI NO. 335","Prop. Sulawesi Utara","SMA","1.4644000","124.8404000"
"40102002","SMA NEGERI 1 MAESAAN","JL. RAYA TUMANI KEC. MAESAAN","Prop. Sulawesi Utara","SMA",".9071000","124.4726000"
"40100320","SMAN 1 KOTABUNAN","JL. SISWA BULANAN","Prop. Sulawesi Utara","SMA",".8134000","124.6571000"
"40102595","SMAS KRISTEN EBEN HAEZAR","JL 14 FEBRUARI","Prop. Sulawesi Utara","SMA","1.4711000","124.8475000"
"40102408","SMAN 1 AIRMADIDI","JL. PROF. ARNOLD MONONUTU","Prop. Sulawesi Utara","SMA","1.4308000","124.9782000"
"69953879","SMA NEGERI 1 PULAU MARAMPIT DI DAMPULIS","Desa Dampulis","Prop. Sulawesi Utara","SMA","4.7536014","127.1270757"
"40102417","SMAS KATOLIK ST F X KEMA","JL. KABIMA PASAR","Prop. Sulawesi Utara","SMA","1.3744000","125.0726000"
"69726037","SMAN 2 DUMOGA","JL. RAYA AKD DOLODUO","Prop. Sulawesi Utara","SMA",".5245000","123.9674000"
"40102013","SMA NEGERI 1 MOTOLING","UA KEC. MOTOLING","Prop. Sulawesi Utara","SMA","1.0402000","124.4715000"
"40102763","SMAN 9 MANADO","JL. JUSUF HASIRU","Prop. Sulawesi Utara","SMA","1.4579000","124.8305000"
"40102608","SMAS ADVENT KLABAT","JL. DAAN MOGOT II","Prop. Sulawesi Utara","SMA","1.4804000","124.8573000"
"40101997","SMAN 1 RATAHAN","JL. WENAS","Prop. Sulawesi Utara","SMA","1.0541000","124.7966000"
"40103647","SMAS LPM BITUNG","JL.SILINAUNG","Prop. Sulawesi Utara","SMA","1.4940317","125.2768583"
"40100889","SMAS NASIONAL KAWANGKOAN","JL. SENDANGAN I","Prop. Sulawesi Utara","SMA","1.2024000","124.7865000"
"40103064","SMAS EL - SADDAY BITUNG","JL.SAM RATULANGI TES","Prop. Sulawesi Utara","SMA","1.4443000","125.1858000"
"40105171","SMAN 1 ERIS","JL. RAYA JAGA 8 DESA TOLUING OKI","Prop. Sulawesi Utara","SMA","1.1861000","124.9131000"
"40102630","SMAS MUHAMMADIYAH MANADO","JL ARI LASUT NO. 14","Prop. Sulawesi Utara","SMA","1.4909000","124.8604000"
"40100309","SMAS ADVENT IMANDI","JL. TAMBUN","Prop. Sulawesi Utara","SMA",".5786000","124.0735000"
"40102762","SMAN 8 MANADO","JL. BUHA","Prop. Sulawesi Utara","SMA","1.5066000","124.8903000"
"40100910","SMAS ADVENT TOMPASO","JL. RAYA TOMPASO","Prop. Sulawesi Utara","SMA","1.1906000","124.7948000"
"40103189","SMAS PGRI TOMOHON","KOTA TOMOHON","Prop. Sulawesi Utara","SMA","1.3378000","124.8754000"
"40102622","SMAN 4 MANADO","JL. MANGUNI 11","Prop. Sulawesi Utara","SMA","1.4741000","124.8742000"
"40102619","SMAN 10 MANADO","JL. MR. A. A. MARAMIS","Prop. Sulawesi Utara","SMA","1.5132000","124.9048000"
"40100342","SMAN 1 POIGAR","JL. BETHESDA TIBERIAS","Prop. Sulawesi Utara","SMA",".9969000","124.2798000"
"40103906","SMAN 1 SINONSAYANG","JL. DESA ONGKAW 2 KEC. SINONSAYANG","Prop. Sulawesi Utara","SMA","1.0972000","124.3399000"
"40102585","SMAS EL SHADDAI","JL. A. YANI 14","Prop. Sulawesi Utara","SMA","1.4684000","124.8325000"
"40101754","SMAN 1 LIRUNG","KEL.LIRUNG MATANE","Prop. Sulawesi Utara","SMA","3.9388000","126.6905000"
"40103831","SMAS KRISTEN KALI","JL. KALI","Prop. Sulawesi Utara","SMA","1.3999000","124.8442000"
"40101752","SMAN 1 BEO","JL.SISWA NO.12","Prop. Sulawesi Utara","SMA","4.2281000","126.7939000"
"40103447","SMAN 1 PASSI","Jl. Raya Desa Passi 2 Kec. Passi Barat Kabupaten Bolaang Mongondow","Prop. Sulawesi Utara","SMA",".7607000","124.3035000"
"40102612","SMAS PIM SAMRAT","JL. SAM RATULANGI 16","Prop. Sulawesi Utara","SMA","1.4776000","124.8355000"
"40103537","SMAN 1 TAMPA AMMA","AMMAT","Prop. Sulawesi Utara","SMA","4.4108000","126.8486000"
"69726036","SMAS BUDI LUHUR KEMBANG MERTHA","JL. PROTOKOL DESA KEMBANG MERTHA","Prop. Sulawesi Utara","SMA",".6107230","124.0864280"
"40101443","SMAS KATOLIK TAHUNA","JL. MALAHASA","Prop. Sulawesi Utara","SMA","3.6140000","125.4976000"
"40100899","SMAN 2 TONDANO","JL.KAMPUS UNIMA","Prop. Sulawesi Utara","SMA","1.2784000","124.8796000"
"40101433","SMAS PGRI ENEMAWIRA","KAMPUNG ENEMAWIRA","Prop. Sulawesi Utara","SMA","3.6561000","125.5603000"
"40103298","SMAN 2 TABUT","KAMPUNG MARORE","Prop. Sulawesi Utara","SMA","3.6673000","125.5262000"
"40100912","SMAS KATOLIK TONDANO","JL. MATUARI NO. 97","Prop. Sulawesi Utara","SMA","1.2821000","124.9033000"
"40103065","SMAS KATOLIK DON BOSCO BITUNG","JL. P.M.TANGKILISAN NO. 18","Prop. Sulawesi Utara","SMA","1.4470000","125.1798000"
"40102633","SMAS PERTIWI MANADO","JL. YOS SUDARSO","Prop. Sulawesi Utara","SMA","1.4946000","124.8727000"
"40100312","SMAS KRISTEN DUMOGA","JL. RAYA AKD IMANDI","Prop. Sulawesi Utara","SMA",".6136000","124.0830000"
"40102589","SMAS REXMUNDI","JL.SAMRATU LANGI NO.60","Prop. Sulawesi Utara","SMA","1.4833000","124.8367000"
"40102006","SMAN 1 BELANG","Jl. Siswa","Prop. Sulawesi Utara","SMA",".9508000","124.7879000"
"69765018","SMAN 1 TATAPAAN","RAP-RAP","Prop. Sulawesi Utara","SMA","1.3540000","124.5834000"
"40103067","SMAS KRISTEN TOUMOUTOU GIRIAN","JL. WOLTER MONGINSIDI","Prop. Sulawesi Utara","SMA","1.4495000","125.1894000"
"40103171","SMAS KOSGORO TOMOHON","KOTA TOMOHON","Prop. Sulawesi Utara","SMA","1.2969000","124.8253000"
"40100310","SMAS ISLAM BAITUL HIKMAH KOTAMOBAGU","JL. N.SUTOYO NO. 11 KOTAMOBAGU","Prop. Sulawesi Utara","SMA",".7407000","124.3133000"
"40102621","SMAN 3 MANADO","JL. POGIDON NO.13","Prop. Sulawesi Utara","SMA","1.5207000","124.8484000"
"40101755","SMAN 1 MELONGUANE","KOMP. PERK. PEMDA","Prop. Sulawesi Utara","SMA","4.0086000","126.6807000"
"40102591","SMAS AQUINO","JL.SANTU YOSEPH","Prop. Sulawesi Utara","SMA","1.4616000","124.8331000"
"69728705","SMAN 1 LOLAK","JL. AMD MONGKOINIT","Prop. Sulawesi Utara","SMA",".8656930","124.0055340"
"69900394","SMA NEGERI 1 MORONGE","Jln. Sawang Kecil","Prop. Sulawesi Utara","SMA","3.8898000","126.7155000"
"40102618","SMAN 1 MANADO","JL. PRAMUKA NO.102","Prop. Sulawesi Utara","SMA","1.4645000","124.8381000"
"40101775","SMAN 1 ESSANG","JL. KAMPUNG BARU","Prop. Sulawesi Utara","SMA","4.4503000","126.7251000"
"40102610","SMAS KRISTEN EL FATAH","JL.SAM RATULANGI NO. 41","Prop. Sulawesi Utara","SMA","1.4842000","124.8374000"
"40103296","SMAN 1 TABSEL","KAMPUNG BENTUNG","Prop. Sulawesi Utara","SMA","3.4785000","125.6204000"
"40102007","SMAN 1 MODOINDING","JL. DESA PINASUNGKULAN, KEC. MODOINDING","Prop. Sulawesi Utara","SMA",".7914000","124.4532000"
"40102627","SMAS YPKM","JL. DR. SUTOMO NO. 12","Prop. Sulawesi Utara","SMA","1.4931000","124.8451000"
"40103905","SMA NEGERI 1 MOTOLING BARAT","JL. DESA RAANAN BARU I KEC. MOTOLING BARAT","Prop. Sulawesi Utara","SMA","1.0501000","124.4358000"
"40100913","SMAS KRISTEN DAMAI RERER","JL. KALAWIRAN","Prop. Sulawesi Utara","SMA","1.2729000","125.0035000"
"69902099","SMA NEGERI 2 GEMEH DI BANNADDA","Jln. Alaboem Desa Bannada","Prop. Sulawesi Utara","SMA","4.5084000","126.8155000"
"40103204","SMAN 2 TOMOHON","KOTA TOMOHON","Prop. Sulawesi Utara","SMA","1.3168000","124.7826000"
"40103203","SMAN 1 TOMOHON","KOTA TOMOHON","Prop. Sulawesi Utara","SMA","1.3119000","124.8418000"
"40102389","SMAS ADVENT KAIMA","KAIMA","Prop. Sulawesi Utara","SMA","1.3950000","125.0229000"
"40103462","SMAS SWADHARMA MOPUGAD","JL. TELUK SALEH DESA MOPUGAD","Prop. Sulawesi Utara","SMA",".5597000","123.9601000"
"69760660","SMAS LPMD KOKAPOI","KOKAPOI KEC. MODAYAG KAB. BOLAANG MONGONDOW TIMUR PROV. SULAWESI UTARA","Prop. Sulawesi Utara","SMA",".7914140","124.5339120"
"40100324","SMAN 4 KOTAMOBAGU","JL. KESATRIA GENGGULANG","Prop. Sulawesi Utara","SMA",".7476000","124.3102000"
"40103538","SMA NEGERI 1 SAMBUARA","Jl. Raya Sambuara Ensem","Prop. Sulawesi Utara","SMA","4.3586000","126.6921000"
"40103071","SMAN 4 BITUNG","JL.J.P. KALANGI","Prop. Sulawesi Utara","SMA","1.4629000","125.1222000"
"40102629","SMAS ZAITUN","JL. BARU RANOTANA WERU","Prop. Sulawesi Utara","SMA","1.4542000","124.8418000"
"40102625","SMAS KRISTEN IRENE MANADO","JL. PRAMUKA NO. 90","Prop. Sulawesi Utara","SMA","1.4662000","124.8386000"
"40103172","SMAS KRISTEN 1 TOMOHON","KOTA TOMOHON","Prop. Sulawesi Utara","SMA","1.3348000","124.8388000"
"40102415","SMAS KOSGORO SEREY","SEREY","Prop. Sulawesi Utara","SMA","1.7364000","125.0066000"
"40102761","SMAN 7 MANADO","JL. TOLOLIU SUPIT","Prop. Sulawesi Utara","SMA","1.4599000","124.8542000"
"69849599","SMA NEGERI 1 MOTOLING TIMUR","JAGA 1","Prop. Sulawesi Utara","SMA","1.0780000","124.5206000"
"40102409","SMAS PGRI LIKUPANG","BATU","Prop. Sulawesi Utara","SMA","1.6413000","125.0162000"
"40103445","SMA NEGERI 1 TUTUYAN","TUTUYAN","Prop. Sulawesi Utara","SMA",".7595000","124.6121000"
"40102616","SMAS WIRAKARYA MANADO","JL. RANOTANA WERU LK III","Prop. Sulawesi Utara","SMA","1.4523000","124.8433000"
"40102406","SMAN 1 KAUDITAN","KAUDITAN 1","Prop. Sulawesi Utara","SMA","1.3950000","125.0476000"
"40100313","SMAS KRISTEN KOTAMOBAGU","JL. S. PARMAN NO 727 KOTAMOBAGU","Prop. Sulawesi Utara","SMA",".7419000","124.3150000"
"40102615","SMAS SPEKTRUM MANADO","JL. RW. MONGINSIDI","Prop. Sulawesi Utara","SMA","1.4564000","124.8223000"
"40102411","SMA MANADO INDEPENDENT SCHOOL","JL. WALANDA MARAMIS","Prop. Sulawesi Utara","SMA","1.4635000","124.9289000"
"40100892","SMAN 2 TOMPASO","JL. SISWA","Prop. Sulawesi Utara","SMA","1.1749000","124.7900000"
"40103063","SMAS ADVENT BITUNG","JL. DEPOT PERTAMINA","Prop. Sulawesi Utara","SMA","1.4436000","125.1848000"
"60730392","SMA NEGERI 1 GEMEH","Bambung Timur","Prop. Sulawesi Utara","SMA","4.5162000","126.7589000"
"40101454","SMAN 2 TAHUNA","JL. BARU-TONA","Prop. Sulawesi Utara","SMA","3.6055000","125.5091000"
"40103446","SMAN 1 MODAYAG","JL. HIKMA","Prop. Sulawesi Utara","SMA",".7133000","124.3798000"
"69769387","SMAS TRIDHARMA","JL. D.I. PANJAITAN NO. 66","Prop. Sulawesi Utara","SMA","1.5079000","124.8492000"
"40102019","SMAS ADVENT RATAHAN","JL.SISWA","Prop. Sulawesi Utara","SMA","1.0587000","124.8031000"
"40102023","SMAS KRISTEN RATATOTOK","JL. J. W. LASUT","Prop. Sulawesi Utara","SMA",".8697000","124.7023000"
"40102611","SMAS EMMANUEL","JL. MANGUNI I/1 PACUAN TIMUR","Prop. Sulawesi Utara","SMA","1.4776000","124.8707000"
"40102407","SMAN 1 DIMEMBE","LAIKIT JAGA 1","Prop. Sulawesi Utara","SMA","1.4875000","124.9771000"
"40102410","SMAS PGRI KOLONGAN","KOLONGAN","Prop. Sulawesi Utara","SMA","1.4563000","125.0278000"
