"schoolId","schoolName","schoolAddress","province","school_level","lat","long"
"69947006","SMAN 2 KASIMBAR","JL. Trans Sulawesi","Prop. Sulawesi Tengah","SMA","-.1031563","119.9677135"
"40204387","SMAN 1 RIO PAKAVA","DESA MINTI MAKMUR LALUNDU 1","Prop. Sulawesi Tengah","SMA","-1.3278350","119.5140230"
"40203514","SMAS GKST IMANUEL","JL. PROF. MOH. YAMIN NO. 25","Prop. Sulawesi Tengah","SMA","-.9038000","119.8899000"
"69728485","SMAN 1 BULAGI SELATAN","LOLANTANG","Prop. Sulawesi Tengah","SMA","-1.3483000","123.0384000"
"40202313","SMAS COKROAMINOTO","JL. HOS COKROAMINOTO","Prop. Sulawesi Tengah","SMA","1.0349000","120.8115000"
"40201627","SMAN 1 PAGIMANA","JL. MAWAR NO.45","Prop. Sulawesi Tengah","SMA","-.8030000","122.6462000"
"69822749","SMAN 1 PALELEH BARAT","JL. MALAITOM NO. 2","Prop. Sulawesi Tengah","SMA","1.0507000","121.9386000"
"40206482","SMAS ALKH TONGKO","JLN. TRANS SULAWESI POSO - AMPANA","Prop. Sulawesi Tengah","SMA","-1.4064000","120.8479000"
"40204324","SMAN 2 LAMALA","JL. SISWA NO. O1 SOBOL","Prop. Sulawesi Tengah","SMA","-1.0053000","123.2465000"
"69727664","SMAN 1 BALINGGI","DESA SULI","Prop. Sulawesi Tengah","SMA","-.5148000","120.0045000"
"69864622","SMA NEGERI 2 UNA-UNA","JALAN LEGANDAKA","Prop. Sulawesi Tengah","SMA","-.5415360","121.6909860"
"40206474","SMAN 1 MASAMA","JL. ESA KARYA","Prop. Sulawesi Tengah","SMA","-.8495000","123.1335000"
"40201668","SMAN 1 LAMALA","JL. SISWA NO. 113","Prop. Sulawesi Tengah","SMA","-.8993000","123.1418000"
"40202043","SMAN 1 BIAU","JL. MA. TURUNGKU NO. 74","Prop. Sulawesi Tengah","SMA","1.1607000","121.4266000"
"40203516","SMAS KATOLIK","JL. DANAU POSO NO. 23","Prop. Sulawesi Tengah","SMA","-.8993000","119.8620000"
"40200725","SMAN 1 BANAWA","JL. BANAWA NO. 208","Prop. Sulawesi Tengah","SMA","-.6799000","119.7358000"
"40200722","SMA NEGERI 2 SIGI","JL. DAYOSAWI NO.121","Prop. Sulawesi Tengah","SMA","-.9843000","119.8768000"
"40201703","SMAS KATHOLIK ST YOSEP","JL. BUKIT TINGGI NO. 136","Prop. Sulawesi Tengah","SMA","-.9598000","122.7855000"
"40201328","SMAN 1 LORE SELATAN","JL. BUMI JAMBU","Prop. Sulawesi Tengah","SMA","-1.8824000","120.2456000"
"69770323","SMA LABSCHOOL UNTAD","JL. SETIA BUDI 14 PALU","Prop. Sulawesi Tengah","SMA","-.8837000","120.0020000"
"69775582","SMAS IT ASSOHWAH TOILI","JL. DURIAN NO.44","Prop. Sulawesi Tengah","SMA","-1.4196000","122.3019000"
"40206478","SMAN 1 LAMPASIO","DESA SIBEA","Prop. Sulawesi Tengah","SMA",".9010000","120.8685000"
"40202945","SMAN 1 TORUE","JL.GUNUNG SARI","Prop. Sulawesi Tengah","SMA","-.9912000","120.3295000"
"40203842","SMA NEGERI 8 SIGI","JL. TRANS. BORA-PALOLO","Prop. Sulawesi Tengah","SMA","-1.0479000","119.9283000"
"40203608","SMAN 7 PALU","JL. BAIYA NO. 29","Prop. Sulawesi Tengah","SMA","-.7295000","119.8629000"
"40205119","SMAN 1 PARIGI TENGAH","JL. TIMBALUKA","Prop. Sulawesi Tengah","SMA","-.7560000","120.1160000"
"69947112","SMAN 1 TOMINI","Jl. Pasar Tomini","Prop. Sulawesi Tengah","SMA",".5547121","120.5888276"
"69786421","SMAN 1 BOLANO","JL. KOLANO","Prop. Sulawesi Tengah","SMA","-.4046000","120.0019000"
"69876150","SMA NEGERI 3 PAGIMANA","JL. JURUSAN LUWUK KM 28 POH","Prop. Sulawesi Tengah","SMA","-.9424180","122.5720550"
"40200248","SMAN 1 TINANGKUNG","JL. KRI TELUK BAYUR","Prop. Sulawesi Tengah","SMA","-1.3150000","123.2896000"
"40201327","SMAN 1 LORE UTARA","JL. TRANS KADUWAA","Prop. Sulawesi Tengah","SMA","-1.4308000","120.3234000"
"40201705","SMAS MUHAMMADIYAH LUWUK","JL. KHA DAHLAN NO. 79 LUWUK","Prop. Sulawesi Tengah","SMA","-.9464000","122.7936000"
"40200251","SMAN 1 BUKO","JL. SABOBOK NO. 1","Prop. Sulawesi Tengah","SMA","-1.2954000","122.8274000"
"40203522","SMAS ADVENT PALU","JL. PATIMURA NO. 166","Prop. Sulawesi Tengah","SMA","-.9024000","119.8686000"
"40201628","SMAN 1 TOILI","JL. TADULAKO NO.1 JAYA KENCANA","Prop. Sulawesi Tengah","SMA","-1.4659000","122.3344000"
"40202645","SMAS AL-KHAIRAAT BUNGINTIMBE","JL. TRANS SULAWESI BUNGINTIMBE","Prop. Sulawesi Tengah","SMA","-2.0770530","121.4488960"
"40200723","SMAN 1 DAMPELAS","JL. SAMIUN NO. 36","Prop. Sulawesi Tengah","SMA",".2156700","119.8756010"
"40206524","SMAN 1 LABOBO","Jln Bubung No. 01 Lipulalongo KP. 94792","Prop. Sulawesi Tengah","SMA","-1.7345790","123.3376170"
"40201706","SMAN 1 BALANTAK","JL. MERDEKA NO.1 BALANTAK","Prop. Sulawesi Tengah","SMA","-.8774000","123.3965000"
"40203344","SMAN 1 AMPANA KOTA","JL. TADULAKO NO. 30 AMPANA","Prop. Sulawesi Tengah","SMA","-.8707667","121.5766100"
"40203520","SMAS BERDIKARI PALU","JL. LETJEND. SOEPRAPTO NO. 16 B","Prop. Sulawesi Tengah","SMA","-.8903000","119.8757000"
"40203342","SMAN 1 ULUBONGKA","JL. TRANS SULAWESI","Prop. Sulawesi Tengah","SMA","-.9777000","121.4489000"
"40200751","SMAS BALA KESELAMATAN KALAWARA","JL. POROS PALU-KULAWI","Prop. Sulawesi Tengah","SMA","-1.1778821","119.9378568"
"40200253","SMAN 1 BUKO SELATAN","DS. LUMBI-LUMBIA","Prop. Sulawesi Tengah","SMA","-1.5629000","122.8920000"
"40204614","SMAN 1 BUKAL","JL. KEBUN SAWIT NO. 9","Prop. Sulawesi Tengah","SMA","1.0572000","121.4384000"
"40202639","SMAN 1 WITAPONDA","JL. PONGTIKU NO. 20","Prop. Sulawesi Tengah","SMA","-2.2154000","121.6380000"
"69876822","SMA NEGERI 1 KARAMAT","Desa Monano","Prop. Sulawesi Tengah","SMA","1.2241560","121.3413370"
"40203023","SMA MUHAMMADIYAH PARIGI","JL. TONIKOTA No. 99","Prop. Sulawesi Tengah","SMA","-.8111000","120.1777000"
"40204272","SMAN 1 POSO PESISIR SELATAN","PATIWUNGA JL. ANGKASA","Prop. Sulawesi Tengah","SMA","-1.4709000","120.6323000"
"40203524","SMAN 1 PALU","JL. JENDRAL GATOT SUBROTO NO. 70","Prop. Sulawesi Tengah","SMA","-.8938000","119.8744000"
"40204433","SMA NEGERI 9 SIGI","DESA PAKULI","Prop. Sulawesi Tengah","SMA","-1.2403904","119.9412364"
"40202307","SMAN 2 TOLI-TOLI","JL. SISWA NO.5","Prop. Sulawesi Tengah","SMA","1.0086000","120.7825000"
"40201356","SMAN 3 POSO","JL. P. SERAM","Prop. Sulawesi Tengah","SMA","-1.3982280","120.7544350"
"40202947","SMAN 1 PALASA","JL. TRANS SULAWESI","Prop. Sulawesi Tengah","SMA",".4840000","120.4340000"
"69772327","SMAN 1 MOMUNU","Jalan Kali Momunu, Desa Lamadong","Prop. Sulawesi Tengah","SMA","1.1131000","121.4124230"
"69822751","SMA NEGERI 2 TOJO","DESA TOJO","Prop. Sulawesi Tengah","SMA","-1.4016000","121.3301000"
"69775312","SMAN 2 BUNGKU","BENTE","Prop. Sulawesi Tengah","SMA","-2.5173000","121.8894000"
"40202642","SMAN 1 BUNGKU TENGAH","JL. GARUDA","Prop. Sulawesi Tengah","SMA","-2.5530000","121.9737000"
"40202633","SMAN 1 BUNGKU UTARA","JL. NANGKA NO. 35","Prop. Sulawesi Tengah","SMA","-1.7653000","121.7992000"
"69900814","SMA Negeri Walea Besar","Desa Pasokan","Prop. Sulawesi Tengah","SMA","-.5194000","121.8879000"
"40200721","SMA NEGERI 5 SIGI","Jl. Lakuntu No. 09","Prop. Sulawesi Tengah","SMA","-1.4409000","119.9828000"
"40202045","SMAN 1 BOKAT","KOMPLEKS LAPANGAN BOLA KAKI BONGO","Prop. Sulawesi Tengah","SMA","1.0716000","121.5365000"
"40202640","SMAN 2 PETASIA","JL.WULANDERI NO.100","Prop. Sulawesi Tengah","SMA","-2.0210000","121.3362000"
"40202042","SMAN 1 PALELEH","JL.TADULAKO NO.30","Prop. Sulawesi Tengah","SMA","1.0384000","121.9500000"
"40204412","SMAN 2 BALAESANG","JL. POROS PALU-SABANG KM. 100","Prop. Sulawesi Tengah","SMA","-.1305130","119.8310020"
"40203612","SMAN 3 PALU","JL. DEWI SARTIKA NO. 104","Prop. Sulawesi Tengah","SMA","-.9320000","119.8970000"
"40206210","SMA NEGERI 10 SIGI","ROGO","Prop. Sulawesi Tengah","SMA","-1.1828470","119.8879730"
"40203038","SMAS SARASWATI TOLAI","JL.TRANS SULAWESI","Prop. Sulawesi Tengah","SMA","-.9959000","120.3421000"
"40204309","SMAS AL KHAERAAT BATUI","JL. SIS ALJUFRI NO. 38","Prop. Sulawesi Tengah","SMA","-1.2783000","122.5596000"
"40200718","SMA NEGERI 6 SIGI","JL. TADULAKO","Prop. Sulawesi Tengah","SMA","-1.1356900","120.0643166"
"40200727","SMAN 1 SIRENJA","JL. TOMPE SIBADO NO. 68","Prop. Sulawesi Tengah","SMA","-.2138000","119.8112000"
"40200728","SMA NEGERI 1 BANAWA TENGAH","JL. TRANS SULAWESI NO. 20 A MEKAR BARU","Prop. Sulawesi Tengah","SMA","-.7263000","119.6893000"
"40203611","SMAN 4 PALU","JL. MOKOLEMBAKE NO.1","Prop. Sulawesi Tengah","SMA","-.8892000","119.8482000"
"40203515","SMAS BK PALU","JL. TOWUA NO. 80","Prop. Sulawesi Tengah","SMA","-.9245000","119.8793000"
"69822752","SMAS ALKHAIRAAT ULUBONGKA","SUNGAI BONGKA","Prop. Sulawesi Tengah","SMA","-1.1050000","121.4793000"
"40202943","SMAN 1 MOUTONG","JL. SISWA NO. 20","Prop. Sulawesi Tengah","SMA",".4673000","121.2347000"
"40203519","SMAS KARUNA DIPA","JL. SUNGAI LARIANG NO 21","Prop. Sulawesi Tengah","SMA","-.9073000","119.8638000"
"40202309","SMAN 1 TOLI-TOLI","JL. JEND. AHMAD YANI NO.08","Prop. Sulawesi Tengah","SMA","1.0460000","120.8162000"
"69772601","SMAN 1 BUNGKU PESISIR","Jl. H.M.N.Sondeng Lrg. Pendidikan","Prop. Sulawesi Tengah","SMA","-3.0179000","122.2456000"
"40203875","SMAN 9 PALU","JL HI. PATILA","Prop. Sulawesi Tengah","SMA","-.6975000","119.8560000"
"40205691","SMAN 2 BUNTA","JL. AHMAD DAHLAN NO. 4","Prop. Sulawesi Tengah","SMA","-.8816000","122.2310000"
"40203340","SMAN 1 AMPANA TETE","DATARAN BULAN","Prop. Sulawesi Tengah","SMA","-1.2932000","122.0122000"
"40200726","SMAN 1 SINDUE","JL. UDKP TOAYA","Prop. Sulawesi Tengah","SMA","-.6043000","119.8016000"
"40202950","SMAN 1 SAUSU","JL.TRANS SULAWESI NO.176 B SAUSU","Prop. Sulawesi Tengah","SMA","-1.0535000","120.4486000"
"40201724","SMAN 1 KINTOM","JL. S. A.  AMIR NO.    KEC. KINTOM","Prop. Sulawesi Tengah","SMA","-1.1386460","122.6652880"
"40202946","SMAN 1 TINOMBO","JL. SISWA NO 1","Prop. Sulawesi Tengah","SMA",".3896000","120.2850000"
"40200247","SMAN 1 TOTIKUM","Jl. Kapitan Labas No. 01","Prop. Sulawesi Tengah","SMA","-1.4466000","123.5154000"
"40206570","SMAN 2 TOTIKUM","JL. TRANS PELING","Prop. Sulawesi Tengah","SMA","-1.3494000","123.5358000"
"40205121","SMAN 3 TOLITOLI","JL. RADIO KABINUANG","Prop. Sulawesi Tengah","SMA","1.0292000","120.8186000"
"40201358","SMAN 1 POSO PESISIR UTARA","JL. TRANS SULAWESI","Prop. Sulawesi Tengah","SMA","-1.1499000","120.5803000"
"40200737","SMAN 1 BALAESANG","JL. KH. MAHMUD NO.7B","Prop. Sulawesi Tengah","SMA","-.0461000","119.8780000"
"40201704","SMAS GKLB LUWUK","JL. SAMRATULANGI LUWUK NO. 136","Prop. Sulawesi Tengah","SMA","-.9422000","122.8013000"
"40203512","SMAS MUHAMMADIYAH 1 PALU","JL. LETJEND. SOEPRAPTO NO. 69","Prop. Sulawesi Tengah","SMA","-.8900000","119.8758000"
"40201629","SMAN 1 TOILI BARAT","JL. MATARAM NO. 4","Prop. Sulawesi Tengah","SMA","-1.5484000","122.2071000"
"40203518","SMAS KB MAMBORO","JL. THALUA KONCI NO. 8","Prop. Sulawesi Tengah","SMA","-.7885000","119.8717000"
"40204015","SMAN 1 BOKAN KEPULAUAN","JL. BOLOTONA NO. 10","Prop. Sulawesi Tengah","SMA","-1.9878000","123.7914000"
"40204191","SMAN 1 DAMPAL UTARA","JL. KI HAJAR DEWANTORO NO. 1","Prop. Sulawesi Tengah","SMA",".9575000","120.2676000"
"69756117","SMAS AL - AZHAR MANDIRI PALU","JL. GARUDA","Prop. Sulawesi Tengah","SMA","-.9021000","119.8982000"
"40200255","SMAN 1 PELING TENGAH","Jl. Nusa Peling No.16","Prop. Sulawesi Tengah","SMA","-1.4239000","123.1735000"
"69786422","SMAN ONGKA MALINO","JL. TRANS SULAWESI","Prop. Sulawesi Tengah","SMA",".4590000","120.9493000"
"69910576","SMA NEGERI 2 TINANGKUNG","Jl. Mondoutus No. 1 Bulungkobit","Prop. Sulawesi Tengah","SMA","-1.2454000","123.2905000"
"40200724","SMA NEGERI 1 SIGI","JL. KIHAJAR DEWANTORO NO.127","Prop. Sulawesi Tengah","SMA","-.9636000","119.9228000"
"40200736","SMA NEGERI 3 SIGI","JL.TRANS PALU KULAWI","Prop. Sulawesi Tengah","SMA","-1.1427792","119.9232280"
"69945305","SMA NEGERI 2 BULAGI SELATAN","Jl. Lulun No. 1 Desa Bonepuso","Prop. Sulawesi Tengah","SMA","-1.4066189","122.9295685"
"40206563","SMAN 1 SOYO JAYA","LEMBAH SUMARA","Prop. Sulawesi Tengah","SMA","-1.7266430","121.3061150"
"69948092","SMAN 1 PARIGI BARAT","Jl. Lapasisi","Prop. Sulawesi Tengah","SMA","-.8487954","120.1225657"
"40203329","SMAN WALEA KEPULAUAN","JL. DURIAN","Prop. Sulawesi Tengah","SMA","-.3546000","122.3624000"
"40203022","SMAS GPID SUMBERSARI","JL. TRANS SULAWESI NO 110","Prop. Sulawesi Tengah","SMA","-.9195000","120.2394000"
"40200719","SMA NEGERI 4 SIGI","JL. PALU BANGGA NO 34","Prop. Sulawesi Tengah","SMA","-.9545000","119.8546000"
"40202646","SMAS AL-KHAIRAAT KOLONO","JL. TRANS SULAWESI BUNGKU","Prop. Sulawesi Tengah","SMA","-2.6764000","122.0077000"
"40200735","SMAN 2 DAMPELAS","JL. KATIDALE NO. 4","Prop. Sulawesi Tengah","SMA",".2969420","119.8944980"
"40202638","SMAN 1 PETASIA","JL. PATIMURA NO. 8 KOLONODALE","Prop. Sulawesi Tengah","SMA","-1.9835000","121.3373000"
"40201326","SMAN 1 PAMONA SELATAN","JL. S. PARMAN NO. 438","Prop. Sulawesi Tengah","SMA","-2.0714000","120.6938000"
"40201357","SMAN 2 POSO","EBONI NO. 70","Prop. Sulawesi Tengah","SMA","-1.4244000","120.7628000"
"69932127","SMA AL-MANNAN TOLITOLI","JLN. DAPALAK NO. 91","Prop. Sulawesi Tengah","SMA","1.0053000","120.7926000"
"69822746","SMA NEGERI BULAGI UTARA","SABANG","Prop. Sulawesi Tengah","SMA","-1.2402000","123.1429000"
"69830204","SMAN 2 SOJOL","Jl. Pulau Menara, Ou - Pangalasiang","Prop. Sulawesi Tengah","SMA",".4645720","119.9075980"
"40203610","SMAN 5 PALU","Jl. RE. Martadinata","Prop. Sulawesi Tengah","SMA","-.8422000","119.8840000"
"40203510","SMAS PGRI 2 PALU","JL MOKOLEMBAKE NO. 3","Prop. Sulawesi Tengah","SMA","-.8899000","119.8489000"
"40202041","SMA Negeri 2 BIAU","JL. M.A. Turungku 76","Prop. Sulawesi Tengah","SMA","1.1609000","121.4258000"
"40206618","SMAN 1 SINDUE TOMBUSABORA","Jl. Tombusabora No.","Prop. Sulawesi Tengah","SMA","-.5270000","119.8013000"
"69727660","SMAN 1 PARIGI UTARA","JL. DATUK KARAMA","Prop. Sulawesi Tengah","SMA","-.7067000","120.0846000"
"40202649","SMAN 1 BAHODOPI","JL. PENDIDIKAN No. 03","Prop. Sulawesi Tengah","SMA","-2.7960000","122.1274000"
"40201342","SMAN 1 PAMONA TIMUR","POLEGANYARA","Prop. Sulawesi Tengah","SMA","-1.8876000","120.8077000"
"40204541","SMAS BHALDA BUNGKU","TOFUTI","Prop. Sulawesi Tengah","SMA","-2.5615000","121.9743000"
"69786242","SMAN 2 NUHON","Desa Saiti","Prop. Sulawesi Tengah","SMA","-.8497000","122.7090000"
"40203341","SMAN 1 UNA - UNA","GOBEL","Prop. Sulawesi Tengah","SMA","-.4158000","121.8682000"
"40202650","SMAN 1 BUNGKU SELATAN","JL. MEKAR NO. 1","Prop. Sulawesi Tengah","SMA","-3.0404000","122.3983000"
"40204592","SMAS MUHAMMADIYAH POSO","JL. MONGONSIDI","Prop. Sulawesi Tengah","SMA","-1.3807000","120.7579000"
"40203907","SMAN 1 PAMONA BARAT","JL. WISATA","Prop. Sulawesi Tengah","SMA","-1.8453000","120.5218000"
"40201707","SMAN 1 BATUI","JL. KOHUMAMA NO. 27 BATUI","Prop. Sulawesi Tengah","SMA","-1.2909000","122.5491000"
"40202949","SMAN 1 BOLANO LAMBUNU","JL. KI HAJAR DEWANTARA","Prop. Sulawesi Tengah","SMA",".5117000","120.9660000"
"40203513","SMAS KRISTEN GPID PALU","JL. Kijang","Prop. Sulawesi Tengah","SMA","-.8968000","119.8700000"
"40200734","SMA NEGERI 7 SIGI","JL. AIR TERJUN","Prop. Sulawesi Tengah","SMA","-1.0543560","119.8686799"
"69896670","SMA NEGERI 1 SINDUE TOBATA","Jln. Trans Palu-Sabang Km 68 Desa Oti Kode Pos 94353","Prop. Sulawesi Tengah","SMA","-.3650000","119.8471000"
"69948239","SMA NEGERI 1 BANAWA SELATAN","Jl. Trans Sulawesi No.    Desa  Watatu","Prop. Sulawesi Tengah","SMA","-.8765000","119.5841000"
"40201343","SMAN 1 PAMONA UTARA","JL. TRANS SULAWESI","Prop. Sulawesi Tengah","SMA","-1.7309000","120.6525000"
"40201331","SMAS GKST 2 TENTENA","Jalan Torulemba","Prop. Sulawesi Tengah","SMA","-1.7628000","120.6365000"
"40203776","SMAN MODEL TERPADU MADANI","JL. TRANS SULAWESI","Prop. Sulawesi Tengah","SMA","-.8598000","119.8858000"
"40205585","SMAN 1 NUHON","JL. RAYA TOMEANG-PIBOMBO","Prop. Sulawesi Tengah","SMA","-.9416000","122.1572000"
"40201355","SMAN 4 POSO","JL. P. NIAS NO. 65","Prop. Sulawesi Tengah","SMA","-1.3942000","120.7449000"
"40202308","SMAN 1 TOLI-TOLI UTARA","JL. TRANS SULAWESI","Prop. Sulawesi Tengah","SMA","1.3399000","120.9362000"
"69765071","SMAN 1 BALANTAK SELATAN","RESARNA","Prop. Sulawesi Tengah","SMA","-.8881000","123.3596000"
"40200254","SMAN 1 TINANGKUNG UTARA","JL. TAMAN SISWA NO 1","Prop. Sulawesi Tengah","SMA","-1.2593000","123.4086000"
"69822750","SMAN 1 SIDOAN","Jln. Trans Sulawesi No.65","Prop. Sulawesi Tengah","SMA",".2083000","120.0318000"
"40204016","SMAN 1 TINANGKUNG SELATAN","Jl. Trans Peling No. 01","Prop. Sulawesi Tengah","SMA","-1.4461000","123.3394000"
"69878007","SMAN Olahraga Tadulako Palu","Jl. Soekarno Hatta","Prop. Sulawesi Tengah","SMA","-.8576360","119.9573260"
"40203908","SMAN 2 PAMONA SELATAN","JL. S. SAROSO","Prop. Sulawesi Tengah","SMA","-2.1344000","120.7138000"
"40203607","SMAN 8 PALU","JL. Ragigau No. 3 Palu","Prop. Sulawesi Tengah","SMA","-.8593000","119.8252000"
"40202641","SMAN 1 BUMI RAYA","JL. TRANS SULAWESI","Prop. Sulawesi Tengah","SMA","-2.2136000","121.7254000"
"40201612","SMAN 1 LUWUK","JL. DEWI SARTIKA NO.02 A LUWUK","Prop. Sulawesi Tengah","SMA","-.9580000","122.7875000"
"40201631","SMAN 3 LUWUK","JL. K.H. DEWANTARA 12 LUWUK","Prop. Sulawesi Tengah","SMA","-.9587000","122.7893000"
"40200249","SMA NEGERI 1 BANGKURUNG","Jl. J. Yasibang","Prop. Sulawesi Tengah","SMA","-1.9189000","123.0771000"
"40202634","SMAN 1 MAMOSALATO","JL. CEMPAKA NO. 71","Prop. Sulawesi Tengah","SMA","-1.6465000","121.9588000"
"69904304","SMA Negeri Togean","Jln. Sari Buah No.   Desa Lebiti, Kec. Togean","Prop. Sulawesi Tengah","SMA","-.3738000","122.0420000"
"40203841","SMAN 1 SOJOL","Trans Palu-Balukang II","Prop. Sulawesi Tengah","SMA",".5664630","120.0573180"
"69775314","SMAN 2 SOYO JAYA","PANCA MAKMUR","Prop. Sulawesi Tengah","SMA","-1.9133000","121.1153000"
"40209808","SMAS CHAIRUL AMIN","JL. JEND. SUDIRMAN NO. 96","Prop. Sulawesi Tengah","SMA","-.8758783","121.5560750"
"40203343","SMAN 1 TOJO","JL. TRANS SULAWESI NO.117","Prop. Sulawesi Tengah","SMA","-1.4227000","121.1207000"
"40203631","SMAN 2 PALU","JL. TANJUNG DAKO NO. 9","Prop. Sulawesi Tengah","SMA","-.9034000","119.8783000"
"69947396","SMA NEGERI TOTIKUM SELATAN","Jl. Siswa No. 01  Desa Tobungku Kec. Totikum Selatan","Prop. Sulawesi Tengah","SMA","-1.3872864","123.4315685"
"60725212","SMAS NUSANTARA","JL. SUPAYA","Prop. Sulawesi Tengah","SMA","-.9703000","119.8859000"
"40202044","SMAN 1 BUNOBOGU","JL.LIMBAU NO. 33","Prop. Sulawesi Tengah","SMA","1.0390000","121.6156000"
"40201709","SMAN 1 BUNTA","JL. MOH. YAMIN 109 BUNTA","Prop. Sulawesi Tengah","SMA","-.8512000","122.1656000"
"40202635","SMAN 1 LEMBO","JL. PROTOKOL NO. 2","Prop. Sulawesi Tengah","SMA","-2.1370000","121.2845000"
"40202928","SMAN 1 AMPIBABO","JL. DJIDE NO. 353","Prop. Sulawesi Tengah","SMA","-.4625410","120.0625280"
"40201332","SMAS GKST 1 TENTENA","JL. RUMBENUNU NO.1","Prop. Sulawesi Tengah","SMA","-1.7613000","120.6373000"
"69932125","SMA INTEGRAL RAHMATULLAH","JLN. DAUD LAPAU NO. 20","Prop. Sulawesi Tengah","SMA",".9866727","120.8494021"
"69875557","SMA NEGERI HARMONI","Jalan Trans Sulawesi","Prop. Sulawesi Tengah","SMA","-1.7006560","120.7486600"
"69831501","SMA PERSIAPAN NEGERI BANGGAI TENGAH","ADEAN","Prop. Sulawesi Tengah","SMA","-1.6407590","123.5388700"
"40204271","SMAN 1 LAGE","JL. TRANS SULAWESI","Prop. Sulawesi Tengah","SMA","-1.4459000","120.7705000"
"40203509","SMAS SWADAYA PALU","JL. NOKILALAKI NO. 20","Prop. Sulawesi Tengah","SMA","-.8987000","119.8790000"
"40202311","SMAN 1 DAMPAL SELATAN","JL. RAJA ALAM NO.35","Prop. Sulawesi Tengah","SMA",".7772000","120.2296000"
"40200252","SMAN 1 BANGGAI","JL. JOGUGU SOPHIA NO.19","Prop. Sulawesi Tengah","SMA","-1.6031000","123.5001000"
"69773521","SMAN 3 BUNTA","DESA TOIMA","Prop. Sulawesi Tengah","SMA","-1.0375000","122.2630000"
"40201630","SMAN 2 LUWUK","JL. G. MERAPI NO.540 LUWUK","Prop. Sulawesi Tengah","SMA","-.9406000","122.7919000"
"40200738","SMAS YPTB KETONG","DESA KETONG","Prop. Sulawesi Tengah","SMA","-.0403970","119.6220150"
"69725272","SMAN 1 OGODEIDE","JL. Panca Bhakti No. 7","Prop. Sulawesi Tengah","SMA",".9151000","120.6369000"
"69937574","SMAN 1 LUWUK TIMUR","JL. SISWA NO 1 LOUK","Prop. Sulawesi Tengah","SMA","-.8575444","122.9690773"
"40200739","SMAS NASIONAL WANI","JL. MASJID AL-ISLAH NO.5 WANI SATU","Prop. Sulawesi Tengah","SMA","-.6949800","119.8443050"
"40203521","SMAS AL KHAIRAAT 1 PALU","JL. SIS ALJUFRI NO.44","Prop. Sulawesi Tengah","SMA","-.9002000","119.8575000"
"40203511","SMAS PGRI 1 PALU","JL. MALINO NO. 118","Prop. Sulawesi Tengah","SMA","-.9036000","119.8648000"
"69953774","SMA NEGERI 12 SIGI","Desa Langko","Prop. Sulawesi Tengah","SMA","-1.3525350","120.0464467"
"40204252","SMAN 1 TINOMBO SELATAN","JL.TRANS SULAWESI LR. DANAU ALAGUT","Prop. Sulawesi Tengah","SMA",".0616000","120.1081000"
"69775313","SMAN 2 MORI ATAS","SAEMBA","Prop. Sulawesi Tengah","SMA","-1.9326000","120.9669000"
"40202637","SMAN 1 MORI ATAS","JL. TARIK MATA NO.  369","Prop. Sulawesi Tengah","SMA","-1.9887000","120.9820000"
"40202046","SMAN 1 LAKEA","JL. TRANS SULAWESI","Prop. Sulawesi Tengah","SMA","1.2440000","121.2161000"
"40203609","SMAN 6 PALU","JL. PADANJAKAYA","Prop. Sulawesi Tengah","SMA","-.9208000","119.8445000"
"40200250","SMAN 1 BULAGI","JL. Pramuka No. 02 Bulagi","Prop. Sulawesi Tengah","SMA","-1.3350000","123.0980000"
"69826572","SMA Negeri 3 Balaesang","Jalan Trans Palu -Sabang","Prop. Sulawesi Tengah","SMA",".1046730","119.8740050"
"40200752","SMAS ALKHAIRAAT KALKUBULA","JL. GURU TUA NO.234","Prop. Sulawesi Tengah","SMA","-.9516120","119.8814940"
"40202948","SMAN 1 KASIMBAR","JL. TRANS SULAWESI NO. 1","Prop. Sulawesi Tengah","SMA","-.1286000","120.0390000"
"40202636","SMAN 1 MENUI KEPULAUAN","JL. LAPANGAN SEPAKBOLA TEMBE","Prop. Sulawesi Tengah","SMA","-3.5685000","123.1265000"
"40200753","SMAS ALKHAIRAAT BULUBETE","JL. PALU BANGGA","Prop. Sulawesi Tengah","SMA","-1.2077000","119.9060000"
"40202944","SMAN 1 PARIGI","JL. PRAMUKA NO. 179","Prop. Sulawesi Tengah","SMA","-.8066000","120.1762000"
"40200246","SMAN 2 BANGGAI","JL. PADANG RAYA NO. 1","Prop. Sulawesi Tengah","SMA","-1.5978000","123.5074000"
"40201359","SMAN 1 POSO","JL. TALASA N0. 6","Prop. Sulawesi Tengah","SMA","-1.3808000","120.7634000"
"69896536","SMA NEGERI 1 BALAESANG TANJUNG","DESA MALEI","Prop. Sulawesi Tengah","SMA","-.1194570","119.6871970"
"40202310","SMAN 1 DONDO","JL. TRANS SULAWESI","Prop. Sulawesi Tengah","SMA",".7909000","120.5155000"
"40201708","SMAN 1 BUALEMO","JL.W. MONGONSIDI 07","Prop. Sulawesi Tengah","SMA","-.5826590","123.1448150"
"69827631","SMAN LIANG","JL. SISWA NO. 2","Prop. Sulawesi Tengah","SMA","-1.6031000","123.1956000"
"40204321","SMAN 2 PAGIMANA","JL. UTE MUSTARI","Prop. Sulawesi Tengah","SMA","-.7759000","122.5053000"
"40202951","SMAN 1 MEPANGA","JL. TRANS SULAWESI","Prop. Sulawesi Tengah","SMA",".5186000","120.6609000"
"40202312","SMAS ATMAJAYA","JL. MAGAMU NO. 82","Prop. Sulawesi Tengah","SMA","1.0422000","120.8185000"
"40203843","SMAS YPST PORAME","JL. TADULAKO","Prop. Sulawesi Tengah","SMA","-.9541000","119.8368000"
