"schoolId","schoolName","schoolAddress","province","school_level","lat","long"
"40314404","SMAS BATARA GOWA","JL. MALINO NO. 48","Prop. Sulawesi Selatan","SMA","-5.2108983","119.4581133"
"69900830","SMA  NEGERI 19 BULUKUMBA","LINGKUNGAN GUSUNG,E JL. SUKUN KELURAHAN  JALANJANG KM.08 KABUPATEN BULUKUMBA","Prop. Sulawesi Selatan","SMA","-5.5004000","120.0953000"
"40306108","SMAN 1 BAJO","JL. JAMBU","Prop. Sulawesi Selatan","SMA","-3.3645000","120.3198000"
"40309848","SMAS MATARI ALLO","JL. PANGERAN DIPONEGORO. 100 RANTEPAO","Prop. Sulawesi Selatan","SMA","-2.9695420","119.9048920"
"40312579","SMAN 1 TANA LILI","JL. KIHAJAR DEWANTARA","Prop. Sulawesi Selatan","SMA","-2.6301000","120.5681000"
"40303663","SMAN 1 WATANSOPPENG","JL. SAMUDRA NO.2","Prop. Sulawesi Selatan","SMA","-4.3557000","119.8828000"
"40318874","SMAN 1 BAJENG BARAT","JL.POROS LIMBUNG-GALENGSONG","Prop. Sulawesi Selatan","SMA","-5.3141000","119.4166000"
"40307236","SMA FRATER MAKASSAR","JL. KUMALA NO. 151","Prop. Sulawesi Selatan","SMA","-5.1776000","119.4159000"
"40300674","SMAS PESANTREN IMMIM MINASATE NE","JL. H. FADLI LURAN","Prop. Sulawesi Selatan","SMA","-4.8393000","119.5742000"
"69946523","SMA Negeri 2 Tamalatea","Serukang","Prop. Sulawesi Selatan","SMA","-5.6526232","119.6947017"
"69924506","SMA FILADELFIA","Komp. Golden Park (Azalea) Panakkukang","Prop. Sulawesi Selatan","SMA","-5.1330188","119.4620524"
"40318868","SMAN 2 SABBANG","Jalan Kemakmuran","Prop. Sulawesi Selatan","SMA","-2.7197000","120.1815000"
"40302147","SMAN 1 MALLUSETASI","JL. H.A TJAMBOLANG NO. 5","Prop. Sulawesi Selatan","SMA","-4.1855000","119.6312000"
"69728682","SMAS IT AN-NAS 1 MANDAI","BONTOA","Prop. Sulawesi Selatan","SMA","-5.0435000","119.5682000"
"40303162","SMAN 1 PENRANG","JL. RADDAE POROS DOPING - JALANG","Prop. Sulawesi Selatan","SMA","-4.0472000","120.0462000"
"40305842","SMAN 1 MAIWA","JL. JERUK MANIS MARANGIN","Prop. Sulawesi Selatan","SMA","-3.7499000","119.8602000"
"40302552","SMAN 1 WATAMPONE","JL. TERNATE NO. 1 WATAMPONE","Prop. Sulawesi Selatan","SMA","-4.5428000","120.3217000"
"40307361","SMA NUR KARYA TIDUNG","JL. LETJEN HERTASNING NO. 1","Prop. Sulawesi Selatan","SMA","-5.1436000","119.4173000"
"40305470","SMAN 2 PANCA RIJANG","JL. LASINRANG NO. 94 RAPPANG","Prop. Sulawesi Selatan","SMA","-3.8502490","119.8429140"
"69876149","SMA IT CENDEKIA BAJIMINASA","Dusun Saukang","Prop. Sulawesi Selatan","SMA","-5.5211370","120.0455050"
"40313357","SMAS DARMAYADI","JL. SUKARIA NO. 22","Prop. Sulawesi Selatan","SMA","-5.1439000","119.4419000"
"40313257","SMAS ITIHAD","JL. GUNUNG LOKONG NO. 44","Prop. Sulawesi Selatan","SMA","-5.1371000","119.4185000"
"40311045","SMAN KALAENA","JL. PENDIDIKAN","Prop. Sulawesi Selatan","SMA","-2.4824000","120.8948000"
"69924509","SMA. MAKASSAR INDEPENDENT SCHOOL","Jl. Bontolempangan No.19 Makassar","Prop. Sulawesi Selatan","SMA","-5.1369324","119.4150117"
"40313631","SMA NEGERI  KHUSUS JENEPONTO","JL. KESEHATAN NO. 101","Prop. Sulawesi Selatan","SMA","-5.6828570","119.7497830"
"40301549","SMAN 1 POLONGBANGKENG UTARA","Jl. Hj. Manila Dg. Pati Palleko","Prop. Sulawesi Selatan","SMA","-5.3590000","119.4554000"
"40306546","SMAN 1 SANGALLA","KAMBIRA KAERO","Prop. Sulawesi Selatan","SMA","-3.0805000","119.9167000"
"40310356","SMAN 1 MA`RANG","JL. PASAR BARU KELURAHAN TALAKA","Prop. Sulawesi Selatan","SMA","-4.7064000","119.5506000"
"40313369","SMAN 13 BULUKUMBA","DESA TANAH TOWA","Prop. Sulawesi Selatan","SMA","-5.3160000","120.2882000"
"40318469","SMAN 3 SINJAI SELATAN","JL. A. MASSALINRI BIKERU 1","Prop. Sulawesi Selatan","SMA","-5.2565000","120.1455000"
"40314692","SMAN 1 SAJOANGING","JL. POROS PALOPO-MAKASSAR","Prop. Sulawesi Selatan","SMA","-3.9382000","120.2668000"
"40314402","SMAN 1 BONTOLEMPANGAN","JL.POROS SAPAYA - MALAKAJI","Prop. Sulawesi Selatan","SMA","-5.3805000","119.8015000"
"40308578","SMAN 2 POLONGBANGKENG UTARA","JL. POROS PABRIK GULA","Prop. Sulawesi Selatan","SMA","-5.3613000","119.4868000"
"40303986","SMA NEGERI 1 BANTAENG","JL. T.A. GANI BANTAENG","Prop. Sulawesi Selatan","SMA","-5.5390000","119.9393000"
"40306550","SMAN 1 SALUPUTTI","JL. RAYA REMBON ULUSALU","Prop. Sulawesi Selatan","SMA","-3.0616000","119.7700000"
"69771378","SMAN 2 GALESONG SELATAN","BONTOKASSI","Prop. Sulawesi Selatan","SMA","-5.3466000","119.3719000"
"40310712","SMAN 2 LIBURENG","JL. KELURAHAN TANA BATUE","Prop. Sulawesi Selatan","SMA","-4.8832000","120.0851000"
"40314356","SMAN 1 MAPPEDECENG","JL. TRANS CENDANA PUTIH","Prop. Sulawesi Selatan","SMA","-2.6316000","120.4020000"
"69814064","SMAS KRISTEN 2 RANTEPAO","RANTEPAO","Prop. Sulawesi Selatan","SMA","-2.9702520","119.9013020"
"40304857","SMAS MUHAMMADIYAH BENTENG","JL. RA KARTINI","Prop. Sulawesi Selatan","SMA","-6.1169000","120.4606000"
"40307362","SMA MUHAMMADIYAH 7 MAKASSAR","JL. MUHAMMAD JUFRI NO. 34","Prop. Sulawesi Selatan","SMA","-5.1861000","119.3889000"
"40305149","SMAS LASINRANG","JL. JENDERAL SUKAWATI","Prop. Sulawesi Selatan","SMA","-3.8023000","119.6496000"
"40314638","SMAN 2 PITUMPANUA","JL. ANDI CAPPE NO.99","Prop. Sulawesi Selatan","SMA","-3.7288000","120.3472000"
"40310369","SMAN 1 SINJAI BORONG","JL. PERSATUAN RAYA","Prop. Sulawesi Selatan","SMA","-5.3123000","120.0342000"
"40311934","SMAS DATUK RIBANDANG","JL. GATOT SUBROTO 4 NO. 42","Prop. Sulawesi Selatan","SMA","-5.1164000","119.4364000"
"40309308","SMAN 1 LAROMPONG SELATAN","JL. POROS SIWA - BELOPA KM 86 KEL.BONEPUTE KODE POS 91998","Prop. Sulawesi Selatan","SMA","-3.6325000","120.4091000"
"40301858","SMAN 1 KELARA","JL. PAHLAWAN TOLO","Prop. Sulawesi Selatan","SMA","-5.5604770","119.8023730"
"69753239","SMAN 2 SINJAI BARAT","JL. PERSATUAN RAYA, ARABIKA","Prop. Sulawesi Selatan","SMA","-5.2448000","120.0130000"
"40301141","SMAN 1 BAJENG","JL.PENDIDIKAN LIMBUNG","Prop. Sulawesi Selatan","SMA","-5.3035000","119.4370000"
"40310709","SMAN 1 LIBURENG","Parigi","Prop. Sulawesi Selatan","SMA","-4.5186000","119.7374000"
"40311943","SMAS MAKASSAR RAYA","JL. CENDERAWASIH NO. 422","Prop. Sulawesi Selatan","SMA","-5.1701000","119.4097000"
"40311894","SMAN 7 MAKASSAR","JL.PERINTIS KEMERDEKAAN KOMP 18","Prop. Sulawesi Selatan","SMA","-5.0813000","119.5337000"
"69888402","SMA Negeri Khusus Keberbakatan Olahraga Provinsi Sulawesi Selatan","Jl. Pajjaiang, Komp. GOR Sudiang, Makassar","Prop. Sulawesi Selatan","SMA","-5.1152710","119.5192710"
"40316257","SMAN 1 SIMBUANG","JL. Pendidikan No.1 Puangbembe","Prop. Sulawesi Selatan","SMA","-3.0866000","119.7878000"
"40313559","SMAS BUQ ATUN MUBARAKAH","JL. KH. A. JABBAR ASHIRY NO. 1","Prop. Sulawesi Selatan","SMA","-5.0802000","119.5114000"
"40307801","SMAN 1 PALOPO","JL. A. PANGERANG NO. 4","Prop. Sulawesi Selatan","SMA","-2.9944000","120.1880000"
"40305151","SMA NEGERI  9 PINRANG","JL. POROS CEMPA - SIKKUALE","Prop. Sulawesi Selatan","SMA","-3.7442000","119.5782000"
"69948079","SMA INSAN KAMIL","JL. PADJONGA DG NGALLE","Prop. Sulawesi Selatan","SMA","-5.2942040","119.4440780"
"40306916","SMAN 1 SABBANG","JL PENDIDIKAN KELURAHAN MAROBO  KECAMATAN SABBANG","Prop. Sulawesi Selatan","SMA","-2.6222000","120.2252000"
"40304853","SMAN 1 PASIMASUNGGU TIMUR","Jalan Pendidikan No. 50 Ujung Jampea","Prop. Sulawesi Selatan","SMA","-7.0834000","120.7462000"
"69956386","SMA NURSYA","JL. Pendidikan","Prop. Sulawesi Selatan","SMA","-5.2372000","119.3880000"
"40305469","SMAN 1 WATANG PULU","JL. JEND SUDIRMAN NO.69 A  BOJOE","Prop. Sulawesi Selatan","SMA","-3.9095000","119.7554000"
"69946815","SMA ISLAM NURUL ILMI","ULU ALLA","Prop. Sulawesi Selatan","SMA","-5.3806000","119.8727000"
"40301859","SMAN 1 BINAMU","JL. PEDIDIKAN NO. 50","Prop. Sulawesi Selatan","SMA","-5.6907970","119.7252830"
"40310708","SMAN 1 CENRANA","JL. POROS WATU","Prop. Sulawesi Selatan","SMA","-4.3411000","120.3200000"
"40305523","SMAS MUHAMMADIYAH PANGSID","JL. GANGGAWA NO. 151  PANGKAJENE","Prop. Sulawesi Selatan","SMA","-3.8450000","119.8141000"
"40304256","SMAN 5 BULUKUMBA","JL. SO LARIENG","Prop. Sulawesi Selatan","SMA","-5.3321000","120.3622000"
"40304497","SMAN 1 SINJAI BARAT","JL. KEMAKMURAN NO. A 305 MANIPI SINJAI BARAT","Prop. Sulawesi Selatan","SMA","-5.2565000","120.1455000"
"40307392","SMAN 5 MAKASSAR","JL.TAMAN MAKAM PAHLAWAN","Prop. Sulawesi Selatan","SMA","-5.1488000","119.4612000"
"40303175","SMAN 1 BELAWA","JL. KEMAKMURAN ONGKOE","Prop. Sulawesi Selatan","SMA","-3.9607000","119.9393000"
"40301018","SMAN 1 BONTONOMPO","TAMALLAYANG","Prop. Sulawesi Selatan","SMA","-5.3359000","119.4449000"
"69830678","SMAN 1 BUKI","BARUIA","Prop. Sulawesi Selatan","SMA","-5.9721000","120.4535000"
"40307796","SMAS VETERAN PALOPO","JL. TANDIPAU NO. 12 KOTA PALOPO","Prop. Sulawesi Selatan","SMA","-3.0046000","120.1854000"
"40307810","SMAS FRATER PALOPO","JL. VETERAN NO. 62 A PALOPO","Prop. Sulawesi Selatan","SMA","-2.9956000","120.1866000"
"40306084","SMAN 1 LAMASI","JL. ANDI JEMMA","Prop. Sulawesi Selatan","SMA","-2.8132000","120.1965000"
"40305845","SMAN 1 ALLA","JL. POROS MAKASAR TATOR KM. 275","Prop. Sulawesi Selatan","SMA","-3.3323000","119.8269000"
"40310710","SMAN 1 PATIMPENG","JL. DS. MASAGO","Prop. Sulawesi Selatan","SMA","-4.9448000","120.1197000"
"40308327","SMAN 10 SIMBANG - MAROS","GARANTIGA","Prop. Sulawesi Selatan","SMA","-5.0355000","119.6333000"
"40300282","SMAN 3 LAU MAROS","JL. PENDIDIKAN NO. 23 MAROS","Prop. Sulawesi Selatan","SMA","-4.9740000","119.5745000"
"40312014","SMAN 13 MAKASSAR","JL.TAMANGAPA RAYA III NO.37","Prop. Sulawesi Selatan","SMA","-5.1757000","119.4784000"
"60728939","SMAN 1 ARUNGKEKE","Kassika","Prop. Sulawesi Selatan","SMA","-5.6896000","119.7800000"
"40306508","SMAS KRISTEN MAKALE","JL. NUSANTARA NO. 16 MAKALE","Prop. Sulawesi Selatan","SMA","-3.1010000","119.8534000"
"40307369","SMAS KATOLIK RAJAWALI","JL. LAMADUKELLENG NO. 07","Prop. Sulawesi Selatan","SMA","-5.1445000","119.4116000"
"40313356","SMAS MANDIRI MAKASSAR","JL. BORONG RAYA V/3","Prop. Sulawesi Selatan","SMA","-5.1614000","119.4636000"
"40319097","SMAN 3 BAJO","PANGI","Prop. Sulawesi Selatan","SMA","-3.3479000","120.1386000"
"40310212","SMAS HARAPAN BHAKTI","JL. BORONG RAYA","Prop. Sulawesi Selatan","SMA","-5.1626000","119.4593000"
"40312013","SMAN 12 MAKASSAR","JL.MOHA LASULORO 57 ANTANG","Prop. Sulawesi Selatan","SMA","-5.1632000","119.4835000"
"40316588","SMAN 2 SINJAI SELATAN","JL. BUARENG DG PARANI","Prop. Sulawesi Selatan","SMA","-5.2124000","120.2237000"
"40304858","SMAS AL QUR AN BABUSSALAM","MATALALANG","Prop. Sulawesi Selatan","SMA","-6.1591000","120.4548000"
"40311956","SMAS TRI DARMA MKGR","JL. URIF SUMOHARJO NO230","Prop. Sulawesi Selatan","SMA","-5.1352000","119.4302000"
"40309315","SMAN 1 BELOPA","JL. TOPOKA","Prop. Sulawesi Selatan","SMA","-3.3981000","120.3698000"
"40308581","SMAS PESANTREN AL-QAMAR","JL. ABDUL BAKI DG NYAU","Prop. Sulawesi Selatan","SMA","-5.4277000","119.4588000"
"40310161","SMAS YPS SOROAKO","JL. JAWA NO. 1 SOROAKO","Prop. Sulawesi Selatan","SMA","-2.5164000","121.3404000"
"40306083","SMAN 1 LAROMPONG","Jln. Poros Palopo-Makassar Km.70 Larompong","Prop. Sulawesi Selatan","SMA","-3.5139000","120.3697000"
"40302691","SMAN 1 TELLUSIATTINGE","Jl. Poros Bone-Wajo","Prop. Sulawesi Selatan","SMA","-4.3982000","120.2699000"
"40314466","SMAN 1 PARIGI","JL. PENDIDIKAN","Prop. Sulawesi Selatan","SMA","-5.2853000","119.8349000"
"40313254","SMAN 1 BOLA","JL. POROS PENEKI","Prop. Sulawesi Selatan","SMA","-4.2328000","120.2467000"
"40314138","SMAS PERGIS YAPKI MAROS","JL. DR. RATULANGI NO. 62","Prop. Sulawesi Selatan","SMA","-4.9974500","119.5728650"
"40304499","SMAN 1 SINJAI TIMUR","Jl. Karaeng Badong No. 7 Tondong","Prop. Sulawesi Selatan","SMA","-5.1538517","120.2181650"
"40314037","SMAS GOWA RAYA","JL. SIRAJUDDIN RANI NO. 39 A BONTO-BONTOA","Prop. Sulawesi Selatan","SMA","-5.2050217","119.4537483"
"40300281","SMAN 5 TANRALILI - MAROS","POROS AMARANG - CARANGKI KAB.MAROS","Prop. Sulawesi Selatan","SMA","-5.0762000","119.6138000"
"40313735","SMAS SOMBA OPU","JL. SULTAN HASANUDDIN NO.34 SUNGGUMINASA","Prop. Sulawesi Selatan","SMA","-5.2011967","119.4470733"
"40309857","SMAN 1 Kesu","JL. POROS MAKALE RANTEPAO","Prop. Sulawesi Selatan","SMA","-3.0016720","119.8792450"
"40306085","SMAN 1 BUA PONRANG","JL. PENDIDIKAN NO. 24","Prop. Sulawesi Selatan","SMA","-3.2278000","120.2902000"
"40305166","SMA NEGERI  8 PINRANG","JL.POROS PINRANG - POLMAN","Prop. Sulawesi Selatan","SMA","-3.5464000","119.5305000"
"40308579","SMAN 1 GALESONG SELATAN","JL. SIDDIK NO. 1","Prop. Sulawesi Selatan","SMA","-5.3173000","119.3646000"
"40306082","SMAN 1 WALENRANG","JL. OPU DAENG RISAJU","Prop. Sulawesi Selatan","SMA","-2.8477000","120.1202000"
"40314453","SMAN 1 BONTONOMPO SELATAN","JL. Pendidikan","Prop. Sulawesi Selatan","SMA","-5.3999000","119.3877000"
"40304247","SMAN 3 BULUKUMBA","JL. TANAHBERU","Prop. Sulawesi Selatan","SMA","-5.5248000","120.3613000"
"40313291","SMAN 1 PANCA LAUTANG","JL. POROS SOPPENG","Prop. Sulawesi Selatan","SMA","-4.0502000","119.8217000"
"40301855","SMAN 2 BINAMU","JL. ABD. DJALIL SIKKI NO. 82","Prop. Sulawesi Selatan","SMA","-5.6802180","119.7228850"
"69880250","SMA NEGERI 1 TELLU LIMPOE","TUJUE","Prop. Sulawesi Selatan","SMA","-4.4065370","120.2379870"
"69959541","SMA KECIL PULAU KARANRANG","PULAU KARANRANG","Prop. Sulawesi Selatan","SMA","-4.8566000","119.3857000"
"40305843","SMAN 1 ENREKANG","JL. JENDERAL SUDIRMAN NO. 9","Prop. Sulawesi Selatan","SMA","-3.5657000","119.7765000"
"69929485","SMA. AL MUTTAQIEM","Jl. Sultan Abdullah 1 RT.8 RW.2","Prop. Sulawesi Selatan","SMA","-5.1162004","119.4391050"
"40301856","SMAN 1 BANGKALA","JL. PENDIDIKAN","Prop. Sulawesi Selatan","SMA","-5.6097000","119.5904000"
"40309314","SMAN 1 BASTEM","JL. PANTILANG","Prop. Sulawesi Selatan","SMA","-3.1003000","120.0449000"
"40313304","SMAS KARYA 2 MAKASSAR","JL. LETJEN HERTASNING","Prop. Sulawesi Selatan","SMA","-5.1967000","119.3871000"
"40305499","SMAN 1 PANGSID","Jl. Wolter Monginsidi No. 4","Prop. Sulawesi Selatan","SMA","-3.9320000","119.7927000"
"40305079","SMA NEGERI 1 PINRANG","JL. JENDERAL URIP SUMOHARJO NO. 2","Prop. Sulawesi Selatan","SMA","-3.8026000","119.6506000"
"40302661","SMAN 1 AJANGALE","Jln. Jend. Ahmad Yani Pompanua","Prop. Sulawesi Selatan","SMA","-4.2286000","120.1474000"
"40307355","SMAS SARIBUANA","JL. PELITA RAYA NO. 2B RT.03 RW.05","Prop. Sulawesi Selatan","SMA","-5.1449000","119.4398000"
"40311885","SMAN 10 MAKASSAR","JL.TAMANGAPA V NO.12","Prop. Sulawesi Selatan","SMA","-5.1855000","119.4884000"
"69786502","SMAS DARUL IHSAN CIPOTAKARI","JALAN PESANTREN NO. 17 CIPOTAKARI","Prop. Sulawesi Selatan","SMA","-3.7521000","119.7868000"
"40319013","SMAS MUHAMMADIYAH BONTOMARANNU","BONTOMARANNU","Prop. Sulawesi Selatan","SMA","-5.2353000","119.5092000"
"40304506","SMAN 1 BULUPODDO","JL. PENDIDIKAN NO. 12, ARUHU","Prop. Sulawesi Selatan","SMA","-5.1025000","120.1902000"
"40302551","SMAN 1 ULAWENG","JL. POROS BONE-MAKASSAR KM 17","Prop. Sulawesi Selatan","SMA","-4.5070000","120.1907000"
"40319206","SMAS AMANAH NUSANTARA","Jl. Borong Jambu 1 Utara No.7 Makassar","Prop. Sulawesi Selatan","SMA","-5.1651000","119.4080000"
"40312010","SMAN 1 MAKASSAR","JL. GUNUNG BAWAKARAENG NO. 53","Prop. Sulawesi Selatan","SMA","-5.1348000","119.4187000"
"40309863","SMAN 2 MENGKENDEK","JL. POROS MAKALE MAKASAR, KM 30","Prop. Sulawesi Selatan","SMA","-3.2710000","119.8608000"
"40311945","SMA MUHAMMADIYAH 4","Jalan Gagak Lrg. 4 No. 4","Prop. Sulawesi Selatan","SMA","-5.1605000","119.4107000"
"40310154","SMAN 1 MALILI","JL. MONTOLALU KOMPLEKS PT INCO MALILI","Prop. Sulawesi Selatan","SMA","-2.6317000","121.0975000"
"40300290","SMAS AL-IHSAN LEKOPANCING","POROS AMARANG CARANGKI","Prop. Sulawesi Selatan","SMA","-5.0975000","119.5865000"
"40307696","SMA NEGERI 4 PAREPARE","JL. LASIMING NO. 22","Prop. Sulawesi Selatan","SMA","-4.0134700","119.6302400"
"40314217","SMAN 14 BULUKUMBA","JL. PELANTIKAN DESA SALASSAE","Prop. Sulawesi Selatan","SMA","-5.5519000","120.1959000"
"40310219","SMAN 22 MAKASSAR","JL. PAJJAIANG KOMP. KOR/KNPI  SUDIANG","Prop. Sulawesi Selatan","SMA","-5.1041000","119.5313000"
"40311954","SMAS YP PGRI 3 MAKASSAR","JL. SINGA NO. 2","Prop. Sulawesi Selatan","SMA","-5.1585000","119.4177000"
"40301036","SMAN 1 TOMPOBULU","JL.CIKORO","Prop. Sulawesi Selatan","SMA","-5.4221000","119.8609000"
"40303177","SMAN 1 MANIANGPAJO","JL. PARE-PARE NO. 3","Prop. Sulawesi Selatan","SMA","-3.9443000","120.0629000"
"40313916","SMAS TAMAN SISWA TAMALATE","JL. SULTAN ALAUDDIN NO. 42","Prop. Sulawesi Selatan","SMA","-5.1685000","119.4272000"
"40316634","SMAN 2 MALANGKE","LORONG BALI","Prop. Sulawesi Selatan","SMA","-2.7216000","120.3384000"
"40302150","SMAS MUHAMMADIYAH TAKKALASI","Jl. H. A. Palloge No. 6 Takkalasi","Prop. Sulawesi Selatan","SMA","-4.3157000","119.6367000"
"40310711","SMAN 1 SALOMEKKO","Kelurahan Pancaitana","Prop. Sulawesi Selatan","SMA","-5.0081000","120.1816000"
"40303174","SMAS PRIMA SENGKANG","JL. SULTAN HASANUDDIN NO. 27 SENGKANG","Prop. Sulawesi Selatan","SMA","-4.1512000","120.0388000"
"40307377","SMAN 20 MAKASSAR","JL. BONTO BIRAENG","Prop. Sulawesi Selatan","SMA","-5.2026000","119.3984000"
"40313358","SMAS TAMALATEA","JL. TANGGUL PATOMPO","Prop. Sulawesi Selatan","SMA","-5.1813000","119.4115000"
"40306918","SMAN 1 MALANGKE BARAT","JL.POROS BETON KM AMASSANGAN KEC. MALANGKE BARAT KAB. LUWU UTARA","Prop. Sulawesi Selatan","SMA","-2.8104000","120.3553000"
"40300670","SMAN 1 LIUKANG KALMAS","PULAU KALUKALUKUANG","Prop. Sulawesi Selatan","SMA","-5.1954856","117.6573750"
"40313182","SMAS MUHAMMADIYAH KALOSI","JL. BELAJEN POROS MAKASSAR TATOR","Prop. Sulawesi Selatan","SMA","-3.3295000","119.8254000"
"40306917","SMAN 1 MASAMBA","JL. K.H. AHMAD DAHLAN N0. 2","Prop. Sulawesi Selatan","SMA","-2.5491000","120.3201000"
"40301861","SMAN 1 BANGKALA BARAT","JL. POROS MAKASSAR JENEPONTO KM. 60","Prop. Sulawesi Selatan","SMA","-5.5609000","119.5397000"
"40305082","SMAS DDI PINRANG","JL. ANDRIAS WAHANI NO. 27","Prop. Sulawesi Selatan","SMA","-3.7938000","119.6539000"
"40302669","SMAN 1 SIBULUE","JL. PATTIRO BAJO","Prop. Sulawesi Selatan","SMA","-4.6619000","120.3551000"
"40307354","SMA SANUR MAKASSAR","JL. ABDULLAH DG. SIRUA /TOA DAENG 2 No 15 Makassar","Prop. Sulawesi Selatan","SMA","-5.1504000","119.4671000"
"40304255","SMAN 10 BULUKUMBA","JL. REMAJA BONTO BANGUN","Prop. Sulawesi Selatan","SMA","-5.3883000","120.1671000"
"40315299","SMAS AMI MAKASSAR","JL. NURI BARU NO. 1","Prop. Sulawesi Selatan","SMA","-5.1631000","119.4776000"
"40316624","SMAS PGRI PULAU SALEMO","PULAU SALEMO","Prop. Sulawesi Selatan","SMA","-4.5639000","119.4275000"
"40311939","SMAS ELLIM","JL. PERINTIS KEMERDEKAAN KM 11","Prop. Sulawesi Selatan","SMA","-5.1339000","119.4994000"
"40303665","SMAN 3 WATANSOPPENG","JL. MALAKA RAYA NO.41","Prop. Sulawesi Selatan","SMA","-4.3433000","119.8883000"
"40306920","SMAN 1 BAEBUNTA","JL. PENDIDIKAN","Prop. Sulawesi Selatan","SMA","-2.6009000","120.2559000"
"40300676","SMAN 1 BUNGORO","JL. A. MAPPE_BUNGORO","Prop. Sulawesi Selatan","SMA","-4.7853000","119.6643000"
"40310706","SMAN 1 AWANGPONE","PACCING","Prop. Sulawesi Selatan","SMA","-4.4842000","120.2968000"
"69849607","SMA NEGERI 3 PANGKAJENE","JL.KARAENG BARASA","Prop. Sulawesi Selatan","SMA","-4.8753480","119.5599970"
"69728683","SMAS IT AN-NAS 2 CENRANA MAROS","CENRANA","Prop. Sulawesi Selatan","SMA","-5.0161000","119.7631000"
"40310211","SMAS DIAN HARAPAN","JL. GUNUNG AGUNG NO. 201","Prop. Sulawesi Selatan","SMA","-5.1792000","119.3977000"
"40302149","SMAS PGRI SOPPENG RIAJA","JL. PACCEKKE NO. 8 MANGKOSO","Prop. Sulawesi Selatan","SMA","-4.2628000","119.6305000"
"69758135","SMAS ISLAM GALESONG","JL SALEWATANG NO.07","Prop. Sulawesi Selatan","SMA","-5.3733000","119.3742000"
"40303726","SMAS ISLAM YASRIB","JL.MERDEKA NO.45","Prop. Sulawesi Selatan","SMA","-4.3466000","119.8818000"
"40311942","SMAS LPP YBW UMI MAKASSAR","JL. KAKATUA NO. 27","Prop. Sulawesi Selatan","SMA","-5.1912000","119.3832000"
"69766968","SMA HIDAYATULLAH PAREPARE","JL. SAKINAH","Prop. Sulawesi Selatan","SMA","-4.0317600","119.6329100"
"40304855","SMAN 1 BONTOMATENE","BATANGMATA","Prop. Sulawesi Selatan","SMA","-5.9288000","120.4513000"
"69954609","SMA KECIL PULAU SATANDO","Pulau Satando","Prop. Sulawesi Selatan","SMA","-4.7720740","119.4471140"
"40310714","SMAS PEMBAHARUAN WATAMPONE","JL. LAPAWAWOI KR. SIGERI","Prop. Sulawesi Selatan","SMA","-4.5521000","120.3166000"
"69753686","SMAN 2 LIUKANG KALMAS","Pulau Pamantauang","Prop. Sulawesi Selatan","SMA","-5.0194040","117.0723120"
"40301035","SMAN 1 TINGGIMONCONG","JL. PENDIDIKAN","Prop. Sulawesi Selatan","SMA","-5.2530000","119.8603000"
"40302664","SMAN 1 KAJUARA","JL. PAHLAWAN","Prop. Sulawesi Selatan","SMA","-5.0748000","120.2701000"
"40307799","SMAS MUHAMMADIYAH PALOPO","JL. KH. AHMAD DAHLAN NO. 60","Prop. Sulawesi Selatan","SMA","-2.9993000","120.1957000"
"40312418","SMAS AL IMAN ULUALE","JL. POROS RAPPANG PAREPARE","Prop. Sulawesi Selatan","SMA","-3.8934000","119.7498000"
"40308582","SMAS PESANTREN TARBIYAH POLUT","JL. H. MANILA DG PATI","Prop. Sulawesi Selatan","SMA","-5.3570000","119.4567000"
"69909519","SMAN 2 TOWUTI","UPT. SP.I MAHALONA","Prop. Sulawesi Selatan","SMA","-2.5657000","121.5180000"
"40314624","SMAS YASPIB BONTOLEMPANGAN","JL. POROS SAPAYA MALAKAJI","Prop. Sulawesi Selatan","SMA","-5.4194000","119.8197000"
"40306919","SMAN 1 BONE BONE","JL. PENDIDIKAN","Prop. Sulawesi Selatan","SMA","-2.5962000","120.5234000"
"40309842","SMAS ADVENT MEBALI","JL. POROS MEBALI GANDANGBATU","Prop. Sulawesi Selatan","SMA","-3.1976000","119.8737000"
"40313205","SMAS DH PEPABRI MAKASSAR","JL. G. BATU PUTIH NO. 38 MAKASSAR","Prop. Sulawesi Selatan","SMA","-5.1475000","119.4205000"
"40302663","SMAN 1 KAHU","JL. CAKKELE No. 3 BALLE","Prop. Sulawesi Selatan","SMA","-4.9679000","120.1218000"
"40301124","SMAS HASANUDDIN","JL. MATAHARI NO.4  SUNGGUMINASA","Prop. Sulawesi Selatan","SMA","-5.2113350","119.4592067"
"69788679","SMAN 2 BONTORAMBA","Jl. Poros Barobbo","Prop. Sulawesi Selatan","SMA","-5.5502000","119.6663000"
"40307219","SMAS BONERATE","JL. TERNATE LR. 238/ I MAKASSAR","Prop. Sulawesi Selatan","SMA","-5.1259000","119.4121000"
"40305844","SMAN 1 ANGGERAJA","JL. POROS MAKASSAR TATOR","Prop. Sulawesi Selatan","SMA","-3.4146000","119.7988000"
"40313883","SMAN 11 BULUKUMBA","JL. HASAN SULAEMAN NO. 7 BONTOTANGNGA","Prop. Sulawesi Selatan","SMA","-5.4412000","120.3589000"
"40309865","SMAN 3 MAKALE","JL. Nusantara no. 69a","Prop. Sulawesi Selatan","SMA","-3.0986000","119.8529000"
"69865667","SMA Islam Darussalam Pannyangkalang","Jl. Jannang Djibu","Prop. Sulawesi Selatan","SMA","-5.3105000","119.4460000"
"40303983","SMA NEGERI 2 BANTAENG","JL. ELANG NO. 52 BANTAENG","Prop. Sulawesi Selatan","SMA","-5.5446000","119.9519000"
"69955147","SMA ISLAM NURUL AS ADIYAH LASSA LASSA","KAMPUNG BERU","Prop. Sulawesi Selatan","SMA","-5.3929490","119.8315360"
"69755670","SMAS ISLAM ATHIRAH BUKIT BARUGA","JL. RAYA BARUGA SEKTOR MAHAMERU BUKIT BARUGA, MAKASSAR","Prop. Sulawesi Selatan","SMA","-5.1354000","119.4093000"
"40310824","SMAN 1 KEERA","JL. POROS MAKASSAR - PALOPO","Prop. Sulawesi Selatan","SMA","-3.8269000","120.3219000"
"40301037","SMAN 2 TINGGI MONCONG","JL.POROS MAKASSAR-MALINO KM62 TINGGIMONCONG","Prop. Sulawesi Selatan","SMA","-5.2725000","119.8148000"
"40310825","SMAN 1 SABBANGPARU","JL. POROS SENGKANG SOPPENG","Prop. Sulawesi Selatan","SMA","-4.1834000","120.0195000"
"40303729","SMAS CALIO","SALAONRO","Prop. Sulawesi Selatan","SMA","-4.3386000","119.9956000"
"40303176","SMAN 1 MAJAULENG","PARIA","Prop. Sulawesi Selatan","SMA","-4.1837000","120.0191000"
"40318190","SMAN 1 BENGO","Jl. Poros Bone-Makassar KM.43 Bengo Kec. Bengo","Prop. Sulawesi Selatan","SMA","-4.5925000","120.0358000"
"69762670","SMAN 2 PALLANGGA","JULUBORI","Prop. Sulawesi Selatan","SMA","-5.2617917","119.4673083"
"40312633","SMAS MAKASSAR MULYA","JL. TAMANGAPA RAYA NO. 258","Prop. Sulawesi Selatan","SMA","-5.1840000","119.4886000"
"40312581","SMAN 2 SUKAMAJU","Jl. Jenderal Sudirman lr. 1c Mulyorejo","Prop. Sulawesi Selatan","SMA","-2.6501000","120.4733000"
"40311046","SMAN 1 TOMONI TIMUR","KERTORAHARJO","Prop. Sulawesi Selatan","SMA","-2.5322000","120.8661000"
"69734328","SMAN 2 LIUKANG TANGAYA","PULAU SABARU","Prop. Sulawesi Selatan","SMA","-6.8493000","119.0984000"
"40306081","SMAN 1 BOSSO","JL. POROS PALOPO-MASAMBA KM. 25","Prop. Sulawesi Selatan","SMA","-2.8116000","120.1259000"
"40310792","SMA NEGERI 2 WALENRANG","JL. RANTAI DAMAI","Prop. Sulawesi Selatan","SMA","-2.8719000","120.1577000"
"40310832","SMA NEGERI 5 PAREPARE","JL. KELAPA GADING NO. 69","Prop. Sulawesi Selatan","SMA","-4.0251600","119.6387200"
"40307691","SMA MUHAMMADIYAH PAREPARE","JL. MUHAMMADIYAH NO. 8","Prop. Sulawesi Selatan","SMA","-4.0068500","119.6307500"
"40311940","SMAS KR KONDO SAPATA","JL. SUNGAI SADDANG 2 NO. 5","Prop. Sulawesi Selatan","SMA","-5.1458000","119.4233000"
"40313414","SMAN 2 BULUKUMBA","JL. KEMAKMURAN NO. 27A TANETE","Prop. Sulawesi Selatan","SMA","-5.3364000","120.1385000"
"40304854","SMAN 1 BONTOSIKUYU","PARIANGAN","Prop. Sulawesi Selatan","SMA","-6.2473000","120.4716000"
"40313433","SMAS MUHAMMADIYAH LIMBUNG","JL. PENDIDIKAN LIMBUNG","Prop. Sulawesi Selatan","SMA","-5.2897000","119.4389000"
"40303163","SMAN 1 PAMMANA","JL. POROS SENGKANG BONE NO. 229","Prop. Sulawesi Selatan","SMA","-4.2013000","120.1026000"
"40301548","SMAN 1 TAKALAR","JL. TIKOLLA DG LEO","Prop. Sulawesi Selatan","SMA","-5.4345000","119.4367000"
"40313586","SMAS JAYA NEGARA","JL. BALANG BARU 2 NO. 56","Prop. Sulawesi Selatan","SMA","-5.1826000","119.4101000"
"40302530","SMAN 1 TONRA","JL. Poros Bone Sinjai","Prop. Sulawesi Selatan","SMA","-4.9246000","120.2852000"
"69774867","SMAN 1 MASALLE","JL. POROS KOTU - BAROKO","Prop. Sulawesi Selatan","SMA","-3.3397000","119.7489000"
"40314336","SMAS ISLAM PATANI","JL. H. ABD. WAHAB","Prop. Sulawesi Selatan","SMA","-5.4413000","119.4187000"
"40312503","SMAS DDI KASSI","JL. POROS KASSI - MAKASSAR","Prop. Sulawesi Selatan","SMA","-5.6210000","119.6306000"
"40312577","SMAN 1 MALANGKE","JL. DG. MANGATTA","Prop. Sulawesi Selatan","SMA","-2.7159000","120.4205000"
"40303728","SMAS PGRI WATANSOPPENG","JL. KAYANGAN","Prop. Sulawesi Selatan","SMA","-4.3563000","119.8814000"
"40307363","SMAS MUHAMMADIYAH 6 MAKASSAR","JL. MUHAMADIYAH NO. 51 B","Prop. Sulawesi Selatan","SMA","-5.1239000","119.4150000"
"40318948","SMAN 3 POLONGBANGKENG UTARA","MALOLO","Prop. Sulawesi Selatan","SMA","-5.3908000","119.5465000"
"40310826","SMAN 1 TAKALALLA","JL. A. MADDAREMMENG NO. 2","Prop. Sulawesi Selatan","SMA","-4.1515000","120.2729000"
"40306549","SMA Negeri 2 RANTEPAO","JL. LAPANGAN GEMBIRA","Prop. Sulawesi Selatan","SMA","-2.9713410","119.8991290"
"40304505","SMAN 1 SINJAI","JL. PERS. RAYA NO. 13","Prop. Sulawesi Selatan","SMA","-5.1161017","120.2575767"
"40305064","SMA NEGERI  3 PINRANG","JL. POROS PINRANG LANGNGA","Prop. Sulawesi Selatan","SMA","-3.8258000","119.5490000"
"40311892","SMAN 4 MAKASSAR","JL. CAKALANG NO. 3 MAKASSAR","Prop. Sulawesi Selatan","SMA","-5.1168000","119.4189000"
"40300275","SMAS SANUR MONCONGLOE","JL. DUSUN DICCEKANG","Prop. Sulawesi Selatan","SMA","-5.1832000","119.5669000"
"40311948","SMAN 14 MAKASSAR","JL.BAJIMINASA NO.9","Prop. Sulawesi Selatan","SMA","-5.1659000","119.4090000"
"40318557","SMAN 1 LATIMOJONG","JL GN LATIMOJONG","Prop. Sulawesi Selatan","SMA","-3.3673000","120.1762000"
"40307360","SMAS PROTESTAN","JL. SUNGAI SADDANG NO. 2","Prop. Sulawesi Selatan","SMA","-5.1459000","119.4164000"
"69774525","SMAS PLUS BUDI UTOMO MAKASSAR","Jl. Berua Raya No. 1a Makassar","Prop. Sulawesi Selatan","SMA","-5.1161000","119.5243000"
"40302146","SMAN 1 SOPPENG RIAJA","JL. Paccekke NO. 8 Mangkoso","Prop. Sulawesi Selatan","SMA","-4.2628000","119.6305000"
"40312580","SMAN 2 MASAMBA","JL. TAMAN SISWA NO.2","Prop. Sulawesi Selatan","SMA","-2.5545000","120.3195000"
"40311952","SMAN 18 MAKASSAR","KOMP. MANGGA TIGA PERMAI","Prop. Sulawesi Selatan","SMA","-5.1252000","119.5318000"
"40314365","SMAN 1 SINJAI TENGAH","JL. PELITA NO. 5, TALLE","Prop. Sulawesi Selatan","SMA","-5.1681000","120.1579000"
"40313956","SMAN 9 BULUKUMBA","JL. POROS DANNUANG BIRA","Prop. Sulawesi Selatan","SMA","-5.5210000","120.2640000"
"40301564","SMAN 3 TAKALAR","JL. ABDUL JALAL DG LEO NO.2","Prop. Sulawesi Selatan","SMA","-5.4284000","119.4376000"
"40311951","SMAN 17 MAKASSAR","JL. SUNU NO. 11","Prop. Sulawesi Selatan","SMA","-5.1206000","119.4297000"
"40305150","SMAS MUHAMMADIYAH","JL. NENAS NO. 130 PINRANG","Prop. Sulawesi Selatan","SMA","-3.7818000","119.6493000"
"40308580","SMAS PGRI 1 TAKALAR","JL. PENDIDIKAN NO.7","Prop. Sulawesi Selatan","SMA","-5.4352000","119.4373000"
"69822757","SMAN TERBUKA BUNGORO","JL. A. MAPPE NO. 1 BUNGORO","Prop. Sulawesi Selatan","SMA","-4.7620000","119.5062000"
"69755793","SMAN 3 MASAMBA","DESA SEPAKAT","Prop. Sulawesi Selatan","SMA","-2.4906000","120.3706000"
"40300277","SMAN 6 BONTOA - MAROS","JL. PENDIDIKAN NO. 20","Prop. Sulawesi Selatan","SMA","-4.9439000","119.5690000"
"40312578","SMAN 1 RAMPI","JL. PELONGKOA","Prop. Sulawesi Selatan","SMA","-2.4391000","120.4295000"
"60728922","SMAS BARINDO BINAMU","BOSALIA","Prop. Sulawesi Selatan","SMA","-5.6924480","119.7435000"
"40307350","SMAS IRNAS","JL. KUBIS NO. 64","Prop. Sulawesi Selatan","SMA","-5.1336000","119.4263000"
"40306506","SMAS KATOLIK RANTEPAO","JL. DR. W.MONGISIDI NO. 33","Prop. Sulawesi Selatan","SMA","-2.9688800","119.8969030"
"40306547","SMA Negeri 1 SESEAN","JL. POROS RANTEPAO SADAN KM. 7","Prop. Sulawesi Selatan","SMA","-2.9241530","119.9417820"
"40314201","SMAN 2 BUA PONRANG","Jl. Poros Palopo-Belopa KM. 28","Prop. Sulawesi Selatan","SMA","-3.2000000","120.2750000"
"40307375","SMAN 11 MAKASSAR","JL.LETJEN POL. MAPPAOUDANG No. 66","Prop. Sulawesi Selatan","SMA","-5.1716000","119.4160000"
"40302667","SMAN 1 LAPPARIAJA","JL. POROS MAKASSAR BONE KM 117","Prop. Sulawesi Selatan","SMA","-4.6903000","119.9974000"
"60702910","SMAN 1 PITU RIASE","JL. PENDIDIKAN NO. 7 BARUKKU","Prop. Sulawesi Selatan","SMA","-3.8367000","119.8723000"
"69959168","SMA PANNYANGKALANG","DUSUN PABUNDUKANG","Prop. Sulawesi Selatan","SMA",".0000000",".0000000"
"40310149","SMAS ISLAM MARGOLEMBO","JL TRANS SULAWESI MARGOLEMBO","Prop. Sulawesi Selatan","SMA","-2.4563000","120.8152000"
"40313197","SMAS NAHDIYAT MAKASSAR","JL. RAPPOCINI RAYA LR. 9 D NO.16","Prop. Sulawesi Selatan","SMA","-5.1819000","119.4451000"
"40308320","SMAN 7 MALLAWA - MAROS","JL. TOPOING MALLAWA","Prop. Sulawesi Selatan","SMA","-4.7936000","119.8219000"
"40305497","SMAN 1 TELLU LIMPOE","JL. POROS SOPPENG AMPARITA","Prop. Sulawesi Selatan","SMA","-4.0359000","119.8088000"
"40313202","SMAS PESANTREN PUTRI YATAMA MANDIRI","JL. BASO DG. NGAWING BTN RESTIKA INDAH BLOK A1 NO.1 PALLANGGA","Prop. Sulawesi Selatan","SMA","-5.2278333","119.4500050"
"40309307","SMAS KRISTEN PLUS SERITI","JL. PATTENDONG LRG II SERITI","Prop. Sulawesi Selatan","SMA","-2.8273000","120.1937000"
"40302557","SMAN 5 WATAMPONE","JL. WIYATAMANDALA","Prop. Sulawesi Selatan","SMA","-4.5396000","120.3801000"
"69958477","SMA KECIL PULAU SAMATELLU","Pulau Samatellu","Prop. Sulawesi Selatan","SMA",".0000000",".0000000"
"40319017","SMAN 1 BIRINGBULU","Jl. Pendidikan","Prop. Sulawesi Selatan","SMA","-5.4865000","119.7109000"
"40315445","SMAS TRI SAKTI AROEPALA","JL. AROEPALA","Prop. Sulawesi Selatan","SMA","-5.1487000","119.4364000"
"40309844","SMAS KATOLIK MAKALE","JL. MUSA NO. 16 MAKALE","Prop. Sulawesi Selatan","SMA","-3.1047000","119.8545000"
"40311983","SMA NEGERI 10 PINRANG","ABBANUANG","Prop. Sulawesi Selatan","SMA","-3.9002000","119.5645000"
"40314396","SMAN 2 BAJO","JL GUNUNG LATIMOJONG","Prop. Sulawesi Selatan","SMA","-3.3501000","120.2332000"
"40313775","SMAS MULIA BHAKTI MAKASSAR","JL.KELAPA TIGA RW. II RT. E (SUNGAI SADDANG BARU)","Prop. Sulawesi Selatan","SMA","-5.1487000","119.4338000"
"40306915","SMAN 1 SUKAMAJU","Jl. Pramuka Lr. 7 Sukamaju","Prop. Sulawesi Selatan","SMA","-2.6037000","120.4647000"
"40310707","SMAN 1 BONTOCANI","Kelurahan Kahu","Prop. Sulawesi Selatan","SMA","-5.0469000","120.0567000"
"40309859","SMAN 1 BONGGAKARADENG","JL. POROS MAKALE - BONGGAKARADENG","Prop. Sulawesi Selatan","SMA","-3.1854000","119.7367000"
"60729277","SMAN 2 SINJAI TENGAH","Jl. Andi Paduppa No. 5  Manimpahoi","Prop. Sulawesi Selatan","SMA","-5.1951000","120.1105000"
"40302662","SMAN 1 CINA","JL. TENETE HARAPAN","Prop. Sulawesi Selatan","SMA","-4.6975000","120.2860000"
"40302665","SMAN 1 LAMURU","JL. LALEBATA","Prop. Sulawesi Selatan","SMA","-4.5990000","119.9740000"
"40302554","SMAN 3 WATAMPONE","JL. BULU TEMPE","Prop. Sulawesi Selatan","SMA","-4.5328000","120.2817000"
"40311953","SMAN 21 MAKASSAR","Jl. Tamalanrea Raya No. 1A BTP Makassar","Prop. Sulawesi Selatan","SMA","-5.1368000","119.5150000"
"40311932","SMAS COKROAMINOTO MAKASSAR","JL. GUNUNG LATIMOJONG NO. 124","Prop. Sulawesi Selatan","SMA","-5.1922000","119.4197000"
"40306525","SMAS PELITA RANTEPAO","JL. TAGARI  NO. 34 RANTEPAO","Prop. Sulawesi Selatan","SMA","-2.9024000","119.9767000"
"40314425","SMAN 3 SUNGGUMINASA","JL. POROS MALINO KM 2","Prop. Sulawesi Selatan","SMA","-5.2128133","119.4661883"
"40302668","SMAN 1 MARE","JL. MAKMUR No.1","Prop. Sulawesi Selatan","SMA","-4.8090000","120.3421000"
"40311955","SMAS SATRIA MAKASSAR","JL. VETERAN SELATAN NO. 316","Prop. Sulawesi Selatan","SMA","-5.1632000","119.4208000"
"40301126","SMAS YAPIP MAKASSAR SUNGGUMINASA","JL. A. MALLOMBASANG NO.40 C","Prop. Sulawesi Selatan","SMA","-5.2045550","119.4518633"
"69943916","SMA NEGERI 1 BONTOMANAI","SMA NEGERI 1 BONTOMANAI","Prop. Sulawesi Selatan","SMA","-6.0370245","120.5175023"
"69774936","SMA Negeri 1 BUNTU PEPASAN","SAPAN","Prop. Sulawesi Selatan","SMA","-2.9281000","119.5805000"
"40310210","SMAS AL BAYAN","JL. POROS TAMALANREA","Prop. Sulawesi Selatan","SMA","-5.1327000","119.5038000"
"40307690","SMA INFORMATIKA GAJAH MADA PAREPARE","JL. INDUSTRI KECIL NO. 99","Prop. Sulawesi Selatan","SMA","-4.0019500","119.6387800"
"69788078","SMAS DAARUL QURAN PAJALELE","PAJALELE DESA MATTOANGING","Prop. Sulawesi Selatan","SMA","-4.4101000","120.3278000"
"40311950","SMAN 16 MAKASSAR","JL. AMANAGAPPA NO. 8","Prop. Sulawesi Selatan","SMA","-5.1380000","119.4115000"
"40310327","SMAS COKROAMINOTO","JL. ANDI HAMID OPU ONANG","Prop. Sulawesi Selatan","SMA","-3.0088000","120.1981000"
"40318859","SMAN 1 MANUJU","JL.KARAENG MANUJU KM.07","Prop. Sulawesi Selatan","SMA","-5.2389000","119.4361000"
"40307371","SMA KI HAJAR DEWANTARA MAKASSAR","JL. ANDALAS LR.126 NO.6  MAKASSAR","Prop. Sulawesi Selatan","SMA","-5.1241000","119.4126000"
"40310153","SMAN 1 BURAU","JL. TRANS SULAWESI DS. JALAJJA","Prop. Sulawesi Selatan","SMA","-2.5959000","120.7081000"
"40318944","SMAS MUHAMMADIYAH LEMPANGAN","JL.PANCIRO","Prop. Sulawesi Selatan","SMA","-5.2428000","119.4318000"
"40313185","SMAN 1 BARAKA","JL.. KEMAKMURAN NO. 1 BARAKA","Prop. Sulawesi Selatan","SMA","-3.4072000","119.8534000"
"40310151","SMAS MUHAMMADIYAH WOTU","JL. PAHLAWAN WOTU","Prop. Sulawesi Selatan","SMA","-2.5826000","120.7949000"
"40313282","SMAS PGRI SUNGGUMINASA","JL. MANGKA DG BOMBONG NO. 31 SUNGGUMINASA","Prop. Sulawesi Selatan","SMA","-5.2071100","119.4670800"
"40307353","SMAS RAMA SEJAHTERA","JL. RACING CENTER SELATAN","Prop. Sulawesi Selatan","SMA","-5.1473000","119.4458000"
"40310357","SMAN 1 TONDONG TALLASA","JL. BATUBARA","Prop. Sulawesi Selatan","SMA","-4.8423000","119.7218000"
"40300669","SMAS DDI PANGKAJENE","JL. SULTAN HASANUDDIN NO.68","Prop. Sulawesi Selatan","SMA","-4.8505000","119.5622000"
"69760714","SMAN 3 LIUKANG TANGAYA","PULAU SAILUS","Prop. Sulawesi Selatan","SMA","-7.5307680","117.4287240"
"40301074","SMAN 1 BONTOMARANNU","JL.POROS MALINO KM.08 ROMANG LOMPOA","Prop. Sulawesi Selatan","SMA","-5.2318000","119.5060000"
"40310147","SMAS INTEGRAL DARUL ILMI HIDAYATULLAH ","JL. DANAU TONDANO, DESA ASULI","Prop. Sulawesi Selatan","SMA","-2.4352970","120.8220180"
"40314497","SMAS DDI BODDIE BODDIE","JL. POROS MAKASAR PAREPARE KM.79","Prop. Sulawesi Selatan","SMA","-4.6066000","119.5933000"
"40300293","SMAS NASIONAL MAROS","JL. MAKMUR DG. SITAKKA NO. 23","Prop. Sulawesi Selatan","SMA","-5.0075933","119.5836267"
"69886465","SMA PARADIBA PASSAMPA","DESA BASSIANG TIMUR","Prop. Sulawesi Selatan","SMA","-3.2682550","120.3284750"
"40319224","SMAN 15 BULUKUMBA","JL. POROS BALLEANGIN KM.  12  UJUNG LOE","Prop. Sulawesi Selatan","SMA","-5.4734000","120.2904000"
"40311937","SMAS HANG TUAH","JL. SERDAKO USMAN ALI NO. 35","Prop. Sulawesi Selatan","SMA","-5.1148000","119.4193000"
"40316629","SMAS MAHYAJATUL QURRA","JL. MESJID RAYA","Prop. Sulawesi Selatan","SMA","-5.3236000","119.5071000"
"69755973","SMAS SANUR KAPASA","KAPASA","Prop. Sulawesi Selatan","SMA","-5.4733000","119.8921000"
"69763289","SMAN 16 BULUKUMBA","ARA","Prop. Sulawesi Selatan","SMA","-5.5391000","120.4286000"
"40318126","SMAN 1 DUA BOCCOE","JL. POROS BONE WAJO","Prop. Sulawesi Selatan","SMA","-4.3186000","120.2512000"
"40304257","SMAN 6 BULUKUMBA","JL. PENDIDIKAN KEL. TANUNTUNG","Prop. Sulawesi Selatan","SMA","-5.4007000","120.3945000"
"40300280","SMAN 1 (SSN) MAROS","JL. MANGGA NO.1 MAROS","Prop. Sulawesi Selatan","SMA","-5.0071700","119.5764117"
"40310330","SMAS KRISTEN PALOPO","JL. ANDI SIMPURUSIANG","Prop. Sulawesi Selatan","SMA","-2.9924000","120.1862000"
"40316767","SMAN 1 MANGARABOMBANG","POROS ONGKOA","Prop. Sulawesi Selatan","SMA","-5.5433000","119.4507000"
"40304852","SMAN 1 TAKA BONERATE","KAYUADI","Prop. Sulawesi Selatan","SMA","-6.8261000","120.7971000"
"40310209","SMU ADDARAEN","JL. SULTAN ALAUDDIN NO. 305 A","Prop. Sulawesi Selatan","SMA","-5.1874000","119.4420000"
"69775728","SMAN 2 PANGSID","JL. JEND. SUDIRMAN NO. 115 PANGKAJENE","Prop. Sulawesi Selatan","SMA","-3.9361000","119.9123000"
"40303148","SMAN 1 PITUMPANUA","JL. POROS PALOPO-MAKASSAR","Prop. Sulawesi Selatan","SMA","-3.7165000","120.4051000"
"40300677","SMAN 1 LABAKKANG","JL. A. MARUDDANI I/7","Prop. Sulawesi Selatan","SMA","-4.7729000","119.5235000"
"40313896","SMAS YASPIT BONTOJAI","Jln.Maggusila Dg Liwang","Prop. Sulawesi Selatan","SMA","-5.6569000","119.6559000"
"69851471","SMA NEGERI 18 BULUKUMBA","JL.LEMBANGKARAENG","Prop. Sulawesi Selatan","SMA","-5.3539910","120.3091550"
"69823911","SMAS ISLAM TERPADU AL BIRUNI","JL. JIPANG RAYA KOMPLEKS RUKO NO. 20 - 26","Prop. Sulawesi Selatan","SMA","-5.1841000","119.4498000"
"40300672","SMAN 1 LIUKANG TUPABBIRING","PULAU BALANG LOMPO","Prop. Sulawesi Selatan","SMA","-4.9432000","119.3974000"
"69769378","SMAS EKSEKUTIF NUSANTARA","Jl. Kom. BTN Antang Jaya blok E5","Prop. Sulawesi Selatan","SMA","-5.1958000","119.4317000"
"40307823","SMAS DATOK SULAIMAN","JL. DR. RATULANGI NO. 16 - PALOPO","Prop. Sulawesi Selatan","SMA","-2.9665000","120.1825000"
"40311947","SMA NASIONAL MAKASSAR","JL. DR. RATULANGI NO. 84 Makassar","Prop. Sulawesi Selatan","SMA","-5.1563000","119.4165000"
"69923166","SMA Negeri 2 Enrekang","Jl. Poros Malauwe - Jalikko","Prop. Sulawesi Selatan","SMA","-3.5604244","119.8124326"
"40301034","SMAN 1 SUNGGUMINASA","JL. ANDI MALLOMBASANG NO. 1A","Prop. Sulawesi Selatan","SMA","-5.2030783","119.4472700"
"40301547","SMAN 2 TAKALAR","JL. Ranggong Dg. Romo","Prop. Sulawesi Selatan","SMA","-5.4494000","119.4487000"
"69728685","SMAS IT DARUL ISTIQAMAH","JL.POROS MAKASSAR-MAROS KM.25","Prop. Sulawesi Selatan","SMA","-5.0423000","119.5685000"
"40313231","SMAS DDI AL-IRSYAD","JL. KALIMANTAN LR. DDI NO. 31","Prop. Sulawesi Selatan","SMA","-5.1182000","119.4110000"
"40301857","SMAN 1 TAMALATEA","JL. DAUD DG LILI NO. 17","Prop. Sulawesi Selatan","SMA","-5.6271000","119.6807000"
"40316728","SMAN 1 MAPPAK","MAPPAK","Prop. Sulawesi Selatan","SMA","-3.2299000","119.4744000"
"40304500","SMAN 2 SINJAI","JL. H. A. LATIEF NO. 6","Prop. Sulawesi Selatan","SMA","-5.1236833","120.2481017"
"69754023","SMAN 1 PONRE","JALAN POROS LONRONG","Prop. Sulawesi Selatan","SMA","-4.6406000","120.1523000"
"40314364","SMAN 1 MAPPAKASUNGGU","Dandedandere","Prop. Sulawesi Selatan","SMA","-5.4995000","119.2918000"
"69883572","SMA PRATAMA BATANGASE","JL. SISWA -PELAJAR NO.5","Prop. Sulawesi Selatan","SMA","-5.0858230","119.5498830"
"40300289","SMAS ANGKASA","Jl. Dakota Lanud Sultan Hasanuddin","Prop. Sulawesi Selatan","SMA","-5.0621000","119.5329000"
"40300294","SMAS NUR RAHMAH","JL. INSPEKSI PAM MANGEMPANG","Prop. Sulawesi Selatan","SMA","-5.1561000","119.5595000"
"69858812","SMAN 14 MONCONGLOE","MONCONGLOE","Prop. Sulawesi Selatan","SMA","-5.1524370","119.5707750"
"40314523","SMAN 3 BAEBUNTA","BUMI HARAPAN","Prop. Sulawesi Selatan","SMA","-2.6396000","120.3174000"
"40307800","SMAN 6 PALOPO","JL. PATANG II NO. 61  PALOPO","Prop. Sulawesi Selatan","SMA","-2.9971000","120.1872000"
"40310157","SMAN 1 TOMONI","JL. PENDIDIKAN NO. 3 DS. MANDIRI","Prop. Sulawesi Selatan","SMA","-2.5170000","120.8106000"
"40311946","SMAS MUHAMMADIYAH MAKASSAR","JL. DR. RATULANGI NO. 101","Prop. Sulawesi Selatan","SMA","-5.2008000","119.4037000"
"40300675","SMAS SEMEN TONASA","JL. MAJENANG NO. 8","Prop. Sulawesi Selatan","SMA","-4.8984000","119.6333000"
"40311931","SMAS BAWAKARAENG","JL. MACCINI RAYA NO. 55A/57D","Prop. Sulawesi Selatan","SMA","-5.1367000","119.4317000"
"40307376","SMAN 19 MAKASSAR","JL. INPEKSI PAM TIMUR NO. 19","Prop. Sulawesi Selatan","SMA","-5.1629000","119.5118000"
"40314670","SMAN 1 BOTORAMBA","DS. CAMPAGAYA","Prop. Sulawesi Selatan","SMA","-5.6033000","119.6869000"
"40314651","SMAN 1 CURIO","JL. POROS SUDU-CURIO DESA SUMBANG KEC. CURIO","Prop. Sulawesi Selatan","SMA","-3.3278000","119.8836000"
"40303150","SMAN 2 SENGKANG","JL. RUSA NO. 1 SENGKANG","Prop. Sulawesi Selatan","SMA","-4.1123000","120.0230000"
"40320336","SMAS ZION","JL.DR.WAHIDIN SUDIRO HUSODO NO.93-95 MAKASSAR","Prop. Sulawesi Selatan","SMA","-5.1215000","119.4130000"
"40311891","SMAN 3 MAKASSAR","JL. BAJI ARENG NO. 18 MAKASSAR","Prop. Sulawesi Selatan","SMA","-5.1681000","119.4134000"
"40306086","SMAN 1 BUA","POROS - PALOPO - BELOPA KM. 10","Prop. Sulawesi Selatan","SMA","-3.0770000","120.2353000"
"40311958","SMAS UMMUL MUKMININ","JL. PERINTIS KEMERDEKAAN KM. 17","Prop. Sulawesi Selatan","SMA","-5.0831000","119.5129000"
"40312651","SMAS GUNUNG SARI","JL. SULTAN ALAUDDIN NO. 293","Prop. Sulawesi Selatan","SMA","-5.1826000","119.4416000"
"40311957","SMAS TUT WURI HANDAYANI","JL. A.P. PETTARANI 2 LR. 3 NO. 4","Prop. Sulawesi Selatan","SMA","-5.1459000","119.4413000"
"40305146","SMAS AL - MAZAAKIRAH","JL. POLE BARAMULI","Prop. Sulawesi Selatan","SMA","-3.7667000","119.6430000"
"40305846","SMAS MUHAMMADIYAH ENREKANG","JL. JENDERAL SUDIRMAN NO. 17","Prop. Sulawesi Selatan","SMA","-3.5673000","119.7762000"
"40316690","SMAS AL - AMANAH","JL. KE PANNARA KARISA","Prop. Sulawesi Selatan","SMA","-5.6737770","119.7753580"
"40307373","SMAS MAHA PUTRA TELLO","JL. PACCINANG RAYA NO.1","Prop. Sulawesi Selatan","SMA","-5.1494000","119.4692000"
"40303650","SMAN 1 MARIORIAWA","JL. POROS PARE KM 32","Prop. Sulawesi Selatan","SMA","-4.1296000","119.8665000"
"40302556","SMAN 4 WATAMPONE","JL. HOS COKROAMINOTO WTP","Prop. Sulawesi Selatan","SMA","-4.5521000","120.3166000"
"40310156","SMAN 1 WASUPONDA","JL. A. HATTA M. DS. TABARANO","Prop. Sulawesi Selatan","SMA","-2.5828000","121.2853000"
"40300292","SMAS MUHAMMADIYAH CAMBA","JL. PENDIDIKAN NO. 4 CAMBA","Prop. Sulawesi Selatan","SMA","-4.9168000","119.8418000"
"40303985","SMA NEGERI 1 BISSAPU","JL. HASANUDDIN NO.8","Prop. Sulawesi Selatan","SMA","-5.5377000","119.9411000"
"40304498","SMAN 1 SINJAI SELATAN","JL. PERS. RAYA NO. B 50 BIKERU","Prop. Sulawesi Selatan","SMA","-5.2431000","120.1676000"
"40310213","SMAS ISLAM ATHIRAH","JL. KAJAOLALIDO NO. 22","Prop. Sulawesi Selatan","SMA","-5.1354000","119.4093000"
"40310159","SMAN 1 WOTU","JL. PAHLAWAN NO. 2","Prop. Sulawesi Selatan","SMA","-2.5798000","120.7943000"
"40304258","SMAN 7 BULUKUMBA","JL. H. ALLU NO. 121 A BONTOSUNGGU","Prop. Sulawesi Selatan","SMA","-5.5178000","120.1655000"
"69786454","SMAN 2 MAPPAKASUNGGU","SATANGNGA MATTIRO BAJI MAPPAKASUNGGU","Prop. Sulawesi Selatan","SMA","-5.4358000","119.2286000"
"40300279","SMAN 8 MANDAI - MAROS","JL.POROS KARIANGO KM.5","Prop. Sulawesi Selatan","SMA","-5.1027000","119.5656000"
"40301552","SMAS RANGGONG DAENG ROMO","JL. JEND. SUDIRMAN NO. 32","Prop. Sulawesi Selatan","SMA","-5.4309000","119.4383000"
"40313749","SMAS PEMBANGUNAN","JL.LETJEN MAPPAODANG","Prop. Sulawesi Selatan","SMA","-5.1314000","119.4099000"
"69824903","SMA NEGERI 3 LIUKANG KALMAS","PULAU MARASENDE","Prop. Sulawesi Selatan","SMA","-5.1995870","117.6792260"
"40307356","SMAS SAWERIGADING MAKASSAR","JL. SEMBILAN NO 24 MAKASSAR","Prop. Sulawesi Selatan","SMA","-5.1290000","119.4228000"
"40305522","SMAS INDRA KARYA","JL.POROS PAREPARE- TANRUTEDONG","Prop. Sulawesi Selatan","SMA","-3.9170000","119.9246000"
"40300291","SMAS DDI MAROS","JL. TAQWA NO. 2 MAROS","Prop. Sulawesi Selatan","SMA","-5.0052000","119.5705133"
"69959958","SMA KECIL PULAU KULAMBING","PULAU KULAMBING","Prop. Sulawesi Selatan","SMA",".0000000",".0000000"
"40305081","SMA NEGERI  6 PINRANG","JL. RAPPANG KM. 7 TIROANG","Prop. Sulawesi Selatan","SMA","-3.8091000","119.7044000"
"40310713","SMAS DARUL ABRAR","BALLE, KEC. KAHU KAB. BONE","Prop. Sulawesi Selatan","SMA","-4.9713000","120.1256000"
"40315297","SMAN 1 BARANTI","JL. KORBAN 40.000 JIWA","Prop. Sulawesi Selatan","SMA","-3.8392000","119.7820000"
"40306507","SMAS KRISTEN BARANA","JL. PAMABI BARANA","Prop. Sulawesi Selatan","SMA","-2.9528000","119.8942000"
"69901120","SMA NEGERI 1 PALAKKA","Tanete Bua","Prop. Sulawesi Selatan","SMA","-4.5668929","120.1801073"
"40311936","SMAS DIRGANTARA","JL. PERINT5IS KEMERDEKAAN KM. 18","Prop. Sulawesi Selatan","SMA","-5.0786000","119.5220000"
"40303984","SMA NEGERI 1 TOMPOBULU","JL. Poros Bantaeng-Bulukumba, Tanetea","Prop. Sulawesi Selatan","SMA","-5.5622000","120.0150000"
"40307804","SMAN 4 PALOPO","JL. BAKAU - PALOPO","Prop. Sulawesi Selatan","SMA","-2.9671000","120.1850000"
"60728411","SMAS GUPPI SAMATA ","JL. HM. Yasin Limpo No. 42","Prop. Sulawesi Selatan","SMA","-5.2072198","119.5043185"
"40311933","SMAS COKROAMINOTO TAMALANREA","JL. PERINTIS KEMERDEKAAN","Prop. Sulawesi Selatan","SMA","-5.1351000","119.4979000"
"40309320","SMAN 2 BELOPA","JL. SUNGAI PAREMANG BELOPA","Prop. Sulawesi Selatan","SMA","-3.3700000","120.3642000"
"69873962","SMAIT AL ISHLAH ","JL.POROS MAKASSAR-MAROS KM.27","Prop. Sulawesi Selatan","SMA","-5.0246783","119.5698117"
"69828772","SMA CITRA MULIA MAKASSAR","Jl. Batua Raya VII No.21 (Kampus AIGI/AKPARI Makassar) Kota Makassar","Prop. Sulawesi Selatan","SMA","-5.1532750","119.4681150"
"40307368","SMAS KARTINI","JL. KESATUAN","Prop. Sulawesi Selatan","SMA","-5.1884000","119.4285000"
"40301125","SMAS MUHAMMADIYAH SUNGGUMINASA","JL. BONTO TANGNGA NO 50","Prop. Sulawesi Selatan","SMA","-5.1941283","119.4698083"
"40309861","SMAN 1 MASANDA","JL.POROS BITTUANG MAMASA","Prop. Sulawesi Selatan","SMA","-2.9556000","119.5839000"
"40316315","SMAS MUHAMMADIYAH PATTONGKO","JL. MATTIRO BAJI NO. 22 B","Prop. Sulawesi Selatan","SMA","-5.2038000","120.0859000"
"40313184","SMAS DF ENREKANG","JL. JENDERAL SUDIRMAN NO. 2","Prop. Sulawesi Selatan","SMA","-3.5663000","119.7755000"
"40319179","SMAS AL JAMEAH PATTUKU","JL. PERMANDIAN LAKOJANG","Prop. Sulawesi Selatan","SMA","-5.0774000","120.0341000"
"40306545","SMAN 1 RANTETAYO","JL. BANDAR UDARA PONGTIKU","Prop. Sulawesi Selatan","SMA","-3.0370000","119.8119000"
"40310216","SMAS KHADIJAH","JL. BAJI GAU","Prop. Sulawesi Selatan","SMA","-5.1707000","119.4135000"
"69859552","SMA NEGERI 1 BALOCCI","DESA TOMPOBULU","Prop. Sulawesi Selatan","SMA","-4.9011870","119.7684730"
"40311938","SMAS KATOLIK CENDRAWASIH","Jl.Cendrawasih No.61","Prop. Sulawesi Selatan","SMA","-5.1530000","119.4136000"
"69904671","SMA IT KHAIRUL UMMAH","Karampung Bella","Prop. Sulawesi Selatan","SMA","-5.4690426","120.0478950"
"40310217","SMA MUHAMMADIYAH 1 UNISMUH  MAKASSAR","JL. SULTAN ALAUDDIN","Prop. Sulawesi Selatan","SMA","-5.1820000","119.4416000"
"40318326","SMAS SANUR LOKA","Dusun Kotabaru","Prop. Sulawesi Selatan","SMA","-5.4424000","119.8973000"
"40318967","SMAS KRISTEN YHS","JL. GUNUNG LATIMOJONG","Prop. Sulawesi Selatan","SMA","-5.1333000","119.4156000"
"40314337","SMAS YAYASAN SANUR","JL. SULTAN HASANUDDIN","Prop. Sulawesi Selatan","SMA","-5.4171000","119.4347000"
"40314403","SMAN 1 TOMBOLO PAO","JL.KARAENG PADO NO.2","Prop. Sulawesi Selatan","SMA","-5.1924000","119.9504000"
"40314166","SMAS KRISTEN MIALLO","LEMBANG MIALLO","Prop. Sulawesi Selatan","SMA","-3.2126490","119.4177980"
"40307364","SMA HAMRAWATI PLUS COMPUTER","JL. A. PETTARANI NO. 9","Prop. Sulawesi Selatan","SMA","-5.1391000","119.4399000"
"40302660","SMAS PGRI WATAMPONE","JL. HOS COKROAMINOTO WTP","Prop. Sulawesi Selatan","SMA","-4.5446000","120.3110000"
"40310794","SMAS PGRI WALENRANG","JL. BULO","Prop. Sulawesi Selatan","SMA","-2.8442000","120.1292000"
"69759861","SMAS TRI TUNGGAL 45 MAKASSAR","BTP JL. BANGKALA UJUNG","Prop. Sulawesi Selatan","SMA","-5.1910000","119.4181000"
"40301551","SMAN 1 GALESONG UTARA","JL.PENDIDIKAN SAWAKUNG TAMASAJU GALUT","Prop. Sulawesi Selatan","SMA","-5.2718000","119.3793000"
"40313646","SMAS BONTO RAMBA","JL. TOMBOLO","Prop. Sulawesi Selatan","SMA","-5.5969000","119.6857000"
"40311883","SMAS MUHAMMADIYAH 2 MAKASSAR","JL. KAPOPOSANG NO.2","Prop. Sulawesi Selatan","SMA","-5.1273000","119.4185000"
"40313228","SMAS PGRI 2 TAMALATE MAKASSAR","JL. MONUMEN EMMY SAELAN III","Prop. Sulawesi Selatan","SMA","-5.1752000","119.4446000"
"40303664","SMAN 2 WATANSOPPENG","JL. NENEURANG NO.178","Prop. Sulawesi Selatan","SMA","-4.3569000","119.8765000"
"40300692","SMAN 1 PANGKAJENE","JL. A. MAURAGA NO. 1 PANGKAJENE","Prop. Sulawesi Selatan","SMA","-4.8372000","119.5413000"
"40314430","SMA NEGERI  7 PINRANG","JL. POROS PINRANG PARE KM 8","Prop. Sulawesi Selatan","SMA","-3.8579000","119.6326000"
"69760713","SMAN 2 LABAKKANG BOARDING SCHOOL","Borong-Borong","Prop. Sulawesi Selatan","SMA","-4.7504000","119.5639000"
"40313181","SMAN 1 MALUA","JL. POROS MALUA KALOSI","Prop. Sulawesi Selatan","SMA","-3.3884000","119.8569000"
"40306524","SMAS KRISTEN RANTEPAO","JL. PONGTIKU 41 RANTEPAO","Prop. Sulawesi Selatan","SMA","-2.9763400","119.8947730"
"69725902","SMAS YPST TAMPUMIA","TAMPUMIA","Prop. Sulawesi Selatan","SMA","-3.2393530","120.2068810"
"69830677","SMAN 1 BONTOHARU","KAHU-KAHU","Prop. Sulawesi Selatan","SMA","-6.1559000","120.4093630"
"40318275","SMAN 3 SINJAI","JL. ANDI AKBAR MANGGARABOMBANG","Prop. Sulawesi Selatan","SMA","-5.1376383","120.2625150"
"40311930","SMAS BAJIMINASA","JL. BAJI MINASA NO. 22","Prop. Sulawesi Selatan","SMA","-5.1649000","119.4082000"
"40304254","SMAN 8 BULUKUMBA","JL. KH. MUKHTAR LUTFI NO. 32 BULUKUMBA","Prop. Sulawesi Selatan","SMA","-5.5441900","120.2027190"
"69959951","SMAS TAHFIDZ AL-QURAN AL-MUMINUN","JL. POROS MAKASSAR - PALOPO","Prop. Sulawesi Selatan","SMA",".0000000",".0000000"
"40312502","SMAN 1 TURATEA","JL. LABUANGBAJI MATTOANGING","Prop. Sulawesi Selatan","SMA","-5.5965000","119.7708000"
"69811389","SMA BOSOWA SCHOOL MAKASSAR","GEDUNG BDMI JL LANTO DAENG PASEWANG NO 39-41","Prop. Sulawesi Selatan","SMA","-5.1529000","119.4199000"
"40308325","SMAN 11 MAROS BARU","PANGKASALO","Prop. Sulawesi Selatan","SMA","-5.0056733","119.5489683"
"40313497","SMAN 2 SUNGGUMINASA","JL. MUSTAFA DG. BUNGA BTN SAUMATA INDAH","Prop. Sulawesi Selatan","SMA","-5.2046433","119.4896167"
"60726352","SMA NEGERI 1 EREMERASA","PULLAUWENG","Prop. Sulawesi Selatan","SMA","-5.5234000","119.9590000"
"40304261","SMAN 4 BULUKUMBA","JL. PERSATUAN NO. 2 HILAHILA","Prop. Sulawesi Selatan","SMA","-5.4716000","120.4258000"
"40315068","SMAS PGRI BULUKUMBA","JL. MELATI NO. 3 C BULUKUMBA","Prop. Sulawesi Selatan","SMA","-5.5498000","120.1954000"
"40309853","SMAN 1 RINDINGALLO","JL. PRAYA LIMBONG PANGALA","Prop. Sulawesi Selatan","SMA","-2.8985000","119.8109000"
"40304260","SMAN 1 BULUKUMBA","JL. BUNG TOMO NO. 28","Prop. Sulawesi Selatan","SMA","-5.5538000","120.2020000"
"40306542","SMAN 1 MAKALE","JL. TRITURA NO. 65A MAKALE","Prop. Sulawesi Selatan","SMA","-3.0901000","119.8474000"
"40319035","SMAS PLUS AL-ASHRI GLOBAL MANDIRI","JL. TELKOMAS RAYA BLOK F NO. 1","Prop. Sulawesi Selatan","SMA","-5.1296000","119.5114000"
"40303662","SMAN 1 MARIORIWAWO","JL. TONRONGE","Prop. Sulawesi Selatan","SMA","-4.4733000","119.9449000"
"40305078","SMA NEGERI  5 PINRANG","JL.  MALIMPUNG POROS URUNG","Prop. Sulawesi Selatan","SMA","-3.6948000","119.6890000"
"40307366","SMA ILHAM MAKASSAR","JL. TODOPULI VI No. 41 Makassar","Prop. Sulawesi Selatan","SMA","-5.1953000","119.4238000"
"40314686","SMAS ISLAM YAPNAS","JL. Lanto Dg. Pasewang KM. 76 Poros Makassar-Jeneponto","Prop. Sulawesi Selatan","SMA","-5.6694000","119.7005000"
"40310220","SMAS PESANTREN IMMIM","JL. PERINTIS KEMERDEKAAN","Prop. Sulawesi Selatan","SMA","-5.1378000","119.4937000"
"40310152","SMAN 1 ANGKONA","JL. POROS ANGKONA SOLO LAMAETO","Prop. Sulawesi Selatan","SMA","-2.5909000","120.9448000"
"69766192","SMAN 1 BITTUANG","PALI","Prop. Sulawesi Selatan","SMA","-3.1906000","119.5174000"
"60726062","SMAS KRISTEN PELITA KASIH","JL. MONGINSIDI BARU NO.23 MAKASSAR","Prop. Sulawesi Selatan","SMA","-5.1474000","119.4183000"
"40318240","SMAS BARRANG LOMPO","PULAU BARRANG LOMPO","Prop. Sulawesi Selatan","SMA","-5.1332000","119.4659000"
"40307352","SMA RAIDERS ","JL.Kelapa Tiga Gang 2","Prop. Sulawesi Selatan","SMA","-5.1460000","119.4348000"
"40313381","SMAS AMANA GAPPA","JL. BUMI KARSA NO. 4","Prop. Sulawesi Selatan","SMA","-5.1518000","119.4421000"
"40307370","SMAS KATOLIK SANTO DOMINIKUS","JL. SUNGAI KELAPA LR.96 A/08","Prop. Sulawesi Selatan","SMA","-5.1336000","119.4165000"
"40312097","SMAS 45 UNGGULAN SOSSOK","JL. POROS MAKASSAR TATOR","Prop. Sulawesi Selatan","SMA","-3.3947000","119.7964000"
"40309310","SMAN 01 UNGGULAN KAMANRE","JL. TRAN SULAWESI","Prop. Sulawesi Selatan","SMA","-3.3381000","120.3531000"
"40307359","SMAS WAHYU","JL. ABDULLAH DG SIRUA","Prop. Sulawesi Selatan","SMA","-5.1496000","119.4600000"
"69734079","SMAS IT AL FITYAN SCHOOL","JL PALLANTIKANG I","Prop. Sulawesi Selatan","SMA","-5.1948067","119.4562200"
"40313135","SMA ISLAM TERPADU WAHDAH ISLAMIYAH MAKASSAR","JL. MANGGALA RAYA KOMP. BAMBU-BAMBU","Prop. Sulawesi Selatan","SMA","-5.1866000","119.4095000"
"40310150","SMAS KRISTEN MANGKUTANA","JL TALINUYA","Prop. Sulawesi Selatan","SMA","-2.4965000","120.8072000"
"40308326","SMAN 9 MARUSU - MAROS","JL. PATTENE","Prop. Sulawesi Selatan","SMA","-5.0521000","119.5033000"
"40311896","SMAN 9 MAKASSAR","JL.KARUNRUNG RAYA NO.37","Prop. Sulawesi Selatan","SMA","-5.1793000","119.4521000"
"40305152","SMA NEGERI 2 PINRANG","JL. POROS PINRANG POLMAS","Prop. Sulawesi Selatan","SMA","-3.6561000","119.5333000"
"40304230","SMAS KARYA SAHARI BULUKUMBA","JL. SULTAN HASANUDDIN NO.48 BULUKUMBA","Prop. Sulawesi Selatan","SMA","-5.5644000","120.1805000"
"40307218","SMAS AHMAD YANI","JL. MUHAMMADIYAH NO. 139 B/40","Prop. Sulawesi Selatan","SMA","-5.1233000","119.4167000"
"40306544","SMA Negeri 1 RANTEPAO","JL. W. R MONGINSIDI NO.65 RANTEPAO","Prop. Sulawesi Selatan","SMA","-2.9671580","119.8980030"
"40306548","SMAN 2 MAKALE","JL. BUNTU BURAKE NO.32","Prop. Sulawesi Selatan","SMA","-3.0999000","119.8596000"
"40308577","SMAN 1 POLOMBANGKENG SELATAN","JL.Basullu Dg. Lawa","Prop. Sulawesi Selatan","SMA","-5.4057000","119.4987000"
"69728583","SMAS ISLAM TERPADU","JL.POROS PADANG LAMPE","Prop. Sulawesi Selatan","SMA","-4.6991000","119.5897000"
"40303742","SMAN 1 LILIARIAJA","JL. H. A. MAHMUD NO. 69 CANGADI","Prop. Sulawesi Selatan","SMA","-4.3703000","119.9523000"
"40310361","SMAN 5 PALOPO","JL. H ANDI KADDI RAJA - PALOPO","Prop. Sulawesi Selatan","SMA","-3.0258000","120.2013000"
"40312576","SMAN 1 LIMBONG","SALUTALLANG","Prop. Sulawesi Selatan","SMA","-2.5665000","119.9088000"
"40300284","SMA - IT TIGO PUTERA","JL. DUSUN TANGKURU","Prop. Sulawesi Selatan","SMA","-4.9495100","119.5660833"
"40313814","SMAN 12 CENRANA - MAROS","JL. POROS CAMBA MAROS","Prop. Sulawesi Selatan","SMA","-5.0337000","119.8052000"
"40318946","SMAS ISLAM BUNGORO","JL. LEMPANGAN","Prop. Sulawesi Selatan","SMA","-4.7638000","119.6422000"
"69761930","SMA NEGERI  11  UNGGULAN PINRANG","JL. IR. H. JUANDA NO.7","Prop. Sulawesi Selatan","SMA","-3.8097000","119.6423000"
"40305524","SMAS MUHAMMADIYAH RAPPANG","JL. RUMAH SAKIT NO. 12 RAPPANG","Prop. Sulawesi Selatan","SMA","-3.8450000","119.8141000"
"69958478","SMA KECIL PULAU LAIYA","Pulau Laiya","Prop. Sulawesi Selatan","SMA","-4.8212000","119.4200000"
"40306526","SMAS PGRI GENTENGAN","JL. POROS MARINDING-BATUALU","Prop. Sulawesi Selatan","SMA","-3.1380000","119.9037000"
"69765089","SMAS ISLAM ATHIRAH","KEL. PANYULA","Prop. Sulawesi Selatan","SMA","-4.5190000","120.3560000"
"40309854","SMA Negeri 1 SA DAN ","JL. PELAJAR NO. 1","Prop. Sulawesi Selatan","SMA","-2.8863000","119.9420000"
"40306132","SMAS GUPPI PD SAPPA","JL. JEND. SUDIRMAN","Prop. Sulawesi Selatan","SMA","-3.2384000","120.3062000"
"40319041","SMAN 2 CENRANA","BATU TANRE","Prop. Sulawesi Selatan","SMA","-4.3411000","120.3200000"
"40305527","SMAN 1 PANCA RIJANG","JL. KARTINI NO.1 RAPPANG","Prop. Sulawesi Selatan","SMA","-3.8360302","119.8402838"
"40306543","SMAN 1 MENGKENDEK","JL. SITARDA","Prop. Sulawesi Selatan","SMA","-3.1810000","119.8855000"
"40314677","SMAS ISLAM IBADURRAHMAN","JL. K.H. ABD. KADIR, PANRENG","Prop. Sulawesi Selatan","SMA","-5.1071633","120.2269267"
"40310218","SMAS MUHAMMADIYAH 5 TALLO","JL. SABUTUNG BARU NO 12","Prop. Sulawesi Selatan","SMA","-5.1504000","119.4509000"
"40313170","SMAN 1 BUNGAYA","SAPAYA","Prop. Sulawesi Selatan","SMA","-5.3633000","119.7314000"
"40313217","SMAN 1 PALLANGGA","JL.BASO DG. NGAWING","Prop. Sulawesi Selatan","SMA","-5.2263133","119.4503983"
"60726272","SMAN 1 LIUKANG TUPABBIRING UTARA","Pulau Sabutung","Prop. Sulawesi Selatan","SMA","-4.5322000","119.4487000"
"69883427","SMA ISLAM AL-AZHAR 12 MAKASSAR","Jl. Aroepala, Hertasning Baru Makassar","Prop. Sulawesi Selatan","SMA","-5.1799000","119.4437000"
"40319016","SMAS MUHAMMADIYAH MALINO","JL.A MANGERANGI MALINO","Prop. Sulawesi Selatan","SMA","-5.2456000","119.8621000"
"40310391","SMAN 13 TOMPOBULU - MAROS","JL. Taman Safari No. 99 Puncak","Prop. Sulawesi Selatan","SMA","-5.1354000","119.7399000"
"69851470","SMA NEGERI 2 LIUKANG TUPABIRING","PULAU SARAPPO LOMPO","Prop. Sulawesi Selatan","SMA","-4.8812503","119.2657670"
"40301860","SMAN 1 BATANG","JL. POROS MAKASSAR-BANTAENG KM 100 BODOBAJI","Prop. Sulawesi Selatan","SMA","-5.6319920","119.8199070"
"40306914","SMAN 2 BAEBUNTA","JL.PENDIDIKAN","Prop. Sulawesi Selatan","SMA","-2.6999000","120.2953000"
"40307692","SMA PGRI 1 PAREPARE","JL. JEND SUDIRMAN NO. 187","Prop. Sulawesi Selatan","SMA","-4.0160300","119.6325400"
"40307803","SMAN 3 PALOPO","JL. ANDI DJEMMA NO. 52 PALOPO","Prop. Sulawesi Selatan","SMA","-3.0060000","120.2008000"
"40313132","SMA YPLP PGRI 1 BALANGBODDONG","JL. DG. TATA KOMPLEKS HARTACO INDAH BLOK II E NO. 1","Prop. Sulawesi Selatan","SMA","-5.1841000","119.4178000"
"40305080","SMA NEGERI  4 PINRANG","JL. Andi Wanreng No.7","Prop. Sulawesi Selatan","SMA","-3.9683000","119.6159000"
"40306131","SMAS YPN NOLING","YPN NOLING","Prop. Sulawesi Selatan","SMA","-3.2735000","120.2526000"
"69857711","SMAN 1 SULI BARAT","MAMARA","Prop. Sulawesi Selatan","SMA","-3.4647000","120.2970000"
"40300285","SMAS PGRI MAROS","JL. TAQWA NO. 46 MAROS","Prop. Sulawesi Selatan","SMA","-5.0038567","119.5663100"
"40303149","SMAN 1 SENGKANG","JL. LAMUNGKACE TOADDAMANG NO.9 SENGKANG","Prop. Sulawesi Selatan","SMA","-4.1373000","120.0350000"
"40319010","SMAS PGRI BARRU","JL. MELATI NO.55","Prop. Sulawesi Selatan","SMA","-4.4059000","119.6148000"
"40311893","SMAN 6 MAKASSAR","JL.PROF.DRIR.SUTAMI NO.4","Prop. Sulawesi Selatan","SMA","-5.0896000","119.4817000"
"69949302","SMA Negeri 1 Nanggala","Nanna","Prop. Sulawesi Selatan","SMA","-2.9473715","119.9903862"
"40305498","SMAN 1 PITU RIAWA","JL. NEGARA POROS PAREPARE-PONRANGAE","Prop. Sulawesi Selatan","SMA","-3.9214000","119.9127000"
"40310158","SMAN 1 TOWUTI","JL. KASUARI NO. 2 WAWONDULA","Prop. Sulawesi Selatan","SMA","-2.6439000","121.3705000"
"40300589","SMAN 1 SEGERI","JL. AS.DG. KALEBBU NO.2","Prop. Sulawesi Selatan","SMA","-4.6406000","119.5840000"
"40310358","SMAN 2 PANGKAJENE","JL. H.M. ARSYAD B NO. 5","Prop. Sulawesi Selatan","SMA","-4.8368910","119.5517320"
"40310162","SMAS YAPMAN SOROAKO","SAUTAN FS. 16 SOROAKO","Prop. Sulawesi Selatan","SMA","-2.2983000","120.6964000"
"40307695","SMA NEGERI 3 PAREPARE","JL. Pendidikan No. 9 Kec. Soreang","Prop. Sulawesi Selatan","SMA","-3.9892500","119.6461200"
"40302145","SMAN 1 TANETE RIAJA","JL. Pendidikan Ralla, Kec. Tanete Riaja","Prop. Sulawesi Selatan","SMA","-4.5369000","119.7094000"
"40300278","SMAN 2 CAMBA - MAROS","JL. LAPPA MARIO CAMBA","Prop. Sulawesi Selatan","SMA","-4.9102000","119.8587000"
"40313821","SMAS ABDI PEMBANGUNAN","JL. KANGKUNG TIMUR NOL 38","Prop. Sulawesi Selatan","SMA","-5.1328000","119.4264000"
"40307802","SMAN 2 PALOPO","JL. GARUDA NO. 18 PALOPO","Prop. Sulawesi Selatan","SMA","-2.9786000","120.0899000"
"40313258","SMAS MUHAMMADIYAH 9 MAKASSAR","JL. BORA DG. NGIRATE NO 22","Prop. Sulawesi Selatan","SMA","-5.1679000","119.4446000"
"40311949","SMAN 15 MAKASSAR","JL. PROF. DR. IR. SUTAMI","Prop. Sulawesi Selatan","SMA","-5.0805510","119.4951140"
"40302144","SMAN 1 TANETE RILAU","Jl. Poros Pekkae - Soppeng, Aroppoe","Prop. Sulawesi Selatan","SMA","-4.4860000","119.6207000"
"40303151","SMAN 3 SENGKANG","JL. CENDANA SENGKANG","Prop. Sulawesi Selatan","SMA","-4.1324000","120.0345000"
"40302553","SMAN 2 WATAMPONE","JL. JENDRAL GATOT SUBROTO WTP","Prop. Sulawesi Selatan","SMA","-4.5606000","120.3313000"
"69734080","SMAS LONGKA","JL PATTALASSANG","Prop. Sulawesi Selatan","SMA","-5.3081000","119.5900000"
"69824086","SMA CELEBES GLOBAL SCHOOL","JL. BAU MANGGA NO 41 - 41A","Prop. Sulawesi Selatan","SMA","-5.1516840","119.4400580"
"69814075","SMAS KRISTEN SETIA PLUS KAPALAPITU","KEPE","Prop. Sulawesi Selatan","SMA","-2.8731000","119.8150000"
"40319180","SMA PESANTREN PUTRI AL-MUNAWWARAH","DESA PANYILI","Prop. Sulawesi Selatan","SMA","-4.4927000","120.2015000"
"40314020","SMAN 8 MAKASSAR","JL.ANDI MANGERANGI II NO.24","Prop. Sulawesi Selatan","SMA","-5.1702000","119.4144000"
"40307349","SMAS GAMALIEL","JL. INCE NURDIN NO.43","Prop. Sulawesi Selatan","SMA","-5.1380000","119.4120000"
"40314039","SMA AKSARA BAJENG","JL. BATANG BANOA 31","Prop. Sulawesi Selatan","SMA","-5.2886000","119.4354000"
"69763290","SMAN 17 BULUKUMBA","Jalan Talle-Talle","Prop. Sulawesi Selatan","SMA","-5.4613000","120.1896000"
"40313180","SMAN 1 CENDANA","JL. RAYA ENREKANG MAKASSAR","Prop. Sulawesi Selatan","SMA","-3.6460000","119.7793000"
"40314179","SMAN 1 PASUI","JL. PENDIDIKAN NO. 1 PASUI","Prop. Sulawesi Selatan","SMA","-3.4360000","119.8895000"
"40307367","SMAS KARTIKA XX - I MAKASSAR","JL. SUNGAI TANGKA NO. 13","Prop. Sulawesi Selatan","SMA","-5.1351000","119.4103000"
"40318910","SMAS CITRA BANGSA","PULAU KODINGARENG","Prop. Sulawesi Selatan","SMA","-5.1468000","119.2667000"
"40305526","SMAN 1 DUA PITUE","JL. NEGARA POROS PARE-SENGKANG","Prop. Sulawesi Selatan","SMA","-3.9088000","119.9849000"
"69960016","SMA NEGERI 2 BASTEM","DESA LISSAGA","Prop. Sulawesi Selatan","SMA",".0000000",".0000000"
"40300286","SMAS PGRI BANTIMURUNG","JL. POROS BANTIMURUNG","Prop. Sulawesi Selatan","SMA","-4.9864000","119.6468000"
"40302148","SMAN 1 BARRU","JENDERAL SUDIRMAN NO. 32","Prop. Sulawesi Selatan","SMA","-4.4075000","119.6163000"
"40312537","SMAN 1 PASIMARANNU","Jl. Pelajar No. 1","Prop. Sulawesi Selatan","SMA","-7.3571000","121.0878000"
"40311941","SMAS KRISTEN SOLEMAN","JL. PERINTIS KEMERDEKAAN 4","Prop. Sulawesi Selatan","SMA","-5.1446000","119.4913000"
"40313527","SMAN 12 BULUKUMBA","Jl. Poros  Borong Rappoa Km. 13","Prop. Sulawesi Selatan","SMA","-5.4656000","120.1153000"
"40313183","SMA PPM RAHMATUL ASRI","JL. POROS ENREKANG KM. 1 MAROANGIN","Prop. Sulawesi Selatan","SMA","-3.7322000","119.8565000"
"40307374","SMAS MUHAMMADIYAH 3 MAKASSAR","JL. URIF SUMOHARJO NO. 37","Prop. Sulawesi Selatan","SMA","-5.1356000","119.4366000"
"69864664","SMA NEGERI 1 ULU ERE","Jl. Poros Loka","Prop. Sulawesi Selatan","SMA","-5.4913270","119.8892630"
"40311047","SMAN 1 NUHA","JL. SUMASANG III","Prop. Sulawesi Selatan","SMA","-2.5307000","121.3947000"
"40303727","SMAS MUHAMMADIYAH LAJOA","JL. MUH.IDRIS","Prop. Sulawesi Selatan","SMA","-4.4007000","119.9452000"
"40318257","SMAS PGRI GALESONG","JL. PENDIDIKAN-BONTOLANRA","Prop. Sulawesi Selatan","SMA","-5.2372000","119.3901000"
"40307693","SMA NEGERI 1 PAREPARE","JL. MATAHARI NO. 3","Prop. Sulawesi Selatan","SMA","-4.0138000","119.6245000"
"40313885","SMAS YP PGRI 2 MAKASSAR","JL. VETERAN SELATAN LR. 241","Prop. Sulawesi Selatan","SMA","-5.1752000","119.4446000"
"40313443","SMAS ISLAM HIZBUL WATHAN","KASIMBURANG","Prop. Sulawesi Selatan","SMA","-5.2065000","119.6494000"
"40310705","SMAN 1 AMALI","Bulu Laju","Prop. Sulawesi Selatan","SMA","-4.4241000","120.1381000"
"69727960","SMAS NURMILAD BOARDING SCHOOL","JL. H.A. BASO PARIA NO. 1 LEMPONG","Prop. Sulawesi Selatan","SMA","-4.1634000","120.1957000"
"40314383","SMAS HANDAYANI","JL. H. AGUSSALIM NO. 16 SUNGGUMINASA","Prop. Sulawesi Selatan","SMA","-5.2013267","119.4567567"
"69946522","SMA Negeri 1 Rumbia","Lassang Tene","Prop. Sulawesi Selatan","SMA","-5.4820608","119.8696478"
"69939808","SMA NEGERI 1 BAROMBONG","BAROMBONG","Prop. Sulawesi Selatan","SMA","-5.2160000","119.4185000"
"69900330","SMA INSAN CENDEKIA SYECH YUSUF","PATTALLASSANG","Prop. Sulawesi Selatan","SMA","-5.2055000","119.5424000"
"40304856","SMAN 1 BENTENG","JL. KEMIRI NO 4 BENTENG","Prop. Sulawesi Selatan","SMA","-6.1148000","120.4628000"
"40303697","SMAN 1 LILIRILAU","JL.POROS SENGKANG","Prop. Sulawesi Selatan","SMA","-4.3391000","119.9979000"
"40318196","SMAN 2 BARRU","JL. PRAMUKA","Prop. Sulawesi Selatan","SMA","-4.4145000","119.6417000"
"69758967","SMAN 2 MALILI","JL. PENDIDIKAN PUNCAK INDAH","Prop. Sulawesi Selatan","SMA","-2.7843000","121.2594000"
"40300276","SMAN 1 BANTIMURUNG","PAKALU BANTIMURUNG","Prop. Sulawesi Selatan","SMA","-5.0117000","119.6507000"
"40303730","SMAN 1 DONRI-DONRI","JL. PENDIDIKAN DARE AJUE","Prop. Sulawesi Selatan","SMA","-4.2314000","119.8869000"
"40311889","SMAN 2 MAKASSAR","JL. BAJI GAU NO. 17","Prop. Sulawesi Selatan","SMA","-5.1411000","119.4125000"
"40300671","SMAN 1 LIUKANG TANGAYA","JL. PENDIDIKAN NO.2 PULAU SAPUKA","Prop. Sulawesi Selatan","SMA","-7.0870672","118.1673657"
"40307372","SMAS KRISTEN","JL. GUNUNG BATUPUTIH  NO. 3 MAKASSAR","Prop. Sulawesi Selatan","SMA","-5.1464000","119.4160000"
"40305525","SMAS PGRI PANGSID","JL. NENE MALLOMO NO. 4 PANGKAJENE","Prop. Sulawesi Selatan","SMA","-3.9314000","119.7954000"
"40307694","SMA NEGERI 2 PAREPARE","JL. JENDERAL SUDIRMAN NO. 31","Prop. Sulawesi Selatan","SMA","-4.0386300","119.6277300"
"40301033","SMAN 1 PARANGLOE","JL. MALINO KM. 40 PARANG","Prop. Sulawesi Selatan","SMA","-5.2486000","119.6515000"
"69762669","SMAN 1 PATTALLASSANG","JL.POROS PATTALLASSANG","Prop. Sulawesi Selatan","SMA","-5.2920000","119.6723000"
"40314532","SMAN 1 BUNGIN","JL. PENDIDIKAN BUNGIN","Prop. Sulawesi Selatan","SMA","-3.5480000","119.9626000"
"40302659","SMAS AMIR ISLAM WATAMPONE","JL. SUNGAI KAPUAS  WATAMPONE","Prop. Sulawesi Selatan","SMA","-4.5341720","120.3306810"
"40307217","SMAS ADVENT MAKASSAR","JL. H. I. A. SALEH NO. 1","Prop. Sulawesi Selatan","SMA","-5.1475000","119.4122000"
"40310155","SMAN 1 MANGKUTANA","JL. RUSA","Prop. Sulawesi Selatan","SMA","-2.4957000","120.8030000"
"40300673","SMAS MUHAMMADIYAH PANGKAJENE","JL. A. MAURAGA PANGKAJENE","Prop. Sulawesi Selatan","SMA","-4.8396000","119.5467000"
"40311959","SMAS YP PGRI 1 MAKASSAR","JL. SINGA NO. 2","Prop. Sulawesi Selatan","SMA","-5.1144000","119.4101000"
"40307351","SMAS PERGURUAN ISLAM","JL. DATUMUSENG NO. 12","Prop. Sulawesi Selatan","SMA","-5.1434000","119.4095000"
"40318408","SMA Negeri 1 TONDON","JL. POROS RANTEPAO - PALOPO","Prop. Sulawesi Selatan","SMA","-2.9617000","119.9489000"
"40313786","SMAN 1 SEKO","JL.VETERAN NO.1","Prop. Sulawesi Selatan","SMA","-2.2747000","119.8894000"
"40318325","SMAS AL - BAHRAH","JL. KAMPUNG BERU","Prop. Sulawesi Selatan","SMA","-5.5799000","119.7457000"
"40310371","SMAN 1 TELLULIMPOE","JL. PENDIDIKAN","Prop. Sulawesi Selatan","SMA","-5.2715000","120.2367000"
"40312652","SMAS TRI BAKTI KARSA","JL. SYECK YUSUF NO. 63","Prop. Sulawesi Selatan","SMA","-5.1897000","119.4499000"
"40304245","SMAS MUHAMMADIYAH BULUKUMBA","JL. IR SOEKARNO NO. 17","Prop. Sulawesi Selatan","SMA","-5.5593000","120.1844000"
