"schoolId","schoolName","schoolAddress","province","school_level","lat","long"
"40400767","SMA NEGERI 1 WATOPUTE","JL. POROS WATOPUTE - KUSAMBI","Prop. Sulawesi Tenggara","SMA","-4.8515000","122.6869000"
"60726578","SMAN 1 ASINUA","DESA AWUA JAYA","Prop. Sulawesi Tenggara","SMA","-3.7467000","121.7159000"
"40402960","SMA NEGERI 15 BOMBANA","TAMPABULU","Prop. Sulawesi Tenggara","SMA","-4.7444000","121.7288000"
"40402755","SMAN 1 BAU-BAU","JL. MUH. HUSNI THAMRIN NO. 29","Prop. Sulawesi Tenggara","SMA","-5.4588900","122.6091500"
"40403034","SMAN 1 WABULA","JL. KUMAHA NO. 1","Prop. Sulawesi Tenggara","SMA","-5.6142000","122.8526000"
"40402621","SMAS PGRI KENDARI","JL. MAYJEN SUTOYO NO 12/J","Prop. Sulawesi Tenggara","SMA","-3.9612420","122.5442620"
"69900467","SMA NEGERI 1 DANGIA","Desa Lembah Subur, Kec. Dangia","Prop. Sulawesi Tenggara","SMA","-4.1894000","121.9718000"
"40403872","SMAN 1 WAKORUMBA UTARA","JL. PEMBANGUNAN NO 5","Prop. Sulawesi Tenggara","SMA","-4.4277000","122.9582000"
"40404643","SMAN 1 AMONGGEDO","JL. AMONGGEDO","Prop. Sulawesi Tenggara","SMA","-3.8841000","122.2266000"
"40401160","SMAN 1 LASALIMU SELATAN","JL. Sumatera No.01","Prop. Sulawesi Tenggara","SMA","-5.3188000","123.1671000"
"40403372","SMAS AL HIJRAH LAINEA","JL. POROS PUNGGALUKU-KOLONO","Prop. Sulawesi Tenggara","SMA","-4.3678000","122.5474000"
"69812061","SMAN KELAS KHUSUS PULAU RUNDUMA","JL. PENDIDIKAN PULAU RUNDUMA","Prop. Sulawesi Tenggara","SMA","-5.3474000","124.3512000"
"69952362","SMA SWASTA IBNU ABBAS","JL. KONTU KOWUNA","Prop. Sulawesi Tenggara","SMA","-4.8224698","122.7126129"
"40403792","SMAN 1 SAMATURU","JL. PENDIDIKAN NO. 01","Prop. Sulawesi Tenggara","SMA","-3.9693000","121.3568000"
"40404133","SMAN 1 KULISUSU BARAT","JL. POROS EREKE-RONTA","Prop. Sulawesi Tenggara","SMA","-4.6868000","123.0321000"
"69900408","SMA NEGERI 2 LASALIMU","JALAN Poros Baubau - Kamaru","Prop. Sulawesi Tenggara","SMA","-5.2376740","123.1326190"
"69822761","SMA NEGERI 1 BATU ATAS","Jln. Poros Desa Batu Atas Timur","Prop. Sulawesi Tenggara","SMA","-6.2044000","122.7248000"
"69932498","SMA KEBERBAKATAN OLAHRAGA BAHTERAMAS","Jl. Poros Bandara Haluoleo No. 8B Ranomeeto","Prop. Sulawesi Tenggara","SMA","-4.0389000","122.4704000"
"40403973","SMAN 1 LEMBO","JL. MEKUO NO. 2","Prop. Sulawesi Tenggara","SMA","-3.7603000","122.3434000"
"69893426","SMA SWASTA BOMBANA","Desa Wumbu Bangka","Prop. Sulawesi Tenggara","SMA","-4.6653000","121.9284000"
"69753153","SMAN 1 LASOLO KEPULAUAN","Jl. Pasir Panjang","Prop. Sulawesi Tenggara","SMA","-3.3455000","122.2536000"
"40400759","SMA NEGERI 1 MALIGANO","JL. POROS MALIGANO PURE","Prop. Sulawesi Tenggara","SMA","-4.7208000","122.8483000"
"40401164","SMAN 1 LAPANDEWA","JL. MUHILU. NO 1","Prop. Sulawesi Tenggara","SMA","-5.6522000","122.7866000"
"69760845","SMA SWASTA TONGKOSENG","DESA TONGKOSENG","Prop. Sulawesi Tenggara","SMA","-4.6045000","121.6597000"
"40404112","SMAS BINA BANGSA","JL. PIERE TENDEAN","Prop. Sulawesi Tenggara","SMA","-4.0371100","122.4918870"
"40404131","SMAN 2 KULISUSU","JL. KOPASARANO NO....LEMO","Prop. Sulawesi Tenggara","SMA","-4.8230000","123.1779000"
"40405284","SMAN 2 MAWASANGKA","JALAN POROS DESA NAPA - WASILOMATA NO.3 Telp. ... Kode Pos 93762","Prop. Sulawesi Tenggara","SMA","-5.3337000","122.2693000"
"69888827","SMAN 1 LANDAWE","Jl. Pendidikan No. 03","Prop. Sulawesi Tenggara","SMA","-3.2723000","121.9931000"
"69896393","SMA NEGERI 2 MAWASANGKA TENGAH","JALAN POROS WATORUMBE","Prop. Sulawesi Tenggara","SMA","-5.3310000","122.3633000"
"40401538","SMAN 1 WUNDULAKO","JL. GURO NO.5","Prop. Sulawesi Tenggara","SMA","-4.1207000","121.6761000"
"40405055","SMAN 17 KONAWE SELATAN","Jalan Poros Kendari - Torobulu","Prop. Sulawesi Tenggara","SMA","-4.3583000","122.4787000"
"69822766","SMAN 3 KULISUSU","DESA LINSOWU KEC. KULISUSU","Prop. Sulawesi Tenggara","SMA","-4.8258000","123.1908000"
"40401875","SMAN 3 KONAWE SELATAN","JL. LAMANGGA NO. 79","Prop. Sulawesi Tenggara","SMA","-4.3020000","122.4687000"
"40403661","SMAN 1 MELUHU","MELUHU","Prop. Sulawesi Tenggara","SMA","-3.8101000","122.1780000"
"40404848","SMAN 20 KONAWE SELATAN","DUSUN III DESA TANJUNG TIRAM","Prop. Sulawesi Tenggara","SMA","-4.0378000","122.6586000"
"40403343","SMAN 11 KONAWE SELATAN","JL. POROS KENDARI-MOTAHA","Prop. Sulawesi Tenggara","SMA","-4.0879000","122.3116000"
"60725217","SMAN 2 LAPANDEWA","JL. WANCILIPANI NO. 1 SEMPA-SEMPA","Prop. Sulawesi Tenggara","SMA","-5.5969070","122.7466240"
"40403665","SMA NEGERI 1 WONGGEDUKU","JL. POROS KDI-UNAAHA","Prop. Sulawesi Tenggara","SMA","-3.9248000","122.1576000"
"40401536","SMAN 1 TIRAWUTA","JL. MUH NUR LATAMORO NO.68","Prop. Sulawesi Tenggara","SMA","-4.0473000","121.8962000"
"40403043","SMAN 1 WOLOWA","Jl. Poros Pasarwajo - Siotapina","Prop. Sulawesi Tenggara","SMA","-5.4151000","122.9405000"
"40405097","SMAN LENTEA","LENTEA","Prop. Sulawesi Tenggara","SMA","-5.5787000","123.8563000"
"69759039","SMAN 1 ROUTA","DESA TIRAWONUA","Prop. Sulawesi Tenggara","SMA","-3.4308000","121.5981000"
"40403658","SMAN 1 ANGGABERI","Jl. Podada RT. 02 RW. 02","Prop. Sulawesi Tenggara","SMA","-3.8468000","122.0763000"
"40402857","SMAN 1 ABUKI","JL. BUNDULA YUSUF","Prop. Sulawesi Tenggara","SMA","-3.7596000","121.9263000"
"40401876","SMAN 2 KONAWE SELATAN","JL. BANDARA HALUOLEO KENDARI","Prop. Sulawesi Tenggara","SMA","-4.0733000","122.4097000"
"69733993","SMAN 2 LAKUDO","Jl. Poros Labungkari - Mawasangka","Prop. Sulawesi Tenggara","SMA","-5.2737000","122.5224000"
"40400771","SMAN 1 MAGINTI","JL. H. TOMBONG PAJALA","Prop. Sulawesi Tenggara","SMA","-4.8437000","122.3376000"
"40404722","SMAN 1 SIOMPU","Jln. Poros siompu","Prop. Sulawesi Tenggara","SMA","-5.6410000","122.5220000"
"40402619","SMAN 1 KENDARI","JL. MAYJEN SOETOYO NO. 102","Prop. Sulawesi Tenggara","SMA","-3.9628180","122.5415280"
"60730086","SMAN 3 LAKUDO","DESA WAARA. KEC. LAKUDO","Prop. Sulawesi Tenggara","SMA","-5.4591050","122.6091650"
"69831515","SMA SWASTA USWATUN BAHARI","JL. BAHARI I","Prop. Sulawesi Tenggara","SMA","-4.8572000","122.7294000"
"40402858","SMAN 1 BESULUTU","JL. POROS KDI UNAAHA","Prop. Sulawesi Tenggara","SMA","-3.9644000","122.3282000"
"40403344","SMAN 4 KONAWE SELATAN","JL. PENDIDIKAN NO. 1","Prop. Sulawesi Tenggara","SMA","-4.3500877","122.3417800"
"69788704","SMAN 1 TONGKUNO SELATAN","DESA LABASA","Prop. Sulawesi Tenggara","SMA","-5.2150000","122.5122000"
"40405270","SMAN 1 TINONDO","JL. LABUKU","Prop. Sulawesi Tenggara","SMA","-3.8269000","121.8646000"
"40403342","SMAN 7 KONAWE SELATAN","JL. POROS KOLONO KENDARI","Prop. Sulawesi Tenggara","SMA","-4.3085000","122.6554000"
"40403596","SMAN 1 POLI-POLIA","JL. POROS TAOSU-ANDOWENGGA","Prop. Sulawesi Tenggara","SMA","-4.2099000","121.8927000"
"69893469","SMA NEGERI 2 WABULA","Jalan Poros Pasarwajo - Wabula","Prop. Sulawesi Tenggara","SMA","-5.5823000","122.8775000"
"69953890","SMA AL QURAN WAHDAH ISLAMIYAH","Jl. Patimura","Prop. Sulawesi Tenggara","SMA","-3.9703631","122.4754613"
"69819336","SMA NEGERI 1 UEESI","Jl. Pendidikan","Prop. Sulawesi Tenggara","SMA","-3.5119960","121.3414720"
"40403276","SMAN 2 WANGI-WANGI","JL. LA SIBATARA NO 57","Prop. Sulawesi Tenggara","SMA","-5.3396000","123.5437000"
"40402978","SMAN 6 BAU-BAU","JL. POROS PASAR WAJO KM 13","Prop. Sulawesi Tenggara","SMA","-5.4747090","122.6883664"
"40403970","SMAN 1 LASOLO","JL. ASPOL NO. 5","Prop. Sulawesi Tenggara","SMA","-3.6617000","122.2397000"
"40401134","SMAN 1 PASARWAJO","Jl. Ki Hajar Dewantara No.115","Prop. Sulawesi Tenggara","SMA","-5.4955000","122.8433000"
"69733994","SMAN 2 LASALIMU SELATAN","JL. POROS SIOMANURU-SIONTAPINA","Prop. Sulawesi Tenggara","SMA","-5.2512000","123.1426000"
"40403273","SMAS PLUS BABUSSALAM","JL. DR. MOH. HATTA NO. 3 DUSUN BONTU","Prop. Sulawesi Tenggara","SMA","-5.3151000","123.6393000"
"69760844","SMA NEGERI 12 BOMBANA","DESA LANTARI","Prop. Sulawesi Tenggara","SMA","-4.6013000","122.0302000"
"40402624","SMAN 8 KENDARI","JL. Garuda Poros Moramo Kendari","Prop. Sulawesi Tenggara","SMA","-3.9998000","122.6123000"
"40401133","SMAN 1 SAMPOLAWA","JL. KORPRI LR. LAPANGAN SADAR MAMBULU","Prop. Sulawesi Tenggara","SMA","-5.6242000","122.7033000"
"40403355","SMAN 2 WAWOTOBI","JL. TABARA","Prop. Sulawesi Tenggara","SMA","-3.8430000","122.1317000"
"69946465","SMA NEGERI 4 SAMPOLAWA","JALAN POROS SAMPOLAWA","Prop. Sulawesi Tenggara","SMA","-5.5589824","122.7906003"
"40406670","SMAN 3 MAWASANGKA","JALAN POROS MAWASANGKA","Prop. Sulawesi Tenggara","SMA","-5.2678720","122.3960330"
"40402860","SMAN 1 SOROPIA","JL. POROS KENDARI - SOROPIA KODE POS 93351","Prop. Sulawesi Tenggara","SMA","-3.9006000","122.5833000"
"40403275","SMAN 2 TOMIA","JL. LINTAS USUKU KULATI","Prop. Sulawesi Tenggara","SMA","-5.7742000","123.9457000"
"40401522","SMAN 1 LADONGI","JL. HALUOLEO NO. 8","Prop. Sulawesi Tenggara","SMA","-4.1561000","121.9147000"
"40404879","SMAN 1 KONTUKOWUNA","JL. Pendidikan","Prop. Sulawesi Tenggara","SMA","-4.9964000","122.4639000"
"40404221","SMA NEGERI 08 BOMBANA ","Jl. Poros Dongkala-Sikeli","Prop. Sulawesi Tenggara","SMA","-5.2406000","121.9533000"
"40404745","SMAN 5 WANGI-WANGI","JL. POROS TINDOI","Prop. Sulawesi Tenggara","SMA","-5.3344000","123.5761000"
"69762606","SMAN 2 KULISUSU UTARA","JL. PENDIDIKAN NO 1","Prop. Sulawesi Tenggara","SMA","-4.5320640","123.1582690"
"40401166","SMAS LAKINA LIMBO","JL. Sangia Wambulu No.71","Prop. Sulawesi Tenggara","SMA","-5.3605000","122.6213000"
"40403972","SMAN 1 WIWIRANO","JL. TRANS SULAWESI","Prop. Sulawesi Tenggara","SMA","-3.2313000","122.1434000"
"69947407","SMA NEGERI 4 LAKUDO","Jl. Poros Boneoge-Madongka","Prop. Sulawesi Tenggara","SMA","-5.4012705","122.5237237"
"40402556","SMAS IDHATA KENDARI","JL. WULELE NO. 99","Prop. Sulawesi Tenggara","SMA","-4.0092100","122.5044650"
"40403668","SMA NEGERI 1 KONAWE","JL. LAHASA","Prop. Sulawesi Tenggara","SMA","-3.8987000","122.1054000"
"40405077","SMAN 18 KONAWE SELATAN","JL. POROS KENDARI-PARASI","Prop. Sulawesi Tenggara","SMA","-4.4074000","122.4255000"
"40404059","SMA NEGERI 04 BOMBANA","JL. KI HAJAR DEWANTARA","Prop. Sulawesi Tenggara","SMA","-4.8313000","121.7995000"
"40400755","SMA NEGERI 3 RAHA","JL. GATOT SUBROTO","Prop. Sulawesi Tenggara","SMA","-4.8036000","122.7194000"
"40402336","SMAN 1 KALEDUPA","JL. POROS  KE SOMBANO NO.50","Prop. Sulawesi Tenggara","SMA","-5.4998000","123.7331000"
"69904787","SMA NEGERI 1 BONEGUNU","Een Sumala","Prop. Sulawesi Tenggara","SMA","-4.9358000","122.9197000"
"40402470","SMA NEGERI 09 BOMBANA","JL.POROS MULAENO-BOEPINANG","Prop. Sulawesi Tenggara","SMA","-4.7693000","121.6232000"
"69830521","SMA NEGERI 1 LALOLAE","Jln. Pendidikan No. 01","Prop. Sulawesi Tenggara","SMA","-4.0278540","121.7966820"
"40401158","SMAN 1 KADATUA","JL. Poros Kadatua","Prop. Sulawesi Tenggara","SMA","-5.5424000","122.4741000"
"40404132","SMAN 1 KULISUSU","JL. SUGITO SUMODIHARJO","Prop. Sulawesi Tenggara","SMA","-4.7741000","123.1813000"
"40402338","SMAN 1 WANGI-WANGI","JL. LEBE UMARA NO. 1","Prop. Sulawesi Tenggara","SMA","-5.2985000","123.6387000"
"40402337","SMAN 1 TOMIA","JL. WAITII","Prop. Sulawesi Tenggara","SMA","-5.7276000","123.8974000"
"40402768","SMAN 2 BAU-BAU","JL. BETOAMBARI NO. 67","Prop. Sulawesi Tenggara","SMA","-5.4680733","122.5925700"
"40402471","SMA NEGERI 02 BOMBANA","SIKELI","Prop. Sulawesi Tenggara","SMA","-5.2733000","121.8037000"
"69762786","SMAN 10 KENDARI","JL. BOULEVARD","Prop. Sulawesi Tenggara","SMA","-4.0241000","122.5300000"
"40401135","SMAN 1 MAWASANGKA","JL. karya suka No. 1 Mawasangka","Prop. Sulawesi Tenggara","SMA","-5.2959000","122.3007000"
"40400769","SMAN 1 KUSAMBI","POROS RAHA MASARA","Prop. Sulawesi Tenggara","SMA","-4.7501000","122.5747000"
"40404710","SMAN 2 ASERA","DESA WALALINDU","Prop. Sulawesi Tenggara","SMA","-3.4846000","122.0804000"
"40403031","SMAN 1 LAKUDO","JL. KM. 1 LINTAS GU - WAMENGKOLI KEC. LAKUDO, BUTON TENGAH","Prop. Sulawesi Tenggara","SMA","-5.3303000","122.5399000"
"40404060","SMA NEGERI 10 BOMBANA","TOBURI","Prop. Sulawesi Tenggara","SMA","-4.7032000","121.7775000"
"40404728","SMA NEGERI 14 BOMBANA","MASALOKA TIMUR","Prop. Sulawesi Tenggara","SMA","-4.8223000","122.1355000"
"69726043","SMA AL-IJTIHAD AMBOLOLI","DESA AMBOLOLI","Prop. Sulawesi Tenggara","SMA","-4.1207000","122.4879000"
"40401533","SMAN 1 KOLAKA","JL. PENDIDIKAN NO. 45","Prop. Sulawesi Tenggara","SMA","-4.0620000","121.6180000"
"40403135","SMAS SATRIA KENDARI","JL. SUPU YUSUF","Prop. Sulawesi Tenggara","SMA","-3.9665990","122.5244340"
"40403563","SMAN 1 LATAMBAGA","JL. ABADI","Prop. Sulawesi Tenggara","SMA","-4.0428000","121.5750000"
"40404263","SMAN 1 LAMBANDIA","JL.TAMAN SISWA NO.","Prop. Sulawesi Tenggara","SMA","-4.2644000","121.9101000"
"40400762","SMAS WAMELAI RAHA","JL. LUMBA-LUMBA LAINO RAHA","Prop. Sulawesi Tenggara","SMA","-4.8165000","122.7351000"
"40402475","SMA NEGERI 05 BOMBANA","JL.Pendidikan No.3 Dongkala","Prop. Sulawesi Tenggara","SMA","-5.3117000","122.0438000"
"69822768","SMAS ALJABAR KENDARI","PATIMURA (BELAKANG TERMINAL LAMA)","Prop. Sulawesi Tenggara","SMA","-3.9638000","122.4687000"
"40403870","SMAN 1 Kambowa","JL. PENDIDIKAN NO 5","Prop. Sulawesi Tenggara","SMA","-4.9548000","122.9577000"
"40401534","SMAN 1 MOWEWE","JL. PENDIDIKAN NO.1","Prop. Sulawesi Tenggara","SMA","-3.9899000","121.7364000"
"69849635","SMA SWASTA ILMANAH","Desa Bahari","Prop. Sulawesi Tenggara","SMA","-4.8571880","122.6964640"
"40403559","SMAN 1 WATUBANGGA","KOMP KANTOR CAMAT WATUBANGGA","Prop. Sulawesi Tenggara","SMA","-4.4841000","121.5147000"
"40403974","SMA NEGERI 2 RAHA","JL. PENDIDIKAN NO. 2 RAHA","Prop. Sulawesi Tenggara","SMA","-4.8393000","122.7150000"
"40400745","SMAS MUHAMMADIYAH RAHA","JL. MACAN NO. 9","Prop. Sulawesi Tenggara","SMA","-4.8304000","122.7170000"
"69734190","SMA NEGERI 2 SIOTAPINA","JALAN LINTAS DESA, GUNUNG JAYA","Prop. Sulawesi Tenggara","SMA","-5.4224000","123.0292000"
"40405271","SMAN 1 SAWERIGADI","Jl. Merdeka","Prop. Sulawesi Tenggara","SMA","-4.7913000","122.5253000"
"40402980","SMAS 1 MUH BAU-BAU","JL. PAHLAWAN KM 3","Prop. Sulawesi Tenggara","SMA","-5.4674000","122.6198000"
"40404750","SMAN 2 Kambowa","JL. POROS EREKE-BAUBAU","Prop. Sulawesi Tenggara","SMA","-5.0865000","122.9678000"
"40404110","SMAS HIDAYATULLAH","JL. ORINUNGGU","Prop. Sulawesi Tenggara","SMA","-4.0008000","122.5242000"
"40403039","SMAN 1 MAWASANGKA TENGAH","Jalan Poros Mawasangka-Wamengkoli No. 23 Telp. .... Lakorua (93762)","Prop. Sulawesi Tenggara","SMA","-5.3268000","122.3733000"
"40402769","SMAN 3 BAU-BAU","JL. DAYANU IKHSANUDDIN","Prop. Sulawesi Tenggara","SMA","-5.4797783","122.5827433"
"40402864","SMAS CENDEKIA TUDAONE","JL. 40 KEL. TUDAONE","Prop. Sulawesi Tenggara","SMA","-3.8827000","122.0974000"
"40402554","SMAS ILMIAH KENDARI","JL. JENDRAL AHMAD YANI","Prop. Sulawesi Tenggara","SMA","-3.9907730","122.5012300"
"40403136","SMAN 9 KENDARI","JL. DIPONEGORO NO. 108","Prop. Sulawesi Tenggara","SMA","-3.9671570","122.5666050"
"40401535","SMAN 1 POMALAA","JL. SALAK NO. 2 POMALAA","Prop. Sulawesi Tenggara","SMA","-4.1952000","121.6038000"
"69763259","SMA NEGERI 2 TALAGA RAYA","Jln. Kota Intan No.002 - Talaga","Prop. Sulawesi Tenggara","SMA","-5.4920510","122.0523790"
"40402865","SMAS KURNIA PUDAY","JL. Transmigrasi SP-G Desa Tetemotaha, Kec. Wonggeduku","Prop. Sulawesi Tenggara","SMA","-3.9230000","122.1858000"
"40404229","SMAN 3 WANGI-WANGI","JL. WARA","Prop. Sulawesi Tenggara","SMA","-5.3373000","123.4936000"
"40404690","SMAS H AGUSSALIM KATOI","JL. PENDIDIKAN","Prop. Sulawesi Tenggara","SMA","-3.4697000","120.9803000"
"40402616","SMAN 4 KENDARI","JL. AHMAD YANI NO. 13","Prop. Sulawesi Tenggara","SMA","-3.9784070","122.5118530"
"69824437","SMAN 3 LAMBANDIA","DESA MOKUPA","Prop. Sulawesi Tenggara","SMA","-4.2547090","121.8024790"
"40404005","SMAN 1 KONTUNAGA","JL. POROS MABODO","Prop. Sulawesi Tenggara","SMA","-4.8599000","122.6648000"
"40400758","SMA NEGERI 1 NAPABALANO","JL. IDRUS EFENDI NO 22","Prop. Sulawesi Tenggara","SMA","-4.6330000","122.7125000"
"40402614","SMAN 6 KENDARI","JL. BANDA PUNGGOLAKA","Prop. Sulawesi Tenggara","SMA","-3.9700000","122.4904000"
"40403663","SMAN 1 UEPAY","JL. PERINTIS","Prop. Sulawesi Tenggara","SMA","-3.9216000","122.0589000"
"40401877","SMAN 1 KONAWE SELATAN","JL. RA KARTINI NO. 420","Prop. Sulawesi Tenggara","SMA","-4.4618611","122.2330518"
"40400747","SMA NEGERI 1 RAHA","JL. MEDE SABARA","Prop. Sulawesi Tenggara","SMA","-4.8222000","122.7184000"
"40400243","SMAN 1 WAWONII","DESA LANGARA","Prop. Sulawesi Tenggara","SMA","-4.0310000","122.9862000"
"40402557","SMAS HASRATI KENDARI","JL. BUNGA KEMUNING NO. 26B","Prop. Sulawesi Tenggara","SMA","-3.9661050","122.5364450"
"40405054","SMAN 19 KONAWE SELATAN","JL. TENGGIRI NO. 1","Prop. Sulawesi Tenggara","SMA","-4.4675000","122.2942000"
"69874624","SMA NEGERI 2 BATAUGA","Jln. Gajah Mada","Prop. Sulawesi Tenggara","SMA","-5.6653710","122.6215010"
"40403564","SMAS MUHAMMADIYAH DAWI-DAWI","JL. PROTOKOL NO. 10","Prop. Sulawesi Tenggara","SMA","-4.1770000","121.6138000"
"40404081","SMAS AL MAARIF","Jl. LUMBA-LUMBA","Prop. Sulawesi Tenggara","SMA","-4.8155000","122.7262000"
"40405268","SMAN 21 KONAWE SELATAN","JL. PESISIR BARAT","Prop. Sulawesi Tenggara","SMA","-4.1598000","122.7746000"
"69822764","SMA NEGERI 3 KAPONTORI","Jln. Poros Gunung Lambelu","Prop. Sulawesi Tenggara","SMA","-5.1427000","122.7888000"
"69899732","SMAN 1 WADAGA","LAILANGGA","Prop. Sulawesi Tenggara","SMA","-4.9338000","122.6041000"
"40403664","SMAN 1 WAWONII TENGAH","JL. LAMPEAPI","Prop. Sulawesi Tenggara","SMA","-4.1241000","122.9647000"
"40402622","SMAS OIKUMENE KENDARI","JL. OIKUMENE 24","Prop. Sulawesi Tenggara","SMA","-3.9638550","122.5161520"
"40400749","SMAN 1 TIKEP","JL. POROS KAMBARA KEL. WAUMERE","Prop. Sulawesi Tenggara","SMA","-4.8024000","122.4158000"
"40405096","SMAN 4 BINONGKO","JL. POROS MAKORO","Prop. Sulawesi Tenggara","SMA","-5.9113000","123.9944000"
"69946466","SMA NEGERI 5 SAMPOLAWA","JALAN POROS KAOENGKEONGKEA-SAMPOLAWA","Prop. Sulawesi Tenggara","SMA","-5.5308960","122.7283550"
"69727587","SMAS TAMPO","JL. LAALAMUNA","Prop. Sulawesi Tenggara","SMA","-4.6471000","122.6032000"
"60726533","SMA Negeri  3 GU","JL MIGNEAU DESA LAKAPERA","Prop. Sulawesi Tenggara","SMA","-5.2060000","122.5284000"
"40403157","SMA NEGERI 2 PARIGI","JL. PENDIDIKAN","Prop. Sulawesi Tenggara","SMA","-5.0901000","122.5013000"
"60726579","SMAN 1 TONGAUNA","Jl. Poros Transmigrasi SP.A-SP.B Lalonggowuna","Prop. Sulawesi Tenggara","SMA","-3.7715000","121.9272000"
"40403598","SMAN 1 TOARI","JL. PELOPOR PENDIDIKAN","Prop. Sulawesi Tenggara","SMA","-4.5560000","121.5133000"
"40402620","SMAS SEJAHTERA KENDARI","JL. Liambo, No. 5 BTN II","Prop. Sulawesi Tenggara","SMA","-3.9601700","122.5284500"
"40400770","SMAN 1 LAWA","JL. PENDIDIKAN","Prop. Sulawesi Tenggara","SMA","-4.8771000","122.5514000"
"40405117","SMA NEGERI 22 KONAWE SELATAN","Jl. Usaha Tani, Desa Roraya","Prop. Sulawesi Tenggara","SMA","-4.4415164","122.1553626"
"40404671","SMAN 1 LANGGIKIMA","JL. POROS MOLORE","Prop. Sulawesi Tenggara","SMA","-3.2156000","122.2148000"
"40403527","SMA NEGERI 1 LOGHIA","JL. POROS NAPABALE","Prop. Sulawesi Tenggara","SMA","-4.8934000","122.7098000"
"40402979","SMAS 2 MUH BAU BAU","JL. JEND. SUDIRMAN NO. 45","Prop. Sulawesi Tenggara","SMA","-5.4571000","122.6074000"
"40402615","SMAN 5 KENDARI","JL. BRIGJEN KATAMSO 397 KENDARI","Prop. Sulawesi Tenggara","SMA","-4.0419920","122.4934850"
"40401165","SMAN 1 LASALIMU","JALAN POROS BAUBAU-KAMARU","Prop. Sulawesi Tenggara","SMA","-5.1714000","123.0622000"
"40403660","SMAN 1 BONDOALA","JL. LAOSU","Prop. Sulawesi Tenggara","SMA","-3.8999000","122.4598000"
"60730081","SMAS LABUANDIRI","DESA LABUANDIRI, KEC. SIOTAPINA","Prop. Sulawesi Tenggara","SMA","-5.3458000","123.1391000"
"69822762","SMAN 2 GU","Jln, Poros Rahia - Lombe","Prop. Sulawesi Tenggara","SMA","-5.2677000","122.5898000"
"40404214","SMA NEGERI 1 BONE","JL.PENDIDIKAN BONE","Prop. Sulawesi Tenggara","SMA","-5.1435000","122.4562000"
"40403608","SMA NEGERI 13 BOMBANA","MATAOLEO","Prop. Sulawesi Tenggara","SMA","-4.7696000","121.6231000"
"40400763","SMAS YAPRIS RAHA","JL. H AGUS SALIM","Prop. Sulawesi Tenggara","SMA","-4.8431000","122.7230000"
"40403875","SMA NEGERI 2 TONGKUNO","JL. PERMADIAN MOKO DESA","Prop. Sulawesi Tenggara","SMA","-5.1796000","122.5799000"
"40402195","SMAN 1 BATU PUTIH","JL. TRANS SULAWESI","Prop. Sulawesi Tenggara","SMA","-3.0737000","121.0878000"
"40404709","SMAN 1 MOTUI","Jl Poros Trans Sulawesi Kel. Bende Kec. Motui Kab. Konut","Prop. Sulawesi Tenggara","SMA","-3.8186000","122.4349000"
"69760760","SMAN 1 AERE","JL SINJAI DESA ULUNDORO AERE","Prop. Sulawesi Tenggara","SMA","-4.3186340","121.9775320"
"40403186","SMAS KARYA PURN","JL.MEKAR","Prop. Sulawesi Tenggara","SMA","-3.9817950","122.5059920"
"69948522","SMAN 2 SAWERIGADI","DESA LAWADA","Prop. Sulawesi Tenggara","SMA","-4.8225453","122.4882282"
"40403379","SMAN 5 KONAWE SELATAN","Jln. Poros Kendari - Lapuko, Desa Landipo","Prop. Sulawesi Tenggara","SMA","-4.1660000","122.6664000"
"40402771","SMAS BATARA GURU BAU BAU","JL. BETOAMBARI NO 75","Prop. Sulawesi Tenggara","SMA","-5.4702467","122.5888767"
"40402981","SMAS MUTIARA BAUBAU","JL. MUTIARA NO .10","Prop. Sulawesi Tenggara","SMA","-5.4662717","122.5964400"
"40404037","SMAN 1 WAWONII UTARA","Jl TANI DESA TOMBAONE UTAMA","Prop. Sulawesi Tenggara","SMA","-4.0215000","123.1300000"
"40402859","SMAN 1 WAWONII TIMUR","JL. MUNSE","Prop. Sulawesi Tenggara","SMA","-4.0889000","123.2572000"
"69774524","SMAS MUHAMMADIYAH 1 WAKATOBI ","Jln. Dusun Mina Bahari Mola Nelayan Bhakti","Prop. Sulawesi Tenggara","SMA","-5.3503000","123.5410000"
"69947493","SMA NEGERI 2 MAWASANGKA TIMUR","Jl. La Ode Abdul Kahar","Prop. Sulawesi Tenggara","SMA","-5.3570000","122.3931000"
"40404279","SMA SWASTA TONTONUNU","TONTONUNU","Prop. Sulawesi Tenggara","SMA","-4.7390000","121.6608000"
"40403524","SMAN 1 KODEOHA","JL. TAMAN SISWA NO 200","Prop. Sulawesi Tenggara","SMA","-3.3538000","120.9233000"
"40402618","SMAN 2 KENDARI","JL. SISINGAMANGARAJA No.41","Prop. Sulawesi Tenggara","SMA","-4.0084000","122.5576000"
"40403560","SMAN 1 ULUIWOI","JL. PEMBANGUNAN NO. 7","Prop. Sulawesi Tenggara","SMA","-3.7483000","121.6742000"
"40400765","SMA NEGERI 1 KABANGKA","JL. LUPIA","Prop. Sulawesi Tenggara","SMA","-4.9559000","122.4521000"
"69734020","SMAN 2 KUSAMBI","JL. SUGIPATANI","Prop. Sulawesi Tenggara","SMA","-4.7474000","122.5392000"
"40404163","SMAN 1 TALAGA RAYA","Jln. Kakatua No. 02 Talaga","Prop. Sulawesi Tenggara","SMA","-5.4748000","122.0835000"
"40402635","SMAS MUHAMMADIYAH KENDARI","JL. MUHAMMADIYAH NO. 19 (Lokasi I)","Prop. Sulawesi Tenggara","SMA","-3.9979550","122.5089900"
"40403968","SMAN 1 OHEO","DESA WIWIRANO","Prop. Sulawesi Tenggara","SMA","-3.3351000","122.0291000"
"40401156","SMAN 1 GU","JL. JENDERAL SUDIRMAN LOMBE","Prop. Sulawesi Tenggara","SMA","-5.2542000","122.5719000"
"40404028","SMAN 1 PURIALA","SONAI","Prop. Sulawesi Tenggara","SMA","-4.0296000","122.1225000"
"40400750","SMA NEGERI 1 TONGKUNO","Jl. Pendidikan No. 2 Wakuru","Prop. Sulawesi Tenggara","SMA","-5.1539000","122.5173000"
"69799876","SMA NEGERI 3 SAMPOLAWA","JLN. POROS BAHARI , DESA BAHARI","Prop. Sulawesi Tenggara","SMA","-5.6670000","122.7151000"
"40404815","SMAN 10 KONAWE SELATAN","JL. LA ATORA NO. 01","Prop. Sulawesi Tenggara","SMA","-4.1372000","122.1150000"
"40403040","SMAN 1 MAWASANGKA TIMUR","Jl. Air Mawadah, Lamena","Prop. Sulawesi Tenggara","SMA","-5.4015000","122.4479000"
"40403871","SMAN 1 KULISUSU UTARA","JL. PENDIDIKAN NO 1","Prop. Sulawesi Tenggara","SMA","-4.6907000","123.2076000"
"60730202","SMAN 1 MAROBO","DESA MAROBO","Prop. Sulawesi Tenggara","SMA","-5.1747000","122.3217000"
"40403969","SMAN 1 ASERA","JL. LAHULU BALA NO. 1","Prop. Sulawesi Tenggara","SMA","-3.5165000","122.1146000"
"69761861","SMAS MUHAMMADIYAH 2 WAKATOBI KALEDUPA","DESA SAMA BAHARI","Prop. Sulawesi Tenggara","SMA","-5.4678000","123.7747000"
"40401162","SMAN 1 SIOTAPINA","Jln. Poros Pasarwajo-Kamaru Km. 25","Prop. Sulawesi Tenggara","SMA","-5.4105000","123.0120000"
"40401874","SMAN 8 KONAWE SELATAN","JL. MAYJEN KATAMSO NO 2","Prop. Sulawesi Tenggara","SMA","-4.0959000","122.4515000"
"40401101","SMAN 2 KAPONTORI","JL. POROS BAUBAU-KAPONTORI","Prop. Sulawesi Tenggara","SMA","-5.2189000","122.8187000"
"40405048","SMAN 13 KONAWE SELATAN","JL. SIDAHARJA","Prop. Sulawesi Tenggara","SMA","-4.1966000","122.4984000"
"40403376","SMAS BIMA MAROA","JL. ABDULLAH SILONDAE","Prop. Sulawesi Tenggara","SMA","-4.3324600","122.1271083"
"40400244","SMAN 1 WAWOTOBI","JL. LASANDARA NO. 21","Prop. Sulawesi Tenggara","SMA","-3.8775000","122.1145000"
"40403259","SMAN 2 KALEDUPA","JL. POROS KE TANOMEHA NO. 1","Prop. Sulawesi Tenggara","SMA","-5.5522000","123.8039000"
"40402589","SMA KARTIKA XX-2 KENDARI","JL.PALAPA NO. 8 KENDARI","Prop. Sulawesi Tenggara","SMA","-3.9604920","122.5271350"
"40400748","SMAN 1 BARANGKA","DESA BUNGKOLO","Prop. Sulawesi Tenggara","SMA","-4.8278000","122.5411000"
"40400232","SMAN 2 UNAAHA","JL. S. PARMAN NO.355","Prop. Sulawesi Tenggara","SMA","-3.8623000","122.0359000"
"60730080","SMA NEGERI 3 LASALIMU","JalanPoros Baubau- Kamaru","Prop. Sulawesi Tenggara","SMA","-5.2572000","122.9470000"
"40401539","SMAN 2 KOLAKA","JL. BADEWI NO. 73","Prop. Sulawesi Tenggara","SMA","-4.0657000","121.6282000"
"69764514","SMA SWASTA POLEANG TENGGARA","DESA LARETE","Prop. Sulawesi Tenggara","SMA","-4.8572000","121.9333000"
"40404881","SMAN 3 BINONGKO","JL. POROS WALI JAYA MAKMUR","Prop. Sulawesi Tenggara","SMA","-5.9308000","123.9934000"
"60730206","SMAS DARUL FIKRI LABUNGKA","JL. POROS PURE-MALIGANO","Prop. Sulawesi Tenggara","SMA","-4.8317000","122.8431000"
"40402194","SMAN 1 LASUSUA","JL. TRANS SULAWESI","Prop. Sulawesi Tenggara","SMA","-3.5047000","120.8937000"
"69864668","SMA ISLAM TERPADU AL MAWADDAH WARRAHMAH KOLAKA","Jalan Pondok Pesantren, No. 10.","Prop. Sulawesi Tenggara","SMA","-4.0578000","121.5979000"
"40402182","SMAN 1 PAKUE","JL. POROS LAPAI OLO - OLOHO","Prop. Sulawesi Tenggara","SMA","-3.2380000","121.0385000"
"40404035","SMA NEGERI 06 BOMBANA","JL. KI HAJAR DEWANTARA NO. 009","Prop. Sulawesi Tenggara","SMA","-4.6901000","121.5176000"
"69864688","SMA Integral Minhajut Thullab","Andoolo Utama","Prop. Sulawesi Tenggara","SMA","-4.2893000","122.2107000"
"69892823","SMA NEGERI 1 POREHU","Jl. Poros Porehu","Prop. Sulawesi Tenggara","SMA","-3.0531000","121.2297000"
"40402335","SMAN 1 BINONGKO","JL. MURHUM NO. 1 RUKUWA","Prop. Sulawesi Tenggara","SMA","-5.9487310","124.0049970"
"60726464","SMAN 1 NAPANO KUSAMBI","LAHAJI","Prop. Sulawesi Tenggara","SMA","-4.6949000","122.5728000"
"40403038","SMAN 3 PASAR WAJO","JL. Poros Pasarwajo-Baubau","Prop. Sulawesi Tenggara","SMA","-5.4716000","122.8267000"
"40405113","SMAN 9 KONAWE SELATAN","Kompleks Perkantoran Kec. Laonti","Prop. Sulawesi Tenggara","SMA","-4.2073000","122.8796000"
"40400766","SMA NEGERI 1 KABAWO","JL. LOMBULALO NO. 16","Prop. Sulawesi Tenggara","SMA","-5.0108000","122.4896000"
"69849575","SMA NEGERI 6 WANGI-WANGI","Jalan Dr Soetomo","Prop. Sulawesi Tenggara","SMA","-5.2578760","123.5712650"
"40402623","SMAN 7 KENDARI","JL. IMAM BONJOL NO. 53 A","Prop. Sulawesi Tenggara","SMA","-3.9413020","122.5071920"
"40401537","SMAN 1 WOLO","JL.KOLAKA-WOLO  KM.47","Prop. Sulawesi Tenggara","SMA","-3.8800000","121.3268000"
"40400233","SMAS PGRI LAMBUYA","JL. ONEMBUTE","Prop. Sulawesi Tenggara","SMA","-4.0301000","121.9837000"
"40404159","SMAN 1 KAPOIALA","KAPOIALA","Prop. Sulawesi Tenggara","SMA","-3.8733000","122.4944000"
"40402868","SMAS NASIONAL WAWOTOBI","JL. TORA NO. 525","Prop. Sulawesi Tenggara","SMA","-3.8739000","122.1047000"
"40404435","SMAN 4 WANGI-WANGI","JL. POROS LIYA","Prop. Sulawesi Tenggara","SMA","-5.3802000","123.5895000"
"69945219","SMA NEGERI 1 MOROSI","Desa Morosi","Prop. Sulawesi Tenggara","SMA","-3.8126371","122.2525199"
"40401873","SMAN 6 KONAWE SELATAN","JL. POROS ALANGGA ANGATA","Prop. Sulawesi Tenggara","SMA","-4.3167683","122.2427050"
"40403349","SMAN 12 KONAWE SELATAN","JL. POROS ATARI INDAH","Prop. Sulawesi Tenggara","SMA","-4.3980000","122.0962000"
"40405015","SMAN 14 KONAWE SELATAN","JL. POROS LAMEURU-AMBAIPUA","Prop. Sulawesi Tenggara","SMA","-4.0576000","122.4129000"
"40403150","SMAS PGRI MUNA","Jl. Sangia Wadolao","Prop. Sulawesi Tenggara","SMA","-5.1200000","122.3322000"
"40405846","SMAN 16 BOMBANA","JL. PENDIDIKAN NO. 2 POKORUMBA","Prop. Sulawesi Tenggara","SMA","-4.6685000","121.6021000"
"40403352","SMAS KURNIA KOLONO","JL. POROS KENDARI_AMOLENGU","Prop. Sulawesi Tenggara","SMA","-4.4023000","122.7689000"
"40403971","SMAN 1 SAWA","JL. PERKANTORAN NO. 44","Prop. Sulawesi Tenggara","SMA","-3.7607000","122.4241000"
"60726577","SMAN 1 WAWONII TENGGARA","Jalan Lingkar Wawonii Desa Teporoko Kec. Wawonii Tenggara","Prop. Sulawesi Tenggara","SMA","-4.2467000","123.0917000"
"40400761","SMAS PGRI RAHA","JALAN PENDIDIKAN","Prop. Sulawesi Tenggara","SMA","-4.8287000","122.7168000"
"69788706","SMAS ANUGRAH KUSUMA","JL. GATOT SUBROTO","Prop. Sulawesi Tenggara","SMA","-4.7910000","122.7385000"
"69892733","SMA NEGERI 4 PASARWAJO","Jln. Gajah Mada","Prop. Sulawesi Tenggara","SMA","-5.4384254","122.7816893"
"69900401","SMA NEGERI 3 LAPANDEWA","JLN. POROS LAPANDEWA BURANGASI","Prop. Sulawesi Tenggara","SMA","-5.6491000","122.7766000"
"40402959","SMA NEGERI 01 BOMBANA","JL.DR.MUH.HATTA","Prop. Sulawesi Tenggara","SMA","-4.7711000","121.5823000"
"69899230","SMA NEGERI 2 LADONGI","DESA PUTEMATA, KECAMATAN LADONGI, KABUPATEN KOLAKA TIMUR","Prop. Sulawesi Tenggara","SMA","-4.1527000","121.8569000"
"40403256","SMAN 2 BINONGKO","JL. AULIA NO. 69","Prop. Sulawesi Tenggara","SMA","-5.9739000","124.0106000"
"40402977","SMAN 5 BAU-BAU","Jl Poros Kalialia","Prop. Sulawesi Tenggara","SMA","-5.3984241","122.6554272"
"40403611","SMA NEGERI 07 BOMBANA","WAEMPUTTANG","Prop. Sulawesi Tenggara","SMA","-4.8246000","121.6780000"
"40400241","SMAN 1 SAMPARA","JL. POROS KDI - KOLAKA KM. 21","Prop. Sulawesi Tenggara","SMA","-3.9778000","122.4157000"
"40401157","SMAN 1 BATAUGA","Jalan Gajah Mada","Prop. Sulawesi Tenggara","SMA","-5.5994000","122.5981000"
"40402617","SMAN 3 KENDARI","JL. RA KARTINI NO. 127 KDI","Prop. Sulawesi Tenggara","SMA","-3.9760150","122.5997120"
"40400240","SMAN 1 PONDIDAHA","JL. POROS KDI UNAAHA","Prop. Sulawesi Tenggara","SMA","-3.9521000","122.2339000"
"60730083","SMAN 1 SANGIA WAMBULU","Jl. Kenangan no. 1 Desa Baruta Lestari","Prop. Sulawesi Tenggara","SMA","-5.3418000","122.6288000"
"69900407","SMA NEGERI 5 PASARWAJO","Jalan Poros Baubau Pasarwajo-Buton","Prop. Sulawesi Tenggara","SMA","-5.4396000","122.8911000"
"40400754","SMA NEGER1 WAKORUMBA SELATAN","JL. TAMAN SISWA","Prop. Sulawesi Tenggara","SMA","-4.9017000","122.8348000"
"69895906","SMA SWASTA MATABUNDU","Jalan Pendidikan","Prop. Sulawesi Tenggara","SMA","-4.5989000","121.4830000"
"40400242","SMAN 1 UNAAHA","JL. IMAM BONJOL NO.171","Prop. Sulawesi Tenggara","SMA","-3.8583000","122.0559000"
"40404610","SMAN 2 PASARWAJO","Jl. Pendidikan No. 1","Prop. Sulawesi Tenggara","SMA","-5.5690000","122.8383000"
"40404847","SMAN 16 KONAWE SELATAN","JL. Poros Basala Kec. Basala Kab. Konawe Selatan","Prop. Sulawesi Tenggara","SMA","-4.2772000","121.9889000"
"40403156","SMA NEGERI 4 RAHA","Jl. Sugi Patola No. 4 Lasalepa","Prop. Sulawesi Tenggara","SMA","-4.7871000","122.7209000"
"40402558","SMAS DDI KENDARI","JL. TEKAKA  No. 9","Prop. Sulawesi Tenggara","SMA","-3.9701370","122.5823700"
"40403033","SMAN 1 SIOMPU BARAT","JL. PENDIDIKAN LASASA","Prop. Sulawesi Tenggara","SMA","-5.6867000","122.4742000"
"40403610","SMA NEGERI 11 BOMBANA","Jalan Jend.A.Yani Lr.Hudin No.27","Prop. Sulawesi Tenggara","SMA","-4.7150000","121.9203000"
"40404032","SMA NEGERI 03 BOMBANA","JL. TINA ORIMA","Prop. Sulawesi Tenggara","SMA","-4.7715000","122.0433000"
"69892367","SMA MUTIARA","JALAN TANI NO.3","Prop. Sulawesi Tenggara","SMA","-5.4250000","123.0301000"
"40400238","SMAN 1 LAMBUYA","JL. POROS KENDARI - LAMBUYA","Prop. Sulawesi Tenggara","SMA","-3.9733000","122.0765000"
"40400751","SMA NEGERI 1 PASIR PUTIH","POLA","Prop. Sulawesi Tenggara","SMA","-4.9988000","122.8077000"
"69774790","SMAN 2 LAMBANDIA","Dusun I Watalanu Desa Lere Jaya","Prop. Sulawesi Tenggara","SMA","-4.3321030","121.9951420"
"40401100","SMAN 1 KAPONTORI","JL. LETJEN HERTASNING","Prop. Sulawesi Tenggara","SMA","-5.2586000","122.7285000"
"40402770","SMAN 4 BAU-BAU","JL. BETOAMBARI NO. 73","Prop. Sulawesi Tenggara","SMA","-5.4696650","122.5896933"
"69799875","SMA NEGERI 2 SAMPOLAWA","JLN. PENDIDIKAN, DESA LIPUMANGAU","Prop. Sulawesi Tenggara","SMA","-5.6084000","122.7384000"
"69786271","SMAN 2 WATOPUTE","Jl. Saungkoleo","Prop. Sulawesi Tenggara","SMA","-4.8458000","122.6664000"
"69943865","SMA NEGERI 3 KULISUSU UTARA","Jln. Baru","Prop. Sulawesi Tenggara","SMA","-4.5134981","123.0838373"
"40404151","SMAS DARUSALAM","JL. POROS KALIA-LIA","Prop. Sulawesi Tenggara","SMA","-5.3984317","122.6636583"
"40405084","SMAN 15 KONAWE SELATAN","JL. POROS BAITO-MOWILA","Prop. Sulawesi Tenggara","SMA","-4.2599000","122.3103000"
"40403726","SMAN 1 TANGGETADA","JL. PENDIDIKAN NO 1","Prop. Sulawesi Tenggara","SMA","-4.3637000","121.5251000"
"40400746","SMA NEGERI 1 PARIGI","JL. POROS WASOLANGKA","Prop. Sulawesi Tenggara","SMA","-5.1351000","122.4510000"
