"schoolId","schoolName","schoolAddress","province","school_level","lat","long"
"50103124","SMAN 4 DENPASAR","JL.GUNUNG RINJANI DENPASAR","Prop. Bali","SMA","-8.6642580","115.1993900"
"50103149","SMAS TAMAN RAMA","JL. COKROAMINOTO NO. 382 DENPASAR","Prop. Bali","SMA","-8.6207480","115.1986700"
"50103889","SMAS TAMAN RAMA","KOMP. PERUM PURI GADING BLOK A BR. CENGILING","Prop. Bali","SMA","-8.7991000","115.1552000"
"50103672","SMAS PARIWISATA KERTA WISATA","JL. KH. DEWANTARA JASRI AMLAPURA","Prop. Bali","SMA","-8.4426000","115.6144000"
"50103725","SMAS WIRABHAKTI","DESA SAWAN","Prop. Bali","SMA","-8.1574000","115.1767000"
"50103670","SMAN 1 MANGGIS","JL. RAYA ULAKAN NO. 81 KARANGASEM","Prop. Bali","SMA","-8.4918000","115.5211000"
"50102578","SMAN 1 KINTAMANI","JL. YUDISTIRA BAYUNGGEDE","Prop. Bali","SMA","-8.2890967","115.3317617"
"50102378","SMAN 1 NUSA PENIDA","JL. PENDIDIKAN DESA PED NUSA PENIDA","Prop. Bali","SMA","-8.6771666","115.4928600"
"50104096","SMAN SATU ATAP NUSA PENIDA","DESA TANGLAD, NUSA PENIDA","Prop. Bali","SMA","-8.7721516","115.5807827"
"50101696","SMAN 1 KUTA UTARA","JL. MADE BULET NO. 19 DALUNG KUTA UTARA","Prop. Bali","SMA","-8.6189000","115.1697000"
"50100283","SMAN 2 BANJAR","JALAN BANTENG","Prop. Bali","SMA","-8.1991000","114.9674000"
"50105446","SMAS HARAPAN MULIA DENPASAR","JL. PURA DEMAK NO. 19 DENPASAR","Prop. Bali","SMA","-8.6804180","115.1933900"
"50100847","SMAS SARASWATI NEGARA","JL. GAJAH MADA","Prop. Bali","SMA","-8.3640000","114.6522000"
"50101697","SMAS NGURAH RAI","JL. RAYA KEROBOKAN","Prop. Bali","SMA","-8.6964000","115.1718000"
"50100412","SMAN 1 SERIRIT","JL. DIPONOGORO NO. 100 SERIRIT","Prop. Bali","SMA","-8.1931000","114.9270000"
"50102094","SMAN 1 TEGALLALANG","JL. I WAYAN LUNGA, TEGALLALANG","Prop. Bali","SMA","-8.4521000","115.2808000"
"50102577","SMAN 1 SUSUT","JL. PUTRA YUDHA","Prop. Bali","SMA","-8.4136683","115.3469417"
"69899778","SMA Cerdas Insan Sejahtera (CIS) Bali","Jalan Bhineka Nusa Kangin 1-X Desa Dalung,Kecamatan Kuta Utara, Kabupaten Badung","Prop. Bali","SMA","-8.6719000","115.1638000"
"50101665","SMAS BUDI UTAMA","JL. GUNUNG SANGHIYANG KEROBOKAN","Prop. Bali","SMA","-8.6943000","115.1729000"
"50102780","SMAN 1 SIDEMEN","Br. Dinas Kebon, Ds. Telagatawang, Kec. Sidemen, Kab. Karangasem, Bali","Prop. Bali","SMA","-8.4824000","115.4448000"
"50100824","SMAN 2 NEGARA","JLN. MAYOR SUGIANYAR CIVIC CENTRE","Prop. Bali","SMA","-8.3531000","114.6350000"
"50100388","SMAN 1 BANJAR","DESA BANYUATIS","Prop. Bali","SMA","-8.2641000","115.0262000"
"50100409","SMAS CANDIMAS PANCASARI","JL. DESA PANCASARI","Prop. Bali","SMA","-8.2373000","115.1403000"
"50103745","SMAN 1 BEBANDEM","JL. RAYA JUNGUTAN","Prop. Bali","SMA","-8.4414000","115.5604000"
"50102779","SMAN 2 AMLAPURA","JL. UNTUNG SURAPATI AMLAPURA","Prop. Bali","SMA","-8.4422000","115.5979000"
"50103125","SMAN 3 DENPASAR","JL. NUSA INDAH DENPASAR","Prop. Bali","SMA","-8.6507480","115.2319820"
"50105504","SMAS GLOBAL TOURISM ANUGRAH","JL. DIPONEGORO NO. 170/190 DENPASAR","Prop. Bali","SMA","-8.6718010","115.2153730"
"50102384","SMAS PARIWISATA PGRI DAWAN","JL. PLAMBOYAN NO. 57 SEMARAPURA","Prop. Bali","SMA","-8.5402750","115.3950650"
"50103673","SMAS PARIWISATA MAHARDIKA ABANG","Desa Datah, Kec. Abang, Kab. Karangasem, Prov. Bali","Prop. Bali","SMA","-8.3383000","115.6035000"
"50103170","SMAS SARASWATI","JL. KAMBOJA DENPASAR","Prop. Bali","SMA","-8.6525270","115.2249630"
"50102380","SMAS WISATA DARMA","LEMBONGAN","Prop. Bali","SMA","-8.6928875","115.4506453"
"50102082","SMAN 1 TAMPAKSIRING","JL. PUCAK TEGEH MANUKAYA, TAMPAK SIRING","Prop. Bali","SMA","-8.4122000","115.3141000"
"50100287","SMAN 4 SINGARAJA","JL. MELATI SINGARAJA","Prop. Bali","SMA","-8.1137000","115.0893000"
"50103184","SMAS DHARMA WIWEKA","JL. PULAU MOYO 1 PEDUNGAN","Prop. Bali","SMA","-8.6972080","115.2098600"
"50103361","SMAN 3 AMLAPURA","DESA SERAYA KEC. KARANGASEM","Prop. Bali","SMA","-8.4437000","115.6289000"
"50102004","SMAN 1 UBUD","JL. SUWETA - SAMBAHAN UBUD","Prop. Bali","SMA","-8.4873000","115.2638000"
"50102575","SMAN 2 BANGLI","JL. NUSANTARA","Prop. Bali","SMA","-8.4358100","115.3618833"
"50103183","SMAS DWIJENDRA DENPASAR","JL. KAMBOJA 17 DENPASAR","Prop. Bali","SMA","-8.6545800","115.2255170"
"69895368","Australian Independent School Indonesia (Bali)","Jl. Raya Kerobokan No.44 Kerobokan","Prop. Bali","SMA","-8.6842710","115.1674840"
"50103856","SMAS SARASWATI SELAT","Jalan Gunung Abang, Bangbang Biaung","Prop. Bali","SMA","-8.4428000","115.4846000"
"50105536","SMAN SATU ATAP KLUMPU","BANJAR TIAGAN DESA KLUMPU","Prop. Bali","SMA","-8.7341183","115.5156633"
"50100282","SMAN 1 TEJAKULA","Jln. Singaraja-Amlapura Desa Tejakula Kec. Tejakula Kab. Buleleng Prov. Bali","Prop. Bali","SMA","-8.1388000","115.3591000"
"50101129","SMAS PGRI TABANAN 6 BAJERA","JL. SRUTI","Prop. Bali","SMA","-8.5043000","115.0268000"
"50101705","SMAN 1 KUTA","JL. DEWI SARASWATI","Prop. Bali","SMA","-8.6842000","115.1722000"
"50105469","SMAN 2 MENDOYO","JL. NAKULA","Prop. Bali","SMA","-8.3768000","114.7073000"
"50100393","SMAS MUHAMMADIYAH 2","JL. CAMAR NO.8","Prop. Bali","SMA","-8.1184000","115.0868000"
"50103669","SMAN 1 KUBU","JL. RAYA AMLP- SINGARAJA","Prop. Bali","SMA","-8.2171000","115.5246000"
"50100285","SMAN 2 SINGARAJA","JL. SRIKANDI SGR","Prop. Bali","SMA","-8.1288000","115.0851000"
"50100389","SMAN 1 BUSUNGBIU","JL. AMERTA NO. XX","Prop. Bali","SMA","-8.2542000","114.9638000"
"50103723","SMAN 2 GEROKGAK","JL. RAYA SRIRIT - GILIMANUK","Prop. Bali","SMA","-8.1480000","114.6451000"
"50102366","SMAN 1 SEMARAPURA","JL. FLAMBOYAN NO. 63 SEMARAPURA","Prop. Bali","SMA","-8.5413666","115.3950317"
"50103122","SMAN 5 DENPASAR","JL. SANITASI DENPASAR","Prop. Bali","SMA","-8.7044420","115.2285970"
"50103173","SMAS PGRI 2 DENPASAR","JL. GUNUNG PATUHA","Prop. Bali","SMA","-8.6635260","115.2004700"
"50101132","SMAN 1 MARGA","JL. WISNU","Prop. Bali","SMA","-8.4974000","115.1680000"
"69873946","SMAN SATU ATAP LEMBONGAN","DESA LEMBONGAN, NUSA PENIDA","Prop. Bali","SMA","-8.6862600","115.4424500"
"69760689","SMAN SATU ATAP TEJAKULA","DESA SEMBIRAN","Prop. Bali","SMA","-8.1507000","115.2796000"
"50103185","SMAS DHARMA PRAJA DENPASAR","JL. JEND. GATOT SUBROTO DPS No. 376","Prop. Bali","SMA","-8.6361330","115.2142420"
"69822679","SMAS Firdaus","Jalan Raden Hestuhadi RT 01 Pebuahan Banyubiru","Prop. Bali","SMA","-8.3487000","114.5626000"
"50101124","SMAN 1 KEDIRI","JL. BINGIN AMBE","Prop. Bali","SMA","-8.5475000","115.1449000"
"50103722","SMAS KERTHA WISATA","JL. AHMAD YANI NO.101 SINGARAJA","Prop. Bali","SMA","-8.1187000","115.0772000"
"50100381","SMAS SARASWATI SERIRIT","JL. JENDERAL SUDIRMAN SERIRIT","Prop. Bali","SMA","-8.1915070","114.9489980"
"50101121","SMAN 1 TABANAN","JL. GUNUNG AGUNG NO. 122","Prop. Bali","SMA","-8.5266000","115.1311000"
"50101700","SMAS TAMAN SASTRA","JL. ULUWATU 1 NO. 6","Prop. Bali","SMA","-8.7683000","115.1738000"
"50103667","SMAS JAGADITHA BUGBUG","JL. RAYA BUGBUG KARANGASEM","Prop. Bali","SMA","-8.4857000","115.6005000"
"50101133","SMAN 1 PUPUAN","JL. JURUSAN GUNUNG BATUKARU","Prop. Bali","SMA","-8.3261000","115.0399000"
"69849419","SMA GREEN SCHOOL","Jl. Raya Sibangkaja","Prop. Bali","SMA","-8.5488660","115.1991940"
"50101704","SMAN 1 ABIANSEMAL","JL. MAJAPAHIT","Prop. Bali","SMA","-8.5110000","115.2143000"
"50102365","SMAN 2 SEMARAPURA","JL. DEWI SARTIKA 16 SEMARAPURA","Prop. Bali","SMA","-8.5267367","115.3993383"
"50103179","SMAS KRISTEN HARAPAN","JL. Raya Sesetan No. 62","Prop. Bali","SMA","-8.6840450","115.2148080"
"50103787","SMAS SWASTYASTU ABANG","DS. KERTHA MANDALA","Prop. Bali","SMA","-8.3518000","115.6140000"
"50100849","SMAS PGRI NEGARA","JL. KUNTI NEGARA","Prop. Bali","SMA","-8.3560000","114.6099000"
"50103610","SMAN 1 PETANG","DESA PETANG","Prop. Bali","SMA","-8.3929000","115.2141000"
"50100386","SMAS UDAYANA TEJAKULA","TEJAKULA","Prop. Bali","SMA","-8.1423000","115.3304000"
"50100844","SMAN 1 MENDOYO","Jl. Semanggong.","Prop. Bali","SMA","-8.3700000","114.6791000"
"50100394","SMAS LAB UNDIKSHA","Jl. Jatayu No. 10 Singaraja Bali","Prop. Bali","SMA","-8.1222000","115.0841000"
"50102093","SMA PGRI BLAHBATUH","JL. Ki Hajar Dewantara, Blahbatuh","Prop. Bali","SMA","-8.5674000","115.2953000"
"50100379","SMAS PGRI SAWAN","SAWAN","Prop. Bali","SMA","-8.0795000","115.1314000"
"50102084","SMAS PGRI 3 GIANYAR","JL. SUKMA BR TEBESAYE, UBUD","Prop. Bali","SMA","-8.5106000","115.2695000"
"50101684","SMAN 2 MENGWI","JL. RAYA MUNGGU","Prop. Bali","SMA","-8.6171000","115.1229000"
"50103671","SMAN 1 RENDANG","JL. ASTINAPURA RENDANG KARANGASEM","Prop. Bali","SMA","-8.4325000","115.4252000"
"50103182","SMAS DYATMIKA DENPASAR","JL. PUCUK  BR. TANGTU KESIMAN","Prop. Bali","SMA","-8.6512000","115.2655670"
"50101699","SMAS DWIJENDRA BUALU","JL. I GST. NGURAH RAI NUSA DUA","Prop. Bali","SMA","-8.7864000","115.1972000"
"50100380","SMAS PGRI SERIRIT","JL. DIPONEGORO NO.104 SERIRIT","Prop. Bali","SMA","-8.1968000","114.9206000"
"50102078","SMAN 1 BLAHBATUH","JL. ASTINA JAYA BLAHBATUH, GIANYAR","Prop. Bali","SMA","-8.5680000","115.2946000"
"50103631","SMAS CHIS DENPASAR","JL. GRIYA ANYAR, BR. KAJENG","Prop. Bali","SMA","-8.7203050","115.1894180"
"50101193","SMAS SARASWATI 1 TABANAN","JL. PAHLAWAN NO 2","Prop. Bali","SMA","-8.5585000","115.1185000"
"50102576","SMAN 1 TEMBUKU","DESA UNDISAN","Prop. Bali","SMA","-8.4434267","115.3951583"
"50100851","SMAS DIPONOGORO","JL. UDAYANA NO. 333 NEGARA","Prop. Bali","SMA","-8.3529000","114.6090000"
"50100845","SMAN 1 MELAYA","JL. RAYA DENPASAR GILIMANUK","Prop. Bali","SMA","-8.2808000","114.4987000"
"50100262","SMAN 1 SUKASADA","JL. JELANTIK GINGSIR NO. 81 B","Prop. Bali","SMA","-8.1681000","115.1427000"
"50101131","SMAN 1 BATURITI","JL. PEREAN","Prop. Bali","SMA","-8.3086000","115.1779000"
"50102568","SMAN 1 BANGLI","JL. BRIGJEN. NGURAH RAI NO. 36 BANGLI","Prop. Bali","SMA","-8.4628667","115.3522500"
"50102090","SMAS DWIJENDRA","JL. RATNA, GIANYAR","Prop. Bali","SMA","-8.5428000","115.3343000"
"50103127","SMAN 1 DENPASAR","JL. KAMBOJA  DENPASAR","Prop. Bali","SMA","-8.6539630","115.2253080"
"50103172","SMAS PGRI 4 DENPASAR","JL. KENYERI G 27 DENPASAR","Prop. Bali","SMA","-8.6454980","115.2295230"
"50103175","SMAS PGRI 1 DENPASAR","JL. TUKAD GERINDING  21 DENPASAR","Prop. Bali","SMA","-8.6767150","115.2207750"
"50100337","SMAN 1 SINGARAJA","JL. PRAMUKA NO. 4 SINGARAJA","Prop. Bali","SMA","-8.1115000","115.0909000"
"50102091","SMAS KERTA WISATA","JL. ANAK AGUNG GEDE RAI ,UBUD","Prop. Bali","SMA","-8.5473000","115.2611000"
"50103364","SMAS GILIMANDALA","JL. KUTILANG NO. 2 GILIMANUK","Prop. Bali","SMA","-8.1645000","114.4373000"
"50101694","SMAN 2 KUTA","JL. PURA DALEM KEDONGANAN KUTA - BALI","Prop. Bali","SMA","-8.7682000","115.1795000"
"50102379","SMAN 1 BANJARANGKAN","DESA TUSAN BANJARANGKAN","Prop. Bali","SMA","-8.5405050","115.3651016"
"50101130","SMAS SURYA WISATA KEDIRI","JL. WAGIMIN","Prop. Bali","SMA","-8.5568000","115.1409000"
"50101702","SMAS WIDYA BRATA MENGWI","JL. I GUSTI NGURAH RAI NO. 38 MENGWI","Prop. Bali","SMA","-8.5449000","115.1695000"
"50103120","SMAN 7 DENPASAR","JL. KAMBOJA  DENPASAR","Prop. Bali","SMA","-8.6514730","115.2248880"
"50101306","SMAS 1 TP 45 TABANAN","JL. GUNUNG AGUNG NO.  77","Prop. Bali","SMA","-8.5258960","115.1294150"
"50102786","SMAS PARISADHA AMLAPURA","JL. NGURAH RAI AMLAPURA","Prop. Bali","SMA","-8.4337000","115.6117000"
"50105492","SMAN BALI MANDARA","JL. Air Sanih","Prop. Bali","SMA","-8.0816000","115.2072000"
"50101126","SMAN 1 PENEBEL","JL. PITRA NO. 49","Prop. Bali","SMA","-8.4282000","115.1411000"
"50101683","SMAS KUTA PURA","JL. KARTIKA PLAZA KUTA","Prop. Bali","SMA","-8.7265000","115.1712000"
"50100391","SMAN 1 KUBUTAMBAHAN","Banjar Dinas Kaja Kauh","Prop. Bali","SMA","-8.1342980","115.2009730"
"50100395","SMAS KARYA WISATA","JL. SAMRATULANGI","Prop. Bali","SMA","-8.0911000","115.1154000"
"50102081","SMAN 1 SUKAWATI","JL. LETTU W. SUTHA, BATUAN, SUKAWATI","Prop. Bali","SMA","-8.5864000","115.2796000"
"50100850","SMAS NGURAH RAI NEGARA","JL. WIBISANA NO. 2 NEGARA","Prop. Bali","SMA","-8.3594000","114.6159000"
"50103365","SMAN 1 DAWAN","JL. RAYA GUNAKSA","Prop. Bali","SMA","-8.5458700","115.4238500"
"50101695","SMAN 1 MENGWI","JL. GUNUNG AGUNG NO. 3","Prop. Bali","SMA","-8.5467000","115.1660000"
"50101667","SMAS KATOLIK THOMAS AQUINO","JL. RAYA KAPAL-MUNGGU","Prop. Bali","SMA","-8.5883000","115.1657000"
"50100383","SMAS SIDHI KARYA KBT","JL. AIR SANIH KBT","Prop. Bali","SMA","-8.0786000","115.1684000"
"50102080","SMAN 1 PAYANGAN","JL.  RAYA PAYANGAN GIANYAR","Prop. Bali","SMA","-8.3805000","115.2655000"
"69759050","SMAS GIRI NATHA KARANGASEM","JALAN BYPASS PADANGKERTA, AMLAPURA","Prop. Bali","SMA","-8.4349000","115.5854000"
"50100842","SMAN 1 PEKUTATAN","JL. RAYA PEKUTATAN PUPUAN","Prop. Bali","SMA","-8.4153000","114.8234000"
"50100382","SMAS SARASWATI SINGARAJA","JL. BISMA NO. 4","Prop. Bali","SMA","-8.1344000","115.0643000"
"50103171","SMAS PGRI 6 DENPASAR","JL. MERDEKA X NOMOR 6 DENPASAR","Prop. Bali","SMA","-8.6654600","115.2392130"
"50100410","SMAS DWIJENDRA SINGARAJA","JL. KRESNA G/ III/5/ SINGARAJA","Prop. Bali","SMA","-8.1234000","115.0980000"
"50100407","SMAS AYODYA PURA SELAT","DESA SELAT","Prop. Bali","SMA","-8.1760000","115.0662000"
"69772975","SMAS GANDHI MEMORIAL INTERNATIONAL SCHOOL","JL. TUKAD YEH PENET NO 8 A RENON","Prop. Bali","SMA","-8.6751420","115.2443520"
"50102079","SMAN 1 GIANYAR","JL. RATNA GIANYAR","Prop. Bali","SMA","-8.5426000","115.3336000"
"50103148","SMAS TP 45 DENPASAR","JL. GADUNG NO. 32 DENPASAR","Prop. Bali","SMA","-8.6527110","115.2262340"
"50102787","SMAS PGRI 1 AMLAPURA","JL. JENDRAL SUDIRMAN AMLAPURA","Prop. Bali","SMA","-8.4490000","115.6085000"
"69854750","SMA CANGGU COMMUNITY SCHOOL","BANJAR TEGAL GUNDUL","Prop. Bali","SMA","-8.6623000","115.1487000"
"50103180","SMAS KERTHA WISATA","JL. TUKAD BALIAN NO. 15 DPS","Prop. Bali","SMA","-8.6751570","115.2434900"
"69765014","SMAS ALBANNA","JL. TUKAD YEH HO III no 16","Prop. Bali","SMA","-8.6744530","115.2253400"
"50100408","SMAS BHAKTIYASA SINGARAJA","JL . NGURAH RAI NO. 29 SGR","Prop. Bali","SMA","-8.1212000","115.0961000"
"50101682","SMAS KATOLIK SOVERDI TUBAN","JL. KOMPLEK BURUNG 46","Prop. Bali","SMA","-8.7367000","115.1750000"
"50103121","SMAN 6 DENPASAR","JL. RAYA SANUR DENPASAR","Prop. Bali","SMA","-8.6790750","115.2501520"
"69930814","SMA BALI ISLAND SCHOOL","Jl. Danau Buyan IV/15 Sanur Denpasar","Prop. Bali","SMA","-8.6788250","115.2563250"
"50105505","SMAS DOREMI EXCELLENT SCHOOL","JL. TUKAD BADUNG NO. 88 DENPASAR","Prop. Bali","SMA","-8.6890970","115.2379100"
"50100392","SMAN 1 SAWAN","JL. RAYA ABASAN","Prop. Bali","SMA","-8.1084000","115.1548000"
"50101706","SMAN 1 KUTA SELATAN","JL. KETUT JETUNG","Prop. Bali","SMA","-8.8272000","115.1771000"
"50101125","SMAN 1 KERAMBITAN","JL KUKUH MANDUNG","Prop. Bali","SMA","-8.5395000","115.0864000"
"50101100","SMAS KERTHA WISATA TABANAN","JL. MAWAR NO. 48","Prop. Bali","SMA","-8.5489000","115.1230000"
"50101122","SMAN 1 SELEMADEG","JL. GELOGOR","Prop. Bali","SMA","-8.4964000","115.0095000"
"50102089","SMAS AMARAWATI","JL. SURYA BRATA NO. 14, TAMPAKSIRING","Prop. Bali","SMA","-8.4280000","115.3116000"
"50102383","SMAS PARIWISATA SARASWATI","JL. COKROAMINOTO NO. 11","Prop. Bali","SMA","-8.5277483","115.4024416"
"50100843","SMAN 1 NEGARA","JL. NGURAH RAI NO. 155","Prop. Bali","SMA","-8.3608000","114.6398000"
"50102781","SMAN 1 SELAT","BANGBANG BIAUNG KEC. SELAT KAB. KARANGASEM","Prop. Bali","SMA","-8.4455000","115.4924000"
"50100853","SMAS SARASWATI MELAYA","JL. RAYA DENPASAR GILIMANUK","Prop. Bali","SMA","-8.2889000","114.5050000"
"50103724","SMAN 2 TEJAKULA","JL. SGR - AMLAPURA","Prop. Bali","SMA","-8.1385000","115.3371000"
"50100284","SMAN 2 BUSUNGBIU","DESA PUCAKSARI","Prop. Bali","SMA","-8.3173000","114.9451000"
"50103632","SMAN 8 DENPASAR","JL. Antasura, Peguyangan Kaja","Prop. Bali","SMA","-8.5987600","115.2231570"
"50102790","SMAN 1 AMLAPURA","JL. NGURAH RAI NO 56 AMLAPURA","Prop. Bali","SMA","-8.4347000","115.6118000"
"50100390","SMAN 1 GEROKGAK","DESA SANGGALANGIT","Prop. Bali","SMA","-8.1794000","114.7630000"
"50101101","SMAN 2 TABANAN","JL. MAWAR","Prop. Bali","SMA","-8.5531000","115.1231000"
"50103665","SMAS DHARMA KIRTI SENGKIDU","JL. RAYA SENGKIDU","Prop. Bali","SMA","-8.4095000","115.5814000"
"50100286","SMAN 3 SINGARAJA","JL. PULAU NATUNA SINGARAJA","Prop. Bali","SMA","-8.0919000","115.1164000"
"50103126","SMAN 2 DENPASAR","JL. JENDRAL SUDIRMAN DENPASAR","Prop. Bali","SMA","-8.6771030","115.2184970"
"50103878","SMA Jembatan Budaya","JL. Raya Kuta, No.1, Kuta","Prop. Bali","SMA","-8.7064000","115.1845000"
"69725650","SMAS KALAM KUDUS","JL. MUDING SANGIANG LC BATU BIDAK","Prop. Bali","SMA","-8.6751000","115.1706000"
"50103178","SMAS MUHAMMADIYAH 1 DENPASAR","JL. P. BATANTA 80 DENPASAR","Prop. Bali","SMA","-8.6883270","115.1962930"
"50103877","SMAS TUNAS DAUD","JL. KEBO IWA UTARA NO. 8 DENPASAR","Prop. Bali","SMA","-8.6249990","115.1850690"
"50105402","SMAS GURUKULA","JL.PUNCAK YANG UKIR","Prop. Bali","SMA","-8.4363450","115.3613503"
"50100411","SMAS SANTO PAULUS","JL. KARTINI  NO. 1","Prop. Bali","SMA","-8.1158000","115.0843000"
"50103181","SMAS K SANTO YOSEPH DENPASAR","JL. SERMA KAWI DENPASAR","Prop. Bali","SMA","-8.6710100","115.2168530"
