"schoolId","schoolName","schoolAddress","province","school_level","lat","long"
"50204727","SMAS AL HIDAYAH","JL. SOEKARNO HATTA","Prop. Nusa Tenggara Barat","SMA","-8.4891000","118.8690000"
"50219566","SMAN 1 ORONG TELU","JL. LINTAS LENANGGUAR-BATUROTOK KM. 30","Prop. Nusa Tenggara Barat","SMA","-8.7527000","117.1836000"
"50219630","SMA NW  SUKARARA","Jl. Gunung Awas No. 02 Sukarara Kec. Sakra Barat Kab. Lombok Timur","Prop. Nusa Tenggara Barat","SMA","-8.7338000","116.5176000"
"50220487","SMAS PGRI BELO","JL. LINTAS Belo - Ntonggu","Prop. Nusa Tenggara Barat","SMA","-8.5355000","118.7393000"
"50202416","SMAS YADINU MASBAGIK","JL. RINJANI MASBAGIK UTARA","Prop. Nusa Tenggara Barat","SMA","-8.6159000","116.4740000"
"50205619","SMAS PGRI BOLO","JL. PENDIDIKAN SILA BIMA","Prop. Nusa Tenggara Barat","SMA","-8.5010000","118.6192000"
"50201381","SMAS KORPRI PRAYA","JLN. WR SUPRATMAN NO. 14 PRAYA","Prop. Nusa Tenggara Barat","SMA","-8.7087980","116.2781720"
"50204728","SMAS AL MA ARIF","Jln Sukun No. 5 Karara Monggonao","Prop. Nusa Tenggara Barat","SMA","-8.4681000","118.7423000"
"50205633","SMAN 1 SURALAGA","JLN. RAYA SURALAGA - GERES","Prop. Nusa Tenggara Barat","SMA","-8.6369000","116.5584000"
"69949667","SMA ISLAM AL YAUM","Gubuk Belimbing","Prop. Nusa Tenggara Barat","SMA","-8.6050650","116.3315550"
"50204515","SMAN 5 MATARAM","JL. UDAYANA NO. 2A MATARAM","Prop. Nusa Tenggara Barat","SMA","-8.5797000","116.1027000"
"50205208","SMAS ARRAHMAN LINGKOK GODAK KOPANG","JL. NYEREDEP LINGKOK-GODAK","Prop. Nusa Tenggara Barat","SMA","-8.5857300","116.3756116"
"50219668","SMAS ISLAM TERPADU","JL. MAJAPAHIT NO 54B PUNIA MATARAM","Prop. Nusa Tenggara Barat","SMA","-8.5896220","116.0963780"
"50202396","SMAS AL HASANIYAH JENGGIK","JLN NEGARA KM. 40 MATARAM - SELONG","Prop. Nusa Tenggara Barat","SMA","-8.6380000","116.3887000"
"50205082","SMAN 2 PRINGGARATA","RARUNG","Prop. Nusa Tenggara Barat","SMA","-8.5756305","116.2755584"
"69918594","SMA IT DHIAUL FIKRI SUKARARA","Jl. Tarbiatul Fikri Dusun Elah Langgem","Prop. Nusa Tenggara Barat","SMA","-8.7158766","116.4625008"
"50205613","SMAN 2 LAMBU","JL DAM DIWU MORO SANGGA LAMBU","Prop. Nusa Tenggara Barat","SMA","-8.5924000","118.9769000"
"50205620","SMAS MAHDAR BOLO","JL. PENDIDIKAN KANANGA","Prop. Nusa Tenggara Barat","SMA","-8.5026000","118.6248000"
"50203690","SMAN 1 HUU","JL. LINTAS LAKEY","Prop. Nusa Tenggara Barat","SMA","-8.7155000","118.4546000"
"50220464","SMAN 2 WOHA","JL. BUYA HAMKA","Prop. Nusa Tenggara Barat","SMA","-8.5767000","118.6749000"
"50220298","SMAN 2 LEMBAR","JL. YOS SUDARSO LEMBAR","Prop. Nusa Tenggara Barat","SMA","-8.7059000","116.0874000"
"50204007","SMAN 1 BOLO","JL PENDIDIKAN  SILA BIMA","Prop. Nusa Tenggara Barat","SMA","-8.5031000","118.6258000"
"50228887","SMAN 2 LANGGUDU","JL. LINTAS LAMBU - LANGGUDU","Prop. Nusa Tenggara Barat","SMA","-8.6467000","118.9036000"
"50204735","SMAS SINAR JAYA","JL. W. MONGINSIDI","Prop. Nusa Tenggara Barat","SMA","-8.4263000","118.7443000"
"69883641","SMA ISLAM BAITURRAHMAN MAHMUDI BEBUAK","Desa Bebuak Kecamatan Kopang Kabupaten Lombok Tengah","Prop. Nusa Tenggara Barat","SMA","-8.6022160","116.3591220"
"50200365","SMAN 1 BAYAN","JL. RAYA TANJUNG - BAYAN","Prop. Nusa Tenggara Barat","SMA","-8.2305000","116.4182000"
"50204009","SMAN 1 SANGGAR","Jalan La Hami Sandue Sanggar","Prop. Nusa Tenggara Barat","SMA","-8.3760000","118.3108000"
"50204306","SMA NEGERI 1 JEREWEH","JALAN RAYA   LINTAS JEREWEH MALUK KM. 02","Prop. Nusa Tenggara Barat","SMA","-8.8702380","116.8172260"
"50202411","SMAN 1 PRINGGABAYA","Jalan Raya Labuhan Lombok Pringgabaya Utara","Prop. Nusa Tenggara Barat","SMA","-8.5181000","116.6475000"
"50201395","SMAN 1 BATUKLIANG UTARA","JL. PARIWISATA AIK BUKAQ TERATAK","Prop. Nusa Tenggara Barat","SMA","-8.5859784","116.3196225"
"50220573","SMAS AL ASHRIYAH","JL. PESONA GANG BANUSANUSI","Prop. Nusa Tenggara Barat","SMA","-8.5529000","116.1029000"
"69952824","SMA NEGERI 3 LANGGUDU","Karampi","Prop. Nusa Tenggara Barat","SMA","-8.6717642","118.8483430"
"50200384","SMAN 1 KEDIRI","JL. TGH. ABDUL KARIM","Prop. Nusa Tenggara Barat","SMA","-8.6408383","116.1322583"
"50205410","SMAS ISLAM ABHARIAH","JL. RENGGANIS RAYA","Prop. Nusa Tenggara Barat","SMA","-8.6278000","116.1023000"
"50202412","SMAN 1 MASBAGIK","JL. RAYA MASBAGIK SELATAN","Prop. Nusa Tenggara Barat","SMA","-8.6290000","116.4831000"
"69886273","SMA ISLAM TERPADU TGH. UMAR KELAYU","JL. TGH. Ahmad Tretetet","Prop. Nusa Tenggara Barat","SMA","-8.6488930","116.5289990"
"50203311","SMAN 1 UTAN","JL. LINTAS SUMBAWA BESAR - UTAN","Prop. Nusa Tenggara Barat","SMA","-8.4056000","117.1638000"
"50202504","SMAN 1 SIKUR","GERAMI","Prop. Nusa Tenggara Barat","SMA","-8.6027000","116.4334000"
"50203309","SMAN 1 PLAMPANG","JL. RAYA SUMBAWA BESAR - PLAMPANG KM. 61","Prop. Nusa Tenggara Barat","SMA","-8.7870000","117.7685000"
"50220372","SMAS IT UTSMAN BIN AFFAN","JL. BENDUNGAN RAHALAYU","Prop. Nusa Tenggara Barat","SMA","-8.5201000","118.4851000"
"50219588","SMAS MUHAMMADIYAH POHGADING","JLN. MUARA HARAPAN","Prop. Nusa Tenggara Barat","SMA","-8.4509000","116.6518000"
"50200385","SMAN 1 KAYANGAN","JL. Pendidikan Kayangan","Prop. Nusa Tenggara Barat","SMA","-8.2563000","116.2611000"
"50203315","SMAS SAMAWA UTAN","JL. LINTAS SUMBAWA BESAR-UTAN","Prop. Nusa Tenggara Barat","SMA","-8.4124000","117.1349000"
"50204017","SMAN 1 WOHA","JL RAYA TENTE BIMA","Prop. Nusa Tenggara Barat","SMA","-8.5848000","118.6867000"
"50205215","SMAS NW PAGUTAN","Jln. Desa Pagutan Mantang","Prop. Nusa Tenggara Barat","SMA","-8.6268083","116.2831600"
"69755774","SMAS ISLAM RAUDLATUL ULUM BATU JANGKIH","DESA BATU JANGKIH","Prop. Nusa Tenggara Barat","SMA","-8.8129383","116.1473433"
"50205722","SMAS AL HAMZAR TEMBENG PUTIK","JLN. SIMPANG TIGA TEMBENG PUTIK BENYER KORLEKO","Prop. Nusa Tenggara Barat","SMA","-8.5867000","116.5886000"
"50200378","SMAN 1 SEKOTONG","JL.RAYA SEKOTONG","Prop. Nusa Tenggara Barat","SMA","-8.7787000","116.0568000"
"50205634","SMAS MUHAMMADIYAH MASBAGIK","JL.PENDIDIKAN NO. 25 MASBAGIK","Prop. Nusa Tenggara Barat","SMA","-8.6252000","116.4800000"
"50205717","SMAN 1 MONTONG GADING","JL. PRAUBANYAR-MONTONG BETOK","Prop. Nusa Tenggara Barat","SMA","-8.5993000","116.3984000"
"50202420","SMAS NW ANJANI","JLN. RAYA MATARAM - LB. LOMBOK ANJANI","Prop. Nusa Tenggara Barat","SMA","-8.5995000","116.5038000"
"50204731","SMAN 2 KOTA BIMA","JL. GARUDA RABA BIMA","Prop. Nusa Tenggara Barat","SMA","-8.4604000","118.7517000"
"69762748","SMAN 3 WERA","JL. LINTAS TAWALI - SANGIANG","Prop. Nusa Tenggara Barat","SMA","-8.3516000","118.9032000"
"50205214","SMAS NW KOPANG","JLN. BUNG KARNO NO. 09 A JELOJOK","Prop. Nusa Tenggara Barat","SMA","-8.6308850","116.3466283"
"50204015","SMAN 1 PALIBELO","JL SULTAN SALAHUDIN RAGI BELO BIMA","Prop. Nusa Tenggara Barat","SMA","-8.5365000","118.7270000"
"50203692","SMAN 2 KEMPO","JL.IMAM BONJOL, DESA KEMPO","Prop. Nusa Tenggara Barat","SMA","-8.5525000","118.2439000"
"50201392","SMAN 1 KOPANG","JLN. SEGARA ANAK NO. 5A KOPANG","Prop. Nusa Tenggara Barat","SMA","-8.6290883","116.3475900"
"50222191","SMAS GOTONG ROYONG KAE","JL. TENTE-KARUMBU","Prop. Nusa Tenggara Barat","SMA","-8.7761000","118.7187000"
"50200366","SMAS PARIWISATA TANJUNG","Jl. Raya Tanjung - Senggigi","Prop. Nusa Tenggara Barat","SMA","-8.4399250","116.0410530"
"50201384","SMAN 2 PRAYA","Jl. Pejanggik Tampar Ampar","Prop. Nusa Tenggara Barat","SMA","-8.7156820","116.2873870"
"50205718","SMAS AL MUKTARIYAH MAMBEN","LENGKOK MAMBEN LAUK KEC. WANASABA","Prop. Nusa Tenggara Barat","SMA","-8.5849000","116.5741000"
"69884124","SMA ISLAM NURUL YAQIN NW TUNDUNG","Mantang Kecamatan Batukliang Kabupaten Lombok Tengah","Prop. Nusa Tenggara Barat","SMA","-8.6193783","116.3271333"
"50204008","SMAN 1 SAPE","JL PELABUHAN SAPE BIMA","Prop. Nusa Tenggara Barat","SMA","-8.5736000","118.9961000"
"50205721","SMAS ISLAM ASSUNNAH BAGEK NYAKA","Jln. Jurusan Mataram-Lb.Lombok km.55","Prop. Nusa Tenggara Barat","SMA","-8.5730000","116.5400000"
"50200375","SMAN 1 GANGGA","JL. RAYA GONDANG","Prop. Nusa Tenggara Barat","SMA","-8.3330000","116.1919000"
"50220467","SMAN 2 BOLO","JL. LINTAS SUMBAWA","Prop. Nusa Tenggara Barat","SMA","-8.5131000","118.6487000"
"50205205","SMAN 3 PRAYA","JL. RAYA PRAYA-MANTANG KM. 6","Prop. Nusa Tenggara Barat","SMA","-8.6612380","116.2842560"
"50204493","SMAS KERTYA WISATA MATARAAM","Jln. Dr Soedjono No 15 Lingkar Selatan Mataram","Prop. Nusa Tenggara Barat","SMA","-8.6153200","116.1230220"
"69755451","SMAN 3 BOLO","Jl. Lintas Sila - Donggo","Prop. Nusa Tenggara Barat","SMA","-8.4945000","118.6442000"
"50202395","SMAS BIRRUL WALIDAIN NW RENSING","JL. HAMZANWADI BUNUT BAOK, RENSING","Prop. Nusa Tenggara Barat","SMA","-8.7228000","116.4632000"
"50220468","SMAN 1 TAMBORA","JL. PULAU SATONDA","Prop. Nusa Tenggara Barat","SMA","-8.1057000","117.8662000"
"50203696","SMAS IT RANGGO","JL.LINTAS LAKEY","Prop. Nusa Tenggara Barat","SMA","-8.6029000","118.4897000"
"50203326","SMAN 4 SUMBAWA BESAR","JL. BUKIT PERMAI SUMBAWA BESAR","Prop. Nusa Tenggara Barat","SMA","-8.4981000","117.4306000"
"50200382","SMAN 1 LEMBAR","JL. YOS SUDARSO LEMBAR","Prop. Nusa Tenggara Barat","SMA","-8.7048000","116.0902000"
"50201366","SMAN 2 PUJUT","JL. TERUWAI-SENGKOL","Prop. Nusa Tenggara Barat","SMA","-8.8138983","116.3393800"
"69924888","SMA ISLAM MARAQITTALIMAT MEKAR SARI","Jalan Denda Seruni","Prop. Nusa Tenggara Barat","SMA","-8.4779666","116.6114532"
"50219579","SMAN 3 SELONG","JL. H. MOH. FAISAL NO. 1 SELONG","Prop. Nusa Tenggara Barat","SMA","-8.6517000","116.5377000"
"50220506","SMA NEGERI 2 TALIWANG","JL. BRANG REA NO.7","Prop. Nusa Tenggara Barat","SMA","-8.7444000","116.8579000"
"69956801","SMAN 3 LEMBAR","Mareje Timur","Prop. Nusa Tenggara Barat","SMA",".0000000",".0000000"
"69755772","SMAS ISLAM BINA INSANI LANGKO","DESA LANGKO","Prop. Nusa Tenggara Barat","SMA","-8.7297367","116.3780950"
"50203308","SMAN 1 MOYO HULU","JL. RAYA SUMBAWA BESAR-SEMAMUNG","Prop. Nusa Tenggara Barat","SMA","-8.6248000","117.4490000"
"69892374","SMA ISLAM TERPADU BINTANG SEMBILAN","JALAN JURUSAN TANJUNG-POHGADING","Prop. Nusa Tenggara Barat","SMA","-8.6459000","116.5754000"
"50220688","SMA AL - MUHAJIRIN SELOTO","JL. H. A. SARUJI","Prop. Nusa Tenggara Barat","SMA","-8.8057000","117.0030000"
"50219460","SMAN 1 PEMENANG","JL. RAYA PEMENANG","Prop. Nusa Tenggara Barat","SMA","-8.4020000","116.1044000"
"69949668","SMA ISLAM AL QADIR QOMARUL HUDA MENEMENG","Menemeng","Prop. Nusa Tenggara Barat","SMA","-8.6322350","116.1945633"
"50205413","SMAN 1 BATULAYAR","JL.RAYA SENGGIGI","Prop. Nusa Tenggara Barat","SMA","-8.5379000","116.0747000"
"69894451","SMA NEGERI 3 DONGGO","Jl. Lintas Rora - Padende","Prop. Nusa Tenggara Barat","SMA","-8.4420626","118.5582531"
"69856917","SMA KARYA LOTARA","Jl.Pawang Timpas","Prop. Nusa Tenggara Barat","SMA","-8.2395400","116.3535390"
"50204489","SMAS NW MATARAM","JL. KAKTUS NO. 1-3 MATARAM","Prop. Nusa Tenggara Barat","SMA","-8.5830000","116.0998000"
"50202419","SMAS NW KALIJAGA","DASAN BARU","Prop. Nusa Tenggara Barat","SMA","-8.5505000","116.5285000"
"50205209","SMAS ATTOHIRIYAH BODAK","JL. PRAYA-MANTANG","Prop. Nusa Tenggara Barat","SMA","-8.6502900","116.3023850"
"50203307","SMAN 1 LUNYUK","JL. RAYA PADASUKA-SUKAMAJU LUNYUK","Prop. Nusa Tenggara Barat","SMA","-8.9897000","117.2068000"
"50200381","SMAN 1 LINGSAR","JL. GORA II LINGSAR","Prop. Nusa Tenggara Barat","SMA","-8.5724000","116.1814000"
"50201397","SMAS NW SINTUNG","DESA SINTUNG","Prop. Nusa Tenggara Barat","SMA","-8.6090605","116.2241375"
"50205636","SMAS MARDATILLAH NW PENAKAK","PENAKAK, MASBAGIK TIMUR","Prop. Nusa Tenggara Barat","SMA","-8.6025000","116.4492000"
"50205622","SMAS MUHAMMADIYAH SAPE","JL. LAPANGAN SEMANGKA SAPE BIMA","Prop. Nusa Tenggara Barat","SMA","-8.5724000","118.9897000"
"50203321","SMAS ISLAM SUMBAWA BESAR","JL. DURIAN NO. 6 SUMBAWA BESAR","Prop. Nusa Tenggara Barat","SMA","-8.4893000","117.4231000"
"50201382","SMAS NW BONJERUK","JALAN PUSKEMAS UBUNG","Prop. Nusa Tenggara Barat","SMA","-8.6445080","116.2284770"
"50202393","SMAS ALBADRIYAH RARANG","JLN. SUNDAK RARANG","Prop. Nusa Tenggara Barat","SMA","-8.6458000","116.3900000"
"50220350","SMAS AL MASYHUR NW PRAYA","JL. MANDALIKA","Prop. Nusa Tenggara Barat","SMA","-8.6928430","116.2591400"
"50205216","SMAS NW PENDEM","JL. MT. GAMANG GANTI KM. 5","Prop. Nusa Tenggara Barat","SMA","-8.6719950","116.3768683"
"69930602","SMA IT NURUL HUDA NW","KELURAHAN JATIBARU","Prop. Nusa Tenggara Barat","SMA","-8.4231270","118.7495069"
"50202422","SMAS MUHAMMADIYAH TERARA","JL. LAPANGAN UMUM TERARA NO. 8","Prop. Nusa Tenggara Barat","SMA","-8.6401000","116.4152000"
"50204737","SMAS PGRI","JL. SOEKARNO HATTA","Prop. Nusa Tenggara Barat","SMA","-8.4680000","118.7619000"
"50220489","SMAN 2 WERA","NUNGGI KEC. WERA","Prop. Nusa Tenggara Barat","SMA","-8.3781000","118.9151000"
"50200369","SMAS NW NARMADA","JL. WIRABAKTI","Prop. Nusa Tenggara Barat","SMA","-8.5906490","116.2062460"
"69768248","SMAN 1 LABUHAN BADAS","JLN. POLEWALI NO. 25 SEBOTOK","Prop. Nusa Tenggara Barat","SMA","-8.4814000","117.4042000"
"50204013","SMAN 1 WAWO","JL LINTAS SAPE BIMA","Prop. Nusa Tenggara Barat","SMA","-8.5287000","118.8460000"
"50204513","SMAN 7 MATARAM","JL. ADISUCIPTO NO. 69 AMPENAN","Prop. Nusa Tenggara Barat","SMA","-8.5663550","116.0929120"
"50203663","SMAN 2 WOJA","JL. LINTAS SUMBAWA","Prop. Nusa Tenggara Barat","SMA","-8.5496000","118.4074000"
"69759070","SMAN 2 NARMADA","JL. AHMAD YANI NO. 5 NARMADA","Prop. Nusa Tenggara Barat","SMA","-8.5971000","116.1892000"
"50205317","SMAN 1 ALAS BARAT","JL. RAYA SIMPANG LEKONG","Prop. Nusa Tenggara Barat","SMA","-8.5220000","116.9671000"
"69883626","SMA HARAPAN INSAN","JLN. LINTAS SUMBAWA","Prop. Nusa Tenggara Barat","SMA","-8.5405320","118.3026000"
"50201394","SMAN 1 JANAPRIA","JLN. RAYA MONTONG GAMANG - GANTI","Prop. Nusa Tenggara Barat","SMA","-8.6934933","116.4024866"
"50203324","SMAS MUHAMMADIYAH SUMBAWA","JL. SMA MUHAMMADIYAH SUMBAWA BESAR","Prop. Nusa Tenggara Barat","SMA","-8.4994000","117.4206000"
"50200368","SMAS NW SELAPARANG KEDIRI ","JL.TGH. ABD. HAFIDZ","Prop. Nusa Tenggara Barat","SMA","-8.6380717","116.1542317"
"50220488","SMAN 1 LAMBITU","JLN. KUTA-LAMBITU","Prop. Nusa Tenggara Barat","SMA","-8.5862000","118.7798000"
"50220490","SMAN 2 WAWO","Jl. Lintas Bima - Sape KM. 20","Prop. Nusa Tenggara Barat","SMA","-8.5533000","118.8566000"
"50202499","SMAN 2 SELONG","JL. TGKH ZAINUDDIN ABDUL MAJID NO. 1","Prop. Nusa Tenggara Barat","SMA","-8.6531000","116.5513000"
"69873697","SMA AL-IKHLAS KOTA BIMA","JL. LINTAS NUNGGA KELURAHAN NUNGGA KECAMATAN RASANE TIMUR KOTA BIMA","Prop. Nusa Tenggara Barat","SMA","-8.4768110","118.8141530"
"69941988","SMA ISLAM TERPADU AR-RISALAH PAOK LOMBOK","SMA ISLAM TERPADU AR-RISALAH PAOK LOMBOK","Prop. Nusa Tenggara Barat","SMA","-8.6246730","116.5432380"
"69756871","SMAS MUHAMMADIYAH RITE","JL. LINTAS BIMA -WERA","Prop. Nusa Tenggara Barat","SMA","-8.3682000","118.7999000"
"69851857","SMAN 1 ROPANG","Desa Ropang Kecamatan Ropang","Prop. Nusa Tenggara Barat","SMA","-8.8612640","117.4513930"
"60726645","SMAS HARAPAN","JL. LINTAS Sarita - Manggekompo","Prop. Nusa Tenggara Barat","SMA","-8.4207000","118.6664000"
"50222282","SMAS PGRI LAMBU","JL. JEND. SUDIRMAN LAMBU","Prop. Nusa Tenggara Barat","SMA","-8.6203000","119.0104000"
"50220570","SMAS ISLAM AL KAMAL NW","JL. Negara KM 15 Tibupiling","Prop. Nusa Tenggara Barat","SMA","-8.5951000","116.1829000"
"69790721","SMAN 2 MONTA","Jl. Lintas Tente - Wane Ds. Sondo","Prop. Nusa Tenggara Barat","SMA","-8.7476000","118.6630000"
"69734431","SMAN 2 MANGGELEWA","JL. LINTAS LANCI JAYA","Prop. Nusa Tenggara Barat","SMA","-8.4850000","118.3195000"
"50201387","SMAN 1 PRAYA TIMUR","JL. PRAYA TIMUR-MUJUR","Prop. Nusa Tenggara Barat","SMA","-8.7623524","116.3599243"
"50219662","SMAS SYEKH ZAINUDDIN","DESA TEPAL","Prop. Nusa Tenggara Barat","SMA","-8.6271000","117.2108000"
"50205415","SMAN 2 LABUAPI","JL.TGH. IBRAHIM KHALIDI","Prop. Nusa Tenggara Barat","SMA","-8.6124000","116.1523000"
"50201396","SMAN 1 BATUKLIANG","JLN. PENDIDIKAN NO. 3 MANTANG","Prop. Nusa Tenggara Barat","SMA","-8.6156067","116.3169150"
"50202394","SMAS DANA NW BAGEK NYALA","Jalan Datok Daud Bagik Nyala","Prop. Nusa Tenggara Barat","SMA","-8.7383000","116.5216000"
"50203322","SMAS K ST GREGORIUS SUMBAWA","JL. DIPONEGORO NO. 34 SUMBAWA BESAR","Prop. Nusa Tenggara Barat","SMA","-8.4920000","117.4224000"
"50202501","SMAN 1 WANASABA","JLN. RAYA MATARAM, LABUHAN LOMBOK","Prop. Nusa Tenggara Barat","SMA","-8.5683000","116.5683000"
"50205478","SMAN 1 LABANGKA","Jalan Lintas Selatan Kecamatan Labangka","Prop. Nusa Tenggara Barat","SMA","-8.9030000","117.7644000"
"50220486","SMAN 1 DONGGO","JLN. PESANGGRAHAN NO. 19","Prop. Nusa Tenggara Barat","SMA","-8.4258000","118.6062000"
"50204014","SMAN 1 SOROMANDI","JL LINTAS SOROMANDI BAJO KEC SOROMANDI BIMA","Prop. Nusa Tenggara Barat","SMA","-8.4456000","118.6804000"
"69947027","SMA ISLAM TERPADU BEBER","Beber Desa Pengenjek","Prop. Nusa Tenggara Barat","SMA","-8.6779487","116.2797572"
"50203693","SMAS TRI DHARMA KOSGORO DOMPU","JL. UDANG","Prop. Nusa Tenggara Barat","SMA","-8.5338000","118.4592000"
"50202413","SMAN 1 LABUHAN HAJI","JL. HOS COKROAMINOTO LB.HAJI","Prop. Nusa Tenggara Barat","SMA","-8.6893000","116.5666000"
"69901106","SMA IT ADDAKWAH","Jln. Lintas Mbawi Kec. Dompu Kab. Dompu","Prop. Nusa Tenggara Barat","SMA","-8.5134000","118.4847000"
"60730374","SMAN 3 DOMPU","JL. LINTAS KARAMABURA DESA OO","Prop. Nusa Tenggara Barat","SMA","-8.5049000","118.4822000"
"50204502","SMAS TRISAKTI MATARAM","JL. INDUSTRI NO. 4","Prop. Nusa Tenggara Barat","SMA","-8.5778720","116.0801920"
"50205583","SMA NEGERI 1 BRANG REA","JLN. BASO BUSING NO. 10 DESA BERU","Prop. Nusa Tenggara Barat","SMA","-8.7296830","116.9067100"
"50204010","SMAN 1 MADAPANGGA","JL RAYA DENA MADAPANGGA BIMA","Prop. Nusa Tenggara Barat","SMA","-8.5257000","118.5745000"
"50222189","SMAN 3 SAPE","JL. LINTAS SAPE WERA","Prop. Nusa Tenggara Barat","SMA","-8.5074000","118.9669000"
"50200376","SMAN 1 GERUNG","JL. GATOT SUBROTO","Prop. Nusa Tenggara Barat","SMA","-8.6812000","116.1242000"
"50202500","SMAN 2 AIKMEL","JL. RAMBAN BIAK  LENEK DAYA","Prop. Nusa Tenggara Barat","SMA","-8.5761000","116.5051000"
"50205412","SMAS ISLAM AL AZHAR","JL. PUTRI TUNJUNG KAYANGAN","Prop. Nusa Tenggara Barat","SMA","-8.5335000","116.0968000"
"50204511","SMAN 8 MATARAM","JL. DR.SOEDJONO No.8 DASAN CERMEN, KECAMATAN SANDUBAYA","Prop. Nusa Tenggara Barat","SMA","-8.6134170","116.1252680"
"50202503","SMAN 1 SUELA","JLN. WISATA LEMOR SUELA","Prop. Nusa Tenggara Barat","SMA","-8.5223000","116.5748000"
"50203695","SMAS PGRI DOMPU","JL. Lintas Bima Sumbawa","Prop. Nusa Tenggara Barat","SMA","-8.5276000","118.4702000"
"50204715","SMAN 5 KOTA BIMA","JL.BTN TAMBANA","Prop. Nusa Tenggara Barat","SMA","-8.4440000","118.7375000"
"69888391","SMA PLUS RIYADHUDZ DZAKIRIN ASY SYADZILIYAH (RDz.A) BOGAK","Jln. TGH. M. Faesal Bogak Kecamatan Praya Kabupaten Lombok Tengah","Prop. Nusa Tenggara Barat","SMA","-8.6995770","116.2893130"
"50200386","SMAN 1 GUNUNGSARI","JL.PARIWISATA NO. 78","Prop. Nusa Tenggara Barat","SMA","-8.5385000","116.0982000"
"50219586","SMAS NW PRINGGABAYA","Jln. Sandubaya No. 81 Pringgabaya","Prop. Nusa Tenggara Barat","SMA","-8.5502000","116.6317000"
"69755773","SMAS NURUL FALAH PERINA","DESA PERINA","Prop. Nusa Tenggara Barat","SMA","-8.6469700","116.2380320"
"69948934","SMAS ISLAM AL-KHITHAB AL-ISLAMY","Jalan Raya Ntobo","Prop. Nusa Tenggara Barat","SMA","-8.4515738","118.8207394"
"50205621","SMAS PGRI SAPE","JL. PELABUHAN SAPE BIMA","Prop. Nusa Tenggara Barat","SMA","-8.5745000","118.9929000"
"50202392","SMAN 1 SAKRA TIMUR","Jln. Jurusan Moyot-Rambang","Prop. Nusa Tenggara Barat","SMA","-8.7039000","116.5322000"
"69754069","SMAS GARUDA BATUROTOK","Jalan Garuda No.1","Prop. Nusa Tenggara Barat","SMA","-8.6658000","117.1192000"
"50205624","SMAS PGRI WERA","JL.TAWALI WERA BIMA","Prop. Nusa Tenggara Barat","SMA","-8.3620000","118.9671000"
"50203688","SMAN 1 KILO","JL. LINTAS LASI KILO","Prop. Nusa Tenggara Barat","SMA","-8.3079000","118.3971000"
"69725644","SMAS ISLAM ISLAHUL UMMAH","PAOK REMPEK, DS. GENGGELANG","Prop. Nusa Tenggara Barat","SMA","-8.3872000","116.2606000"
"50205211","SMAS DARUL MUHAJIRIN PRAYA","JLN. DIPONEGORO NO. 40 PRAYA","Prop. Nusa Tenggara Barat","SMA","-8.7065550","116.2717920"
"50204305","SMA MUHAMMADIYAH TALIWANG","JL. KH. AHMAD DAHLAN NO. 06 TALIWANG","Prop. Nusa Tenggara Barat","SMA","-8.7422810","116.8447750"
"50203697","SMAS AR RAHMAH DOMPU","JL.KAKA TUA","Prop. Nusa Tenggara Barat","SMA","-8.5429000","118.4345000"
"50204514","SMAN 6 MATARAM","JL. PETERNAKAN I NO. 10","Prop. Nusa Tenggara Barat","SMA","-8.5801580","116.1448120"
"50204516","SMAN 4 MATARAM","JL. RADEN MAS  PANJI ANOM","Prop. Nusa Tenggara Barat","SMA","-8.6097150","116.1213750"
"50205632","SMAN 1 AIKMEL","JL. PENDIDIKAN NO. 35 AIKMEL","Prop. Nusa Tenggara Barat","SMA","-8.4863000","116.4912000"
"50205720","SMAS NW WANASABA","JL. JURUSAN LABUHAN LOMBOK KM. 59 MATARAM","Prop. Nusa Tenggara Barat","SMA","-8.5845000","116.5844000"
"50205081","SMAN 2 JONGGAT","JLN. RAYA NYEROT","Prop. Nusa Tenggara Barat","SMA","-8.6798620","116.2310890"
"50220374","SMAN 1 MANGGELEWA","JL. LINTAS SUMBAWA","Prop. Nusa Tenggara Barat","SMA","-8.5250000","118.3376000"
"50202421","SMAS MUHAMMADIYAH SELONG","JL. TGH. UMAR NO. 22","Prop. Nusa Tenggara Barat","SMA","-8.6533000","116.5447000"
"50205409","SMAS ISLAM AL IKHWAN","JL. JUR. SANTONG - KAYANGAN","Prop. Nusa Tenggara Barat","SMA","-8.2984000","116.2784000"
"50205617","SMAS MUHAMMADIYAH WOHA","JL. BERINGIN NISA WOHA BIMA","Prop. Nusa Tenggara Barat","SMA","-8.5929000","118.6977000"
"69822781","SMAS ISLAM BANI HASYIM","jl. Damdiwumoro, rt 07 desa Sumi","Prop. Nusa Tenggara Barat","SMA","-8.6801000","119.0695000"
"50203686","SMAN 1 PEKAT","JL.PENDIDIKAN NO. 1 PEKAT","Prop. Nusa Tenggara Barat","SMA","-8.3280000","117.8359000"
"50220377","SMAN 2 PEKAT","JL. LINTAS CALABAI","Prop. Nusa Tenggara Barat","SMA","-8.3618000","117.9411000"
"50204501","SMAS 45 MATARAM","Jalan Imam Bonjol No. 45 Tohpati Telp (0370)7503549 Cakranegara Mataram","Prop. Nusa Tenggara Barat","SMA","-8.5741000","116.1306000"
"50204503","SMAN 1 MATARAM","JL. PENDIDIKAN NO.21","Prop. Nusa Tenggara Barat","SMA","-8.5829830","116.0979780"
"69946312","SMA ISLAM NW GAYUT","Gayut Desa Embung Raja","Prop. Nusa Tenggara Barat","SMA","-8.6627778","116.4156084"
"50204018","SMAS PGRI MONTA","JL. Tente - Parado","Prop. Nusa Tenggara Barat","SMA","-8.7216000","118.6850000"
"50202407","SMAS ULIL ALBAAB LENDANG JARAN","LENDANG JARAN JENGGIK UTARA","Prop. Nusa Tenggara Barat","SMA","-8.6169000","116.4045000"
"50205618","SMAS PGRI WOHA","JL. LINTAS TENTE BIMA","Prop. Nusa Tenggara Barat","SMA","-8.5815000","118.6986000"
"50220494","SMAS AL MALIKI","JL. LINTAS TALABIU","Prop. Nusa Tenggara Barat","SMA","-8.5573000","118.6819000"
"69861071","SMAS AR-RAHIM","Jln. Sultan Hasanuddin No. 23","Prop. Nusa Tenggara Barat","SMA","-8.5353760","118.4545480"
"50205213","SMAS MUNIRUL ARIFIN NW PRAYA","JLN. BASUKI RAHMAT PRAYA","Prop. Nusa Tenggara Barat","SMA","-8.6970200","116.2822700"
"50203684","SMAN 2 DOMPU","JL.LELE","Prop. Nusa Tenggara Barat","SMA","-8.5318000","118.4623000"
"50204732","SMAN 1 KOTA BIMA","JL. SOEKARNO HATTA","Prop. Nusa Tenggara Barat","SMA","-8.4832000","118.7450000"
"50220280","SMAS ISLAM AL MAARIF PANDAN INDAH","Jl. Raya Pandan Indah - Kabul","Prop. Nusa Tenggara Barat","SMA","-8.7889083","116.1952383"
"50202414","SMAN 1 KERUAK","JL. JURUSAN TANJUNG LUAR - KERUAK","Prop. Nusa Tenggara Barat","SMA","-8.7730000","116.4948000"
"50204029","SMAN 2 SAPE","JL PEKUBURAN RAO OI SAPE","Prop. Nusa Tenggara Barat","SMA","-8.5650000","118.9759000"
"50220559","SMAS PGRI GUNUNGSARI","JL. Jagapati","Prop. Nusa Tenggara Barat","SMA","-8.5496000","116.1264000"
"50220641","SMAS NURUL IMAN NW ATTAMMIMI PENGEMBUR","Jln. Raya Pengembur - Sengkol","Prop. Nusa Tenggara Barat","SMA","-8.8083566","116.2640500"
"50201386","SMAN 1 PRINGGARATA","JLN. AHMAD YANI PRINGGARATA","Prop. Nusa Tenggara Barat","SMA","-8.6210715","116.2494026"
"50204490","SMAS NASIONAL MATARAM","JL. CEMPAKA NO. 5 MATARAM","Prop. Nusa Tenggara Barat","SMA","-8.5807870","116.1045720"
"69948127","SMA ITTIHADUL FALAH","Dusun Pendua Lauk","Prop. Nusa Tenggara Barat","SMA","-8.3306450","116.3394666"
"50201367","SMAS ANGKASATU JONGGAT","BUNCALANG DESA SUKARARA","Prop. Nusa Tenggara Barat","SMA","-8.7005550","116.2270920"
"69831966","SMAN 2 MASBAGIK","Jln. Lingkar Selatan Masbagik Selatan","Prop. Nusa Tenggara Barat","SMA","-8.6214000","116.4841000"
"50204500","SMAS AL MA ARIF MATARAM","JL. PENDIDIKAN NO. 6","Prop. Nusa Tenggara Barat","SMA","-8.5821230","116.0968830"
"50204736","SMAS SALAHUDDIN KOTA BIMA","JL. SOEKARNO HATTA","Prop. Nusa Tenggara Barat","SMA","-8.4485000","118.7329000"
"60726859","SMAN 2 TANJUNG","LENDANG GALUH","Prop. Nusa Tenggara Barat","SMA","-8.3904000","116.1439000"
"50203310","SMAN 1 SUMBAWA BESAR","JL. GARUDA NO. 1 SUMBAWA  BESAR","Prop. Nusa Tenggara Barat","SMA","-8.4900000","117.4184000"
"69915198","SMA ISLAM NW SUGIAN","Jln.Raya Sambalia - SPN Belanting","Prop. Nusa Tenggara Barat","SMA","-8.3393600","116.6866510"
"50219620","SMAN 4 PRAYA","JLN. TUAN  GURU LOPAN PRAYA","Prop. Nusa Tenggara Barat","SMA","-8.7133350","116.2665920"
"50204498","SMAS DARUL HIKMAH","Jln. Darul Hikmah Lingkar Selatan Karang Genteng Pagutan","Prop. Nusa Tenggara Barat","SMA","-8.6189500","116.1149670"
"50202418","SMAS NW PANCOR","JLN. KH. ZAINUDDIN ABDUL MAJID PANCOR","Prop. Nusa Tenggara Barat","SMA","-8.6465000","116.5282000"
"50219694","SMAS AL IKHWAN","JL. IMAM BONJOL NO. 31","Prop. Nusa Tenggara Barat","SMA","-8.4482000","118.7487000"
"50203312","SMAN 2 SUMBAWA BESAR","JL. GARUDA 102 SUMBAWA  BESAR","Prop. Nusa Tenggara Barat","SMA","-8.4779000","117.4072000"
"50219372","SMAS NW TEBABAN","JLN. RAYA TEBABAN BARAT","Prop. Nusa Tenggara Barat","SMA","-8.6074000","116.5237000"
"50205206","SMAS AL MA ARIF NU AL MANSHURIYAH","Jln. TGH. MOH. Sholeh Hambali Sangkong Desa Bonder","Prop. Nusa Tenggara Barat","SMA","-8.7832000","116.2250717"
"50204307","SMA NEGERI 1 POTO TANO","JL. LINTAS TANO - SETELUK","Prop. Nusa Tenggara Barat","SMA","-8.5893370","116.8426390"
"50204304","SMA AL-IKHLAS TALIWANG","JL.PONDOK PESANTREN NO.112  RT. 02 RW. 010","Prop. Nusa Tenggara Barat","SMA","-8.7584860","116.8630010"
"50220295","SMAN 2 GERUNG","JL. IMAM BONJOL NO. 1 GERUNG","Prop. Nusa Tenggara Barat","SMA","-8.6789667","116.1248817"
"50205217","SMAS YP3I MUAMALAH LOMBAN","JL. PRAYA-KOPANG KM. 5","Prop. Nusa Tenggara Barat","SMA","-8.7032190","116.3090290"
"50204027","SMAS KAE WOHA","JL. RAYA TENTE-BIMA","Prop. Nusa Tenggara Barat","SMA","-8.5768000","118.6985000"
"50204739","SMAS DARUL FUR QAN","JL. LINTAS SAPE KEL. DODU KEC. RASANAE TIMUR KOTA BIMA","Prop. Nusa Tenggara Barat","SMA","-8.4892400","118.7916600"
"50205318","SMAN 1 MOYO UTARA","Jalan Batu Tamin","Prop. Nusa Tenggara Barat","SMA","-8.4824000","117.4719000"
"50202498","SMAN 1 SUKAMULIA","JL. AMD SUKAMULIA","Prop. Nusa Tenggara Barat","SMA","-8.6491000","116.4895000"
"50220571","SMAS ISLAM SHOHIBURRAHMAN BELEKA","JL. GANTI-MONTONG GAMANG BELEKA","Prop. Nusa Tenggara Barat","SMA","-8.7402450","116.4028840"
"50204488","SMAS SARASWATI MATARAM","JL. KALI BRANTAS KR. SUKUN","Prop. Nusa Tenggara Barat","SMA","-8.5879800","116.1131430"
"50204028","SMAS MUHAMMADIYAH BOLO","JL. PENDIDIKAN NO. 4 KANANGA SILA BIMA","Prop. Nusa Tenggara Barat","SMA","-8.5025000","118.6221000"
"50203305","SMAN 1 EMPANG","JL. RAYA BONTO -  EMPANG","Prop. Nusa Tenggara Barat","SMA","-8.7530000","117.9955000"
"50204733","SMAS MU","JL. Wolter Monginsidi Tolobali Kota Bima","Prop. Nusa Tenggara Barat","SMA","-8.4438000","118.7403000"
"50220477","SMAN 3 PEKAT","JL. DATUK ANGGRAT","Prop. Nusa Tenggara Barat","SMA","-8.1897000","117.7491000"
"50204730","SMAN 3 KOTA BIMA","JL. ANGGUR NO. 1","Prop. Nusa Tenggara Barat","SMA","-8.4514000","118.7332000"
"50202505","SMAN 1 SEMBALUN","JL. RAYA PELAWANGAN SEMBALUN","Prop. Nusa Tenggara Barat","SMA","-8.3585000","116.5198000"
"50220626","SMAS NUSA ALAM","JL. PANTAI MENINTING","Prop. Nusa Tenggara Barat","SMA","-8.5418000","116.0704000"
"50204734","SMAS YASIM","JL. SOEKARNO-HATTA NO. 71","Prop. Nusa Tenggara Barat","SMA","-8.4676000","118.7586000"
"50204016","SMAN 1 AMBALAWI","JL DANABURA NIPA AMBALAWI BIMA","Prop. Nusa Tenggara Barat","SMA","-8.3326000","118.7818000"
"50205210","SMAS DARUL MAHMUDIEN MT GAMANG","Jln. Pendidikan No. 07 Montong Gamang","Prop. Nusa Tenggara Barat","SMA","-8.6351350","116.3719200"
"50205585","SMA NEGERI 1 SEKONGKANG","JL. LINGKAR SELATAN SEKONGKANG BAWAH","Prop. Nusa Tenggara Barat","SMA","-8.9648000","116.7555000"
"50202409","SMAN 1 SAKRA","Jalan Soekarno-Hatta","Prop. Nusa Tenggara Barat","SMA","-8.6972000","116.4557000"
"50201393","SMAN 1 JONGGAT","JLN. RAYA UBUNG","Prop. Nusa Tenggara Barat","SMA","-8.6513910","116.1992360"
"69942502","SMA ISLAM NW BENGKANG","Jln.Raya Buwun Mas kec. Sekotong Kab. Lombok barat Prov. NTB","Prop. Nusa Tenggara Barat","SMA","-8.8489000","116.0756000"
"50200383","SMAN 1 KURIPAN","JL.TGH.ABD. HAFIDZ","Prop. Nusa Tenggara Barat","SMA","-8.6580600","116.1573350"
"69953751","SMA NW SURALAGA","JL. ANJANI SURALAGA KM. 2","Prop. Nusa Tenggara Barat","SMA","-8.5985000","116.5233000"
"50202408","SMAS MARAQITTALIMAT WANASABA","JL. JURUSAN LABUHAN LOMBOK","Prop. Nusa Tenggara Barat","SMA","-8.5691000","116.5795000"
"50203313","SMAN 3 SUMBAWA BESAR","JL. CENDRAWASIH NO. 139, SUMBAWA BESAR","Prop. Nusa Tenggara Barat","SMA","-8.4790000","117.4131000"
"50222185","SMAN 2 SOROMANDI","JL. LINTAS SAI SAMPUNGU","Prop. Nusa Tenggara Barat","SMA","-8.3035000","118.6526000"
"50204729","SMAN 4 KOTA BIMA","JL. GAJAH MADA","Prop. Nusa Tenggara Barat","SMA","-8.4595000","118.7540000"
"69763282","SMAN 2 MADAPANGGA","JL. PENDIDIKAN NO. 20 DESA TONDA","Prop. Nusa Tenggara Barat","SMA","-8.6294000","118.5457000"
"50200371","SMAS ISLAM AS SHOFY","JL. TGH. MUSTAFA AL - KHALIDI","Prop. Nusa Tenggara Barat","SMA","-8.6280750","116.1711100"
"50202458","SMAN 1 SAMBELIA","JL. RAYA  JURUSAN SAMBELIA","Prop. Nusa Tenggara Barat","SMA","-8.3729000","116.6856000"
"50220485","SMAN 1 PARADO","JL. SOEKARNO HATTA NO. 33","Prop. Nusa Tenggara Barat","SMA","-8.7540000","118.5721000"
"50205414","SMAN 1 LABUAPI","JL.GUNUNG PENGSONG","Prop. Nusa Tenggara Barat","SMA","-8.6406000","116.1070000"
"50202417","SMAS PGRI AIKMEL","JL. PARIWISATA NO. 16 AIKMEL","Prop. Nusa Tenggara Barat","SMA","-8.5649000","116.5285000"
"50219629","SMA PERIGI","Jln.Budaya Limbungan Desa Perigi","Prop. Nusa Tenggara Barat","SMA","-8.5035000","116.6064000"
"50201383","SMAS NW LENDANG KEKAH","TAMPAK SIRING BATUKLIANG LOMBOK TENGAH","Prop. Nusa Tenggara Barat","SMA","-8.5955767","116.3287083"
"50204512","SMAN 3 MATARAM","JL. PEMUDA NO. 63 MATARAM","Prop. Nusa Tenggara Barat","SMA","-8.5832000","116.0890000"
"50220503","SMAS AL MASYHUDIEN NW KAWO","Jln.Pariwisata Bumi Gora","Prop. Nusa Tenggara Barat","SMA","-8.7759700","116.3080433"
"60724899","SMAS AL MAARIF DARUSSALAM","JLN RAYA TANJUUNG- GANGGA, DUSUN MONTONG PAL 83353","Prop. Nusa Tenggara Barat","SMA","-8.3490000","116.2812000"
"50204322","SMA NEGERI 1 TALIWANG","JL. TELAGA BIRU NO. 1","Prop. Nusa Tenggara Barat","SMA","-8.7481180","116.8333060"
"50220376","SMAN 2 KILO","JL. Lintas Kambu Kilo","Prop. Nusa Tenggara Barat","SMA","-8.4337000","118.3160000"
"50202415","SMAN 1 JEROWARU","JLN. RAYA TANGUN - KERUAK","Prop. Nusa Tenggara Barat","SMA","-8.7995000","116.4755000"
"69759256","SMAS AL FATHIYAH KWANGPATI","DESA LENDANG ARE","Prop. Nusa Tenggara Barat","SMA","-8.6009183","116.3758933"
"50205609","SMAN 1 WERA","JL RAYA TAWALI WERA BIMA","Prop. Nusa Tenggara Barat","SMA","-8.3424000","118.9248000"
"50201385","SMAN 1 PUJUT","JL. BUNG KARNO NO.7","Prop. Nusa Tenggara Barat","SMA","-8.7969667","116.2899433"
"50205597","SMA NEGERI 1 SETELUK","JL. A. YANI NO. 50 SETELUK","Prop. Nusa Tenggara Barat","SMA","-8.6223760","116.8645240"
"69922814","SMA ISLAM ARRAHMANIYAH MUJUR","Mujur","Prop. Nusa Tenggara Barat","SMA","-8.7599192","116.3545822"
"50205611","SMAN 1 LANGGUDU","JL. LINTAS TENTE KARUMBU - LANGGUDU - BIMA","Prop. Nusa Tenggara Barat","SMA","-8.7056000","118.8223000"
"50220420","SMAN 1 MARONGE","JL. RAYA SUMBAWA BESAR-MARONGE KM. 45","Prop. Nusa Tenggara Barat","SMA","-8.6811000","117.7100000"
"50205610","SMAN 1 BELO","JL LINTAS TENTE KARUMBU","Prop. Nusa Tenggara Barat","SMA","-8.5963000","118.7012000"
"69949909","SMA PLUS NURUL MUBIN NW","Iwan Bongkot","Prop. Nusa Tenggara Barat","SMA","-8.6663933","116.3403050"
"50204495","SMAS JANAMARGA MATARAM","JL. TAWAK TAWAK KR.SUKUN","Prop. Nusa Tenggara Barat","SMA","-8.5901700","116.1124850"
"50204492","SMAS MODEL NURUL JANNAH","GG. NUSA INDAH","Prop. Nusa Tenggara Barat","SMA","-8.5766850","116.0731970"
"69945394","SMA ISLAM TERPADU PUTRA ABU HURAIRAH","Jl. Soromandi No. 1A Lawata","Prop. Nusa Tenggara Barat","SMA","-8.5758868","116.1034859"
"50204517","SMAN 2 MATARAM","JL. PANJI TILAR NEGARA","Prop. Nusa Tenggara Barat","SMA","-8.5867750","116.0861780"
"50204494","SMAS KATOLIK KUSUMA CAKRANEGARA","JL. PEJANGGIK 110 MATARAM","Prop. Nusa Tenggara Barat","SMA","-8.5872000","116.1222000"
"50200380","SMAN 1 NARMADA","JL.SURANADI NO.51","Prop. Nusa Tenggara Barat","SMA","-8.5866000","116.2009000"
"69768249","SMAN 1 RHEE","JLN. LINTAS SUMBAWA - TANO","Prop. Nusa Tenggara Barat","SMA","-8.7771000","117.6978000"
"50219587","SMAS DARUL FALAH AIKMEL","JL. RAYA  TOYA, AIKMEL UTARA","Prop. Nusa Tenggara Barat","SMA","-8.5098000","116.5127000"
"50205637","SMAS NW PERMATAN","Permatan - Desa Gunung Malang","Prop. Nusa Tenggara Barat","SMA","-8.4625000","116.6831000"
"69807689","SMA NEGERI 2 BAYAN","ANCAK","Prop. Nusa Tenggara Barat","SMA","-8.3848000","116.4069000"
"69831629","SMA NEGERI 2 DONGGO","Jl. Lintas Sangarai - Donggo","Prop. Nusa Tenggara Barat","SMA","-8.4576590","118.5717190"
"50203687","SMAN 1 PAJO","JL. LINTAS LAKEY","Prop. Nusa Tenggara Barat","SMA","-8.5815000","118.4863000"
"50200370","SMAS ISLAM NW LINGSAR","JL. GORA II LINGSAR","Prop. Nusa Tenggara Barat","SMA","-8.5732000","116.1801000"
"50201390","SMAN 1 PRAYA BARAT","JL. BY PASS BATUJAI-MATARAM","Prop. Nusa Tenggara Barat","SMA","-8.7362850","116.2389333"
"50203691","SMAN 1 DOMPU","JL. SOEKARNO HATTA NO.56","Prop. Nusa Tenggara Barat","SMA","-8.5370000","118.4649000"
"50219467","SMAS TEGAR KELANA","JL.WISATA SURANADI","Prop. Nusa Tenggara Barat","SMA","-8.5645000","116.2313000"
"50205207","SMAS AL MA ARIF SINAH PENGEMBUR","PENGEMBUR","Prop. Nusa Tenggara Barat","SMA","-8.8127000","116.2523116"
"50220659","SMAS ISLAM SEKOTONG","JL. RAYA SEKOTONG","Prop. Nusa Tenggara Barat","SMA","-8.8004000","115.9907000"
"50202410","SMAN 1 PRINGGASELA","JL. PENDIDIKAN PRINGGASELA","Prop. Nusa Tenggara Barat","SMA","-8.5552000","116.4804000"
"50204497","SMAS HANG TUAH 3 MATARAM","JL. INDUSTRI NO. 2","Prop. Nusa Tenggara Barat","SMA","-8.5771830","116.0798850"
"50204011","SMAN 1 LAMBU","JL JENDERAL SUDIRMAN LAMBU BIMA","Prop. Nusa Tenggara Barat","SMA","-8.6211000","119.0123000"
"50205212","SMAS ISLAM USWATUN HASANAH","JL. NEGARA MATARAM-LABUAN","Prop. Nusa Tenggara Barat","SMA","-8.6094883","116.3044283"
"50203685","SMAN 1 WOJA","JL. KAKAK TUA","Prop. Nusa Tenggara Barat","SMA","-8.5453000","118.4348000"
"50202522","SMAN 1 SELONG","JL. TGH. UMAR NO. 17","Prop. Nusa Tenggara Barat","SMA","-8.6544000","116.5442000"
"50204499","SMAS DARUL FALAH","JL. BANDA SRAYA NO. 48 PAGUTAN","Prop. Nusa Tenggara Barat","SMA","-8.6136450","116.1097270"
"50205612","SMAN 1 MONTA","JL LINTAS PARADO MONTA BIMA","Prop. Nusa Tenggara Barat","SMA","-8.6626000","118.6921000"
"50203306","SMAN 1 LAPE","JL. LINTAS SUMBAWA BESAR-LAPE","Prop. Nusa Tenggara Barat","SMA","-8.6184000","117.5873000"
"50205625","SMAS DARUL HUSNA AMBALAWI","JL. LINTAS BIMA-WERA KM. 42","Prop. Nusa Tenggara Barat","SMA","-8.2946000","118.7945000"
"50203323","SMAS MUHAMMADIYAH ALAS","JL. UNDRU NO 15 ALAS","Prop. Nusa Tenggara Barat","SMA","-8.5145000","116.9961000"
"50204491","SMAS MUHAMMADIYAH MATARAM","JL. ANYELIR NO 2-4 MATARAM","Prop. Nusa Tenggara Barat","SMA","-8.5820980","116.0989180"
"69942738","SMA ISLAM DHIYAUL FURQON","Jurusan Selao - Bombas","Prop. Nusa Tenggara Barat","SMA","-8.8212517","116.2308767"
"69952646","SMA PLUS BAROKATUL WALIDAIN","DUSUN RARANGAN","Prop. Nusa Tenggara Barat","SMA","-8.7627000","116.5264000"
"69845928","SMA NURUL IMAN NW KEMBANG KERANG","DESA AIK DAREK KEC.BATUKLIANG","Prop. Nusa Tenggara Barat","SMA","-8.5963550","116.2978400"
"50204019","SMAS MUHAMMADIYAH DENA","DENA KEC MADAPANGGA BIMA","Prop. Nusa Tenggara Barat","SMA","-8.5266000","118.5689000"
"69889124","SMA ISLAM TERPADU ASH-SHIDDIQ JERUK MANIS","Jl. Pariwisata Air Terjun Jeruk Manis","Prop. Nusa Tenggara Barat","SMA","-8.4821041","116.4169876"
"50200377","SMAN 1 TANJUNG","JL. RAYA TANJUNG NO. 17","Prop. Nusa Tenggara Barat","SMA","-8.3597000","116.1483000"
"69756206","SMAS IHYA ULUMUDDIN","JLN LINTAS NIPA KOLO","Prop. Nusa Tenggara Barat","SMA","-8.3228000","118.7586000"
"69948450","SMA NAHDLATUL WATHAN LAMBU","Jl. Lintas Sumi - Lambu","Prop. Nusa Tenggara Barat","SMA","-8.6400337","118.9713275"
"50203689","SMAN 1 KEMPO","JL. DIPONEGORO","Prop. Nusa Tenggara Barat","SMA","-8.5303000","118.2582000"
"50201391","SMAN 1 PRAYA","JLN. KI HAJAR DEWANTARA 01 PRAYA","Prop. Nusa Tenggara Barat","SMA","-8.7027420","116.2723030"
"50203314","SMAN 1 ALAS","JL. PAHLAWAN NO. 2 ALAS","Prop. Nusa Tenggara Barat","SMA","-8.5097000","116.9947000"
"50201389","SMAN 1 PRAYA BARAT DAYA","JL. RAYA DAREK UNGGA","Prop. Nusa Tenggara Barat","SMA","-8.7314533","116.2020517"
"50220718","SMAN 3 WOJA","JL LINTAS SANEO DOMPU","Prop. Nusa Tenggara Barat","SMA","-8.4378350","118.4259720"
"50220373","SMAS NURUL FADILLAH","JL. LINTAS MBAWI","Prop. Nusa Tenggara Barat","SMA","-8.5794110","118.4517240"
"50202502","SMAN 1 TERARA","JL. RAYA TERARA","Prop. Nusa Tenggara Barat","SMA","-8.6395000","116.4166000"
"50201388","SMAN 1 PRAYA TENGAH","JL. RAYA PRAYA KOPANG KM. 08","Prop. Nusa Tenggara Barat","SMA","-8.6797170","116.3325850"
"50205638","SMAS SULLAMUL MUBTADI ANJANI","JLN. KAMBOJA KM 48 ANJANI SELATAN","Prop. Nusa Tenggara Barat","SMA","-8.6044950","116.5094790"
"50205411","SMAS DARUNNADWAH","JL. TGH. IHSAN ISMAIL","Prop. Nusa Tenggara Barat","SMA","-8.6716917","116.1192133"
