"schoolId","schoolName","schoolAddress","province","school_level","lat","long"
"50309599","SMAN 1 FATULEU BARAT","Tuakau","Prop. Nusa Tenggara Timur","SMA","-9.8091000","123.6863000"
"69946205","SMA NEGERI 02 KABOLA","Kebun Kopi","Prop. Nusa Tenggara Timur","SMA","-8.1734000","124.5334000"
"50309120","SMAS FRATER DON BOSCO","JL. TRANS LEMBATA - LAMOHARA - LEWOLEBA","Prop. Nusa Tenggara Timur","SMA","-8.3617000","123.4482000"
"50302312","SMAS KATOLIK SANTA MARIA RUBIT","ROMANDURU","Prop. Nusa Tenggara Timur","SMA","-8.6946000","122.3435000"
"50309319","SMA NEGERI HAREKAKAE","JL. Jurusan Translok Harekakae","Prop. Nusa Tenggara Timur","SMA","-9.5601000","124.9237000"
"50307284","SMAS KRISTEN 1 SOE","JLN. A. KAESMETAN","Prop. Nusa Tenggara Timur","SMA","-9.8649000","124.2962000"
"69762591","SMAN PROBUR","MATARABEN","Prop. Nusa Tenggara Timur","SMA","-8.3705000","124.4162000"
"69947784","SMA Negeri 1 Kodi Balaghar","SMA Negeri 1 Kodi Balaghar","Prop. Nusa Tenggara Timur","SMA","-9.6751904","119.1145072"
"50303811","SMA KATOLIK ANDA LURI","JL. M. T. HARYONO No.21 WAINGAPU","Prop. Nusa Tenggara Timur","SMA","-9.6528483","120.2676000"
"50303442","SMAS BINA KUSUMA","JL.RANAKA   NO 53 RUTENG  KEL. CAREP","Prop. Nusa Tenggara Timur","SMA","-8.6126000","120.4804000"
"69898964","SMA KRISTEN 3 KALABAHI MEBUNG","Jl. Sibone Mebung","Prop. Nusa Tenggara Timur","SMA","-8.2078302","124.6535157"
"50302622","SMA MUHAMMADIYAH ENDE","JL. WOLOARE B","Prop. Nusa Tenggara Timur","SMA","-8.8328000","121.6404000"
"69774563","SMAS ST MAXMILIAN KOLBE","Wukir","Prop. Nusa Tenggara Timur","SMA","-8.5801750","120.8466730"
"69842627","SMA NEGERI 4 KOMODO","KENARI","Prop. Nusa Tenggara Timur","SMA","-8.6115000","119.8460000"
"69947184","SMAN 2 BAJAWA","Jl. W.J Lalamentik. Kel. Faobata","Prop. Nusa Tenggara Timur","SMA","-8.7761881","120.9838008"
"50309603","SMAN 1 MALAKA TENGAH","JL. MAROERAI - Besikama - 85763","Prop. Nusa Tenggara Timur","SMA","-9.6458000","124.9159000"
"50302308","SMA ALVAREZ PAGA","JL. ELTARI PAGA","Prop. Nusa Tenggara Timur","SMA","-8.7797000","122.0437000"
"69944240","SMA Negeri 5 Lamba Leda","Wae Rambung","Prop. Nusa Tenggara Timur","SMA","-8.4035251","120.6048741"
"50304064","SMAS SEMINARI SINAR BUANA","WAITABULA","Prop. Nusa Tenggara Timur","SMA","-9.4366000","119.2165000"
"69889079","SMA NEGERI WEBRIAMATA","WEBRIAMATA","Prop. Nusa Tenggara Timur","SMA","-9.6840000","124.8599000"
"50300270","SMA NEGERI 1 AMARASI BARAT","JL. H.R. KOROH","Prop. Nusa Tenggara Timur","SMA","-10.2888000","123.6973000"
"69899648","SMA NEGERI 1 KAHAUNGU ETI","Jl.Kamanggih - Mauramba","Prop. Nusa Tenggara Timur","SMA","-9.8924000","120.4824000"
"50306083","SMAS SINT PITER","JL.KENANGA NO.1","Prop. Nusa Tenggara Timur","SMA","-10.1858100","123.6020170"
"50309611","SMAN 1 WEWEWA UTARA","PALLA","Prop. Nusa Tenggara Timur","SMA","-9.5374000","119.3587000"
"69725270","SMAN 4 SAMBI RAMPAS","LENGKO RANA","Prop. Nusa Tenggara Timur","SMA","-8.3884000","120.7977000"
"69889073","SMAN Kabola","Kabola","Prop. Nusa Tenggara Timur","SMA","-8.1811361","124.5614671"
"50309383","SMAS BINA MANDIRI SUKABI","Jl. Susteran Wedik-Desa Kamanasa","Prop. Nusa Tenggara Timur","SMA","-9.5127000","124.8901000"
"69733989","SMAN 1 LIAE","WADUWALLA","Prop. Nusa Tenggara Timur","SMA","-10.6081000","121.8531000"
"50305399","SMA TRI DHARMA ENDE","JL. MELATI ATAS","Prop. Nusa Tenggara Timur","SMA","-8.8362000","121.6643000"
"69899650","SMA NEGERI 1 RINDI","Jl.Waingapu - Mangili","Prop. Nusa Tenggara Timur","SMA","-9.9632000","120.6646000"
"50303429","SMAN 1 LANGKE REMBONG","JL. HARIMAU  RUTENG","Prop. Nusa Tenggara Timur","SMA","-8.6105000","120.4690000"
"50302305","SMAN 1 NITA","JL. NITA-KOTING","Prop. Nusa Tenggara Timur","SMA","-8.6837000","122.1802000"
"50302623","SMA KATOLIK FRATERAN NDAO","JL. IMAM BONJOL NO. 39","Prop. Nusa Tenggara Timur","SMA","-8.8359000","121.6377000"
"50302627","SMA ADHYAKSA ENDE","JL. SAM RATULANGI","Prop. Nusa Tenggara Timur","SMA","-8.8235000","121.6667000"
"50304931","SMAN 1 KUPANG","JL. CAK DOKO NO. 59","Prop. Nusa Tenggara Timur","SMA","-10.1648980","123.5898750"
"50301897","SMA SWASTA YOHANES PAULUS II","JL. KI HAJAR DEWANTARA","Prop. Nusa Tenggara Timur","SMA","-8.3463000","122.9577000"
"50304066","SMAS KARANU WAIKABUBAK","JL.KODAKA","Prop. Nusa Tenggara Timur","SMA","-9.6354333","119.4264850"
"69947662","SMA Swasta Marapati","Pemuda, Bukambero","Prop. Nusa Tenggara Timur","SMA","-9.4330813","119.1418269"
"50304067","SMAN 1 KODI","BONDO KODI","Prop. Nusa Tenggara Timur","SMA","-9.5941000","118.9855000"
"50308594","SMAN 1 ELAR","LENGKO ELAR","Prop. Nusa Tenggara Timur","SMA","-8.5138000","120.7819000"
"50307939","SMAS ST GREGORIUS REO","REO","Prop. Nusa Tenggara Timur","SMA","-8.3542000","120.4560000"
"69864615","SMA NEGERI MAGEPANDA","MAGEPANDA","Prop. Nusa Tenggara Timur","SMA","-8.5820490","122.0641410"
"50308597","SMAN 1 POCO RANAKA","MANO","Prop. Nusa Tenggara Timur","SMA","-8.6064417","120.5406100"
"69897141","SMA Raden Adjeng Kartini","Maktihan","Prop. Nusa Tenggara Timur","SMA","-9.6525000","124.9286000"
"50307304","SMAS STELAMARIS NIKI-NIKI","JLN. RATU PENCINTA DAMAI","Prop. Nusa Tenggara Timur","SMA","-9.8069000","124.4768000"
"69768160","SMAN 6 POCO RANAKA","LONTO ULU","Prop. Nusa Tenggara Timur","SMA","-8.5405267","120.5642417"
"50310687","SMAN 4 KOTA KOMBA","MBATA","Prop. Nusa Tenggara Timur","SMA","-8.6820000","120.7225000"
"50302955","SMAN 1 MAUPONGGO","JL. HERMAN MUSA KABE","Prop. Nusa Tenggara Timur","SMA","-8.8943000","121.1507000"
"50307297","SMAN KI E","Jl. Kaes Soinbala, Kie","Prop. Nusa Tenggara Timur","SMA","-9.8468000","124.5496000"
"50305306","SMAS MUHAMMADIYAH MAUMERE","JL. JENDERAL SUDIRMAN","Prop. Nusa Tenggara Timur","SMA","-8.6499000","122.2507000"
"50309317","SMA NEGERI 2 ATAMBUA","Jln. Santa Krus","Prop. Nusa Tenggara Timur","SMA","-9.1356000","124.8658000"
"50302313","SMAS ST PETRUS KEWAPANTE","JL. RAYA KEWAPANTE","Prop. Nusa Tenggara Timur","SMA","-8.6437000","122.2959000"
"50300267","SMAN 1 TAEBENU","JL. PELITA","Prop. Nusa Tenggara Timur","SMA","-10.1951000","123.6964000"
"50303418","SMAS ST DON BOSCO","JL. SOEKARNO RUTENG","Prop. Nusa Tenggara Timur","SMA","-8.6140000","120.4529000"
"50300271","SMA NEGERI 1 AMFOANG UTARA","JL. S.C.TALNONI","Prop. Nusa Tenggara Timur","SMA","-9.4930000","123.7985000"
"69728423","SMAN INSANA BARAT","JL. Raya Mamsena","Prop. Nusa Tenggara Timur","SMA","-9.4884000","124.6048000"
"50307942","SMAN 1 RUTENG ANAM","ANAM","Prop. Nusa Tenggara Timur","SMA","-8.6272000","120.3627000"
"69864704","SMA  SWASTA ANUGERAH KASIH ","JL Prumnas-Lamahora","Prop. Nusa Tenggara Timur","SMA","-8.4070650","123.4181690"
"69895841","SMA RADA PAMBA","MATA KAPORE","Prop. Nusa Tenggara Timur","SMA","-9.6303000","119.0427000"
"50307941","SMAN 1 REOK","Loce","Prop. Nusa Tenggara Timur","SMA","-8.3843000","120.3785000"
"50307282","SMAS EFATA SOE","JLN. SUDIRMAN NO. 1","Prop. Nusa Tenggara Timur","SMA","-9.8645000","124.2789000"
"69768163","SMAN 8 BORONG","WALING","Prop. Nusa Tenggara Timur","SMA","-8.6447160","120.6395220"
"50308602","SMAN 2 KOTA KOMBA","MOK","Prop. Nusa Tenggara Timur","SMA","-8.7355000","120.7562000"
"50309375","SMAS KRISTEN ATAMBUA","JL. HBS DACOSTA","Prop. Nusa Tenggara Timur","SMA","-9.1056000","124.8927000"
"69799865","SMA NEGERI PEMANA","DESA PEMANA","Prop. Nusa Tenggara Timur","SMA","-8.3585000","122.3080000"
"69888754","SMA NEGERI 1 SOLOR SELATAN","Kalike Aimatan","Prop. Nusa Tenggara Timur","SMA","-8.4718770","123.0167720"
"69843060","SMA NEGERI BININO","Jln Sunfin Oenenu","Prop. Nusa Tenggara Timur","SMA","-9.4311000","124.4392000"
"50308982","SMAN 1 LEMBOR SELATAN","AMBA","Prop. Nusa Tenggara Timur","SMA","-8.7395670","120.1928370"
"50307416","SMAN 1 TAEKAS","MARIA FATIMAH BAEN","Prop. Nusa Tenggara Timur","SMA","-9.4146000","124.4799000"
"60728881","SMA NEGERI 3 KUPANG TIMUR","Jln. Timor Raya, Km.24","Prop. Nusa Tenggara Timur","SMA","-10.1039000","123.7760000"
"50306572","SMA NEGERI 1 TAKARI","JL. TIMOR RAYA KM. 68","Prop. Nusa Tenggara Timur","SMA","-9.9751000","124.0526000"
"50308981","SMAN 1 KUWUS","GOLOWELU","Prop. Nusa Tenggara Timur","SMA","-8.5645000","120.3136000"
"50300259","SMAN 2 KUPANG TIMUR","JL. TIMOR RAYA KM. 33","Prop. Nusa Tenggara Timur","SMA","-10.0951000","123.8446000"
"69734023","SMAN 1 AMFOANG BARAT DAYA","DESA MANUBELON","Prop. Nusa Tenggara Timur","SMA","-9.6569000","123.6773000"
"69774869","SMAN 1 MAMBORO","JL. LINTAS OLE DEWA","Prop. Nusa Tenggara Timur","SMA","-9.4678000","119.5052000"
"69762588","SMAN APUI","APUI","Prop. Nusa Tenggara Timur","SMA","-8.2724000","124.7221000"
"50300257","SMAS IKARASI OEKABITI","JL. JURUSAN BURAEN","Prop. Nusa Tenggara Timur","SMA","-10.2196000","123.8258000"
"50307289","SMAS KRISTEN POLI","JL.L.AFI","Prop. Nusa Tenggara Timur","SMA","-9.7752000","124.6978000"
"50300585","SMAN 1 MOLLO SELATAN","JLN. JURUSAN KAPAN, KM.06","Prop. Nusa Tenggara Timur","SMA","-9.8220000","124.2863000"
"69762590","SMAN ATENGMELANG","ATENGMELANG","Prop. Nusa Tenggara Timur","SMA","-8.3486000","124.7555000"
"69895840","SMA WAIMANGURA","KABALI DANA","Prop. Nusa Tenggara Timur","SMA","-9.5016000","119.1646000"
"50308362","SMAN 2 SANO NGGOANG","WERANG","Prop. Nusa Tenggara Timur","SMA","-8.6082000","120.0364000"
"50305120","SMAN 4 KUPANG","JL. ADISUCIPTO","Prop. Nusa Tenggara Timur","SMA","-10.1513300","123.6566060"
"50302958","SMAS REGINA PACIS BAJAWA","YOS SUDARSO 20 BAJAWA","Prop. Nusa Tenggara Timur","SMA","-8.7856000","120.9705000"
"50301400","SMAS 17 AGUSTUS WEOE","JL. WEOE","Prop. Nusa Tenggara Timur","SMA","-9.6887000","124.8388000"
"50308365","SMAN 1 BOLENG","LANDO","Prop. Nusa Tenggara Timur","SMA","-8.4978750","120.0832983"
"50305307","SMAN ROLE DELU","MASEBEWA","Prop. Nusa Tenggara Timur","SMA","-8.7269000","122.0235000"
"69775289","SMAN 2 KUWUS","HAWE","Prop. Nusa Tenggara Timur","SMA","-8.5462000","120.2702000"
"69763276","SMA NEGERI 1 NEKAMESE","Jln. H.R. Koroh Km.15 Besmarak","Prop. Nusa Tenggara Timur","SMA","-10.2542000","123.6622000"
"50309006","SMA TUNAS HARAPAN","JL.KISBAKI","Prop. Nusa Tenggara Timur","SMA","-10.1893050","123.5758680"
"50301008","SMAS PELITA KARYA","JL. MAYJEND. EL TARI KEFA","Prop. Nusa Tenggara Timur","SMA","-9.4564000","124.4785000"
"69774698","SMA NEGERI 2 HAHARU","Desa Rambangaru, Kec. Haharu","Prop. Nusa Tenggara Timur","SMA","-9.5134000","120.0825000"
"50310786","SMAS ILE APE","Kolontobo","Prop. Nusa Tenggara Timur","SMA","-8.3123000","123.4547000"
"69900214","SMA NEGERI LEWA TIDAHU","Jl. Lewa - Watumbelar","Prop. Nusa Tenggara Timur","SMA","-9.7717000","119.8040000"
"50309195","SMAN OELEU","Jalan Raya Oeleu","Prop. Nusa Tenggara Timur","SMA","-9.9807000","124.5245000"
"50301006","SMAN 1 KEFAMENANU","JL. SONBAY","Prop. Nusa Tenggara Timur","SMA","-9.4566000","124.4832000"
"50309624","SMA NEGERI 1 AMABI OEFETO TIMUR","NUNMAFO","Prop. Nusa Tenggara Timur","SMA","-10.0763000","124.0705000"
"69896150","SMA WALI ATE","WALI ATE","Prop. Nusa Tenggara Timur","SMA","-9.5016000","119.1646000"
"50301884","SMA NEGERI 1 ADONARA TIMUR","JL. TAMAN SISWA NO.1","Prop. Nusa Tenggara Timur","SMA","-8.3730000","123.1829000"
"50300683","SMAS KRISTEN 2 SOE","JLN. A. KAESMETAN","Prop. Nusa Tenggara Timur","SMA","-9.8638000","124.2962000"
"50307940","SMAS ST MARIA ITENG","ITENG","Prop. Nusa Tenggara Timur","SMA","-8.8140000","120.4158000"
"50303446","SMAS KARYA","YOS SUDARSO RUTENG","Prop. Nusa Tenggara Timur","SMA","-8.6102000","120.4665000"
"69733991","SMAN 1 HAWU MEHARA","TANAJAWA","Prop. Nusa Tenggara Timur","SMA","-10.5571000","121.7655000"
"69752273","SMAS TIMPOLMAS","JL. Frans Seda No. 038","Prop. Nusa Tenggara Timur","SMA","-10.1567930","123.6268580"
"69954539","SMA NEGERI 3 KALABAHI","Jl. Sipen Kenarilang","Prop. Nusa Tenggara Timur","SMA","-8.2223659","124.4988029"
"50305384","SMAS SUDIRMAN","JL. SALAK","Prop. Nusa Tenggara Timur","SMA","-10.1976170","123.6118900"
"69899913","SMA 17 Agustus Lorobauna","Uluklubuk","Prop. Nusa Tenggara Timur","SMA","-9.6876000","124.8373000"
"50307298","SMAN KUALIN","ONI","Prop. Nusa Tenggara Timur","SMA","-10.1236000","124.4590000"
"50305121","SMAN 8 KUPANG","JL. M.B. MAIL","Prop. Nusa Tenggara Timur","SMA","-10.1843850","123.5673830"
"50305899","SMAS MUHAMMADIYAH KALABAHI","JL. COKROAMINOTO NO.1","Prop. Nusa Tenggara Timur","SMA","-8.2179768","124.5209091"
"50302597","SMA NEGERI 2 ENDE","JL. WOLOARE B","Prop. Nusa Tenggara Timur","SMA","-8.8306000","121.6400000"
"50304772","SMAS ST FAMILIA WAE NAKENG","JL. RUTENG LABUAN BAJO","Prop. Nusa Tenggara Timur","SMA","-8.7038683","120.1818900"
"50302314","SMAS KATOLIK  ST. JOHN PAUL II MAUMERE","JL. ANGGREK NO. 10","Prop. Nusa Tenggara Timur","SMA","-8.6226000","122.2137000"
"50303423","SMAS ST FRANSISKUS XAVERIUS","JL PELITA NO. 3 RUTENG","Prop. Nusa Tenggara Timur","SMA","-8.6159000","120.4636000"
"50310684","SMAN 6 BORONG","PUNTU","Prop. Nusa Tenggara Timur","SMA","-8.7328000","120.5459000"
"69888778","SMA NEGERI 3 AMARASI TIMUR","Jalan Oekabiti-Oemoro","Prop. Nusa Tenggara Timur","SMA","-10.1300000","124.1656000"
"69888653","SMA FAJAR TIMUR KOBALIMA","JL.RAYA WEMASA","Prop. Nusa Tenggara Timur","SMA","-9.5201520","124.9870790"
"69862587","SMAN BOLAN","DEBURAI MUTIK","Prop. Nusa Tenggara Timur","SMA","-9.6086530","124.9552040"
"69882386","SMAN BOKONG","Jl. Anderias Letuna","Prop. Nusa Tenggara Timur","SMA","-9.6447000","124.7796000"
"50304070","SMA KRISTEN WAIBAKUL","LAIKARUDA","Prop. Nusa Tenggara Timur","SMA","-9.5972000","119.5815000"
"69901175","SMA NEGERI 1 ADONARA","KOLIMASANG KECAMATAN ADONARA","Prop. Nusa Tenggara Timur","SMA","-8.2795801","123.1973176"
"50308605","SMAN 3 ELAR","MAMBA","Prop. Nusa Tenggara Timur","SMA","-8.6265000","120.7949000"
"50309304","SMAS NURUL FALAH (PERSIAPAN)","JLN.IMAM BONJOL","Prop. Nusa Tenggara Timur","SMA","-9.4469000","124.4775000"
"50301004","SMAN OENOPO","Jl. Pelajar Oenopu","Prop. Nusa Tenggara Timur","SMA","-9.3842000","124.7800000"
"50308302","SMAN 1 WOLOWAE","JL. PANTURA JUR. MBAY- MAUMERE","Prop. Nusa Tenggara Timur","SMA","-8.6300000","121.5018000"
"50309198","SMAS KRISTEN BOKING","BOKING","Prop. Nusa Tenggara Timur","SMA","-9.8850000","124.6852000"
"69772619","SMAN 2 AMARASI TIMUR","JL. JURUSAN OEKABITI - OEMORO","Prop. Nusa Tenggara Timur","SMA","-10.2076000","123.9736000"
"50307411","SMAN MANUFUI","MANUFUI","Prop. Nusa Tenggara Timur","SMA","-9.3658000","124.6990000"
"50300583","SMAN 1 AMANUBAN SELATAN","PANITE","Prop. Nusa Tenggara Timur","SMA","-9.9324000","124.1932000"
"50301415","SMA NEGERI 1 WELULI","PIEGOL MIL WELULI","Prop. Nusa Tenggara Timur","SMA","-9.0986000","125.1095000"
"50301673","SMAS ST YOSEPH KALABAHI","JL. JENDRAL SUDIRMAN","Prop. Nusa Tenggara Timur","SMA","-8.2168683","124.5285867"
"50305902","SMAN 2 KALABAHI","MOLA, JLN. PADAKIKA","Prop. Nusa Tenggara Timur","SMA","-8.2124667","124.5671200"
"50309591","SMAS ST IGNATIUS FAHILUKA BOLAN","BOLAN","Prop. Nusa Tenggara Timur","SMA","-9.6091000","124.9552000"
"69768164","SMAN 9 BORONG","SITA","Prop. Nusa Tenggara Timur","SMA","-8.7016033","120.5581100"
"69768158","SMAN 4 LAMBA LEDA","WAE TUA","Prop. Nusa Tenggara Timur","SMA","-8.3279000","120.5952000"
"50305898","SMAN TAMALABANG","JLN. DOKTER HARIYANTO NO. 1","Prop. Nusa Tenggara Timur","SMA","-8.3534000","124.2566000"
"69842626","SMA NEGERI 3 KOMODO","MEROMBOK","Prop. Nusa Tenggara Timur","SMA","-8.5404620","119.8989940"
"69899649","SMA NEGERI 1 PAHUNGA LODU","Jl. Melolo - Wai jelu","Prop. Nusa Tenggara Timur","SMA","-10.1700000","120.7343000"
"69947798","SMA PLK FLORESSTA MAUMERE","JALAN LITBANG","Prop. Nusa Tenggara Timur","SMA","-8.6236154","122.2053080"
"50302951","SMAS KATOLIK KEJORA RIUNG","RIUNG","Prop. Nusa Tenggara Timur","SMA","-8.4368000","121.0187000"
"50306082","SMAS NCIPS","JL.KENANGA NO.1","Prop. Nusa Tenggara Timur","SMA","-10.1857420","123.6016900"
"50305137","SMAN 2 NUBATUKAN","LEWOLEBA","Prop. Nusa Tenggara Timur","SMA","-8.3957000","123.4204000"
"69913893","SMA NEGERI 1 WULANDONI","Jl. Trans Wulandoni","Prop. Nusa Tenggara Timur","SMA","-8.5404000","123.4472000"
"69896535","SMA Kristen Citra Bangsa","Jl. Manafe No. 17 Kayu Putih","Prop. Nusa Tenggara Timur","SMA","-10.1623590","123.6238590"
"69774728","SMAN 2 TAEBENU","JL. POROS TENGAH BAUMATA- BOKONG KABUPATEN KUPANG","Prop. Nusa Tenggara Timur","SMA","-10.2386000","123.7195000"
"50304603","SMA KRISTEN SILOAM BAA","JL. BAA - PANTAI BARU","Prop. Nusa Tenggara Timur","SMA","-10.7161500","123.0552350"
"69734147","SMAN 1 LELAK","BANGKA LELAK","Prop. Nusa Tenggara Timur","SMA","-8.6155000","120.3278000"
"50304407","SMAS PGRI SWASTHIKA","JL. TRANS LEMBATA NO 12","Prop. Nusa Tenggara Timur","SMA","-8.3937000","123.4049000"
"69760655","SMAS DHARMA AYU","JLN. RAYA PAPIN INDAH KM 5 TTU","Prop. Nusa Tenggara Timur","SMA","-9.4671120","124.5117140"
"50301676","SMAN 1 ABAD","JLN. KANAIKAI","Prop. Nusa Tenggara Timur","SMA","-8.2530000","124.5319000"
"50305397","SMA NEGERI DETUSOKO","JL. TRANS UTARA ENDE - MAUMERE KM. 35","Prop. Nusa Tenggara Timur","SMA","-8.7153000","121.7605000"
"50303774","SMA NEGERI 1 WAINGAPU","JL. MAJAPAHIT  NO 1 - WAINGAPU","Prop. Nusa Tenggara Timur","SMA","-9.6586000","120.2636000"
"50303779","SMA NEGERI 1 RINDI UMALULU","Jl. Kananggar-Melolo","Prop. Nusa Tenggara Timur","SMA","-9.8976000","120.6588000"
"69822783","SMAS MARIA ROSARI","DESA MOTAULUN","Prop. Nusa Tenggara Timur","SMA","-9.6272000","124.8852000"
"69830518","SMAS TAMAN SISWA","BUKAMBERO","Prop. Nusa Tenggara Timur","SMA","-9.4487000","119.0542000"
"50300020","SMA NEGERI 2 TAKARI","Jl. Poros Tengah Kupang, Km. 40,5","Prop. Nusa Tenggara Timur","SMA","-9.7933000","123.9381000"
"69889074","SMAN Pulau Pura","Pura Timur","Prop. Nusa Tenggara Timur","SMA","-8.2942000","124.3749000"
"50304062","SMAS KRISTEN WEE KAROU","JL.PALU BOGA","Prop. Nusa Tenggara Timur","SMA","-9.6410100","119.4048517"
"69727469","SMAN MUTIS","JLN. OENAEK-OEMOFA-NOELELO-MUTIS","Prop. Nusa Tenggara Timur","SMA","-9.4315000","124.2125000"
"50309318","SMAN 1 TASIFETO BARAT","KM 18 JURUSAN KUPANG","Prop. Nusa Tenggara Timur","SMA","-9.2499000","124.8630000"
"50301877","SMAS SEMINARI SAN DOMINGGO","HOKENG","Prop. Nusa Tenggara Timur","SMA","-8.5182000","122.7287000"
"50307288","SMAS KRISTEN MANEKTO KUATNANA","JLN. SOSIAL","Prop. Nusa Tenggara Timur","SMA","-9.8345000","124.4268000"
"50308460","SMAS TUNAS BANGSA","JL. BUMI II","Prop. Nusa Tenggara Timur","SMA","-10.1575780","123.6482370"
"69950302","SMA NEGERI 1 BUYASURI","Jalan Trans Buyasuri","Prop. Nusa Tenggara Timur","SMA","-8.2255884","123.7977053"
"50302954","SMAN 1 AIMERE","JL. JURUSAN BAJAWA KM 1","Prop. Nusa Tenggara Timur","SMA","-8.8512000","120.8592000"
"69765062","SMAN 2 AMARASI","JL. LINTAS OEKABITI KM. 16","Prop. Nusa Tenggara Timur","SMA","-10.2133000","123.9215000"
"69862586","SMAN WELAUS","JLN. LINTAS BATAS TIMOR","Prop. Nusa Tenggara Timur","SMA","-9.4941940","124.9621360"
"50303793","SMA PGRI WAINGAPU","JL.UMBU TIPUK MARISI 11 WAINGAPU","Prop. Nusa Tenggara Timur","SMA","-9.6549000","120.2663000"
"50301881","SMAS KATOLIK LAMAHOLOT","ORINGBELE","Prop. Nusa Tenggara Timur","SMA","-8.2991000","123.2631000"
"69771356","SMAN MAIWAL","PINTUMAS","Prop. Nusa Tenggara Timur","SMA","-8.3455000","124.4923000"
"50305305","SMAS KATOLIK FRATER MAUMERE","JL. KIMANGBULENG NO 3 MAUMERE","Prop. Nusa Tenggara Timur","SMA","-8.6180000","122.2132000"
"50310686","SMAN 2 LAMBA LEDA","WELENG","Prop. Nusa Tenggara Timur","SMA","-8.3692990","120.5332110"
"50305401","SMA KATOLIK SYURADIKARA","JL. WIRAJAYA","Prop. Nusa Tenggara Timur","SMA","-8.8401000","121.6551000"
"50301878","SMA SWASTA KATOLIK SANTU DARIUS","JL. JEND. SUDIRMAN","Prop. Nusa Tenggara Timur","SMA","-8.3211000","123.0101000"
"50309614","SMAN 2 FATULEU","Jln. Jurusan Oelbiteno-Ekateta","Prop. Nusa Tenggara Timur","SMA","-9.9752000","123.9732000"
"50309322","SMAN BIUDUK FOHO","BIUDUK FOHO","Prop. Nusa Tenggara Timur","SMA","-9.6209860","124.7289950"
"50302621","SMA NEGERI 1 ENDE","JL. WIRAJAYA","Prop. Nusa Tenggara Timur","SMA","-8.8360000","121.6530000"
"69734401","SMA NEGERI PULAU ENDE","REDODORI","Prop. Nusa Tenggara Timur","SMA","-8.7561000","121.7165000"
"69849615","SMA NEGERI 1 BOAWAE","RAJA TIMUR - BOAWAE","Prop. Nusa Tenggara Timur","SMA","-8.7500300","121.2658050"
"69774697","SMA NEGERI 1 NGGAHA ORI ANGU","RT. 01 / RW. 01","Prop. Nusa Tenggara Timur","SMA","-10.1993000","120.1551000"
"69947480","SMA NEGERI 3 TAKARI","FATUKONA","Prop. Nusa Tenggara Timur","SMA","-9.8946260","124.0065890"
"50305347","SMAS KRISTEN ITA ESA","MUNDEK","Prop. Nusa Tenggara Timur","SMA","-10.8256950","122.9330950"
"50306149","SMAN 1 TANJUNG BUNGA","JL. AIRERAT-WAIKLIBANG","Prop. Nusa Tenggara Timur","SMA","-8.1770000","122.8988000"
"50305402","SMA KATOLIK TARUNA VIDYA","JL. ANGGREK","Prop. Nusa Tenggara Timur","SMA","-8.8343000","121.6688000"
"50301009","SMAS K WARTA BAKTI","JL. ACHMAD YANI KEFAMENANU","Prop. Nusa Tenggara Timur","SMA","-9.4576000","124.4834000"
"69772616","SMAN 2 FATULEU TENGAH","Jalan Lingkar Tengah Fatuleu","Prop. Nusa Tenggara Timur","SMA","-9.9027000","123.8846000"
"69762589","SMAN MATARU","MATARU","Prop. Nusa Tenggara Timur","SMA","-8.3920000","124.6784000"
"50309015","SMAN 1 AESESA","DANGA","Prop. Nusa Tenggara Timur","SMA","-8.5705000","121.2699000"
"69768296","SMAN 2 KUPANG TENGAH","JL TILONG DAM","Prop. Nusa Tenggara Timur","SMA","-10.1672640","123.7320580"
"50310688","SMAN 5 KOTA KOMBA","KETANG","Prop. Nusa Tenggara Timur","SMA","-8.7146000","120.7305000"
"50309284","SMAN 3 KOTA KOMBA","RANA MBELING","Prop. Nusa Tenggara Timur","SMA","-8.6334000","120.7299000"
"50308596","SMAN 1 LAMBA LEDA","GOLO WASO","Prop. Nusa Tenggara Timur","SMA","-8.4306000","120.6181000"
"69774732","SMAS PELITA HATI BAUMATA","JL. ANTONOV NO.11 KOMPLEKS RSS BAUMATA","Prop. Nusa Tenggara Timur","SMA","-10.2326000","123.6891000"
"50309191","SMAN BANAT","Jalan  Menuju Kuanfatu,  Banat Desa Ofu","Prop. Nusa Tenggara Timur","SMA","-9.9787000","124.5021000"
"50302311","SMAS KATOLIK ST. GABRIEL MAUMERE","Jl. Soekarno-Hatta","Prop. Nusa Tenggara Timur","SMA","-8.6291000","122.2204000"
"50309280","SMAN 4 BORONG","WOLO KOLO","Prop. Nusa Tenggara Timur","SMA","-8.8251360","120.6193410"
"69728422","SMAN BIKOMI NILULAT (PERSIAPAN)","Jln. L. Lake","Prop. Nusa Tenggara Timur","SMA","-9.4618000","124.3727000"
"60726234","SMAN 1 LAMBOYA","LAMBOYA","Prop. Nusa Tenggara Timur","SMA","-9.7258000","119.3638000"
"50310683","SMAS SEMINARI MARIA BUNDA SEGALA BANGSA","JL. KIMANG BULENG NO. 5","Prop. Nusa Tenggara Timur","SMA","-8.6173000","122.2130000"
"50308980","SMAN 2 KOMODO","NGGORANG","Prop. Nusa Tenggara Timur","SMA","-8.5769000","119.9547000"
"50300263","SMAS YASMOR PLUS OENONI","JL. LINTAS OEKABITI","Prop. Nusa Tenggara Timur","SMA","-10.2094000","123.9370000"
"50304069","SMAN 1 WAIKABUBAK","JL.TERATAI NO. 6","Prop. Nusa Tenggara Timur","SMA","-9.6367767","119.4246533"
"69726042","SMA NEGERI 3 WAINGAPU","JL. IKAN HIU - KAMBAJAWA","Prop. Nusa Tenggara Timur","SMA","-9.6652400","120.2433600"
"50301882","SMA NEGERI 1 ADONARA BARAT","WAIWADAN","Prop. Nusa Tenggara Timur","SMA","-8.2843000","123.1005000"
"50308364","SMAN 1 NDOSO","TENTANG","Prop. Nusa Tenggara Timur","SMA","-8.4907000","120.3557000"
"50304947","SMAN 5 KUPANG","JL. THAMRIN NO. 7","Prop. Nusa Tenggara Timur","SMA","-10.1706790","123.6161640"
"50300586","SMAN AYOTUPAS","JL. NEKMESE","Prop. Nusa Tenggara Timur","SMA","-9.6969000","124.7028000"
"50307286","SMAS KRISTEN AMANATUN SELATAN","Jl. Tanis Banunek No. 03","Prop. Nusa Tenggara Timur","SMA","-9.8506000","124.5725000"
"50304943","SMAN 9 KUPANG","Jalan Prof. Dr. Herman Yohanes","Prop. Nusa Tenggara Timur","SMA","-10.1474800","123.6782150"
"50307413","SMAN BIBOKI ANLEU","PONU","Prop. Nusa Tenggara Timur","SMA","-9.1437000","124.6860000"
"50310801","SMAN 2 LEMBOR SELATAN","KAKOR","Prop. Nusa Tenggara Timur","SMA","-8.7046610","120.2118780"
"50306571","SMAN 1 FATULEU","JL. TIMOR RAYA KM. 39","Prop. Nusa Tenggara Timur","SMA","-10.0598000","123.8766000"
"69888802","SMAN 6 Elar","Rantang","Prop. Nusa Tenggara Timur","SMA","-8.5685180","120.7405380"
"50302315","SMAN 1 BOLA","JL. WAIR BALUK","Prop. Nusa Tenggara Timur","SMA","-8.7274000","122.3295000"
"69822786","SMA NEGERI 1 AMFOANG TENGAH","DUSUN II OENENAS","Prop. Nusa Tenggara Timur","SMA","-9.8027000","124.0432000"
"69900148","SMA NEGERI 1 ADONARA TENGAH","KENOTAN ADONARA TENGAH","Prop. Nusa Tenggara Timur","SMA","-8.3252973","123.1541614"
"50310691","SMAN 4 POCO RANAKA","REJO","Prop. Nusa Tenggara Timur","SMA","-8.4984300","120.5846700"
"50304949","SMAS BERINGIN","Jl. Delima No. 12 Oepura","Prop. Nusa Tenggara Timur","SMA","-10.1959730","123.6123500"
"50301886","SMAS PGRI GELEKAT LEWO BORU","BORU","Prop. Nusa Tenggara Timur","SMA","-8.5218000","122.7275000"
"69939617","SMA NEGERI TOBU","JL. OEL BONE NO. 1","Prop. Nusa Tenggara Timur","SMA","-9.6670000","124.2955000"
"50300258","SMAS KRISTEN TARUS TENGAH","JL. TIMOR RAYA KM. 14","Prop. Nusa Tenggara Timur","SMA","-10.1340000","123.6869000"
"50306570","SMA NEGERI 1 AMARASI SELATAN","JL. A.R. KOROH","Prop. Nusa Tenggara Timur","SMA","-10.2835000","123.8468000"
"50309282","SMAN 3 SAMBI RAMPAS","NGKOLONG","Prop. Nusa Tenggara Timur","SMA","-8.4444000","120.6871000"
"50309281","SMAN 5 BORONG","JONG","Prop. Nusa Tenggara Timur","SMA","-8.6899130","120.6758100"
"50300587","SMAN KAPAN","JL. HAUMENI","Prop. Nusa Tenggara Timur","SMA","-9.7222000","124.2728000"
"50307287","SMAS KRISTEN KAPAN","JLN.MANEKAT NO.72","Prop. Nusa Tenggara Timur","SMA","-9.7291000","124.2814000"
"50303425","SMAN 1 CIBAL","Jl.Ruteng-Reo, Km.18, Bealeba,Desa Nenu,Kec.Cibal","Prop. Nusa Tenggara Timur","SMA","-8.5161000","120.4865000"
"50306183","SMAN 1 GOLEWA","TUREKISA","Prop. Nusa Tenggara Timur","SMA","-8.8141000","121.0034000"
"69864708","SMA NEGERI BATETI","Jln Athanasius Klau - Bateti","Prop. Nusa Tenggara Timur","SMA","-9.6614000","124.8859000"
"69856246","SMA Negeri  1 BALAURING","Jln Trans Lembata-Lokasi Lohu-Desa Balauring-Kecamatan Omesuri","Prop. Nusa Tenggara Timur","SMA","-8.2739150","123.6993610"
"69902385","SMA Negeri Alkani","Alkani","Prop. Nusa Tenggara Timur","SMA","-9.6913600","124.8593480"
"50302953","SMAS ST FRANSISKUS XAVERIUS BOAWAE","JL. BOAWAE SOA","Prop. Nusa Tenggara Timur","SMA","-8.7641000","121.1635000"
"50304930","SMAN 2 KUPANG","JL. S.K. LERIK","Prop. Nusa Tenggara Timur","SMA","-10.1534280","123.6203930"
"50304932","SMAS SINAR PANCASILA","JL. PEMUDA NO. 91","Prop. Nusa Tenggara Timur","SMA","-10.1671330","123.5913320"
"69772588","SMA NEGERI MIOMAFFO TENGAH","Jln. Praja 2 Desa Tuabatan","Prop. Nusa Tenggara Timur","SMA","-9.5445000","124.4026000"
"50309325","SMA STELLA MARIS ATAMBUA","ATAMBUA","Prop. Nusa Tenggara Timur","SMA","-9.1160000","124.8909000"
"69896120","SMA LIMA JAYA","Jalan Pelabuhan Borong","Prop. Nusa Tenggara Timur","SMA","-8.8205590","120.6154730"
"69830438","SMA  AGAMA KATOLIK SANTU YAKOBUS RASUL LEWOLEBA","Jln. Trans Lembata _Lamahora - Lewoleba","Prop. Nusa Tenggara Timur","SMA","-8.3688000","123.4531000"
"50304068","SMAN 1 LOURA","KARUNI","Prop. Nusa Tenggara Timur","SMA","-9.4037000","119.3290000"
"50301003","SMAN MUTIS EBAN","EBAN","Prop. Nusa Tenggara Timur","SMA","-9.5485000","124.3213000"
"50304405","SMAN 1 NUBATUKAN","LEWOLEBA","Prop. Nusa Tenggara Timur","SMA","-8.3813000","123.4235000"
"69892401","SMA Negeri 12 Kupang","Jl. Jurusan Bolok","Prop. Nusa Tenggara Timur","SMA","-10.2118750","123.5318980"
"69760873","SMAN 2 CIBAL","Raci","Prop. Nusa Tenggara Timur","SMA","-8.5009000","120.5051000"
"69878677","SMA NEGERI KELUBAGOLIT","JL. TRANS WAIWERANG - SAGU KM 14","Prop. Nusa Tenggara Timur","SMA","-8.3044490","123.2210860"
"69728424","SMAN BIKOMI UTARA (PERSIAPAN)","SAINONI","Prop. Nusa Tenggara Timur","SMA","-9.3838000","124.4225000"
"50304063","SMAS MANDA ELU","WAITABULA","Prop. Nusa Tenggara Timur","SMA","-9.4335000","119.2349000"
"69897125","SMA Negeri Sasitamean","Fatubesi","Prop. Nusa Tenggara Timur","SMA","-9.4795212","124.8347155"
"69774696","SMA NEGERI 1 WULLA WAIJELU","Jalan Dermaga Baing","Prop. Nusa Tenggara Timur","SMA","-10.2320000","120.5729000"
"69894295","SMA NEGERI OEKOLO","OEKOLO INSANA UTARA","Prop. Nusa Tenggara Timur","SMA","-9.2169000","124.5900000"
"69888501","SMA NEGERI 1 WANUKAKA","Jl. Pantai Wanukaka","Prop. Nusa Tenggara Timur","SMA","-9.7319017","119.4526267"
"69862588","SMAN ALAS","ALAS KOTABOT","Prop. Nusa Tenggara Timur","SMA","-9.3912490","125.0576310"
"69768159","SMAN 5 POCO RANAKA","BEALAING","Prop. Nusa Tenggara Timur","SMA","-8.6112433","120.5497450"
"50300243","SMAS ADVENT NURSA","JL. TIMOR RAYA KM. 18","Prop. Nusa Tenggara Timur","SMA","-10.1171000","123.7211000"
"69870904","SMA PLUS MASA DEPAN MANDIRI","JL. UNTUNG SURAPATI  RT 06 RW 02","Prop. Nusa Tenggara Timur","SMA","-10.2091730","123.5765930"
"50308593","SMAN 1 BORONG","KACA","Prop. Nusa Tenggara Timur","SMA","-8.7355890","120.5707220"
"50307414","SMAN NOEMUTI","FATUMUTI","Prop. Nusa Tenggara Timur","SMA","-9.5707000","124.4876000"
"50301887","SMA SWASTA MUHAMMADIYAH LAMAHALA","DESA LAMAHALA JAYA","Prop. Nusa Tenggara Timur","SMA","-8.3878000","123.1553000"
"69759212","SMAN MAUTA","JL NA ILLU NO 1 KAKA MAUTA","Prop. Nusa Tenggara Timur","SMA","-8.4766890","124.0582220"
"50309324","SMAN 1 TASIFETO TIMUR","JL. LAMASI WEDOMU","Prop. Nusa Tenggara Timur","SMA","-9.1260000","124.9854000"
"69822788","SMAN 2 AMABI OEFETO TIMIUR","NEFOTEAS","Prop. Nusa Tenggara Timur","SMA","-10.1260000","124.0436000"
"50301674","SMAS KRISTEN 1 KALABAHI","JL. SISINGAMANGARAJA NO. 24","Prop. Nusa Tenggara Timur","SMA","-8.2178784","124.5232424"
"50309196","SMAN BENLUTU","Jl. Timor Raya Km.11 Soe Kupang","Prop. Nusa Tenggara Timur","SMA","-9.8925000","124.2171000"
"69895838","SMA PLUS UMMA KATUKKU","KALEMBU NDARA MANE","Prop. Nusa Tenggara Timur","SMA","-9.5417000","119.3233000"
"50306573","SMAS REFORMASI PLUS","JL. TIMOR RAYA  KM. 14,5","Prop. Nusa Tenggara Timur","SMA","-10.1318000","123.6971000"
"69883571","SMA KRISTEN PANDHEGA JAYA","JL. RAYA TILONG DAM KM.5","Prop. Nusa Tenggara Timur","SMA","-10.1496250","123.7272540"
"50309259","SMAN 1 KEO TENGAH","JL. JURUSAN MAUNORI NANGARORO","Prop. Nusa Tenggara Timur","SMA","-8.8804000","121.2313000"
"50300582","SMAS PGRI SOE","JLN. CENDANA NO. 8","Prop. Nusa Tenggara Timur","SMA","-9.8677000","124.2744000"
"50304936","SMA KI HAJAR DEWANTORO","JL. NANGKA","Prop. Nusa Tenggara Timur","SMA","-10.1624800","123.5975420"
"50302952","SMAS ST CLEMENS BOAWAE","JL. TRANS BAJAWA ENDE","Prop. Nusa Tenggara Timur","SMA","-8.7662000","121.1691000"
"69895839","SMA RARA","RARA","Prop. Nusa Tenggara Timur","SMA","-9.5899341","119.1536026"
"69762587","SMAN LANTOKA","TANGLAPUI","Prop. Nusa Tenggara Timur","SMA","-8.2664000","124.9569000"
"69899844","SMA NEGERI 1  LEWOLEMA","JALAN NARA PULO RT 04 RW 02  DESA BANTALA KECAMATAN LEWOLEMA","Prop. Nusa Tenggara Timur","SMA","-8.3050545","122.8736546"
"50302310","SMAS PGRI MAUMERE","JL. ACHMAD YANI NO. 19 MAUMERE","Prop. Nusa Tenggara Timur","SMA","-8.6267000","122.2291000"
"60726236","SMAN 1 TANA RIGHU","TANA RIGHU","Prop. Nusa Tenggara Timur","SMA","-9.4365000","119.3846000"
"69822782","SMAN LAMALU","JL. TIMUROSA","Prop. Nusa Tenggara Timur","SMA","-8.1784000","124.3135000"
"69888662","SMAN 8 Kota Komba","Wano","Prop. Nusa Tenggara Timur","SMA","-8.7258090","120.6726080"
"69920505","SMA NEGERI 4 ATAMBUA","Jln. R.E. Martadinata - Obenani","Prop. Nusa Tenggara Timur","SMA","-9.0868000","124.8941000"
"50308342","SMA NEGERI 1 WAIBAKUL","MALINJAK","Prop. Nusa Tenggara Timur","SMA","-9.5423000","119.7554000"
"69895842","SMA WAILANGIRA","WAI MAKAHA","Prop. Nusa Tenggara Timur","SMA","-9.6303000","119.0427000"
"50309590","SMAS SINAR PANCASILA BETUN","Jln. Bakateu No.09 Betun","Prop. Nusa Tenggara Timur","SMA","-9.5672000","124.9074000"
"50301007","SMAN 1 INSANA","OELOLOK","Prop. Nusa Tenggara Timur","SMA","-9.4568000","124.7000000"
"69774846","SMA NEGERI ALOR KECIL","Jln. Kalabahi - Kokar, Km 14","Prop. Nusa Tenggara Timur","SMA","-8.2673000","124.4162000"
"69822785","SMAN 1 AMFOANG BARAT LAUT","JL. LETEMAFO","Prop. Nusa Tenggara Timur","SMA","-9.6036000","123.8194000"
"60728884","SMA NEGERI 1 AMFOANG TIMUR","Jln. Vetor Kameo - Oepoli","Prop. Nusa Tenggara Timur","SMA","-9.3507660","124.0359370"
"50308363","SMAN 1 WELAK","ORONG","Prop. Nusa Tenggara Timur","SMA","-8.6551000","120.2398000"
"69756681","SMA NEGERI 2 SEMAU","DESA HANSISI","Prop. Nusa Tenggara Timur","SMA","-10.1841000","123.4705000"
"69774695","SMA NEGERI 1 PABERIWAI","JLN.MELOLO-KARERA,KANANGGAR","Prop. Nusa Tenggara Timur","SMA","-10.0456000","120.3657000"
"50304946","SMAN 6 KUPANG","Jl. H.R KOROH","Prop. Nusa Tenggara Timur","SMA","-10.2151350","123.6162830"
"69902674","SMA NEGERI 1 WULANGGITANG","HEWA KECAMATAN WULANGGITANG","Prop. Nusa Tenggara Timur","SMA","-8.5972554","122.7076811"
"50302968","SMAS SETIAWAN NANGARORO","JL. TRANS JURUSAN ENDE-BJW KM.40","Prop. Nusa Tenggara Timur","SMA","-8.7853000","121.3525000"
"69856247","SMA Negeri  1 ILE APE","Jln Trans Ile Ape-Desa Tagawiti - Kecamatan Ile Ape","Prop. Nusa Tenggara Timur","SMA","-8.2720690","123.4240440"
"50300256","SMAS KRISTEN TESBATAN","JL.JURUSAN OEKABITI","Prop. Nusa Tenggara Timur","SMA","-10.2087000","123.8960000"
"50303773","SMA NEGERI 2 WAINGAPU","JL. JEND. SOEHARTO WAINGAPU","Prop. Nusa Tenggara Timur","SMA","-9.6599000","120.2589000"
"69896247","SMA NEGERI NOEMUTI TIMUR","Jalan Kuaken Desa Manikin","Prop. Nusa Tenggara Timur","SMA","-9.6126000","124.5689000"
"50301898","SMAN 1 SOLOR BARAT","NUSADANI","Prop. Nusa Tenggara Timur","SMA","-8.4914000","122.9514000"
"69728420","SMAN INSANA TENGAH ","Jl. Kefamenanu - Atambua KM. 18 (Maubesi)","Prop. Nusa Tenggara Timur","SMA","-9.4322000","124.5798000"
"50303792","SMA NEGERI 1 LEWA","JL.SIMPANG KANGELI","Prop. Nusa Tenggara Timur","SMA","-9.6969000","119.8504000"
"50309579","SMAN FAFINESU","FATUHAO","Prop. Nusa Tenggara Timur","SMA","-9.3482000","124.5733000"
"69919910","SMA NEGERI HALIOAN","HALIOAN","Prop. Nusa Tenggara Timur","SMA","-9.6002201","124.9578776"
"50300665","SMAS KARYA SOE","JLN. IKAN MAS OEFAU","Prop. Nusa Tenggara Timur","SMA","-9.8489000","124.2951000"
"69847627","SMA NEGERI NUNBENA","NUNBENA","Prop. Nusa Tenggara Timur","SMA","-9.6552380","124.1421640"
"69822791","SMAN 1 KAMBERA","Jl. Tana Wurung","Prop. Nusa Tenggara Timur","SMA","-9.6886000","120.2687000"
"50302956","SMAN 1 BAJAWA","JL. MAYJEN  DI. PANJAITAN","Prop. Nusa Tenggara Timur","SMA","-8.7844000","120.9737000"
"50304065","SMAS KATHOLIK ST ALFONSUS","WAITABULA","Prop. Nusa Tenggara Timur","SMA","-9.4360000","119.2244000"
"50302957","SMAS KATOLIK THOMAS AQUINO","MATALOKO","Prop. Nusa Tenggara Timur","SMA","-8.8206000","121.0404000"
"50305903","SMAN BARANUSA","BARANUSA, JLN. LILI BOLING, NO. 17","Prop. Nusa Tenggara Timur","SMA","-8.3677000","124.0821000"
"69947958","SMA Swasta Taman Siswa Kodi Bangedo","umbu ngedo","Prop. Nusa Tenggara Timur","SMA","-9.5932313","119.0886006"
"50303447","SMAN 1 SATARMESE","NARANG","Prop. Nusa Tenggara Timur","SMA","-8.7815000","120.3697000"
"50304081","SMAN 1 WEWEWA TIMUR","KANELU","Prop. Nusa Tenggara Timur","SMA","-9.5311000","119.2888000"
"50300584","SMAN 1 AMANUBAN TIMUR","Jl. Raya Desa Mnelaanen","Prop. Nusa Tenggara Timur","SMA","-9.7164000","124.6011000"
"69768162","SMAN 5 ELAR","MBOLA KOMBONG-Toang","Prop. Nusa Tenggara Timur","SMA","-8.5113000","120.8302000"
"50300269","SMAN 1 AMARASI","JL. OEKABITI","Prop. Nusa Tenggara Timur","SMA","-10.2330000","123.8294000"
"50300261","SMA SWASTA EFATA SULAMU","JL. PARITI","Prop. Nusa Tenggara Timur","SMA","-10.0046000","123.7627000"
"50308598","SMAN 1 SAMBI RAMPAS","WATUNGGONG","Prop. Nusa Tenggara Timur","SMA","-8.5162000","120.6720000"
"69903967","SMA NEGERI TOINEKE","Jl. Pantai Selatan","Prop. Nusa Tenggara Timur","SMA","-10.1374000","124.3767000"
"50308592","SMAS K PANCASILA BORONG","Jl. KH Dewantara, Golokarot","Prop. Nusa Tenggara Timur","SMA","-8.8105967","120.6113550"
"69950296","SMA NEGERI 1 LEBATUKAN","Jalan Trans Lembata Hadakewa","Prop. Nusa Tenggara Timur","SMA","-8.3929861","123.5353265"
"50303316","SMAN 2 LANGKE REMBONG","JL. KH. DEWANTARA","Prop. Nusa Tenggara Timur","SMA","-8.6265000","120.4500000"
"50308599","SMAN 2 BORONG","KEMBUR","Prop. Nusa Tenggara Timur","SMA","-8.7599680","120.6215440"
"50303432","SMAS PRIMADONA","JL. GLODIAL RUTENG","Prop. Nusa Tenggara Timur","SMA","-8.6195000","120.4492000"
"69759213","SMAN AWAALAH","JL. POTMO","Prop. Nusa Tenggara Timur","SMA","-8.1865450","124.5003783"
"69762586","SMAN ALEMBA","Alemba, RT 07/ RW 03, Lembur Timur, Kec. Lembur","Prop. Nusa Tenggara Timur","SMA","-8.1514000","124.7438000"
"69772544","SMA NEGERI 2 AMFOANG TIMUR","NUNUANAH","Prop. Nusa Tenggara Timur","SMA","-9.4145020","123.9417950"
"50304948","SMAS KATOLIK GIOVANI","JL. JEND. AHMAD YANI NO. 48","Prop. Nusa Tenggara Timur","SMA","-10.1588000","123.5869000"
"50302624","SMA KARYA NANGAPANDA","JL. RAYA ENDE - BAJAWA KM. 28","Prop. Nusa Tenggara Timur","SMA","-8.7919000","121.4649000"
"69883508","SMA PGRI TAMBOLAKA","KADIPADA","Prop. Nusa Tenggara Timur","SMA","-9.5142040","119.0980580"
"50300984","SMAN LURASIK","PELAJAR LURASIK","Prop. Nusa Tenggara Timur","SMA","-9.2889000","124.8352000"
"50301005","SMAN 2 KEFAMENANU","JL. SASI KEFAMENANU","Prop. Nusa Tenggara Timur","SMA","-9.4872000","124.4981000"
"50302625","SMA ISLAM MUTHMAINNAH","JL. IKAN DUYUNG","Prop. Nusa Tenggara Timur","SMA","-8.8534000","121.6445000"
"50301675","SMAS KRISTEN 2 KALABAHI","JL. AHMAD YANI NO. 4","Prop. Nusa Tenggara Timur","SMA","-8.2146658","124.5189046"
"50305767","SMA NEGERI 1 HAHARU","JL. WAINGAPU-HAHARU","Prop. Nusa Tenggara Timur","SMA","-9.6148000","120.2351000"
"50310690","SMAN 7 KOTA KOMBA","WAE RANA","Prop. Nusa Tenggara Timur","SMA","-8.7989000","120.7822000"
"50306170","SMAN 10 KUPANG","JALAN SIKIB 2","Prop. Nusa Tenggara Timur","SMA","-10.2345830","123.6002620"
"50307844","SMAN 1 RIUNG BARAT","JL. Pinggupir - No. 02 - Maronggela- Kec. Riung Barat - Kab. Ngada - Prof. NTT","Prop. Nusa Tenggara Timur","SMA","-8.5220000","120.9499000"
"50306157","SMA NEGERI 1 TITEHENA","Jln.Raya Larantuka-Maumere","Prop. Nusa Tenggara Timur","SMA","-8.4192030","122.8090450"
"69726058","SMAN 2 SATAR MESE LANGKE MAJOK","LANGKE MAJOK","Prop. Nusa Tenggara Timur","SMA","-8.6762000","120.3202000"
"69725918","SMAN 1 FATULEU TENGAH","NUNSAEN","Prop. Nusa Tenggara Timur","SMA","-9.9709000","123.8672000"
"69853544","SMA  KATOLIK ST. TERESIA DANGA","DANGA-  AESESA","Prop. Nusa Tenggara Timur","SMA","-8.5636050","121.2760740"
"50300274","SMAN 1 KUPANG TIMUR","JL. JURUSAN OEKABITI","Prop. Nusa Tenggara Timur","SMA","-10.1225000","123.8112000"
"50302620","SMA NEGERI MAUROLE","JL. TRANS UTARA ENDE - MAUMERE KM. 81","Prop. Nusa Tenggara Timur","SMA","-8.5103000","121.7911000"
"69759214","SMAN BURAGA","JL BANHOM NO 03","Prop. Nusa Tenggara Timur","SMA","-8.4152000","124.4949000"
"69846046","SMA TARUNA LIDAK ATAMBUA","FATUBITI","Prop. Nusa Tenggara Timur","SMA","-9.1231180","124.8823920"
"50308603","SMAN 2 POCO RANAKA","BITING","Prop. Nusa Tenggara Timur","SMA","-8.5969183","120.6337750"
"50309597","SMA NEGERI 1 AMABI OEFETO","DESA FATUKANUTU","Prop. Nusa Tenggara Timur","SMA","-10.1530000","123.9130000"
"50304935","SMAS MUHAMMADIYAH KUPANG","JL. K.H. AHMAD DAHLAN NO. 17 A","Prop. Nusa Tenggara Timur","SMA","-10.1626970","123.6208730"
"50310685","SMAN 7 BORONG","REHES","Prop. Nusa Tenggara Timur","SMA","-8.7072717","120.6188033"
"50301883","SMA NEGERI 1 LARANTUKA","JL. DIPONEGORO BATUATA","Prop. Nusa Tenggara Timur","SMA","-8.3270000","123.0023000"
"69896554","SMA Kristen Tunas Gloria","Jl. H.R. Koroh No. 172A","Prop. Nusa Tenggara Timur","SMA","-10.1762480","123.6562020"
"50300268","SMA NEGERI 1 SEMAU","DESA OTAN - KEC SEMAU","Prop. Nusa Tenggara Timur","SMA","-10.1823000","123.3830000"
"69888717","SMAN 7 Poco Ranaka","RT/RW O1/02 Paleng","Prop. Nusa Tenggara Timur","SMA","-8.5229000","120.6420000"
"69888718","SMAN 8 Poco Ranaka","Nul","Prop. Nusa Tenggara Timur","SMA","-8.5770033","120.5812683"
"50300260","SMA SWASTA ADVENT PONAIN","JL. JUR. TESBATAN","Prop. Nusa Tenggara Timur","SMA","-10.2058000","123.8529000"
"69822789","SMAS ELPIDA","JL. TIMOR RAYA KM. 16, KOMPLEKS TERMINAL NOELBAKI","Prop. Nusa Tenggara Timur","SMA","-10.1267000","123.7115000"
"50301885","SMA SWASTA PGRI LARANTUKA","Balela","Prop. Nusa Tenggara Timur","SMA","-8.3421000","122.9799000"
"50304406","SMAN 1 NAGAWUTUNG","JL. LOANG","Prop. Nusa Tenggara Timur","SMA","-8.4662000","123.2856000"
"50307301","SMAN SANTIAN","JLN. ATU BIA","Prop. Nusa Tenggara Timur","SMA","-9.7930000","124.6944000"
"50304608","SMAN 1 ROTE TENGAH","FEAPOPI","Prop. Nusa Tenggara Timur","SMA","-10.6760000","123.1135000"
"50304771","SMAN 1 KOMODO","COWANG DERENG","Prop. Nusa Tenggara Timur","SMA","-8.4908000","119.8973000"
"50307294","SMAN 1 SOE","Jalan Prof Dr.W.Z Yohanes No 33 SoE","Prop. Nusa Tenggara Timur","SMA","-9.8635000","124.2695000"
"69870671","SMA SEMINARI ST. YOH BERKHMANS ","JLN. SAMADI KEL. MATALOKO KEC. GOLEWA","Prop. Nusa Tenggara Timur","SMA","-8.8131950","121.0534870"
"50310802","SMA N 2 MACANG PACAR","PUING","Prop. Nusa Tenggara Timur","SMA","-8.4540000","120.2297000"
"69934104","SMA KRISTEN KESETNANA","JL. W. CH. OEMATAN","Prop. Nusa Tenggara Timur","SMA","-9.8620000","124.2518000"
"69839276","SMA NEGERI WELAMOSA","WELAMOSA","Prop. Nusa Tenggara Timur","SMA","-8.6055190","121.7289320"
"50302950","SMA KATOLIK BALERIWU","JL. MARINIR","Prop. Nusa Tenggara Timur","SMA","-8.5839000","121.2654000"
"60728878","SMA NEGERI 1 SEMAU SELATAN","PAHLELO","Prop. Nusa Tenggara Timur","SMA","-10.2711000","123.3516000"
"50307410","SMAK. ST. GABRIEL NOEMUTI","NOEMUTI","Prop. Nusa Tenggara Timur","SMA","-9.4466000","124.4773000"
"50309594","SMAS TARUNA MANDIRI FATUBENAO","FATUBENAO","Prop. Nusa Tenggara Timur","SMA","-9.1053000","124.9063000"
"50304606","SMAN 1 ROTE BARAT DAYA","OETEFFU","Prop. Nusa Tenggara Timur","SMA","-10.8636580","122.9606670"
"69938580","SMA NEGERI 3 AMARASI SELATAN","Jl. A.R. Koroh, RT.04/RW.02","Prop. Nusa Tenggara Timur","SMA","-10.3297000","123.7865000"
"69856893","SMA Negeri 1 Raijua","Jl. Ledetalo","Prop. Nusa Tenggara Timur","SMA","-10.6115000","121.6046000"
"50309374","SMAS STELA GRATIA ATAMBUA","JL.J.A.Bere Mau-Kuneru","Prop. Nusa Tenggara Timur","SMA","-9.1766000","124.8656000"
"50304604","SMAN 1 LOBALAIN","BAA","Prop. Nusa Tenggara Timur","SMA","-10.7519280","123.0601500"
"50305403","SMA DHARMA BAKTI","JL. TRANS UTARA ENDE - MAUMERE KM. 82","Prop. Nusa Tenggara Timur","SMA","-8.5108000","121.8024000"
"69733990","SMAN 1 SABU TENGAH","EIMADAKE","Prop. Nusa Tenggara Timur","SMA","-10.4809000","121.9251000"
"69734148","SMAN 1 RAHONG UTARA","PURANG","Prop. Nusa Tenggara Timur","SMA","-8.5209000","120.3862000"
"50309598","SMAN 1 AMFOANG SELATAN","Jln. Bipupu","Prop. Nusa Tenggara Timur","SMA","-9.7037000","123.9577000"
"50309626","SMAS ST THOMAS AQUINAS","JL. BUKIT SUNYI WEETEBULA","Prop. Nusa Tenggara Timur","SMA","-9.4342000","119.2245000"
"50301879","SMA SWASTA SURYA MANDALA","JL. TRANS ADONARA","Prop. Nusa Tenggara Timur","SMA","-8.3895000","123.1665000"
"69946999","SMAN 1 GOLEWA WERE","JERE","Prop. Nusa Tenggara Timur","SMA","-8.7939562","121.0904093"
"69753895","SMA NEGERI 1 WAIGETE","WAIRBLELER","Prop. Nusa Tenggara Timur","SMA","-8.6320000","122.3812000"
"69726555","SMAS KRISTEN GENERASI UNGGUL","JL.H.R. KOROH, KOMPLEKS PERUMAHAN VILA GLORIA, BELO","Prop. Nusa Tenggara Timur","SMA","-10.2134000","123.6191000"
"50304774","SMAS ST IGNATIUS LOYOLA","Jl. Mgr.Van Bekkum, No. 01","Prop. Nusa Tenggara Timur","SMA","-8.4977000","119.8913000"
"50309376","SMAS KAMELIN","WEKATIMUN","Prop. Nusa Tenggara Timur","SMA","-9.0899000","124.8589000"
"60728880","SMAN 2 KUPANG BARAT","JLN KUANTUA","Prop. Nusa Tenggara Timur","SMA","-10.2734000","123.5277000"
"69768157","SMAN 3 LAMBA LEDA","WANTAL","Prop. Nusa Tenggara Timur","SMA","-8.4258000","120.6482000"
"50302304","SMAN 1 TALIBURA","NANGAHALE","Prop. Nusa Tenggara Timur","SMA","-8.5590000","122.5096000"
"50300244","SMA NEGERI 1 AMARASI TIMUR","Jln. Jurusan Pakubaun","Prop. Nusa Tenggara Timur","SMA","-10.2141000","123.9606000"
"50304773","SMAS SANTU KLAUS WERANG","WERANG","Prop. Nusa Tenggara Timur","SMA","-8.6421000","120.0057000"
"50307302","SMAS PGRI MNELALETE","JL.LADA","Prop. Nusa Tenggara Timur","SMA","-9.8900000","124.3126000"
"69762592","SMAN WOLWAL","WOLWAL TENGAH","Prop. Nusa Tenggara Timur","SMA","-8.2853000","124.4374000"
"60726630","SMAN 1 UMBU RATU NGGAY BARAT","Jl.Lintas Waibakul-Mamboro ( Maderi )","Prop. Nusa Tenggara Timur","SMA","-9.5260000","119.5974000"
"50305119","SMAN 3 KUPANG","JL. W.J LALAMENTIK - OEPOI","Prop. Nusa Tenggara Timur","SMA","-10.1723470","123.6146200"
"50303424","SMAS ST THOMAS AQUINAS","JL. NURI - NEKANG","Prop. Nusa Tenggara Timur","SMA","-8.6166000","120.4673000"
"50307415","SMAN PANTURA","KAUBELE","Prop. Nusa Tenggara Timur","SMA","-9.1879000","124.5919000"
"50309608","SMAN 1 WEWEWA SELATAN","TENA TEKE","Prop. Nusa Tenggara Timur","SMA","-9.5659000","119.1990000"
"69946284","SMA NEGERI 3 FATULEU TENGAH","JL. POROS TENGAH RT.01/RW.01 DUSUN I","Prop. Nusa Tenggara Timur","SMA","-9.9295306","123.8506290"
"50304945","SMAN 7 KUPANG","JL. FRANS DAROMES","Prop. Nusa Tenggara Timur","SMA","-10.1839400","123.6181880"
"50308604","SMAN 2 SAMBI RAMPAS","TEMBA LAJAR","Prop. Nusa Tenggara Timur","SMA","-8.3647000","120.8494000"
"50304934","SMAS PGRI KUPANG","JL. SWAKARYA NO. 1","Prop. Nusa Tenggara Timur","SMA","-10.1703180","123.5930720"
"50301403","SMA SURIA ATAMBUA","JL. KI HAJAR DEWANTARA","Prop. Nusa Tenggara Timur","SMA","-9.0993000","124.8908000"
"50303810","SMA KRISTEN PAYETI","JL. PROF. W.Z YOHANES NO.3 WAINGAPU","Prop. Nusa Tenggara Timur","SMA","-9.6575000","120.2695000"
"69760874","SMAN 2 RAHONG UTARA BEOKINA","BEOKINA","Prop. Nusa Tenggara Timur","SMA","-8.5597000","120.4044000"
"50303419","SMAS ST KLAUS","KUWU","Prop. Nusa Tenggara Timur","SMA","-8.6006000","120.4185000"
"69763284","SMAS PLUS OLAHRAGA NUSA TIMOR","JL. OEBONIK I RT.23/RW.09","Prop. Nusa Tenggara Timur","SMA","-10.2082900","123.6171150"
"50309283","SMAN 3 POCO RANAKA","PANDANG","Prop. Nusa Tenggara Timur","SMA","-8.5441583","120.6036100"
"50308513","SMAS FLOBAMOR","JL. NEKMESE RT.30 RW,10","Prop. Nusa Tenggara Timur","SMA","-10.1742070","123.5832070"
"69877329","SMA Negeri Pido","Lippang","Prop. Nusa Tenggara Timur","SMA","-8.2643780","124.8168961"
"50303421","SMAS WIDYA BHAKTI","JL. SLAMET RIYADI","Prop. Nusa Tenggara Timur","SMA","-8.6136000","120.4661000"
"50305262","SMAS KRISTEN 1 KUPANG","JL. ANGGUR No. 10","Prop. Nusa Tenggara Timur","SMA","-10.1799000","123.5952000"
"69933619","SMA NEGERI 1 KOTA TAMBOLAKA","JL. KENANGA WEEPANGALI-GANG FLAMBOYAN","Prop. Nusa Tenggara Timur","SMA","-9.4412000","119.2634000"
"69849076","SMA NEGERI 3 KEFAMENANU","Jln. Bansone Kelurahan Bansone Kefamenanu 85613","Prop. Nusa Tenggara Timur","SMA","-9.4517560","124.4629260"
"50309321","SMAN 1 MALAKA TIMUR","JL. Klobor Tuan - Wemeda - Seon","Prop. Nusa Tenggara Timur","SMA","-9.4171000","124.9078000"
"50305713","SMA ALSIORA ENDE","JL. DURIAN","Prop. Nusa Tenggara Timur","SMA","-8.8394000","121.6681000"
"50305263","SMAS TELADAN","JL. HTI","Prop. Nusa Tenggara Timur","SMA","-10.1821450","123.6237670"
"69948621","SMA NEGERI SILAIPUI","Jl.Lintas Silaipui km. 60","Prop. Nusa Tenggara Timur","SMA","-8.3143089","124.7641562"
"50302619","SMA NEGERI 1 NANGAPANDA","JL. RAYA ENDE BAJAWA KM. 30","Prop. Nusa Tenggara Timur","SMA","-8.7910000","121.4719000"
"50309581","SMAS FAJAR TIMUR HAITIMUK","Jl. Loro Haitimuk","Prop. Nusa Tenggara Timur","SMA","-9.6041000","124.8639000"
"69906703","SMA NEGERI 1 DEMON PAGONG","Jalan Pati Beda","Prop. Nusa Tenggara Timur","SMA","-8.4134979","122.8722087"
"69864623","SMAN Likuwatang","jl. sibone-Likwatang","Prop. Nusa Tenggara Timur","SMA","-8.1621000","124.6687000"
"50303445","SMAS BUDI DHARMA","CANCAR","Prop. Nusa Tenggara Timur","SMA","-8.5854000","120.3797000"
"50308366","SMAS MUHAMMADIYAH","TERANG","Prop. Nusa Tenggara Timur","SMA","-8.4533567","120.0816017"
"69761909","SMA NEGERI 3 ATAMBUA","KABUNA","Prop. Nusa Tenggara Timur","SMA","-9.0674000","124.8922000"
"50302618","SMA NEGERI 1 WOLOWARU","NAKAMBARA","Prop. Nusa Tenggara Timur","SMA","-8.7921000","121.8853000"
"50307412","SMA FIDES QUAERENS INTELLECTUM","JL.EL TARI KM.7 SASI","Prop. Nusa Tenggara Timur","SMA","-9.5036000","124.4953000"
"50309616","SMAN 3 FATULEU","SILU","Prop. Nusa Tenggara Timur","SMA","-10.0480000","123.9717000"
"69758125","SMAN 2 AMARASI SELATAN","DESA NEKMESE","Prop. Nusa Tenggara Timur","SMA","-10.2850000","123.8651000"
"50304607","SMAN 1 ROTE BARAT LAUT","BUSALANGGA","Prop. Nusa Tenggara Timur","SMA","-10.7861350","123.0019650"
"50309473","SMAS 7 SEP 99 ATAMBUA","HALIWEN","Prop. Nusa Tenggara Timur","SMA","-9.1109880","124.9164814"
"50310689","SMAN 6 KOTA KOMBA","Kisol","Prop. Nusa Tenggara Timur","SMA","-8.8119580","120.6649250"
"69727470","SMAN MANAMAS","MANAMAS","Prop. Nusa Tenggara Timur","SMA","-9.2741330","124.5038040"
"50302306","SMAN 1 MAUMERE","JL. MAWAR NO. 1 MAUMERE","Prop. Nusa Tenggara Timur","SMA","-8.6238000","122.2120000"
"50309192","SMAS PGRI OENAY","OENAY","Prop. Nusa Tenggara Timur","SMA","-9.8513000","124.5136000"
"50309224","SMAS K ST.MARKUS PATENG","PATENG","Prop. Nusa Tenggara Timur","SMA","-8.4939000","120.2279000"
"69888773","SMAN 7 Elar","Kembo","Prop. Nusa Tenggara Timur","SMA","-8.3974430","120.8809520"
"69765060","SMAN 2 FATULEU BARAT","POTO","Prop. Nusa Tenggara Timur","SMA","-9.9075000","123.6498000"
"69767796","SMAS KRISTEN 2 KUPANG","JL. ANGGUR NO.10","Prop. Nusa Tenggara Timur","SMA","-10.1802320","123.5947030"
"50305118","SMAS KRISTEN MERCUSUAR","JL. E.R. HEREWILA NO. 52","Prop. Nusa Tenggara Timur","SMA","-10.1726630","123.5997700"
"50305261","SMAS EL TARI","JALAN EL TARI III","Prop. Nusa Tenggara Timur","SMA","-10.1369630","123.6778070"
"69904815","SMA NEGERI USAPIMNASI","Jl. Halnen, RT 01/RW01 Desa Usapimnasi","Prop. Nusa Tenggara Timur","SMA","-9.7052000","124.3918000"
"50304937","SMAS KATOLIK ST CAROLUS","JL. ADI SUCIPTO NO. 44 PENFUI-KUPANG","Prop. Nusa Tenggara Timur","SMA","-10.1762000","123.6562000"
"50305376","SMAN ROTE SELATAN","OELE - KEKA","Prop. Nusa Tenggara Timur","SMA","-10.7814000","123.1591000"
"50308361","SMAN 1 SANO NGGOANG","INDRONG","Prop. Nusa Tenggara Timur","SMA","-8.6623000","120.1086000"
"69756578","SMA KATHOLIK SANCTISSIMA TRINITAS","RANGGU","Prop. Nusa Tenggara Timur","SMA","-8.5831680","120.2587190"
"50305398","SMA KATOLIK ST. PETRUS","JL. GATOT SUBROTO","Prop. Nusa Tenggara Timur","SMA","-8.8477000","121.6640000"
"50300273","SMAN 1 KUPANG TENGAH","JL. TIMOR RAYA KM. 18","Prop. Nusa Tenggara Timur","SMA","-10.1791000","123.7380000"
"69899565","SMA Negeri Wederok","Wederok","Prop. Nusa Tenggara Timur","SMA","-9.6069940","124.8494950"
"50309323","SMA TERPADU HATI TERSUCI MARIA HALILULIK","HALILULIK","Prop. Nusa Tenggara Timur","SMA","-9.2759000","124.8784000"
"50305405","SMA KARITAS","JL. RAYA ENDE - MAUMERE KM. 95","Prop. Nusa Tenggara Timur","SMA","-8.7636000","121.9783000"
"50300276","SMAN 1 SABU TIMUR","JLN. MAYJEND. EL TARI","Prop. Nusa Tenggara Timur","SMA","-10.4790000","121.9863000"
"69888990","SMA NEGERI IO KUFEU","Jl. Uis Mesak Liurai - Bakiliurai","Prop. Nusa Tenggara Timur","SMA","-9.4973797","124.7743661"
"69734157","SMAS KATOLIK SINT PIETER WAIKABUBAK","Jln. Weekarou","Prop. Nusa Tenggara Timur","SMA","-9.6340833","119.3860600"
"69775287","SMAS SINAR KOMODO","GOLO KAMPAS","Prop. Nusa Tenggara Timur","SMA","-8.5704000","119.8925000"
"69822787","SMAN 1 SULAMU","SULAMU","Prop. Nusa Tenggara Timur","SMA","-10.0099000","123.6041000"
"50309377","SMAS SEMINARI LALIAN","JL. NELA RAYA","Prop. Nusa Tenggara Timur","SMA","-9.1728000","124.8956000"
"50303422","SMAS SETIA BAKTI","JL. PELITA NO. 3 RUTENG","Prop. Nusa Tenggara Timur","SMA","-8.6159000","120.4634000"
"69902442","SMA Negeri Laenmanen","Eokpuran","Prop. Nusa Tenggara Timur","SMA","-9.4307000","124.8209000"
"69932980","SMA Negeri 2 Ruteng Purang","Desa Compang Namut","Prop. Nusa Tenggara Timur","SMA","-8.6051535","120.4030176"
"50305406","SMAN WOLOJITA","WOLOJITA","Prop. Nusa Tenggara Timur","SMA","-8.8171000","121.8441000"
"50305768","SMA NEGERI 1 PANDAWAI","JL. CENDANA KAWANGU","Prop. Nusa Tenggara Timur","SMA","-9.6756017","120.3403967"
"50302295","SMAN 2 MAUMERE","JL. BALITBANG","Prop. Nusa Tenggara Timur","SMA","-8.6202000","122.2046000"
"60702920","SMAN 11 KUPANG ","Jln. Fetor Foenay - Kel Kolhua , Kec Maulafa","Prop. Nusa Tenggara Timur","SMA","-10.2112620","123.6357950"
"69774849","SMAN PUREMAN","MADEMANG","Prop. Nusa Tenggara Timur","SMA","-8.3856000","124.8051000"
"50304610","SMAN 1 ROTE BARAT","NEMBERALA","Prop. Nusa Tenggara Timur","SMA","-10.8794580","122.8350830"
"69725921","SMAS NUSA TIMOR KIUONI","KIUONI","Prop. Nusa Tenggara Timur","SMA","-10.0489000","123.8348000"
"50303443","SMAS BINTANG TIMUR","JL.JURIA KEL. TENDA","Prop. Nusa Tenggara Timur","SMA","-8.6167000","120.4774000"
"50301402","SMAS MGR GABRIEL MANEK LAHURUS","LAHURUS","Prop. Nusa Tenggara Timur","SMA","-9.1215000","124.9613000"
"50308601","SMAN 2 ELAR","WUKIR","Prop. Nusa Tenggara Timur","SMA","-8.5455000","120.8505000"
"50309622","SMAN OINLASI","OINLASI","Prop. Nusa Tenggara Timur","SMA","-9.8257970","124.6345760"
"50304609","SMAN 1 ROTE TIMUR","HAILEAN","Prop. Nusa Tenggara Timur","SMA","-10.6243000","123.3670000"
"50304775","SMAN 1 MBELILING","NOA","Prop. Nusa Tenggara Timur","SMA","-8.5818783","120.0415000"
"69726059","SMAN 3 SATAR MESE","PONGKOR, DESA PONGKOR KECAMATAN SATAR MESE","Prop. Nusa Tenggara Timur","SMA","-8.6761000","120.3848000"
"69947000","SMAN 1 INERIE","NUNUPADA","Prop. Nusa Tenggara Timur","SMA","-8.8982472","120.9444019"
"50301401","SMAS BINA KARYA ATAMBUA","Jl. Gajah Mada","Prop. Nusa Tenggara Timur","SMA","-9.1040000","124.8866000"
"50307299","SMAN KUANFATU","KUANFATU","Prop. Nusa Tenggara Timur","SMA","-10.0221000","124.4489000"
"50300262","SMAS PGRI WINIRAI SABU","TERDAMU","Prop. Nusa Tenggara Timur","SMA","-10.4915000","121.8468000"
"50309194","SMAN NOEBANA","NOEBANA","Prop. Nusa Tenggara Timur","SMA","-9.7696000","124.6428000"
"50300275","SMAN 1 SABU BARAT","JLN. TULA IKA - DOKAMADAKE","Prop. Nusa Tenggara Timur","SMA","-10.5056000","121.8280000"
"69768161","SMAN 4 ELAR","RUNUS","Prop. Nusa Tenggara Timur","SMA","-8.6223000","120.8238000"
"50307291","SMAN 1 AMANUBAN TENGAH","JLN. YOS SUDARSO","Prop. Nusa Tenggara Timur","SMA","-9.8336000","124.4608000"
"50301695","SMAN 1 KALABAHI","JL. ADE IRMA NASUTION NO. 11","Prop. Nusa Tenggara Timur","SMA","-8.2148367","124.5201400"
"50304061","SMAS KRISTEN WAIKABUBAK","JL.BHAYANGKARA NO.64","Prop. Nusa Tenggara Timur","SMA","-9.6262983","119.4050483"
"69832839","SMA NEGERI 2 TASIFETO BARAT","JLn. Nenuk Oan Babinu","Prop. Nusa Tenggara Timur","SMA","-9.1662730","124.8961790"
"50309612","SMA NEGERI 2 AMARASI BARAT","DESA TUNBAUN","Prop. Nusa Tenggara Timur","SMA","-10.2539000","123.7811000"
"50308607","SMAS K ST ARNOLDUS MUKUN","MUKUN","Prop. Nusa Tenggara Timur","SMA","-8.6575000","120.6947000"
"69842625","SMA NEGERI 2 NDOSO","MOMOL","Prop. Nusa Tenggara Timur","SMA","-8.5248000","120.3113000"
"50300664","SMAS AL IKHLAS SOE","JLN. IKAN PAUS NO. 16 SOE","Prop. Nusa Tenggara Timur","SMA","-9.8569000","124.2929000"
"50301896","SMA SWASTA KATOLIK FRATERAN PODOR","JL. MAYJEN SUPARDI","Prop. Nusa Tenggara Timur","SMA","-8.3493000","122.9611000"
"69945318","SMA NEGERI 10 BORONG","BALUS","Prop. Nusa Tenggara Timur","SMA","-8.7092067","120.6656350"
"50306188","SMAN 1 SOA","JURUSAN RIUNG KM. 16","Prop. Nusa Tenggara Timur","SMA","-8.7044000","121.0337000"
"50302309","SMAS BHAKTYARSA MAUMERE","JL. ACHMAD YANI 31 MAUMERE","Prop. Nusa Tenggara Timur","SMA","-8.6273000","122.2258000"
"69727247","SMAS KATOLIK STELLAMARIS","MARAPOKOT","Prop. Nusa Tenggara Timur","SMA","-8.5064000","121.2842000"
"50306151","SMA SWASTA ILE BOLENG","JL. ANGGREK","Prop. Nusa Tenggara Timur","SMA","-8.3827000","123.2639000"
"50308606","SMAS SEMINARI PIUS XII KISOL","KISOL","Prop. Nusa Tenggara Timur","SMA","-8.8064000","120.6620000"
"50303809","SMA MUHAMMADIYAH WAINGAPU","JL. TRITURA NO. 26 WAINGAPU","Prop. Nusa Tenggara Timur","SMA","-9.6491133","120.2645350"
"50304770","SMAN 1 MACANG PACAR","BARI","Prop. Nusa Tenggara Timur","SMA","-8.4112000","120.1351000"
"69906816","SMA 17 AGUSTUS RABASA BIRIS","Rabasa Biris","Prop. Nusa Tenggara Timur","SMA","-9.6759648","124.8414895"
"50300272","SMA NEGERI 1 KUPANG BARAT","Jln.TUAPALA KM. 14","Prop. Nusa Tenggara Timur","SMA","-10.2547000","123.5529000"
"50309258","SMAN 3 BORONG","JAWANG","Prop. Nusa Tenggara Timur","SMA","-8.7894000","120.5939000"
"50301404","SMAN 1 ATAMBUA","JL. ADI SUCIPTO NO. 38","Prop. Nusa Tenggara Timur","SMA","-9.0908000","124.8958000"
"50308595","SMAN 1 KOTA KOMBA","WAE LENGGA","Prop. Nusa Tenggara Timur","SMA","-8.8246000","120.8028000"
"69948506","SMA NEGERI KOLANA","Jl. Taruamang No. 20 Kolana","Prop. Nusa Tenggara Timur","SMA","-8.2980378","125.0382791"
"69939495","SMA PGRI KALABAHI","Jl. FLAMBOYAN NO.1 TINGKAT SATU KALABAHI","Prop. Nusa Tenggara Timur","SMA","-8.2114939","124.5146846"
"69946949","SMAN 1 GOLEWA SELATAN","WATUROKA","Prop. Nusa Tenggara Timur","SMA","-8.8820241","121.1043148"
"69939898","SMA NEGERI 2 SULAMU","Jln. Trans Amfoang, Km. 10","Prop. Nusa Tenggara Timur","SMA","-10.0085840","123.7342240"
"50305901","SMAN 1 PANTAR","JLN. SARTIKA NO. 17","Prop. Nusa Tenggara Timur","SMA","-8.2479000","124.2211000"
"50304933","SMAS SEMINARI ST RAFAEL","JL. THAMRIN NO 15  OEPOI","Prop. Nusa Tenggara Timur","SMA","-10.1699180","123.6169480"
"50304605","SMAN 1 PANTAI BARU","Jl. Tesabela","Prop. Nusa Tenggara Timur","SMA","-10.6186000","123.2299000"
"69733944","SMAN 1 LEMBOR","NDERU","Prop. Nusa Tenggara Timur","SMA","-8.6711000","120.2679000"
