"schoolId","schoolName","schoolAddress","province","school_level","lat","long"
"60300593","SMAS YPPK YOHANES 23","JL. KIMAAM","Prop. Papua","SMA","-8.0893000","139.8028000"
"60303523","SMAS YPK IMANUEL AGUNG SAMOFA BIAK","JL. S.CONDRONEGORO","Prop. Papua","SMA","-1.1684000","136.0859000"
"60302459","SMAS YPPGI ENAROTALI","JL. MAMBRUK","Prop. Papua","SMA","-3.9299000","136.3787000"
"60303490","SMAS YPPK YOS SUDARSO","JL. ANGKASA","Prop. Papua","SMA","-8.1043000","139.8898000"
"60301597","SMAS YPPK SANTO THOMAS WAMENA","JL. GATOT SUBROTO WAMENA","Prop. Papua","SMA","-4.0870467","138.9452333"
"69880589","SMA NEGERI ERAGAYAM","DESA ERAGAYAM","Prop. Papua","SMA","-3.7694160","138.9283910"
"60301039","SMAN 5 JAYAPURA","JL.ANGKASAPURA BASE G","Prop. Papua","SMA","-2.7140000","140.8341000"
"60301005","SMAS KRISTEN KALAM KUDUS","ARDIPURA I NO.50","Prop. Papua","SMA","-2.5470000","140.7025000"
"60300979","SMAN 1 OKBIBAB","JL. TURKOP","Prop. Papua","SMA","-4.6659000","140.6655000"
"69877199","SMA Taruna Karya","Jl. Wisata","Prop. Papua","SMA","-3.3201550","135.5465617"
"60302983","SMA Negeri 6 Nabire","Jl. Galunggung","Prop. Papua","SMA","-3.1784653","135.7289340"
"60304063","SMAN 1 AGATS","JL. YOS SUDARSO","Prop. Papua","SMA","-5.5340000","138.1390000"
"60301008","SMAS GABUNGAN","JL. SAMUDERA NO. 24 JAYAPURA","Prop. Papua","SMA","-2.5348000","140.7250000"
"60302717","SMAN 1 KURIK","Jl. Ahmad Yani","Prop. Papua","SMA","-8.2788000","140.2890000"
"60301893","SMA Muhammadiyah Nabire","Jl. Panti Asuhan","Prop. Papua","SMA","-3.3848659","135.4910656"
"60301895","SMA Negeri 2 Nabire","Jl. Poros Bumi Mulia - Wanggar - Nabire - Papua","Prop. Papua","SMA","-3.4338767","135.4074750"
"69762700","SMAN LANDIKMA ","DESA LANDIKMA","Prop. Papua","SMA","-3.8355000","139.3460000"
"60300928","SMAN 1 SARMI","Jl. Inpres Mararena","Prop. Papua","SMA","-1.8759000","138.7526000"
"60301891","SMA Al-Madina","Jl. Perintis","Prop. Papua","SMA","-3.3917750","135.4830950"
"60302992","SMAN 1 MAKKI","JLN. WAMENA TIOM","Prop. Papua","SMA","-3.9509000","138.7476000"
"60301902","SMA YPK Tabernakel","JL. KUSUMA BANGSA","Prop. Papua","SMA","-3.3588889","135.5047222"
"60301011","SMAS YAPEN 45 ENTROP","JL.FERI.NO.4-5.ENTROP","Prop. Papua","SMA","-2.5548000","140.6317000"
"60301899","SMA Yapis Nabire","Jl. Ampera No 12","Prop. Papua","SMA","-3.3743862","135.5112287"
"69762710","SMAN 5 SENTRA PENDIDIKAN","JLN. RAYA SP. V SENTRA PENDIDIKAN","Prop. Papua","SMA","-4.5409000","136.8363000"
"60302990","SMAN 1 PIRIME","JLN. WAMENA TIOM","Prop. Papua","SMA","-4.0582000","138.6729000"
"69762701","SMAN APAHAPSILI ","DESA APAHAPSILI","Prop. Papua","SMA","-3.7791000","139.3313000"
"60301595","SMAS YPK BETLEHEM","JL. BHAYANGKARA NO. 48","Prop. Papua","SMA","-4.0965883","138.9388700"
"60301717","SMAS YPK 2 BIAK","JL. YOS SUDARSO NO. 31","Prop. Papua","SMA","-1.1903000","136.0979000"
"60300372","SMAN 2 BIAK","JL.BOSNIK RAYA BIAK","Prop. Papua","SMA","-1.1917000","136.1529000"
"60304064","SMAN 1 ATSY","JL. YONAS WADER","Prop. Papua","SMA","-5.6634000","138.7148000"
"60300175","SMAN 1 NIMBORAN","JL. ICIM POBAIM","Prop. Papua","SMA","-2.5716000","140.1896000"
"69903633","SMA NEGERI 7 URMBORIDORI","URMBORIDORI","Prop. Papua","SMA","-.7213000","135.7290000"
"60302453","SMAN 1 PANIAI","JL. WATA, Enarotali","Prop. Papua","SMA","-3.9370000","136.3876000"
"69846119","SMA YPK PENABUR SERUI","Jalan hasanuddin Serui","Prop. Papua","SMA","-1.8058350","136.2790030"
"60303259","SMA NEGERI I ASGON","JL. NAPOHOI, ECI","Prop. Papua","SMA","-6.1284000","139.1614000"
"60304199","SMAN 1 DOGIYAI","JLN. TRANS PAPUA NABIRE-ENAROTALI KM. 184","Prop. Papua","SMA","-3.9015000","135.9811000"
"60300797","SMA YPPK Adhi Luhur ","Jl. Merdeka","Prop. Papua","SMA","-3.3719444","135.5080556"
"60301625","SMA NEGERI 1 KORIDO","JL.RAYA KORIDO","Prop. Papua","SMA","-.8381000","135.6002000"
"69861087","SMA YPK TIMIKA","JL.SHOP.  GORONG-GORONG","Prop. Papua","SMA","-4.5520000","136.8962000"
"60301593","SMAN BOLAKME","POROS WAMENA TOLIKARA 48 KM","Prop. Papua","SMA","-3.8074000","139.0718000"
"60302715","SMAS YPK MERAUKE","JL. BRAWIJAYA","Prop. Papua","SMA","-8.5061000","140.4101000"
"69901832","SMA Negeri 2 Makki","Makki","Prop. Papua","SMA","-3.9438000","138.6314000"
"60302885","SMAS HMM AL FALAH TIMIKA","JL. PEMUDA - SP. I","Prop. Papua","SMA","-4.5943000","136.8683000"
"60304846","SMAN ELELIM","JL. WAMENA - TENGON ELELIM","Prop. Papua","SMA","-3.8518000","139.5177000"
"60303659","SMAN WIRINGGAMBUT","WIRUNGGAMBUT","Prop. Papua","SMA","-4.0112000","138.6814000"
"60302893","SMAS YPPK TIGA RAJA TIMIKA","JL.CENDERAWASIH","Prop. Papua","SMA","-4.5417000","136.8857000"
"69831613","SMA KRISTEN ANUGRAH DEKAI","DEKAI","Prop. Papua","SMA","-3.8257130","139.9167690"
"60304836","SMAN 2 DABRA","jln pendidikan dabra 1","Prop. Papua","SMA","-3.0714000","138.7939000"
"60301371","SMA YASUKA ANSUS","JL. Unemi ANSUS","Prop. Papua","SMA","-1.7325060","135.8092500"
"60301594","SMAS PGRI WAMENA","JL. BHAYANGKARA NO. 132 WAMENA","Prop. Papua","SMA","-4.1015417","138.9337850"
"60302181","SMA NEGERI 1 OKSIBIL","JL.YAPIMAKOT","Prop. Papua","SMA","-4.8726000","140.7754000"
"60304692","SMAN 1 KENYAM","KENYAM","Prop. Papua","SMA","-3.5843000","135.1219000"
"60300640","SMAN 3 MERAUKE","JL.KAMIZAUN MOPAH LAMA","Prop. Papua","SMA","-8.5315000","140.4189000"
"60301896","SMA Negeri 3 Nabire","Jl Padat Karya Sanoba","Prop. Papua","SMA","-3.3327783","135.5312467"
"69881035","SMA NEGERI KHUSUS OLAH RAGA","Jl. Merah Putih Buper","Prop. Papua","SMA","-2.5406670","140.6826770"
"60300181","SMA NEGERI 2 SENTANI","JL. RAYA SENTANI - DEPAPRE","Prop. Papua","SMA","-2.5045000","140.3790000"
"60300478","SMA ONATE SERUI","JLN. SOTASORE KANDO","Prop. Papua","SMA","-1.7989000","136.4329000"
"60302889","SMAN 3 TIMIKA","JL. CENDERAWASIH KOKONAO","Prop. Papua","SMA","-4.2685000","135.9283000"
"60300840","SMAS ADVENT TIMIKA","JLN. C. HEATUBUN NO. 3","Prop. Papua","SMA","-4.4877000","136.7024000"
"69893468","SMA ADVENT UREI FAISEI WAROPEN","JL.Inpres Waren","Prop. Papua","SMA","-2.3180000","136.4203000"
"60302732","SMAN 1 TANAH MERAH","JL. RAYA AMBONGGO TANAH MERAH","Prop. Papua","SMA","-6.0894500","140.3075980"
"60301004","SMAS MANDALA TRIKORA","JL. DIPONEGORO NO. 14","Prop. Papua","SMA","-2.5442000","140.6955000"
"60302279","SMAN BOKONDINI","MAIRINI","Prop. Papua","SMA","-3.4820000","138.7734000"
"60301019","SMAN 4 JAYAPURA","JL. RAYA ABEPURA ENTROP","Prop. Papua","SMA","-2.5773000","140.6909000"
"60302458","SMAN 3 PANIAI","Jln. Karel Gobai","Prop. Papua","SMA","-3.8179000","136.3661000"
"60303590","SMA PERSIAPAN KEMTUK GRESI","JL. KAMPUNG IBUT KEMTUK GRESI","Prop. Papua","SMA","-2.6009000","140.2283000"
"60304909","SMA NEGERI KOBAKMA","DESA KOBAKMA","Prop. Papua","SMA","-3.7568760","139.0052640"
"60302886","SMAN 1 MIMIKA","JL. YOS SUDARSO - SEMPAN","Prop. Papua","SMA","-4.5700000","136.8861000"
"60302991","SMAN ABENAHO","JL. WAMENA - TENGON PASVALLEY","Prop. Papua","SMA","-3.7736000","139.2702000"
"69822794","SMAS  2 YAPIS ARSO X","JL. POROS JATURAHARJA ARSO X","Prop. Papua","SMA","-3.0859000","140.4313000"
"69893731","SMA NEGERI 2 OBAA","JL.AGHAM","Prop. Papua","SMA","-6.5597000","139.4664000"
"60304204","SMAN KURULU","JLN. CENDERAWASIH NO. 08","Prop. Papua","SMA","-4.0573000","139.2193000"
"60300177","SMA YPPGI SENTANI","JL. YAHIM SENTANI","Prop. Papua","SMA","-2.5753050","140.5052070"
"60300371","SMAN 1 BIAK","JL. YAFDAS","Prop. Papua","SMA","-1.1629000","136.0661000"
"60302733","SMA YPPK PETRUS HOEBOER MINDIPTANA","OGA BAWAH","Prop. Papua","SMA","-5.8752750","140.7020580"
"60302884","SMAN 4 MIMIKA","JLN. RAYA SP. V TIMIKA","Prop. Papua","SMA","-4.5309000","136.8432000"
"60303101","SMA NEGERI 3 WARIS","JL. TRANS IRIAN KALIBOM","Prop. Papua","SMA","-3.2190000","140.7833000"
"60303261","SMA NEGERI 1 OBAA","JL. AGHAM NO. 40 KEPI","Prop. Papua","SMA","-6.5721000","139.2609000"
"60304201","SMAN 2 DOGIYAI","JLN. TOKAPO MOANEMANI","Prop. Papua","SMA","-3.5448000","136.0926000"
"60300638","SMAN 1 MUTING","JL.NDIWA KM 1","Prop. Papua","SMA","-7.5775000","138.5724000"
"60302280","SMAN KANGGIME","TRANS PUNCAK JAYA","Prop. Papua","SMA","-3.4353000","138.3405000"
"69912759","SMA NEGERI 1 BEOGA","Jalan Raya Yulokoma Beoga","Prop. Papua","SMA","-3.7880000","137.1272000"
"60301706","SMAN 3 BIAK","DESA INGGIRI","Prop. Papua","SMA","-1.1512000","136.0416000"
"69786560","SMA YPK SENTANI","Jl. BISTEUR POS 7 SENTANI","Prop. Papua","SMA","-2.5586920","140.5155380"
"60301889","SMA Advent Nabire","Jl. Kusuma bangsa","Prop. Papua","SMA","-3.3555502","135.5108214"
"60300479","SMA PGRI SERUI","JLN. MARIADEI","Prop. Papua","SMA","-1.7800000","136.4182000"
"69762711","SMAS KATOLIK SANTA MARIA","JLN. BUSIRI SEMPAN TIMIKA","Prop. Papua","SMA","-4.6465000","136.7944000"
"60300152","SMAN KAUREH","JL. POROS LEREH I ONGAN JAYA YAPSI","Prop. Papua","SMA","-2.8139000","140.0913000"
"60300611","SMAN 4 MERAUKE","JL. KARTINI","Prop. Papua","SMA","-8.0635000","140.8046000"
"69915353","SMA  NEGERI  1  SINAK","Jalan Raya Bandara  Sinak","Prop. Papua","SMA","-3.8589000","137.6628000"
"60301903","SMAS YPPGI NABIRE","Jl. Soerojo Tanodjo, SH","Prop. Papua","SMA","-3.3661717","135.5076767"
"69911743","SMA NEGERI YOKIWA","Jl. Yoka Arso","Prop. Papua","SMA","-2.6982360","140.5825900"
"69812104","SMAS Integral Hidayatullah","Jl. Poros Mapurujaya KM 9","Prop. Papua","SMA","-4.7282000","136.9467000"
"60302711","SMAS KPG KHAS PAPUA MERAUKE","JL. NDOREM BUTI KEL. SAMKAI MERAUKE","Prop. Papua","SMA","-8.6556000","140.5284000"
"60301704","SMAN 1 BIAK UTARA","DESA SAUKOBYE","Prop. Papua","SMA","-.9186000","136.0413000"
"60301591","SMAN 1 TIOM","JLN. WAMENA TIOM","Prop. Papua","SMA","-3.9270000","138.4548000"
"69822807","SMA YPPGI SINAK","Jalan Raya Bandara  Sinak","Prop. Papua","SMA","-3.8095000","137.8450000"
"60302455","SMA NEGERI 1 SUGAPA","SUGAPA","Prop. Papua","SMA","-3.4367000","136.8284000"
"69796660","SMAS YPPGI ROESLER AGATS","JL. SWAMENAS AGATS","Prop. Papua","SMA","-5.3670000","138.3212000"
"60304205","SMAN POROME","POROS WAMENA TOLIKARA 48 KM","Prop. Papua","SMA","-3.8663000","139.2568000"
"60300488","SMA NEGERI 2 SERUI","JLN. FLAMBOYAN FAMBOAMAN","Prop. Papua","SMA","-1.8683000","136.2413000"
"60301990","SMAN 1 MULIA","WUYUKWI","Prop. Papua","SMA","-3.7117000","137.9680000"
"69880590","SMA NEGERI ILUGUA","DESA ILUGUA","Prop. Papua","SMA","-3.6492630","138.8716120"
"60303348","SMAN ANGGRUK","JL. YAHULIKMA ANGGRUK","Prop. Papua","SMA","-4.0052000","139.7731000"
"69899445","SMA TARUNA DHARMA TIMIKA","Jl. Poros Mapurujaya, Kampung Muare","Prop. Papua","SMA","-4.4877000","136.7024000"
"60301627","SMA NEGERI 3 YENGGARBUN","Jln Raya Supiori Utara - Yenggarbun","Prop. Papua","SMA","-.6737000","135.6207000"
"60302718","SMAN 1 OKABA","KAMP. WAMBI - OKABA","Prop. Papua","SMA","-7.8224000","140.0219000"
"69822793","SMA NEGERI 4 ARSO","JL. TRANS IRIAN KOMP. PTPN II TAMI WORKWANA","Prop. Papua","SMA","-2.9768000","140.7976000"
"60304943","SMAN I CITAK MITAK","SENGGO","Prop. Papua","SMA","-5.8882000","139.3416000"
"69888731","SMA YPPK St. FRANSISKUS EPOUTO","JL. PPK EPOUTO","Prop. Papua","SMA","-3.9725000","136.4340000"
"69762703","SMAN WERENGGIK","WERENGGIK","Prop. Papua","SMA","-3.9897000","139.5739000"
"69822795","SMAS YPPGI TIOM","JL. WAMENA TIOM","Prop. Papua","SMA","-3.9260000","138.4529433"
"60302055","SMAN 2 SARMI","JL.TRANS SARMI","Prop. Papua","SMA","-1.9086000","138.7544000"
"60304343","SMA NEGERI 2 TIGI","JL. AKIYAA","Prop. Papua","SMA","-4.0398000","136.2855000"
"60301897","SMA Setia Yaro","Jl. Poros Jaya Mukti","Prop. Papua","SMA","-3.4523000","135.3089000"
"60301002","SMAS PEMBANGUNAN V","JL. G. DAFONSORO PERUMNAS I WAENA","Prop. Papua","SMA","-2.5404000","140.5590000"
"60303349","SMAN NINIA","JL. PUSKESMAS NINIA","Prop. Papua","SMA","-4.8646000","139.4885000"
"60300625","SMAN 1 MERAUKE","JL. BIAK MERAUKE","Prop. Papua","SMA","-8.5004000","140.4007000"
"69822805","SMAN 4 PANIAI","Obano, Paniai Barat","Prop. Papua","SMA","-3.8754000","136.6741000"
"60304322","SMAS MUHAMMADIYAH","JLN. GARUDA SPADEM","Prop. Papua","SMA","-8.5261000","140.4153000"
"69920711","SMA YPK PERBATASAN YETTI","JALAN TAPAL BATAS RI-PNG","Prop. Papua","SMA","-2.9574000","140.8938000"
"60303588","SMA YAPIS NIMBOKRANG","JL.YOS SUDARSO NIMBOKRANG","Prop. Papua","SMA","-2.5437000","140.1348000"
"60301913","SMA NEGERI 1 Plus KPG","JL. JALUR 5 TIMUR","Prop. Papua","SMA","-3.4528733","135.4533167"
"60302457","SMA NEGERI 4 TIGI BARAT","Widimei","Prop. Papua","SMA","-4.0311000","136.2021000"
"69756258","SMAS SUB BYAKI FYADI","JL. BRONCO RIDGE I BIAK","Prop. Papua","SMA","-1.1623000","136.0803000"
"60304904","SMA NEGERI POOM","JL. KAMPUNG HUMBEHAWAI","Prop. Papua","SMA","-1.6361000","135.7337000"
"60301018","SMAN 3 JAYAPURA","JL. MERAH PUTIH BUPER WAENA","Prop. Papua","SMA","-2.5852000","140.6257000"
"60300373","SMAS YPK 1 BIAK","JL. SRIWIJAYA BIAK","Prop. Papua","SMA","-1.1581000","136.0800000"
"60302056","SMAS YPK SARMI","JL. BARU PETAM","Prop. Papua","SMA","-2.0188000","138.6963000"
"60301017","SMAN 2 JAYAPURA","JL. SERUI NO. 16 DOK IX ATAS JAYAPURA","Prop. Papua","SMA","-2.5182000","140.7259000"
"69878868","SMA YPPGI Waghete","Waghete","Prop. Papua","SMA","-4.1434410","136.0862150"
"60302714","SMAN PLUS URUMB","URUMB","Prop. Papua","SMA","-8.4551000","140.3253000"
"60301010","SMAS SATRIA","JL. SANTAROSA TASANGKAPURA","Prop. Papua","SMA","-2.5643000","140.6826000"
"60303506","SMA KRISTEN BALIEM TERPADU","Jl. Raya Kimbim Pyramid Muliama","Prop. Papua","SMA","-4.0037000","138.8251000"
"60300639","SMAN 2 MERAUKE","JL. NOWARI No 97","Prop. Papua","SMA","-8.4903000","140.3771000"
"69925302","SMA ANUGERAH GLORIA TERPADU","Jln. SD Percobaan Lorong Kampung Hetuma Potikelek","Prop. Papua","SMA","-4.0831883","138.9344300"
"60301596","SMAS YPPGI WAMENA","JL. YOS SUDARSO WAMENA","Prop. Papua","SMA","-4.1062817","138.9298350"
"60301901","SMA YPKB IPA`IYE NABIRE","Jl. Ipa` iye","Prop. Papua","SMA","-3.3826550","135.4914150"
"60304703","SMAS WAHANA CITA","JL. FRANS KAISIEPO BLOCK C-18 RUKO DOK II","Prop. Papua","SMA","-2.5171000","140.6536000"
"60303893","SMAS ADVENT SOGOKMO","JLN. WAMENA-SOGOKMO","Prop. Papua","SMA","-4.2166000","138.9127000"
"60302689","SMA NEGERI 2 MANSOBEN","JL. PENDIDIKAN MANSOBEN","Prop. Papua","SMA","-.7408000","135.7537000"
"60304126","SMA NEGERI 1 ILAGA","Jl.Ir. ISMAEL  WAKERKWA","Prop. Papua","SMA","-4.1016000","137.6652000"
"69845479","SMA Negeri 1 Napan","Jl. Inpres Napan","Prop. Papua","SMA","-3.0568000","135.7473000"
"60304944","SMA YPPK ST. YOHANES PAULUS KEPI","JL. KRIDA UTAMA KEPI","Prop. Papua","SMA","-6.5856000","139.2883000"
"60303657","SMAN 2 PANIAI","Toyaimoti","Prop. Papua","SMA","-3.8143000","136.4783000"
"60303065","SMAN WAREN","DESA URI","Prop. Papua","SMA","-2.6246000","136.4903000"
"60300370","SMAN 1 BIAK BARAT","JL. BENGGOR YOMDORI","Prop. Papua","SMA","-1.0687000","135.8711000"
"60303522","SMAN SAMBER","JL. URFU SAMBER","Prop. Papua","SMA","-1.1731000","135.9041000"
"69725930","SMAN 3 SARMI","KAMPUNG KEDER KECAMATAN PANTAI TIMUR BAGIAN BARAT","Prop. Papua","SMA","-2.0432620","139.1317960"
"69949477","SMA NEGERI PLUS SATAP 4 SENAYU","Jln. Raya Jagebob","Prop. Papua","SMA","-8.0237898","140.5810683"
"60302892","SMAS YPPGI AB TINAL TIMIKA","JL. CENDERAWASIH","Prop. Papua","SMA","-4.2501000","135.3672000"
"69958564","SMA YPK F. X MOTE","Jalan Pendidikan","Prop. Papua","SMA",".0000000",".0000000"
"60300180","SMAN 3 SENTANI","Jln. Ado Mama Nomor 100","Prop. Papua","SMA","-2.5700380","140.5801330"
"60302984","SMA Negeri 7 Nabire","Jl. Nabire - Ilaga KM 32","Prop. Papua","SMA","-3.5617000","135.8495000"
"60301015","SMAS YPPK TERUNA BAKTI","JL. SPG WAENA","Prop. Papua","SMA","-2.5782000","140.5551000"
"60301590","SMAN 1 ASOLOGAIMA","JL. KIMBIM ASOLOGAIMA","Prop. Papua","SMA","-3.9478000","138.9666000"
"69831638","SMA YPK METANOIA","Jalan Seredala Kilo Meter 2 Dekai","Prop. Papua","SMA","-4.4465350","139.4024610"
"60301006","SMAS KORPRI","JL. KOMP. WOLKER PERUMNAS II","Prop. Papua","SMA","-2.5845000","140.6432000"
"69929417","SMA NEGERI MARIKAI","Jln. Marikai","Prop. Papua","SMA","-2.3407689","137.0187173"
"60301003","SMAS MUHAMMADIYAH","JL. ABEPANTAI NO.25 ABEPURA","Prop. Papua","SMA","-2.5843000","140.5948000"
"60302281","SMAN KARUBAGA","Jalan Pemuda, Karubaga","Prop. Papua","SMA","-3.5316000","138.6336000"
"69758236","SMAN 1 BIAK TIMUR","JL. RAYA BOSNIK","Prop. Papua","SMA","-.9966000","135.9191000"
"60303440","SMA NEGERI 2 SKANTO","JL.IAP DARMASIH ARSO IV","Prop. Papua","SMA","-2.7863000","140.6182000"
"60300796","SMA Negeri 1 Nabire","Jl. RE Martadinata","Prop. Papua","SMA","-3.3527778","135.5100000"
"60302716","SMAN 1 KIMAAM","KIWORO - KIMAAM","Prop. Papua","SMA","-7.9201000","138.8055000"
"69824440","SMA NEGERI 1 TANAH MIRING","JALAN WIJAYA KUSUMA","Prop. Papua","SMA","-8.3473000","140.4871000"
"60302887","SMAN 2 MIMIKA","JL. IWAKA KAMPUNG LIMAU","Prop. Papua","SMA","-4.6302000","136.7798000"
"60302891","SMAS TARUNA TIMIKA","JLN. YOS SUDARSO-NAWARIPI","Prop. Papua","SMA","-4.5730000","136.8784000"
"60300151","SMA PERSIAPAN BUMI SAHAJA","JL. KRISAN BUMI SAHAJA","Prop. Papua","SMA","-2.5716000","140.1896000"
"60301900","SMA YPBI Sion Nabire","Jl. Pelabuhan Samabusa","Prop. Papua","SMA","-3.2281900","135.5855867"
"60303346","SMAN 1 DEKAI","JL. HUBLA DEKAI","Prop. Papua","SMA","-4.8630000","139.4915000"
"60301892","SMA Kristen Anak Panah Nabire","Jl. Christina Marta Tiahahu","Prop. Papua","SMA","-3.3732183","135.4783667"
"69880588","SMA NARWASTU INENU ALOM","DESA BINIME","Prop. Papua","SMA","-3.5868310","139.0180860"
"69762702","SMAN WELAREK","DESA WELAREK","Prop. Papua","SMA","-3.9404000","139.5929000"
"60304496","SMA NEGERI 6 SOWEK","MANGONSWAN, SOWEK","Prop. Papua","SMA","-.9533000","135.4972000"
"69861166","SMA Negeri Ilu","Trans Wena-Mulia","Prop. Papua","SMA","-3.3844710","138.0996110"
"69946393","SMA NEGERI ASIKI","KAMPUNG ASIKI","Prop. Papua","SMA","-6.2840235","140.1027252"
"60301370","SMA NEGERI UNGGULAN DAWAI","JLN.TRANS YAPEN","Prop. Papua","SMA","-1.8422000","136.6366000"
"60304512","SMAN KELILA","JLN. TOMADJARI KELILA","Prop. Papua","SMA","-3.6636000","138.8560000"
"60304749","SMAN 1 MAMBERAMO TENGAH","KASONAWEJA","Prop. Papua","SMA","-2.3032000","138.0337000"
"60303654","SMA KRISTEN KOINONIA","JL. CARAVAN SENTANI","Prop. Papua","SMA","-2.5631450","140.5104930"
"60303589","SMAN DEMTA","Jln. Demta-Berap Km 7 Demta","Prop. Papua","SMA","-2.4124000","140.1399000"
"60300874","SMAS PEMBANGUNAN 6 YAPIS KEEROM","JL. POROS ARSO III","Prop. Papua","SMA","-2.7875000","140.6265000"
"60300808","SMA Bhakti Mandala Nabire","Jl. Gagak","Prop. Papua","SMA","-3.3477200","135.5265233"
"60302283","SMAS YPPGI KARUBAGA","AMPERA","Prop. Papua","SMA","-3.4491000","138.5988000"
"69901119","SMA KRISTEN SHINING STARS ","JL. SERUI MEKAR NO. 7","Prop. Papua","SMA","-4.5488000","136.8865000"
"60300178","SMA AL FATAH YPKP SENTANI","Kompleks YPKP, Jl. Masjid Al Aqsho Sentani","Prop. Papua","SMA","-2.5628450","140.5165850"
"69769620","SMAN 1 PADAIDO","JL. YUSUF MELIANUS MARYEN","Prop. Papua","SMA","-1.2384000","136.5198000"
"60303430","SMAS YPPK TARUNA TEGASA","JL. IGNATIUS SUNYOTO","Prop. Papua","SMA","-2.9177000","140.7780000"
"60304054","SMAN 1 BALINGGA","JL. TRIKORA NO 1 BALINGGA","Prop. Papua","SMA","-4.0069000","138.2768000"
"69905073","SMA Negeri Tiomneri","Jalan Desa Kuabaga","Prop. Papua","SMA","-3.8901083","138.4205500"
"60300176","SMA YPPK ASISI SENTANI","JL. RAYA SENTANI - KEMIRI","Prop. Papua","SMA","-2.5650430","140.5149900"
"60305268","SMAN 2 KURIMA","KAMPUNG OBOLMA","Prop. Papua","SMA","-4.1808000","139.4921000"
"60303880","SMAS YPK URFU","JL. RAYA SORIDO-SAMBER","Prop. Papua","SMA","-1.1349000","135.9308000"
"60303260","SMAN I EDERA","JL. HOMNI BADE","Prop. Papua","SMA","-7.1820000","139.5507000"
"60300112","SMA ADVENT DOYO BARU","JL. RAYA SENTANI - DEPAPRE DOYO BARU","Prop. Papua","SMA","-2.5356000","140.4607000"
"60300352","SMA YPPK YOS SUDARSO BIAK","JL. PETRUS KAFIAR  RIDGE 1","Prop. Papua","SMA","-1.1574000","136.0788000"
"60304065","SMAS YAN SMIT","JL. FRANS KAISIEPO","Prop. Papua","SMA","-5.5391000","138.1381000"
"60300487","SMA NEGERI 1 SERUI","JLN. MALUKU  SERUI","Prop. Papua","SMA","-1.8753000","136.2346000"
"60301696","SMAN 6 SKOUW JAYAPURA","JL. RAYA PERBATASAN RI-PNG","Prop. Papua","SMA","-2.6290000","140.8623000"
"60303066","SMA  UREI FAISEI","JL.Trans Waropen","Prop. Papua","SMA","-2.3924000","136.4797000"
"60301009","SMAS PGRI","JLN. KAMP WOLKER PERUMNAS III - YABANSAI","Prop. Papua","SMA","-2.5844000","140.6432000"
"60301705","SMAN 1 WARSA","JL. RAYA WARSA","Prop. Papua","SMA","-.7987000","135.9514000"
"69822806","SMA YPPK BINTANG TIMUR OKSIBIL","Jln. Kabiding","Prop. Papua","SMA","-4.9763000","140.6407000"
"60300173","SMAN 1 SENTANI","JL. KEMIRI","Prop. Papua","SMA","-2.5574970","140.4903980"
"60303709","SMA NEGERI 4 INSUMBREI","INSUMBREI","Prop. Papua","SMA","-.8094000","135.5023000"
"60301589","SMAS KRISTEN","JL. HOM-HOM MOAI WAMENA","Prop. Papua","SMA","-4.0715950","138.9322233"
"60301016","SMAN 1 JAYAPURA","JL. BIAK ABEPURA","Prop. Papua","SMA","-2.6141710","140.6620630"
"69786561","SMAN 6 Mimika","Jl. Irigasi","Prop. Papua","SMA","-4.5552000","136.8702000"
"60300369","SMAN 1 NUMFOR BARAT","DESA KAMERI","Prop. Papua","SMA","-.9818000","134.8504000"
"60300363","SMAS YAPIS BIAK","JL.S. CONDRONEGORO NO. 14-15","Prop. Papua","SMA","-1.1690000","136.0846000"
"60301007","SMAS HIKMAH YAPIS","JL. DR. SAM RATULANGI NO. 3 DOK V ATAS","Prop. Papua","SMA","-2.5303000","140.7173000"
"60301014","SMAS YPPK TARUNA DHARMA","JL. RAYA ABEPURA KOTARAJA","Prop. Papua","SMA","-2.5815000","140.6347000"
"60301013","SMAS YPK DIASPORA","JL. KOTARAJA DALAM","Prop. Papua","SMA","-2.5929000","140.6620000"
"69899309","SMA SANTO YOSEPH TANAH MERAH","Jalan Trans Papua Km. 06 Tanah Merah - Mindiptana","Prop. Papua","SMA","-6.0775630","140.3574380"
"69863854","SMAS PLUS YPPGI GERADUS ADII","JLN. PERTANIAN JATI - JATI MERAUKE","Prop. Papua","SMA","-8.7441510","140.5858880"
"60301592","SMAN 1 WAMENA","JL. SUDIRMAN NO. 33","Prop. Papua","SMA","-4.0948483","138.9397350"
"60300873","SMA NEGERI 1 ARSO","JL. KETIMUN NO.1 ARSO SWAKARSA","Prop. Papua","SMA","-2.8693000","140.7441000"
"60303710","SMA NEGERI 5 WAKRE","JALAN RAYA WAKRE - KORIDO","Prop. Papua","SMA","-.8020000","135.6906000"
"60728370","SMAN PLUS SATAP 1 MERAUKE","JL TRANS PAPUA KM 21","Prop. Papua","SMA","-8.6820000","140.7009000"
"60301669","SMAS EL-SHADDAY JAYAPURA","JL. TENGGIRI ARGAPURA KANON","Prop. Papua","SMA","-2.5713000","140.6853000"
