"schoolId","schoolName","schoolAddress","province","school_level","lat","long"
"10703503","SMAN 11 MUKOMUKO","JLN. POROS","Prop. Bengkulu","SMA","-3.0268000","101.6409000"
"10701981","SMAN 01 LEBONG SAKTI","JL. Raya Curup-Muara Aman, Kec. Lebong Sakti","Prop. Bengkulu","SMA","-3.1362120","102.2458060"
"10702284","SMAN 1 TEBAT KARAI","JL. TERTIK 100","Prop. Bengkulu","SMA","-3.6699000","102.6118000"
"10700669","SMAN 1 REJANG LEBONG","JL. BASUKI RACHMAT NO. 1","Prop. Bengkulu","SMA","-3.4776000","102.5215000"
"10702738","SMAN 5 MUKOMUKO","JL.USHULUDIN","Prop. Bengkulu","SMA","-2.4236000","101.1689000"
"10700677","SMAS XAVERIUS CURUP","JL..D.I.PANJAITAN NO. 17","Prop. Bengkulu","SMA","-3.4632000","102.5226000"
"69947941","SMA NEGERI 7 BENGKULU TENGAH","Desa Batu Beriang","Prop. Bengkulu","SMA","-3.5447000","102.3114000"
"10701796","SMAN 3 KAUR","JL. RAYA TANJUNG IMAN","Prop. Bengkulu","SMA","-4.7042000","103.2995000"
"10702285","SMAN 1 KEPAHIANG","JL. PASAR UJUNG KEPAHIANG","Prop. Bengkulu","SMA","-3.6522000","102.5928000"
"69873537","SMAN 16 Mukomuko","Jl. Poros Sp 9","Prop. Bengkulu","SMA","-2.4572000","101.0967000"
"10703505","SMAN 13 MUKOMUKO","JLN. SYECH MUTLA","Prop. Bengkulu","SMA","-2.5733590","101.2982850"
"10703015","SMAN 1 KABAWETAN","JL. RAYA TANGSI BARU","Prop. Bengkulu","SMA","-3.6013000","102.5891000"
"69774868","SMAN 10 SELUMA","Padang Kuas","Prop. Bengkulu","SMA","-3.8719000","102.5846000"
"10700284","SMA NEGERI 01 LAIS","JALAN PEMBANGUNAN","Prop. Bengkulu","SMA","-3.5095000","102.0477000"
"10703495","SMAN 10 MUKOMUKO","JLN. TELUK BERINGIN","Prop. Bengkulu","SMA","-2.6084270","101.3116080"
"10702462","SMAS MUHAMMADIYAH 1","JL. BALI","Prop. Bengkulu","SMA","-3.7857000","102.2641000"
"10703129","SMAN 7 MUKOMUKO","JALAN JEND. AHMAD YANI","Prop. Bengkulu","SMA","-2.4520000","101.4229000"
"10702415","SMAN 2 BENGKULU","JL. MAHONI NO.14","Prop. Bengkulu","SMA","-3.7954190","102.2713590"
"10702438","SMAS PANCASILA","Jalan Rinjani","Prop. Bengkulu","SMA","-3.8081000","102.2893000"
"10703077","SMAN 01 TOPOS","JL. SUKA NEGERI","Prop. Bengkulu","SMA","-3.1420000","102.2464000"
"10703784","SMAN 3 BENGKULU TENGAH","DESA PASAR PEDATI KM.12","Prop. Bengkulu","SMA","-3.7135000","102.2465000"
"10702457","SMAS PALLAWA","JL. MANGGA V","Prop. Bengkulu","SMA","-3.8259230","102.3086970"
"10701553","SMAN 8 SELUMA","JL. RAYA TALANG KABU","Prop. Bengkulu","SMA","-4.2636000","102.7848000"
"10701554","SMAN 4 SELUMA","JL. Desa Sendawar-Pajar Bulan","Prop. Bengkulu","SMA","-4.0616000","102.8973000"
"10702737","SMAN 8 MUKOMUKO","JL. LINTAS BARAT SUMATERA","Prop. Bengkulu","SMA","-2.3719000","101.2569000"
"10700975","SMAS PGRI BENGKULU SELATAN","JL. ZAINAB BAHMADA RUSTAM","Prop. Bengkulu","SMA","-4.4622000","102.9116000"
"69766210","SMAN 10 PENTAGON KAUR","Gedung Sako II, Kec. Kaur Selatan, Kab. Kaur, 38563","Prop. Bengkulu","SMA","-4.7474000","103.3735000"
"10702876","SMAS MUHAMMADIYAH CURUP","JL. JEND. SUDIRMAN","Prop. Bengkulu","SMA","-3.4535000","102.5600000"
"10700302","SMAN 2 BENGKULU TENGAH","JL.Rindu Hati","Prop. Bengkulu","SMA","-3.7061000","102.5082000"
"10700667","SMAN 8 REJANG LEBONG","JL. DESA AIR MELES ATAS","Prop. Bengkulu","SMA","-3.4663000","102.9347000"
"10700670","SMAN 10 REJANG LEBONG","JL. Lintas PJKA Kotapadang","Prop. Bengkulu","SMA","-3.4247000","102.9758000"
"69753041","SMAN 9 KAUR","LAWANG AGUNG","Prop. Bengkulu","SMA","-4.5761000","103.2559000"
"10702412","SMAN 5 BENGKULU","JL. CENDANA NO. 20","Prop. Bengkulu","SMA","-3.7946000","102.2718000"
"10702464","SMAS HIDAYATULLAH","JL. HALMAHERA","Prop. Bengkulu","SMA","-3.8376000","102.3351000"
"10703326","SMAN 1 MUARA KEMUMU","JL. RAYA SOSOKAN TABA","Prop. Bengkulu","SMA","-3.6454000","102.6839000"
"10703504","SMAN 12 MUKOMUKO","Jl. Lintas Bengkulu - Padang","Prop. Bengkulu","SMA","-2.5229000","101.0783000"
"69879000","SMA IT IQRA","JLN. MERAWAN 21 RT.20 RW.07 KOTA BENGKULU","Prop. Bengkulu","SMA","-3.7939720","102.2857490"
"10700968","SMAN 2 BENGKULU SELATAN","JL. KOLONEL BARLIAN","Prop. Bengkulu","SMA","-4.4509000","102.9215000"
"10702981","SMA NEGERI 01 HULU PALIK","JL. RAYA SUMBEREJO","Prop. Bengkulu","SMA","-3.2607000","102.1619000"
"10702414","SMAN 3 BENGKULU","JL. RE. MARTADINATA  NO. 41","Prop. Bengkulu","SMA","-3.8452000","102.3204000"
"10701823","SMAN 4 KAUR","JL. SIMPANG TIGA PD. GUCI","Prop. Bengkulu","SMA","-4.3721000","103.3363000"
"10701559","SMAN 2 SELUMA","JLN. RAYA DESA SIMPANG TIGA PAGAR GASING","Prop. Bengkulu","SMA","-4.1801000","102.6956000"
"69734272","SMAN 6 BENGKULU TENGAH","JL. RAYA AIR SEBAKUL KODE POS.38381","Prop. Bengkulu","SMA","-3.8325000","102.3567000"
"10703075","SMAN 01 PINANG BELAPIS","JL. RAYA KETENONG","Prop. Bengkulu","SMA","-3.0216000","102.1056000"
"69949147","SMA NEGERI 14 REJANG LEBONG","Desa Lubuk Alai","Prop. Bengkulu","SMA","-3.4739904","102.8211383"
"10702408","SMAN 8 BENGKULU","JL. WR Supratman","Prop. Bengkulu","SMA","-3.7560000","102.2907000"
"10703197","SMAN 2 REJANG LEBONG","JL. A.YANI NO.443 KESAMBE BARU","Prop. Bengkulu","SMA","-3.4568000","102.7201000"
"10700685","SMAN 3 REJANG LEBONG","JL. DR.A.K GANI","Prop. Bengkulu","SMA","-3.4512000","102.9150000"
"10700972","SMAN 6 BENGKULU SELATAN","JL. RAYA KAYU KUNYIT","Prop. Bengkulu","SMA","-4.4715000","102.9378000"
"69957327","SMAN 11 LAYANAN KHUSUS","Jalan Pondok Pusaka","Prop. Bengkulu","SMA",".0000000",".0000000"
"10700967","SMAN 3 BENGKULU SELATAN","JL. JEND. AHMAD YANI","Prop. Bengkulu","SMA","-4.4445000","102.9290000"
"10700299","SMAN 1 PADANG JAYA","JALAN SEMERU NO.14","Prop. Bengkulu","SMA","-3.4404000","102.0813000"
"10700300","SMAS MUHAMMADIYAH","JLN. LETKOL SYAMSUL BAHRUN","Prop. Bengkulu","SMA","-3.4319000","102.1943000"
"10702283","SMAN 1 UJAN MAS","Jalan Raya Kelurahan Ujan Mas Kabupaten Kepahiang","Prop. Bengkulu","SMA","-3.5575000","102.5204000"
"10700887","SMAN 9 BENGKULU SELATAN","JL. RAYA KELUTUM KM. 12","Prop. Bengkulu","SMA","-4.3495000","102.8775000"
"10702984","SMAN 1 GIRI MULYA","JALAN FLAMBOYAN","Prop. Bengkulu","SMA","-2.7447000","101.7557000"
"10700687","SMAS PGRI 1 CURUP","JL.S.SUKOWATI NO. 7 CURUP","Prop. Bengkulu","SMA","-3.5073000","102.6108000"
"10702820","SMAS MUHAMMADIYAH BINTUHAN","JL. PASAR PAGI BINTUHAN","Prop. Bengkulu","SMA","-4.7077000","103.3624000"
"10701556","SMAN 1 SELUMA","JL.Bengkulu-Tais KM.61 TAIS","Prop. Bengkulu","SMA","-4.0776960","102.5804440"
"10702244","SMAS MUHAMMADIYAH KEPAHIANG","JLN. M. KARTA PENSIUNAN BELAKANG","Prop. Bengkulu","SMA","-3.6461000","102.5676000"
"10702413","SMAN 4 BENGKULU","JL. ZAINUL ARIFIN","Prop. Bengkulu","SMA","-3.8181000","102.3081000"
"10700686","SMAN 04 REJANG LEBONG","JL. SMA 4 NO. 03","Prop. Bengkulu","SMA","-3.4848000","102.5315000"
"10702416","SMAN 1 BENGKULU","JL. KUALA LEMPUING","Prop. Bengkulu","SMA","-3.8226000","102.2781000"
"10702461","SMAS MUHAMMADIYAH 2","Jalan S. Parman","Prop. Bengkulu","SMA","-3.8018000","102.2700000"
"10703260","SMAN 6 KAUR","JL. CAHAYA NEGERI","Prop. Bengkulu","SMA","-4.8346000","103.4587000"
"10700973","SMAN 1 BENGKULU SELATAN","JL. PANGERAN DUAYU","Prop. Bengkulu","SMA","-4.4704000","102.9068000"
"10700976","SMAS PEMBANGUNAN BENGKULU SELATAN","JL. LETTU UBADI NO. 17","Prop. Bengkulu","SMA","-4.4660000","102.9028000"
"10703537","SMAN 5 BENGKULU TENGAH","JL.RAYA BENGKULU - CURUP KM.25 Desa Karang Tinggi","Prop. Bengkulu","SMA","-3.7438600","102.4219930"
"10701551","SMAS MUHAMMADIYAH 1 TAIS","JL. UMAR AHMAD NO.62 TAIS","Prop. Bengkulu","SMA","-4.0193000","102.4230000"
"10701817","SMAN 5 KAUR","JL.LINTAS BARAT AIR NUMAN SUKA MENANTI","Prop. Bengkulu","SMA","-4.6252000","103.5399000"
"10700684","SMAN 7 REJANG LEBONG","JL.RAYA SIMPANG BELITI","Prop. Bengkulu","SMA","-3.5732000","102.9016000"
"10702993","SMAS TENERA PUTRI HIJAU","SEBLAT PUTRI HIJAU","Prop. Bengkulu","SMA","-3.1765000","101.5874000"
"10701986","SMAN 01 LEBONG SELATAN","JL. AMD TABA ANYAR","Prop. Bengkulu","SMA","-3.1673000","102.2572000"
"10700901","SMAN 8 BENGKULU SELATAN","JL. H. RENTAMA NO. 03","Prop. Bengkulu","SMA","-4.3682890","102.9869980"
"10702460","SMAS MUHAMMADIYAH 4","JL. BALI Kota Bengkulu","Prop. Bengkulu","SMA","-3.8020000","102.2698000"
"10701983","SMAS PGRI AMEN","JL. RAYA KOTA AGUNG","Prop. Bengkulu","SMA","-3.1186640","102.2069460"
"10702711","SMAN 9 BENGKULU","Jl Wr Supratman No 15 Tugu Hiu Kota Bengkulu","Prop. Bengkulu","SMA","-3.8116000","102.3510000"
"10700977","SMAS MUHAMMADIYAH BENGKULU SELATAN","JL. Z. BACHMADA RUSTAM","Prop. Bengkulu","SMA","-4.4474000","102.8923000"
"10702980","SMAN 1 ENGGANO","JLN. AH. MARINUS MALAKONI","Prop. Bengkulu","SMA","-5.3639000","102.3159000"
"10701557","SMAN 5 SELUMA","JL. SETIA NEGARA","Prop. Bengkulu","SMA","-4.3056000","102.7583000"
"10700994","SMAN 5 BENGKULU SELATAN","JL.VETERAN NO. 56","Prop. Bengkulu","SMA","-4.5852000","103.2365000"
"10702465","SMAS BUDI MULIA","JL. RAYA AIR SEBAKUL","Prop. Bengkulu","SMA","-3.8735000","102.3315000"
"10703646","SMAN 8 KAUR","JL. BENTENG RAYA","Prop. Bengkulu","SMA","-4.4817000","103.5150000"
"10702877","SMAN 6 REJANG LEBONG","Jln. RAYA DESA SENTRAL BARU","Prop. Bengkulu","SMA","-3.3761000","102.4382000"
"10700978","SMAS KARYA BENGKULU SELATAN","JL.TKR. SEBANIS","Prop. Bengkulu","SMA","-4.4511000","102.9012000"
"10702878","SMAN 9 REJANG LEBONG","JL.RAYA CURUP LUBUKLINGGAU KM 21","Prop. Bengkulu","SMA","-3.3941000","102.3840000"
"10702991","SMAN 01 ULOK KUPAI","Jalan Tutwuri Handayani No. 1","Prop. Bengkulu","SMA","-2.8926000","101.9697000"
"69786448","SMA NEGERI 14 MUKOMUKO","DESA BUNGA TANJUNG","Prop. Bengkulu","SMA","-2.7420000","101.3856000"
"10700933","SMAN 4 BENGKULU SELATAN","JL. DURIAN SEBATANG","Prop. Bengkulu","SMA","-4.4616000","103.0746000"
"10701174","SMAN 4 MUKOMUKO","JL. LINTAS SUMATERA KM 197","Prop. Bengkulu","SMA","-2.8236000","101.4185000"
"10702418","SMAS PGRI","JL. SEPAKAT","Prop. Bengkulu","SMA","-3.7911000","102.2767000"
"10700303","SMAN 1 BENGKULU TENGAH","JL. RAYA KEMBANG SARI KM 12","Prop. Bengkulu","SMA","-3.7817000","102.4074000"
"10701980","SMAN 01 LEBONG UTARA","JL. KAMPUNG JAWA BARU","Prop. Bengkulu","SMA","-3.0117000","102.1986000"
"10702286","SMAN 1 BERMANI ILIR","JL. RAYA DESA TALANG PITO","Prop. Bengkulu","SMA","-3.7084000","102.7055000"
"69952292","SMA NEGERI 11 KOTA BENGKULU","Jl. Raya Budi Utomo","Prop. Bengkulu","SMA","-3.9036351","102.3212927"
"10702680","SMAN 6 SELUMA","PADANG PELAWI KM. 29","Prop. Bengkulu","SMA","-3.8725000","102.5671000"
"10701558","SMAN 3 SELUMA","JL. PADANG PELASAN","Prop. Bengkulu","SMA","-4.0216000","102.7674000"
"10700641","SMAS TAMAN SISWA CURUP","JL. AHMAD MARZUKI NO.105 CURUP","Prop. Bengkulu","SMA","-3.4770000","102.6387000"
"10702983","SMAN 2 ARGA MAKMUR","JALAN RATU SAMBAN","Prop. Bengkulu","SMA","-3.4254000","102.2051000"
"10702417","SMAS SINT CAROLUS","JL. KAPUAS RAYA NO. 73","Prop. Bengkulu","SMA","-3.8287000","102.2955000"
"10702419","SMAS PEMBANGUNAN","JL. CENDERAWASIH","Prop. Bengkulu","SMA","-3.7945000","102.2611000"
"10701187","SMAS MUHAMMADIYAH","JL. WIJAYA KUSUMA","Prop. Bengkulu","SMA","-2.6171000","101.2955000"
"10703261","SMAN 7 KAUR","Jalan Desa Papahan","Prop. Bengkulu","SMA","-4.6065000","103.2181000"
"69881045","SMA NEGERI 13 REJANG LEBONG","JL.RAYA DESA BALAI BUTAR KEC. SINDANG BELITI ILIR, KAB. REJANG LEBONG, PROV. BE","Prop. Bengkulu","SMA","-3.5023000","102.8909000"
"10701795","SMAN 2 KAUR","JL. RAYA TANJUNG KEMUNING","Prop. Bengkulu","SMA","-4.4820000","103.1863000"
"10701561","SMAN 7 SELUMA","JL. MERDEKA RIMBO KEDUI","Prop. Bengkulu","SMA","-4.0693000","102.5530000"
"10700268","SMA NEGERI 01 KERKAP","JLN. RAYA PENYANGKAK","Prop. Bengkulu","SMA","-3.5384000","102.1606000"
"10703046","SMAN 10 BENGKULU","JL. PADANG CENGKEH","Prop. Bengkulu","SMA","-3.8433000","102.3316000"
"69830089","SMAN 15 MUKOMUKO","Jl. Lintas Barat Sumatera","Prop. Bengkulu","SMA","-2.8746480","101.4597370"
"69870679","SMA NEGERI 12 REJANG LEBONG","JALAN RAYA BENGKO, KECAMATAN SINDANG DATARAN, KABUPATEN REJANG LEBONG, PROV. BEN","Prop. Bengkulu","SMA","-3.5309330","102.7104660"
"10700672","SMAN 5 REJANG LEBONG","JL. AIR BANG","Prop. Bengkulu","SMA","-3.4774000","102.5530000"
"10701819","SMAN 1 KAUR","JL. SEKUNYIT BINTUHAN","Prop. Bengkulu","SMA","-4.7164000","103.3549000"
"69947567","SMAN KEBERBAKATAN OLAHRAGA BENGKULU","Jl.Raya Halmahera No 01 RT 07 RW 04","Prop. Bengkulu","SMA","-3.7847000","102.3265000"
"10702437","SMAS PELITA KASIH","JL. TIMUR INDAH II","Prop. Bengkulu","SMA","-3.8210010","102.3108040"
"10702736","SMAN 6 MUKOMUKO","JL. RAYA TERAS TERUNJAM","Prop. Bengkulu","SMA","-2.6607000","101.2988000"
"10700286","SMAN 1 ARGAMAKMUR","Jalan Ir. Soekarno No.01","Prop. Bengkulu","SMA","-3.4819000","102.2067000"
"69900124","SMA NEGERI 10 BENGKULU SELATAN","Desa Padang Jawi","Prop. Bengkulu","SMA","-4.5075590","103.0266230"
"10702819","SMAS ASY-SYAFIIYAH","TJ. BETUNG","Prop. Bengkulu","SMA","-4.3825000","103.3558000"
"10701309","SMAN 1 MUKOMUKO","Jl. Ki Hajar Dewantara","Prop. Bengkulu","SMA","-2.5910470","101.1192790"
"10703076","SMAN 01 LEBONG ATAS","JL. RAYA SUKAU KAYO","Prop. Bengkulu","SMA","-3.0166000","102.1748000"
"10701185","SMAN 2 MUKOMUKO","JL. PROTOKOL MEDAN JAYA","Prop. Bengkulu","SMA","-2.5866000","101.2376000"
"10700298","SMAN 1 KETAHUN","JALAN BUKIT INDAH NO.01","Prop. Bengkulu","SMA","-3.3129000","101.8661000"
"10700886","SMAN 7 BENGKULU SELATAN","JL. Raya Desa Kota Agung Kecamatan Seginim Kabupaten Bengkulu Selatan","Prop. Bengkulu","SMA","-4.4237000","103.0346000"
"10702406","SMAN 6 BENGKULU","JL. PRATU AIDIT","Prop. Bengkulu","SMA","-3.7839000","102.2627000"
"10702463","SMAS IDHATA","JL. SERUNI","Prop. Bengkulu","SMA","-3.8127000","102.2786000"
"10700306","SMAN 4 BENGKULU TENGAH","JL. Ali Midan","Prop. Bengkulu","SMA","-3.3816000","102.2225000"
"10703004","SMAS PGRI ARGA MAKMUR","JALAN IR SOEKARNO NO. 69 PRAMUKA","Prop. Bengkulu","SMA","-3.4619000","102.2067000"
"10703157","SMAN 1 MERIGI","JLN. LINTAS KEPAHIANG - CURUP","Prop. Bengkulu","SMA","-3.5011000","102.5186000"
"69753110","SMAN 11 REJANG LEBONG","Jl. Simpang Guru Agung-Kota Padang","Prop. Bengkulu","SMA","-3.4796000","102.8131000"
"10701186","SMAN 3 MUKOMUKO","JL. Poros Yamaja Rimba RT. 12 Desa Agung Jaya Kecamatan Air Manjunto","Prop. Bengkulu","SMA","-2.5057000","101.1617000"
"10700295","SMAN 1 PUTRI HIJAU","JALAN RAYA KOTA BANI","Prop. Bengkulu","SMA","-3.2435000","101.6369000"
"10702679","SMAN 9 SELUMA","JL. BATANG HARI","Prop. Bengkulu","SMA","-4.3249000","102.8200000"
"10703502","SMAN 9 MUKOMUKO","JLN. BENDUNGAN AIR MANJUNTO","Prop. Bengkulu","SMA","-2.4501000","101.3211000"
"10702982","SMAN 1 AIR BESI","JALAN RAYA TENGAH BENGKULU - ARMA","Prop. Bengkulu","SMA","-2.6101000","101.7185000"
"10702407","SMAN 7 BENGKULU","JL. JENGGALU","Prop. Bengkulu","SMA","-3.8357150","102.2970060"
