"schoolId","schoolName","schoolAddress","province","school_level","lat","long"
"60201365","SMAN 4 HALMAHERA TIMUR","DESA NUSA JAYA","Prop. Maluku Utara","SMA",".8476000","128.0060000"
"60202787","SMAS ISLAM JAILOLO","JLN. PAHLAWAN BANAU","Prop. Maluku Utara","SMA","1.0638000","127.4663000"
"69851434","SMA ISLAM MISBAHUL AULAD BACAN","DESA MARABOSE KECAMATAN BACAN","Prop. Maluku Utara","SMA","-.6277962","127.5223969"
"60202792","SMA NEGERI 2 HALMAHERA BARAT","Jl. RAYA GAM ICI","Prop. Maluku Utara","SMA","1.5066000","127.5552000"
"60202076","SMAN 10 TIDORE KEPULAUAN","JL. RAYA  MAREKU","Prop. Maluku Utara","SMA",".6886000","127.3674000"
"60203360","SMA NEGERI 27 HALMAHERA SELATAN","Jln. Tanah Gusur","Prop. Maluku Utara","SMA","-.7678000","128.2176000"
"69879001","SMA PEDULI BANGSA WOOI","DESA WOOI KECAMATAN OBI TIMUR","Prop. Maluku Utara","SMA","-1.6073800","128.0737450"
"60205559","SMAN 6 HALMAHERA TIMUR","BOKIMAAKE","Prop. Maluku Utara","SMA","1.2603000","128.2430000"
"69852840","SMAN 12 HALMAHERA TIMUR","MABA PURA","Prop. Maluku Utara","SMA",".8743560","128.2521230"
"60203440","SMAN 5 HALMAHERA TIMUR","JL. TRANS HALMAHERA","Prop. Maluku Utara","SMA",".6881000","128.2924000"
"60203677","SMA NEGERI 35 HALMAHERA SELATAN","Jl. Siswa Desa Soligi","Prop. Maluku Utara","SMA","-1.6552000","127.4233000"
"69928455","SMA PEDULI BANGSA MANATAHAN","DESA MANATAHAN KEC. OBI BARAT","Prop. Maluku Utara","SMA","-1.4201275","127.3377584"
"60203607","SMAS IT ALBINA KOTA TERNATE","JL. UNKHAIR PERUM BUKIT BINTANG KEL. KALUMATA KEC. KOTA TERNATE SELATAN","Prop. Maluku Utara","SMA",".7801000","127.3751000"
"60203361","SMA NEGERI 26 HALMAHERA SELATAN","JL. Air Bersih Pelita","Prop. Maluku Utara","SMA","-.6552000","127.2431000"
"60203630","SMAS NUSANTARA","JLN. LINTAS HALE-AKE","Prop. Maluku Utara","SMA",".9874000","127.5041000"
"60200542","SMAS ALHILAAL SANANA","JL. WAI BAU","Prop. Maluku Utara","SMA","-2.0550000","125.9747000"
"60201660","SMA NEGERI 5 HALMAHERA SELATAN","JL. BUBLO","Prop. Maluku Utara","SMA","-.3562000","127.8475000"
"60200721","SMAN 3 KOTA TERNATE","JL. PERTAMINA","Prop. Maluku Utara","SMA",".8125000","127.3842000"
"60724613","SMAS BPD TOBELO SELATAN","JL. RAYA PACA","Prop. Maluku Utara","SMA","1.5842000","127.9523000"
"60202102","SMAN 1 SULABESI TIMUR","JL. SISWA","Prop. Maluku Utara","SMA","-2.3967000","126.0579000"
"60203357","SMA NEGERI 24 HALMAHERA SELATAN","Jln. Kebun Kasbi","Prop. Maluku Utara","SMA","-.0526000","127.4088000"
"60200709","SMAS ISLAM KOTA TERNATE","JL STADION","Prop. Maluku Utara","SMA",".7860000","127.3832000"
"60201364","SMAN 3 HALMAHERA TIMUR","BICOLI","Prop. Maluku Utara","SMA",".5914000","128.5041000"
"60201924","SMAS MUHAMMADIYAH GALELA","LAHA MAJOJO","Prop. Maluku Utara","SMA","1.8268000","127.8430000"
"60201681","SMA MUHAMMADIYAH OBI","JL. KETAPANG","Prop. Maluku Utara","SMA","-1.2469000","127.6478000"
"60202296","SMAN 5 HALMAHERA TENGAH","JL.BANEMO","Prop. Maluku Utara","SMA",".3509000","128.5846000"
"60203358","SMA NEGERI 20 HALMAHERA SELATAN","Jln. Balisa","Prop. Maluku Utara","SMA","-.4625000","127.3085000"
"60202786","SMAS LPM TAHAFO","DESA TAHAFO","Prop. Maluku Utara","SMA","1.5175000","127.5763000"
"60200294","SMAN 1 PULAU MOROTAI","JL. SISWA DARUBA","Prop. Maluku Utara","SMA","2.0667000","128.3162000"
"60202466","SMAN SULABESI BARAT","JL. RAYA KABAU","Prop. Maluku Utara","SMA","-2.1900000","125.8947000"
"60201926","SMAN 4 HALMAHERA UTARA","JL. H. ADAM MALIK","Prop. Maluku Utara","SMA","1.0945220","127.7665710"
"60200950","SMAN 2 TIDORE KEPULAUAN","JL. RAYA RUM SOASIO","Prop. Maluku Utara","SMA",".6455000","127.3707000"
"60200296","SMAN 1 HALMAHERA UTARA","JL. SISWA DESA GAMSUNGI","Prop. Maluku Utara","SMA","1.7254000","128.0073000"
"69944710","SMA NEGERI 9 HALMAHERA BARAT","DESA PEOT KECAMATAN SAHU","Prop. Maluku Utara","SMA","1.1955664","127.4584772"
"60203637","SMA NEGERI 7 HALMAHERA BARAT","JALAN RAYA SIDANGOLI","Prop. Maluku Utara","SMA",".8994000","127.5141000"
"69921012","SMA NEGERI 2 TALIABU UTARA","Jl. Taman Siswa, Desa Jorjoga","Prop. Maluku Utara","SMA","-1.7683777","124.7832043"
"69879772","SMA TUNAS MUDA KAWASI","Jalan Siswa","Prop. Maluku Utara","SMA","-1.5757140","127.4779300"
"60201665","SMA NEGERI 17 HALMAHERA SELATAN","Jl. Siswa Aljufri - Wayaua","Prop. Maluku Utara","SMA","-.7432429","127.6440412"
"69921011","SMA NEGERI 2 TALIABU BARAT","Jl. Taman Siswa, Desa Kawalo","Prop. Maluku Utara","SMA","-1.9390565","124.4209618"
"69880555","SMA PADORA","DESA Soametek","Prop. Maluku Utara","SMA","1.3816410","127.8302660"
"60200722","SMAN 2 KOTA TERNATE","JL. UBO-UBO","Prop. Maluku Utara","SMA",".7710000","127.3664000"
"60724601","SMAN 7 HALMAHERA UTARA","Jln. Poros Galela-Loloda","Prop. Maluku Utara","SMA","2.0129000","127.9114000"
"60202426","SMA NEGERI 4 HALMAHERA SELATAN","Jalan Inpres","Prop. Maluku Utara","SMA","-.1488970","127.8917530"
"60203706","SMA NEGERI 13 TIDORE KEPULAUAN","Desa Fanaha","Prop. Maluku Utara","SMA",".4338000","127.7359000"
"69903986","SMA DARUL FATAH FLUK","DESA FLUK KEC. OBI SELATAN","Prop. Maluku Utara","SMA","-1.5997768","127.7363181"
"60200727","SMAN 10 KOTA TERNATE","JL K. H. DEWANTARA","Prop. Maluku Utara","SMA",".7822000","127.3811000"
"60201667","SMA NEGERI 13 HALMAHERA SELATAN","Jln. Kenari","Prop. Maluku Utara","SMA","-.2690000","127.6935000"
"69759245","SMAS KATOLIK BINTANG LAUT KOTA TERNATE","JL. STADION NO. 18 KOTA TERNATE","Prop. Maluku Utara","SMA",".7869000","127.3868000"
"60202467","SMA NEGERI 1 TALIABU TIMUR SELATAN","Jl. Mangga Dua, Desa Losseng","Prop. Maluku Utara","SMA","-1.8303000","125.0391000"
"60202289","SMAN 1 SULABESI TENGAH","JL. RAYA WAIBOGA","Prop. Maluku Utara","SMA","-2.1661000","125.9580000"
"69937679","SMA NEGERI 2  TALIABU TIMUR SELATAN","JALAN KALI SOFAN","Prop. Maluku Utara","SMA","-1.8389538","125.0100559"
"60200951","SMAN 1 TIDORE KEPULAUAN","JL. A. YANI INDONESIANA","Prop. Maluku Utara","SMA",".6751000","127.4508000"
"60202101","SMAN 1 MANGOLI TIMUR","JL. SANGADJI FATAHA","Prop. Maluku Utara","SMA","-1.9122000","125.9818000"
"69851416","SMA ALKHAIRAAT WAYAUA","JL. SISWA ALJUFRI DESA WAYAUA","Prop. Maluku Utara","SMA","-.7474080","127.6504720"
"60202499","SMA NEGERI 11 KOTA TERNATE","JL. Mayau Kel. Mayau Kec. Pulua Batang Dua","Prop. Maluku Utara","SMA",".9003000","127.3197000"
"60202239","SMAN 1 MANGOLI BARAT","JL. KAKI GUNUNG DOFA","Prop. Maluku Utara","SMA","-1.8109000","125.3569000"
"60201988","SMAS AGAPE","DESA IDAM GAMLAMO","Prop. Maluku Utara","SMA","1.1391000","127.4675000"
"60201668","SMA NEGERI 12 HALMAHERA SELATAN","Jln. Siswa","Prop. Maluku Utara","SMA","-.2185000","127.1153000"
"69768154","SMAS KRISTEN NUSA DAMAI POSI-POSI RAO","POSI-POSI RAO","Prop. Maluku Utara","SMA","2.2034000","128.5429000"
"60202073","SMAN 5 TIDORE KEPULAUAN","JL. SISWA NO. 2 SOFIFI","Prop. Maluku Utara","SMA",".7383000","127.5619000"
"69878679","SMA MUHAMMADIYAH 4 PULAU MOROTAI","Desa Pangeo","Prop. Maluku Utara","SMA","2.5005620","128.5560940"
"60203595","SMAS MUHAMMADIYAH 2 TIDORE KEPULAUAN","JL. TRIKORA","Prop. Maluku Utara","SMA",".6501000","127.4440000"
"60202302","SMA NEGERI 1 TALIABU UTARA","Jl. Bukit Tulado, Desa Gela","Prop. Maluku Utara","SMA","-1.7905000","124.6636000"
"60202575","SMAN 8 HALMAHERA TENGAH","JL. BLIFITU","Prop. Maluku Utara","SMA",".2931000","128.8101000"
"60202241","SMAN 1 MANGOLI UTARA","JL. TRIBAKTI","Prop. Maluku Utara","SMA","-1.7903000","125.4718000"
"60200292","SMAN 2 HALMAHERA UTARA","JLN. SISWA NO. 9 DESA SOASIO","Prop. Maluku Utara","SMA","1.8229000","127.8422000"
"60202430","SMA NEGERI 28 HALMAHERA SELATAN","Jln. Kapa China","Prop. Maluku Utara","SMA","-.7661000","127.2477000"
"69903978","SMA NURUL HASAN SAMBIKI","Desa Sambiki - Kec. Obi","Prop. Maluku Utara","SMA","-1.4358915","127.6203194"
"60202874","SMAN 11 HALMAHERA UTARA","JL. SIDANGOLI","Prop. Maluku Utara","SMA","1.3217000","127.9831000"
"60202788","SMAS DIAN HALMAHERA","JLN RAYA AKELAMO","Prop. Maluku Utara","SMA","1.1945000","127.5383000"
"60202502","SMAN 9 KOTA TERNATE","JL. SISWA","Prop. Maluku Utara","SMA",".4704000","127.4264000"
"60201661","SMA NEGERI 2 HALMAHERA SELATAN","JL. SISWA NO.1","Prop. Maluku Utara","SMA",".0150000","127.4076000"
"60200782","SMAN 7 KOTA TERNATE","JL. TANJUNG PURA","Prop. Maluku Utara","SMA",".4334000","127.4019000"
"60202072","SMAS MUHAMMADIYAH 1 TIDORE KEPULAUAN","AKELAMO","Prop. Maluku Utara","SMA",".5342000","127.5505000"
"60203780","SMA NEGERI 32 HALMAHERA SELATAN","Jln. Lintas Halmahera","Prop. Maluku Utara","SMA","-.2409000","127.7832000"
"60203698","SMA NEGERI 19 HALMAHERA SELATAN","Jln. Air Cermin No. 2","Prop. Maluku Utara","SMA","-.8083000","128.3120000"
"60202274","SMA NEGERI 1 LEDE","Jl. Taman Siswa","Prop. Maluku Utara","SMA","-1.6941000","124.4432000"
"60202431","SMA NEGERI 22 HALMAHERA SELATAN","Jln. Hi. Subur Karamaha No. 2","Prop. Maluku Utara","SMA","-1.3516000","127.7370000"
"60205564","SMAN 7 HALMAHERA TIMUR","Jl. Trans Halmahera, desa Wayamli, kec. Maba Tengah","Prop. Maluku Utara","SMA","1.1512000","128.4309000"
"60202428","SMA NEGERI 10 HALMAHERA SELATAN","Jln. Benteng Karamat","Prop. Maluku Utara","SMA","-.0467000","127.4172000"
"60200949","SMAN 3 TIDORE KEPULAUAN","JL. PATTIMURA NO. 1","Prop. Maluku Utara","SMA",".6634000","127.4473000"
"60200293","SMAN 3 HALMAHERA UTARA","JL. PENDIDIKAN","Prop. Maluku Utara","SMA","1.2395000","127.8978000"
"60200783","SMAN 6 KOTA TERNATE","JL. TOLOIRE LAMO","Prop. Maluku Utara","SMA",".8557000","127.3455000"
"60200184","SMAN 3 HALMAHERA TENGAH","JL. TIMAH NO 1","Prop. Maluku Utara","SMA","-.0743000","129.4143000"
"69903966","SMA LPM  MADAPOLO","DESA MADAPOLO TIMUR KEC. OBI UTARA","Prop. Maluku Utara","SMA","-1.2262076","127.6553786"
"60201929","SMA NEGERI 2 PULAU MOROTAI","JL. SISWA","Prop. Maluku Utara","SMA","2.1546000","128.4899000"
"60203684","SMA NEGERI 29 HALMAHERA SELATAN","Jalan Poroniti No. 01","Prop. Maluku Utara","SMA","-.2284000","127.0979000"
"60200183","SMAN 2 HALMAHERA TENGAH","JL. LOMAN","Prop. Maluku Utara","SMA",".2830000","128.7551000"
"69822810","SMA BINA KARYA","Jln. Siswa","Prop. Maluku Utara","SMA",".3064000","127.4076000"
"60201994","SMA NEGERI 4 HALMAHERA BARAT","JLN. LEMBAH MEDO DESA KEDI","Prop. Maluku Utara","SMA","1.6680000","127.5887000"
"69946219","SMA NEGERI 2 SULABESI BARAT","JL.KAMPUNG BARU, DESA ONA","Prop. Maluku Utara","SMA","-2.1185791","125.8831389"
"69786503","SMAS MAFAKATI KOTA TERNATE","JALAN PENDIDIKAN, KEL. TOGOLOBE","Prop. Maluku Utara","SMA",".8892000","127.3287000"
"60724661","SMA BPD SOPI","Jln Bumi Moro Desa Sopi.","Prop. Maluku Utara","SMA","2.5424000","128.5191000"
"60201995","SMA NEGERI 3 HALMAHERA BARAT","DESA SUSUPU","Prop. Maluku Utara","SMA","1.1515000","127.4417000"
"60200290","SMAS MUHAMMADIYAH 1 PULAU MOROTAI","GOTALAMO","Prop. Maluku Utara","SMA","2.0542000","128.3003000"
"60200796","SMAN 5 KOTA TERNATE","JL. BATU ANGUS","Prop. Maluku Utara","SMA",".8197000","127.3885000"
"60201680","SMA NEGERI 14 HALMAHERA SELATAN","Jln. Anggrek - Sabatang","Prop. Maluku Utara","SMA","-.4422000","127.6614000"
"60201925","SMAS MUHAMMADIYAH TOBELO","JL. KH. AHMAD DAHLAN","Prop. Maluku Utara","SMA","1.7184000","128.0075000"
"60201917","SMA NEGERI 3 PULAU MOROTAI","JL. WAYABULA","Prop. Maluku Utara","SMA","2.3118000","128.3864000"
"60201663","SMA NEGERI 30 HALMAHERA SELATAN","Jalan Tuanane Gamumu","Prop. Maluku Utara","SMA","-1.4810000","127.6073000"
"69853504","SMA NURUL HASAN SEKELY","DESA SEKELY KEC. GANE BARAT SELATAN","Prop. Maluku Utara","SMA","-.8492190","128.3196430"
"60200720","SMAN 4 KOTA TERNATE","JL. BATU ANGUS","Prop. Maluku Utara","SMA",".8032000","127.3857000"
"60203599","SMAS YASMU SOFIFI","JL. RAYA SULTAN NUKU SOFIFI","Prop. Maluku Utara","SMA",".7028000","127.6205000"
"60202875","SMAN 10 HALMAHERA UTARA","JL. LAPANGAN KUKUNYINGA","Prop. Maluku Utara","SMA","2.0981000","127.8688000"
"60202238","SMAS MUHAMMADIYAH FALABISAHAYA","JL. KAFE BOLYWOOD","Prop. Maluku Utara","SMA","-1.7899000","125.4763000"
"60201664","SMA NEGERI 7 HALMAHERA SELATAN","Jln. Karet Putih Kampung Makian","Prop. Maluku Utara","SMA","-.6506700","127.4982667"
"60202432","SMA NEGERI 9 HALMAHERA SELATAN","JL. Dahepoda - Wayaloar","Prop. Maluku Utara","SMA","-1.6171000","127.6424000"
"60202074","SMAN 6 TIDORE KEPULAUAN","Jln. Selawaring - Rum","Prop. Maluku Utara","SMA",".7158000","127.3876000"
"60201662","SMA NEGERI 6 HALMAHERA SELATAN","JL. NYIUR MELAMBAI","Prop. Maluku Utara","SMA","-1.2372000","127.5762000"
"60201922","SMAS KRISTEN TOBELO","JL. RUMAH SAKIT BETHESDA","Prop. Maluku Utara","SMA","1.7313000","128.0086000"
"60203597","SMAS MUHAMMADIYAH 4 TIDORE KEPULAUAN","LOLA","Prop. Maluku Utara","SMA",".2099000","127.7646000"
"69893375","SMA NEGERI 12 HALMAHERA UTARA","DESA TOLIWANG","Prop. Maluku Utara","SMA","1.2504297","127.6994903"
"60202791","SMAS MAHANAIM","JLN RAYA AWER","Prop. Maluku Utara","SMA","1.1377000","127.4901000"
"60205562","SMAN 9 HALMAHERA TIMUR","Jln. Trans Halmahera","Prop. Maluku Utara","SMA","1.2815000","128.6324000"
"60201671","SMA ALKHAIRAAT LABUHA","JL. BENTENG BARNAVEL","Prop. Maluku Utara","SMA","-.6247050","127.4816367"
"60202075","SMAN 8 TIDORE KEPULAUAN","JL. RAYA AKEKOLANO","Prop. Maluku Utara","SMA",".7072000","127.5661000"
"69905484","SMA NEGERI 5 PULAU MOROTAI","Jln. Siswa Sabatai Tua","Prop. Maluku Utara","SMA","2.0829933","128.3979744"
"60203675","SMAN 12 TIDORE KEPULAUAN","JL. RAYA GITA PAYAHE","Prop. Maluku Utara","SMA",".4119000","127.6350000"
"60205578","SMAS MUHAMMADIYAH 2 PULAU MOROTAI","DESA MOMOJIU","Prop. Maluku Utara","SMA","2.1188000","128.3988000"
"60203598","SMAN 11 TIDORE KEPULAUAN","JL. RAYA KAIYASA","Prop. Maluku Utara","SMA",".7765000","127.6213000"
"60202790","SMAS EBEN HAEZER","Jln. Raya Desa Goin Kec. Ibu Utara","Prop. Maluku Utara","SMA","1.5498000","127.6813000"
"60201923","SMAS MERAH PUTIH","Jln. Bandara Gamarmalamo","Prop. Maluku Utara","SMA","1.8298000","127.7913000"
"60201930","SMAN 9 HALMAHERA UTARA","JL. RAYA GORUA","Prop. Maluku Utara","SMA","1.7631000","127.9807000"
"60200723","SMAN 1 KOTA TERNATE","JL. K. H. DEWANTARA","Prop. Maluku Utara","SMA",".7805000","127.3825000"
"60201670","SMA NEGERI 21 HALMAHERA SELATAN","Jln. Pekuburan Umum","Prop. Maluku Utara","SMA","-.6239000","127.3981000"
"60201679","SMA NEGERI 18 HALMAHERA SELATAN","Jln. Taman Siswa","Prop. Maluku Utara","SMA","-.0288120","127.2444280"
"60200952","SMAN 4 TIDORE KEPULAUAN","JL. RAYA PAYAHE","Prop. Maluku Utara","SMA",".4304000","127.5857000"
"60202429","SMA NEGERI 3 HALMAHERA SELATAN","Jl. Kenari No. 1 - Gitang - Makian","Prop. Maluku Utara","SMA",".3565000","127.4308000"
"60203632","SMA NEGERI 33 HALMAHERA SELATAN","Jln. J. Abdul Kadir","Prop. Maluku Utara","SMA","-.6994000","128.1466000"
"69830397","SMAS MUHAMMADIYAH 3  PULAU MOROTAI","DESA  WEWEMO","Prop. Maluku Utara","SMA","2.2252210","128.5124400"
"60200545","SMA NEGERI 1 TALIABU BARAT","Jl. Kapten Naiman, No 11, Desa Bobong","Prop. Maluku Utara","SMA","-1.9379000","124.4189000"
"60201918","SMAN 6 HALMAHERA UTARA","Jl. Kawasan Pemerintahan, Tobelo","Prop. Maluku Utara","SMA","1.7348000","127.9920000"
"60201672","SMA NEGERI 15 HALMAHERA SELATAN","Jln. Muhammad Kasuba","Prop. Maluku Utara","SMA","-.6925000","127.7315000"
"60205561","SMAN 8 HALMAHERA TIMUR","LABI-LABI","Prop. Maluku Utara","SMA","1.4605000","128.3473000"
"69903974","SMA MUTIARA BANGSA","DESA PULAU GALA KEC. KEPULAUAN JORONGA","Prop. Maluku Utara","SMA","-1.0027106","128.3511114"
"69787080","SMA NEGERI 1 TALIABU SELATAN","Jl. Beringin Pantai, Desa Bapenu","Prop. Maluku Utara","SMA","-1.8939000","124.5495000"
"60203679","SMA NEGERI 36 HALMAHERA SELATAN","Jl.Paisu Loyang Rt. 06 Jiko","Prop. Maluku Utara","SMA","-.7822000","127.2808000"
"69822815","SMAN 8 HALMAHERA UTARA","Jln. Aramabane","Prop. Maluku Utara","SMA","2.2278000","127.7864000"
"60201669","SMA NEGERI 11 HALMAHERA SELATAN","JL. Goliho","Prop. Maluku Utara","SMA",".3344000","127.3466000"
"60201989","SMAS AMPERA","Jln. Trans Halmahera Kec. Ibu Selatan Desa Bataka","Prop. Maluku Utara","SMA","1.4326000","127.6177000"
"60201921","SMAS KRISTEN NEHEMIA GALELA","Jln. Waringin Desa Duma Galela Barat","Prop. Maluku Utara","SMA","1.8282000","127.7986000"
"60201361","SMAS MUHAMMADIYAH SUBAIM","JL. KH. AHMAD DAHLAN","Prop. Maluku Utara","SMA","1.1016000","128.1951000"
"60203596","SMAS MUHAMMADIYAH 3 TIDORE KEPULAUAN","JL. Raya Soadara","Prop. Maluku Utara","SMA",".6447000","127.4381000"
"69861202","SMA NEGERI 1 TALIABU BARAT LAUT","Jl. Taman Siswa Desa Salati","Prop. Maluku Utara","SMA","-1.7775000","124.3700000"
"69822816","SMAN GAY FUATA","Jl. Raya Desa Fuata Sulabesi Selatan","Prop. Maluku Utara","SMA","-2.3699000","125.9839000"
"60200544","SMAN 1 SANANA","JL. ASRAMA POLISI SANANA","Prop. Maluku Utara","SMA","-2.0681000","125.9799000"
"60201659","SMA NEGERI 8 HALMAHERA SELATAN","Jl. Babang Raya - Bukit Madodera - Bacan Timur","Prop. Maluku Utara","SMA","-.6226431","127.5984477"
"60202240","SMAN 1 MANGOLI TENGAH","JL. BARU MANGOLI","Prop. Maluku Utara","SMA","-1.8771000","125.5688000"
"60203644","SMA NEGERI 34 HALMAHERA SELATAN","Jalan Siswa No. 1","Prop. Maluku Utara","SMA","-1.4087000","127.3362000"
"60201362","SMAN 1 HALMAHERA TIMUR","JL. LINTAS HALMAHERA","Prop. Maluku Utara","SMA",".8814000","128.2922000"
"60200185","SMAN 4 HALMAHERA TENGAH","JL. KEMERDEKAAN NO. D 140","Prop. Maluku Utara","SMA",".1583000","127.8817000"
"69907539","SMA NEGERI 6 PULAU MOROTAI","Jln. Siswa Gerong","Prop. Maluku Utara","SMA","2.2447966","128.3560959"
"60203813","SMAS AL IRSYAD KOTA TERNATE","JL. JATI PERUMNAS","Prop. Maluku Utara","SMA",".7787000","127.3696000"
"60203640","SMA NEGERI 5 HALMAHERA BARAT","JLN. TRANS HALMAHERA LIKATA DODINGA","Prop. Maluku Utara","SMA",".8704000","127.6455000"
"60200728","SMAS MUHAMMADIYAH KOTA TERNATE","JL DELIMA","Prop. Maluku Utara","SMA",".7779000","127.3829000"
"60205821","SMA LPM KOITITI","JL. BARU KOITITI","Prop. Maluku Utara","SMA","-.3541300","127.8448690"
"60201928","SMA NEGERI 4 PULAU MOROTAI","JL. MABA PANTAI","Prop. Maluku Utara","SMA","2.4321000","128.6078000"
"60201145","SMAN 6 HALMAHERA TENGAH","JL. BATU DUA","Prop. Maluku Utara","SMA",".3214000","128.7418000"
"69915725","SMA PEDULI BANGSA WARINGI","DESA WARINGI KEC. OBI UTARA","Prop. Maluku Utara","SMA","-1.2426198","127.6551785"
"60200711","SMAS AL KHAIRAAT KOTA TERNATE","JL. DARUL KHAIRAAT","Prop. Maluku Utara","SMA",".8123000","127.3840000"
"60201658","SMA NEGERI 1 HALMAHERA SELATAN","JL. Kota Lama","Prop. Maluku Utara","SMA","-.6249650","127.4800900"
"60203631","SMA NEGERI 6 HALMAHERA BARAT","DESA AKEARA","Prop. Maluku Utara","SMA",".8717000","127.6071000"
"60202793","SMA NEGERI 1 HALMAHERA BARAT","JL. Drs. B. Th. MALESSY - SOAKONORA","Prop. Maluku Utara","SMA","1.0776000","127.4779000"
"60201677","SMA NEGERI 25 HALMAHERA SELATAN","JL.Rumah 3  No. 1","Prop. Maluku Utara","SMA",".2932000","127.3698000"
"60201146","SMAN 7 HALMAHERA TENGAH","JL. BOKIMORURU","Prop. Maluku Utara","SMA",".5618000","128.0385000"
"69774801","SMAN 10 HALTENG","JLN. RAYA TRANS HALMAHERA","Prop. Maluku Utara","SMA",".3809000","128.6295000"
"60203779","SMA NEGERI 31 HALMAHERA SELATAN","JL. Pendidikan","Prop. Maluku Utara","SMA","-1.5841000","128.0313000"
"60201363","SMAN 2 HALMAHERA TIMUR","Jln. Trans Halmahera Subaim","Prop. Maluku Utara","SMA","1.0792000","128.1388000"
"69830665","SMAS PERKASA MAIDI","Jalan Trans Halmahera","Prop. Maluku Utara","SMA",".1351510","127.7527940"
"60202071","SMAN 7 TIDORE KEPULAUAN","JL. PENDIDIKAN LIFOFA","Prop. Maluku Utara","SMA",".0324000","127.7416000"
"60202317","SMAN 8 KOTA TERNATE","JL. Limau Jore-Jore","Prop. Maluku Utara","SMA",".8039000","127.3829000"
"60201927","SMAN 5 HALMAHERA UTARA","JL. TRANS HALUT","Prop. Maluku Utara","SMA","1.6505000","127.9714000"
"60201993","SMA NEGERI 8 HALMAHERA BARAT","DESA BARU KEC. IBU SELATAN","Prop. Maluku Utara","SMA","1.4215000","127.5156000"
"60729099","SMA LIMA NEGERI","JL. WOSI","Prop. Maluku Utara","SMA","-.3808000","127.9803000"
"60201143","SMAN 1 HALMAHERA TENGAH","JL. SKEP","Prop. Maluku Utara","SMA",".3285000","127.8725000"
"69942873","SMAS TODODARA","Desa Maitara Utara","Prop. Maluku Utara","SMA",".6876403","127.3923306"
"60200953","SMAN 9 TIDORE KEPULAUAN","JL. RAYA MAFUTUTU","Prop. Maluku Utara","SMA",".7457000","127.4406000"
"60202572","SMAS IT NURUL HASAN KOTA TERNATE","JL. MAKU GAWENE","Prop. Maluku Utara","SMA",".7680000","127.3663000"
"69958909","SMAN 11 HALMAHERA TIMUR","Jl. Waya Ubo","Prop. Maluku Utara","SMA","1.3057000","128.4147000"
"60203605","SMAN 9 HALMAHERA TENGAH","JL. MESSA TRANS HALMAHERA","Prop. Maluku Utara","SMA",".5357000","128.1618000"
"60201676","SMA NEGERI 16 HALMAHERA SELATAN","Jln. A. R. Mustakim - Gurua","Prop. Maluku Utara","SMA",".2811930","127.4063840"
"60201919","SMAS BPD KAO BARAT","JL. SISWA","Prop. Maluku Utara","SMA","1.3798000","127.7848000"
"60201674","SMA NEGERI 23 HALMAHERA SELATAN","Jln. Sungai Goha","Prop. Maluku Utara","SMA","-.5730000","128.0885000"
"60202363","SMAS SITI AISYAH","Jl. Lintas Halmahera","Prop. Maluku Utara","SMA",".7297000","127.5749000"
"60202237","SMAS KRISTEN FALABISAHAYA","JL. BARITO FALABISAHAYA","Prop. Maluku Utara","SMA","-1.7888000","125.4672000"
