"schoolId","schoolName","schoolAddress","province","school_level","lat","long"
"20601867","SMAN 1 BANJARSARI","Jl. Gunung Kencana Km. 01","Prop. Banten","SMA","-6.5550000","106.0031000"
"20613825","SMA KATOLIK BHAKTI PRIMA","Jalan Beringin No.8","Prop. Banten","SMA","-6.3400000","106.7270000"
"20613519","SMAN 22 KABUPATEN TANGERANG","JL. Bumi Puspiptek Asri Sektor I","Prop. Banten","SMA","-6.3019000","106.6324000"
"20623138","SMAS SUMBER DAYA MANDIRI","JL. K.H. SAID KP. SOLOKAN","Prop. Banten","SMA","-6.1440000","106.3955000"
"20605363","SMAS PGRI 1 KOTA SERANG","JL. K.H. ABDUL FATAH HASAN 17/B SERANG","Prop. Banten","SMA","-6.1250000","106.1680000"
"20616061","SMAS PAHOA","JL. KI HAJAR DEWANTARA NO.1","Prop. Banten","SMA","-6.2381000","106.6363000"
"20603375","SMAS RUHUL BAYAN","JL. RAYA CISAUK - LEGOK, CISAUK","Prop. Banten","SMA","-6.2969000","106.6570000"
"20605358","SMAS MEDANGGILI","JL. RAYA JAKARTA KM. 10","Prop. Banten","SMA","-6.1251000","106.2361000"
"20606296","SMAS AL KHAIRIYAH 3","JL. H. ENGGUS ARJA CITANGKIL","Prop. Banten","SMA","-6.0163000","106.0403000"
"20603341","SMAS ISLAM AL-FALAH KRESEK","JL. RAYA SYEKH NAWAWI","Prop. Banten","SMA","-6.1303000","106.3815000"
"69949411","SMA NURUL ILMI DARUNNAJAH","Jl. Palka Km.05. Kp. Sindangheula","Prop. Banten","SMA","-6.1912091","106.1236465"
"20616487","SMAS AL AZKIYA","KP MUNCANG RT/RW 01/01","Prop. Banten","SMA","-6.5472000","106.2921000"
"69734160","SMAN 7 KOTA SERANG","KP LIMPAR RT 001/006","Prop. Banten","SMA","-6.1762000","106.1789000"
"20614413","SMAN 18 KABUPATEN TANGERANG","JL. RAYA PEMDA","Prop. Banten","SMA","-6.2570750","106.4875250"
"20606520","SMAS MAJAPAHIT","JL. BATAS PENINGGILAN","Prop. Banten","SMA","-6.2303000","106.7214000"
"20600466","SMAN 4 PANDEGLANG","JL. RAYA LABUAN KM. 29 - PANDEGLANG","Prop. Banten","SMA","-6.3893000","105.9152000"
"20603161","SMAS BINA BHAKTI KRONJO","JL. PENDIDIKAN NO. 1 PASILIAN","Prop. Banten","SMA","-6.0692000","106.4230000"
"20603166","SMAS DAARUL MUJTAHIDIN","JL. BUGEL PABUARAN","Prop. Banten","SMA","-6.1441000","106.5604000"
"20605348","SMAS RAUDLATUL ATHFAL","JL. KH.FAYUMI THOWIEL NO.1","Prop. Banten","SMA","-6.0796000","106.3332000"
"20603317","SMAS MUHAMMADIYAH 8 CIPUTAT","DEWI SARTIKA GG NANGKA NO.4","Prop. Banten","SMA","-6.3186000","106.7439000"
"20603368","SMAN 3 KOTA TANGERANG SELATAN","JL. BENDA TIMUR XI KOMP. PAMULANG PERMAI 2","Prop. Banten","SMA","-6.3275000","106.7107000"
"60724663","SMAS ISLAM AL AZHAR 6","JL.OXIGEN  KOMP. PT.KRAKATAU STEEL PURWAKARTA. CILEGON","Prop. Banten","SMA","-5.9927000","106.0385000"
"20614224","SMAS AL-FALAHIYAH","JL. RAYA KEMIRI NO. 04 MAUK, TANGERANG","Prop. Banten","SMA","-6.0968000","106.4664000"
"20605329","SMAS FATAHILLAH KRAMATWATU","JL. WARINGIN KURUNG NO.229","Prop. Banten","SMA","-6.0472000","106.0752000"
"20601865","SMAS AL BAYAN RANGKASBITUNG","JL. RAYA CIKANDE KM. 10 CIGALEMPONG","Prop. Banten","SMA","-6.3347183","106.3019183"
"20615101","SMAS IZADA","Jl. Jombang Raya No. 25A","Prop. Banten","SMA","-6.2607000","106.7037000"
"60728438","SMAS IBNU MASKI","Jl. Pasar Bolang - Jenggot","Prop. Banten","SMA","-6.0844000","106.3841000"
"20607923","SMAS MUHAMMADIYAH 4","JL. SAWO VI (UJUNG) PERUMNAS I","Prop. Banten","SMA","-6.2151000","106.6091000"
"20605103","SMAN 2 KOTA SERANG","JL. RAYA PANDEGLANG KM 5 SERANG","Prop. Banten","SMA","-6.1525000","106.1599000"
"20603351","SMAS MANDIRI BALARAJA","JL. RAYA KRESEK KM. 0,5","Prop. Banten","SMA","-6.1794000","106.4517000"
"20613588","SMAS PARAHYANGAN","JL. RAYA PAKU HAJI KP. KAYU PUTIH","Prop. Banten","SMA","-6.0931000","106.6023000"
"20616291","SMAS ATHALIA","REGENSI MELATI MAS BLOK. B14","Prop. Banten","SMA","-6.2688000","106.6670000"
"20614014","SMAS MKGR SEPATAN","JL. PAKUHAJI KM. 11 SEPATAN, TANGERANG","Prop. Banten","SMA","-6.1063000","106.5863000"
"20606525","SMAS DAAN MOGOT","JL. GATOT SUBROTO KM. 5","Prop. Banten","SMA","-6.1921000","106.5911000"
"20613821","SMAS AL MUBAROK","JL. SYEKH MUBAROK KELAPA DUA","Prop. Banten","SMA","-6.2500967","106.4536917"
"20613525","SMAS 46 DAAR EL GUSTI","JL. RAYA PUESAR","Prop. Banten","SMA","-6.0784000","106.3497000"
"69880558","SMA IT RUHUL JADID","JL. RAYA KUTRUK NAGRAK MARGASARI.","Prop. Banten","SMA","-6.2860850","106.4958200"
"20605346","SMA PLUS SALSABILA","JL. KP. BABAKAN","Prop. Banten","SMA","-6.2317000","106.3122000"
"20623100","SMA IT ADDAWAH","JL. SILIWANGI PASIR ONA RANGKASBITUNG TIMUR","Prop. Banten","SMA","-6.3607850","106.2640500"
"20603168","SMAS DARUL ABROR KEMIRI","JL. RAYA KEMIRI KM. 3 NO 29 KEMIRI, TANGERANG","Prop. Banten","SMA","-6.0990000","106.4664000"
"20607981","SMAN 1 BOJONGMANIK","JL. RAYA BOJONGMANIK - CILAYANG KM. 02 BOJONGMANIK","Prop. Banten","SMA","-6.5917000","106.1712000"
"69888460","SMA DEUTSCHE SCHULE JAKARTA","JL. PUSPA WIDYA NO. 8 BSD","Prop. Banten","SMA","-6.2899180","106.6778210"
"20616288","SMAS TERPADU PELITA BANGSA LONTAR","JL. TPI LONTAR NO. 14","Prop. Banten","SMA","-5.9771000","106.3069000"
"69925490","SMA TERPADU BANI SAID","Kp. Pamong Udik","Prop. Banten","SMA","-6.0141000","106.2679000"
"20614045","SMAS YASPIDAM","JL. RAYA SERANG KM 35 WARUDOYONG","Prop. Banten","SMA","-6.0935000","106.4085000"
"20606271","SMAN 2 KRAKATAU STEEL CILEGON","JL. SEMANG RAYA NO. 1 KOMPLEKS KS - CILEGON","Prop. Banten","SMA","-5.9928000","106.0330000"
"20606508","SMAS DHARMA PUTRA","Jl Otto Iskandardinata 80 RT 004/10","Prop. Banten","SMA","-6.1719000","106.6245000"
"20602238","SMAS DAAR EL KUTUB BAYAH","JL. RAYA BAYAH - MALINGPING KM. 3","Prop. Banten","SMA","-6.9259000","106.2326000"
"20614874","SMAS IT LA TAHZAN","JL. OTONOM CIKANDE-BANDUNG","Prop. Banten","SMA","-6.2212000","106.3347000"
"20601880","SMAN 1 CIMARGA","JL. LEUWIDAMAR KM. 11 PASIR ROKO CIMARGA","Prop. Banten","SMA","-6.4384000","106.2215000"
"20605321","SMAS AL MUBAROK KOTA SERANG","JL. KH ABDUL LATIF NO. 7 CIMUNCANG SERANG","Prop. Banten","SMA","-6.1175000","106.1638000"
"20605326","SMAS BINA PUTRA BANGSA","JL.RAYA JAKARTA KM 9","Prop. Banten","SMA","-6.1277000","106.2287000"
"20614878","SMAS DAARUL MUQIMIEN","JL. RAYA MAUK KM.16","Prop. Banten","SMA","-6.0896000","106.5526000"
"20603379","SMAS TARSISIUS VIRETA","JL. DANAU SINGKARAK RAYA VTR II/AE 8-9","Prop. Banten","SMA","-6.1698000","106.5750000"
"20616429","SMAS AL HUDA","JL. MASJID BAETUTAQWA","Prop. Banten","SMA","-6.1667000","106.2252000"
"20600435","SMAS BIRRUL WALIDAIN","JL. RAYA SAKETI PASAR PICUNG","Prop. Banten","SMA","-6.5061000","105.9814000"
"20606521","SMAS MIFTAHUSSA ADAH","Jln Madrasah Miftahussa`adah No.01 RT 002/07","Prop. Banten","SMA","-6.1826000","106.6984000"
"20606527","SMAS BUDI MULIA","JL. HOS COKROAMINOTO NO. 1","Prop. Banten","SMA","-6.2273000","106.7135000"
"20614032","SMAS YAPIM","JL. RAYA SERANG","Prop. Banten","SMA","-6.1991000","106.4597000"
"20613524","SMAS TARAKANITA GADING SERPONG","JL. RAYA KELAPA CANGKIR TENGAH","Prop. Banten","SMA","-6.2423000","106.6319000"
"20603169","SMAS DARUL ISHLAH","JL. RAYA SERANG KM.35 CIKANDE JAYANTI","Prop. Banten","SMA","-6.2218000","106.4038000"
"20605094","SMAN 3 KOTA SERANG","JL. TAKTAKAN KM 5 SERANG","Prop. Banten","SMA","-6.1139000","106.1355000"
"20606524","SMAS MANDIRI 99","VILLA MUTIARA PLUIT PERIUK","Prop. Banten","SMA","-6.1662000","106.5973000"
"20600437","SMAS PGRI PANDEGLANG","Jl.Terusan Binuangeun Kp.Cicadas Ds.Batuhideung Kec.Cimanggu","Prop. Banten","SMA","-6.3282000","106.0883000"
"20600438","SMAS PASUNDAN","Jl. Raya Labuan Km. 3,5 Majabarat Cidangiang Majasari Pandeglang 42217","Prop. Banten","SMA","-6.3259000","106.0908000"
"20613518","SMAN 9 KOTA TANGERANG SELATAN","Jl. Hidup Baru No. 31","Prop. Banten","SMA","-6.3139000","106.7169000"
"20606814","SMAN 8 TANGERANG","JL. BESI RAYA PERUMNAS II TANGERANG","Prop. Banten","SMA","-6.2110000","106.6051000"
"20606840","SMAS PORIS INDAH","JL. RAYA PORIS INDAH BLOK A NO. 60-67","Prop. Banten","SMA","-6.1862000","106.6855000"
"20606829","SMAN 7 TANGERANG","JL. PERINTIS KEMERDEKAAN I NO. 2","Prop. Banten","SMA","-6.1925000","106.6323000"
"20616340","SMAS FATAHILLAH","Serpong","Prop. Banten","SMA","-6.3234000","106.6645000"
"60725227","SMAN 2 LEUWIDAMAR","JL. Cisimeut Km. 12 Kec. Leuwidamar","Prop. Banten","SMA","-6.5574000","106.2466000"
"20607995","SMAS TERPADU DARUSSAADAH CIMARGA","KP. CIMARGA MARGAJAYA KM. 8 KP. CIMARGA","Prop. Banten","SMA","-6.4175000","106.2347000"
"20605090","SMAN 1 CINANGKA","JL. KARANG BOLONG CIPARAY","Prop. Banten","SMA","-6.1285000","105.8656000"
"20622299","SMAS AL-HAFIZH AL-BANTANI","JL. OTONOM KM.4 KP. KOPER","Prop. Banten","SMA","-6.1729000","106.3876000"
"20606550","SMAS AL MUBAROK","JL. KH. Madja Panunggangan","Prop. Banten","SMA","-6.2223000","106.6460000"
"20613833","SMAN 25 KABUPATEN TANGERANG","JL. GATOT SUBROTO PERUMAHAN PURI ANGKASA 1","Prop. Banten","SMA","-6.1266000","106.5842000"
"20603325","SMAS PGRI LEGOK","JL. ALUN ALUN KEC. LEGOK","Prop. Banten","SMA","-6.3009000","106.5894000"
"69954817","SMA AL-ISHLAH","KP.KEBON CAU RT.02/01","Prop. Banten","SMA","-6.0542160","106.5577310"
"20613919","SMAN 2 BANJARSARI","JL. RAYA KUMPAY NO 28 BANJARSARI","Prop. Banten","SMA","-6.4738000","106.0151000"
"69893227","SMA HARAPAN BANGSA","Jl. Pala Raya No. 51","Prop. Banten","SMA","-6.3546400","106.7519560"
"69882327","SMA FAJRUL KARIM","Kp. Kadomas","Prop. Banten","SMA","-6.2002930","105.8916160"
"20613527","SMAS PUTRA BANGSA","JL. AMD CIBARENGKOK","Prop. Banten","SMA","-6.2492000","106.5058000"
"20614920","SMA BINA NUSANTARA SERPONG","JL.LENGKONG KARYA - JELUPANG NO.58","Prop. Banten","SMA","-6.2896000","106.6717000"
"20603316","SMAS MUHAMMADIYAH 25 PAMULANG","JL. SURYA KENCANA NO. 29","Prop. Banten","SMA","-6.2532000","106.7454000"
"20606857","SMAS PGRI 117","JL. HOS COKROAMINOTO NO. 41","Prop. Banten","SMA","-6.2249000","106.7119000"
"20605102","SMAN 1 CIOMAS","JL. RAYA PASAR CIOMAS","Prop. Banten","SMA","-6.2192000","106.0430000"
"20613647","SMAS DAAR EL KARIM MALINGPING","JL. RAYA BAYAH KM. 7 MALINGPING","Prop. Banten","SMA","-6.7408000","105.9724000"
"20605105","SMAN 1 JAWILAN","JL. PERUM TAMAN SEJAHTERA","Prop. Banten","SMA","-6.2906000","106.3377000"
"69725917","SMAS PGRI SINDANGSONO","KP. CAYUR RT. 06/01","Prop. Banten","SMA","-6.1634000","106.4812000"
"20603327","SMAS MATHLAUL ANWAR","JL. RAYA MAUK KM. 16","Prop. Banten","SMA","-6.0872000","106.5469000"
"20606292","SMAS MAFLAHUL UMMAH","JL. FATAHILLAH LINK.SERANG ILIR","Prop. Banten","SMA","-6.0399000","106.0324000"
"20605355","SMAS PLUS DAAR EL SYIFA","JL. PADAHARAN KOPO","Prop. Banten","SMA","-6.3132000","106.3771000"
"20600460","SMAN 15 PANDEGLANG","JL. RAYA CARITA DESA BANJARMASIN KECAMATAN CARITA KABUPATEN PANDEGLANG","Prop. Banten","SMA","-6.3311000","105.8315000"
"20616007","SMAS YUSTIKA","JL. AMD SUKAWALI","Prop. Banten","SMA","-6.0553000","106.5833000"
"20606503","SMAS AL AYANIAH","JL. HALIM PERDANA KUSUMA NO. 56","Prop. Banten","SMA","-6.1618990","106.6760050"
"20622300","SMAN 1 PULOAMPEL","JL. KI MUHAMMAD IDRIS","Prop. Banten","SMA","-5.9072000","106.0755000"
"20605096","SMAN 1 WARINGINKURUNG","JL. KOMP. TAMAN KRAKATAU BLOK B 8","Prop. Banten","SMA","-6.0579000","106.0705000"
"20606546","SMAS ISLAM ASY SYAKIRIN","JL. KH. Hasyim Ashari KM.7","Prop. Banten","SMA","-6.2202000","106.6884000"
"20606522","SMAS MARKUS","JL. MH. THAMRIN KM. 4,5","Prop. Banten","SMA","-6.2155000","106.6335000"
"69945475","SMAS AL-BASSORIYAH","KP. CIBUGEL RT.004 RW.004 CISOKA","Prop. Banten","SMA","-6.2709218","106.4134825"
"20606506","SMAS FATAHILAH","JL. MASJID X-4 RT. 02/07","Prop. Banten","SMA","-6.2319000","106.7164000"
"20614834","SMAS ADZKIA ISLAMIC SCHOOL","PAMULANG","Prop. Banten","SMA","-6.3085000","106.7269000"
"20603329","SMAS DUA MEI","Jl.ABDULGANI NO.135","Prop. Banten","SMA","-6.3000000","106.7577000"
"20605327","SMAN 5 KOTA SERANG","JL. AYIP USMAN NO. 26 KALIGANDU SERANG","Prop. Banten","SMA","-6.1071000","106.1745000"
"20613470","SMAN 1 KABUPATEN TANGERANG","JL. RAYA SERANG KM. 23 BALARAJA","Prop. Banten","SMA","-6.1905000","106.4638000"
"20615023","SMAS PLUS GEMILANG","JL. SERANG-JAKARTA KM. 20","Prop. Banten","SMA","-6.1557000","106.3177000"
"20607986","SMAS AL MUBASYIRIN SAJIRA","KP SAJIRA OKO","Prop. Banten","SMA","-6.4990000","106.3576000"
"20603365","SMAN 7 KABUPATEN TANGERANG","Jl. Raya Kresek Km. 09","Prop. Banten","SMA","-6.1550000","106.3976000"
"69758396","SMAN 8 KOTA SERANG","Jl.Kalodran-Sidapurna  Kel. Teritih Kec.Walantaka-Kota Serang","Prop. Banten","SMA","-6.1128000","106.2169000"
"69859758","SMA Kristen SoliDEO","Nusa Loka Sektor XIV-4 Selatan Blok J II Kav. 02 BSD","Prop. Banten","SMA","-6.3061970","106.6915410"
"20600445","SMAS AT-TAAWUN TEGALLEGA","JL.RAYA LABUAN KM. 08 TEGALLEGA","Prop. Banten","SMA","-6.3961000","105.8857000"
"20613624","SMAS TARUNA MANDIRI","JL.RAYA PAMULANG II NO.3","Prop. Banten","SMA","-6.2976000","106.7376000"
"20603358","SMAN 4 KABUPATEN TANGERANG","JL. HAMID ACHARI NO.18","Prop. Banten","SMA","-6.2308000","106.5247000"
"20606519","SMAS MUHAMMADIYAH 1","Jl. Lembang 1 No. 63 - Ciledug","Prop. Banten","SMA","-6.2279000","106.7059000"
"20606852","SMAN 10 TANGERANG","JL. KH. HASYIM ASHARI GANG. SASAK","Prop. Banten","SMA","-6.1908000","106.6650000"
"20613798","SMAS AL IRSYAD WARINGINKURUNG","JL. KUBANG PUTIH NO 3","Prop. Banten","SMA","-6.0738000","106.0854000"
"69816881","SMAN 1 CIHARA","Jln. Nasional III, Bayah Km 20 Cipunaga RT 02 RW 01","Prop. Banten","SMA","-6.8634000","106.0928000"
"20600461","SMAN 9 PANDEGLANG","JL. PERDANA KM. 5","Prop. Banten","SMA","-6.5195000","105.8213000"
"20613785","SMAN 23 KABUPATEN TANGERANG","JL.PENDIDIKAN","Prop. Banten","SMA","-6.2377000","106.6127000"
"20606294","SMAS BINA BANGSA","JL. KALIGANDU NO 1 KEC. PURWAKARTA","Prop. Banten","SMA","-5.9902000","106.0579000"
"20614419","SMAS ISLAM DAARUL AHIBBAH","JL. WARUNG SELIKUR KM 8 KP.CIGUHA","Prop. Banten","SMA","-6.0794000","106.3333000"
"20600459","SMAN 16 PANDEGLANG","JL. RAYA CIBALIUNG KM. 02","Prop. Banten","SMA","-6.7283000","105.5280000"
"20606512","SMAS KRISTEN KANAAN","JL. SUKAMANAH V NO. 11 TANGERANG","Prop. Banten","SMA","-6.1808000","106.6335000"
"20616411","SMA SINARMAS WORLD ACADEMY","JL. TM Pahlawan Seribu, CBD LOT XV, BSD CITY","Prop. Banten","SMA","-6.3015000","106.6626000"
"20603185","SMAS DARUSSALAM","OTISTA NO.36 CIMANGGIS","Prop. Banten","SMA","-6.3129000","106.7461000"
"20605359","SMAS MUHAMMADIYAH KOTA SRG","JL. EMPAT LIMA NO. 23 SERANG","Prop. Banten","SMA","-6.1221000","106.1444000"
"20614141","SMAS MANBAUL HIKMAT","JL. REGO KM. 4 PADASUKA PETIR","Prop. Banten","SMA","-6.2531000","106.1759000"
"20607922","SMAS ISLAM AL HASYIMIYAH","JL. SUKAMANDI RT 01/09 NO. 1 KARANGSARI","Prop. Banten","SMA","-6.1528000","106.6388000"
"20613471","SMAN 27 KABUPATEN TANGERANG","Jl. Raya Cisoka - Tmn Adiyasa No. 16 Kp. Cisalak - Solear","Prop. Banten","SMA","-6.3029000","106.4119000"
"20613799","SMAS MATHLA UL ANWAR CINANGKA","JL. PALKA SADATANI","Prop. Banten","SMA","-6.1899000","105.8992000"
"20614057","SMAN 26 KABUPATEN TANGERANG","Jl. Raya Kec. Kemiri","Prop. Banten","SMA","-6.1022000","106.4694000"
"20603267","SMAN 7 KOTA TANGERANG SELATAN","VILLA MELATI MAS BLOK J","Prop. Banten","SMA","-6.2566000","106.6616000"
"20607906","SMAS AL HIDAYAH RANGKASBITUNG","JL. AHMAD YANI NO. 18L LEBAKPICUNG RANGKASBITUNG","Prop. Banten","SMA","-6.3451317","106.2438150"
"20600465","SMAN 5 PANDEGLANG","JL. ALUN-ALUN BARAT SUKAJADI CIBALIUNG","Prop. Banten","SMA","-6.7168000","105.7048000"
"20603158","SMAS ARIF RAHMAN HAKIM","JL. TAMAN MAKAM BAHAGIA","Prop. Banten","SMA","-6.2774000","106.6967000"
"20603343","SMAS ISLAM GINTUNG MAUK","JL. RAYA MAUK","Prop. Banten","SMA","-6.3116000","106.4114000"
"20603383","SMAS YADIKA 6 PONDOK AREN","JURANG MANGU BARAT RAYA NO.25 A","Prop. Banten","SMA","-6.2629000","106.7220000"
"20623139","SMAS SURYA BANGSA","JL. PALEM RAJA UTARA RAYA NO. 123 KAVLING PERKEBUNAN PERUMAHAN PALEM SEMI","Prop. Banten","SMA","-6.2374000","106.6078000"
"20623134","SMAS GENTA SYAPUTRA","JL. RAYA BOJONGRENGED KP. PINTU KAPUK RT. 34/14","Prop. Banten","SMA","-6.1074000","106.6497000"
"20600463","SMAN 7 PANDEGLANG","JL. RAYA PANIMBANG KM. 1.5","Prop. Banten","SMA","-6.6079000","105.8957000"
"20623096","SMAN 1 CIGEMBLONG","CIGEMBLONG","Prop. Banten","SMA","-6.7608000","106.1294000"
"69858808","SMA CITRA BERKAT","JL. CITRA AKADEMIA RAYA BLOK O-03 NO 1","Prop. Banten","SMA","-6.2652860","106.5284840"
"20607514","SMAS ISLAM DARUL HASAN","JL. SIPON CIPONDOH MAKMUR","Prop. Banten","SMA","-6.1862000","106.6727000"
"20606846","SMAN 4 TANGERANG","JL. PADASUKA I RT 02 RW 10","Prop. Banten","SMA","-6.1642000","106.6170000"
"20605336","SMAS AGRO TAKTAKAN","JL. RAYA GUNUNGSARI KM 7 TAKTAKAN SERANG","Prop. Banten","SMA","-6.1210000","106.0896000"
"69893350","SMA JAGAT ARSY","JL. Pam NO. 21 YAPEN RAYA  Kp. Ciater","Prop. Banten","SMA","-6.3224080","106.6909510"
"20603346","SMAS ISLAMIC VILLAGE","JL. ISLAMIC RAYA NO. 1 KELAPA DUA","Prop. Banten","SMA","-6.2456000","106.6168000"
"20606844","SMAS YISLAH","JL. AL HIDAYAH","Prop. Banten","SMA","-6.1773000","106.6000000"
"20605325","SMAS BINA PUTERA KOPO","JL. SEBE KARAMAT","Prop. Banten","SMA","-6.3069000","106.3852000"
"20605108","SMAN 1 KRAMAT WATU","JL. PANCORAN 1","Prop. Banten","SMA","-6.0738000","106.1137000"
"69944311","SMA KUMNAMU","Jln Palem Raja III No 6 Panunggangan Barat Cibodas Kota Tangerang","Prop. Banten","SMA","-6.2097383","106.6035772"
"20603350","SMAS MABAD","JL.KOMPLEK MABAD","Prop. Banten","SMA","-6.2826000","106.7518000"
"20606836","SMAS RAUDAH BARMAWIYAH","JL. H. JASIRIN NO. 45","Prop. Banten","SMA","-6.1940000","106.5929000"
"20607924","SMAN 15 TANGERANG","JL. VILLA TANGERANG REGENSI","Prop. Banten","SMA","-6.1701000","106.5949000"
"20600513","SMAS MUHAMMADIYAH LABUAN","JL. SUMUR KOPO KOMPLEK MESJID MUJAHIDIN","Prop. Banten","SMA","-6.3766000","105.8293000"
"20614003","SMAS IT ALQURANIYAH","JL. PANTI ASUHAN KP. CEGER","Prop. Banten","SMA","-6.2553000","106.7299000"
"20613766","SMAS IMTEK","JL. RAYA PAGEDANGAN","Prop. Banten","SMA","-6.3000000","106.6159000"
"20605361","SMAS NURUL FATAH","SIMPANG TIGA PASIR MINDI","Prop. Banten","SMA","-6.2095000","106.3328000"
"20613955","SMAS NUR EL FALAH KUBANG","JL. KH ABDUL KABIER KM.2","Prop. Banten","SMA","-6.2019000","106.2444000"
"20623417","SMAN 2 MAJA","JL. Kopi - Maja Km.07","Prop. Banten","SMA","-6.3680000","106.3470000"
"20606514","SMAS NUSANTARA 1","JL. CISADANE 7 PERUMNAS 1","Prop. Banten","SMA","-6.2056000","106.6157000"
"20605107","SMAN 1 KIBIN","JL. RAYA JAKARTA KM. 20 KIBIN","Prop. Banten","SMA","-6.1512000","106.3194000"
"20606849","SMAN 13 TANGERANG","JL.HOS COKROAMINOTO KOMP. GRIYA KENCANA II","Prop. Banten","SMA","-6.2306000","106.7055000"
"20613561","SMAN 29 KABUPATEN TANGERANG","JL. SYECH NAWAWI KEDUNG","Prop. Banten","SMA","-6.1550000","106.3977000"
"69950716","SMA MIFTAHUSSALAM","Kp.Cendelakan Rt.007/002","Prop. Banten","SMA","-6.2032006","106.4093005"
"20603340","SMAS DWI PUTRA","JL. ARTA KENCANA KAV.C1/1SEKT. XII BSD SERPONG","Prop. Banten","SMA","-6.3118000","106.7006000"
"69871144","SMAS DAARUL MUTTAQIEN","JL. RAYA CADAS KUKUN ILLAT RT 02/03","Prop. Banten","SMA","-6.1807000","106.4988000"
"20601873","SMAN 1 WARUNGGUNUNG","JL. RAYA PANDEGLANG KM. 12 WARUNGGUNUNG","Prop. Banten","SMA","-6.3332067","106.1587917"
"20605091","SMAN 1 PETIR","JL. RAYA BAROS - PETIR KM. 12","Prop. Banten","SMA","-6.2253000","106.1712000"
"20605095","SMAN 1 TIRTAYASA","JL. SULTAN AGUNG TIRTAYASA","Prop. Banten","SMA","-6.0233000","106.3285000"
"20605093","SMAN 1 KOTA SERANG","JL. A. YANI NO. 39 SERANG","Prop. Banten","SMA","-6.1186000","106.1609000"
"20605106","SMAN 4 KOTA SERANG","JL. RAYA BANTEN KASEMEN SERANG","Prop. Banten","SMA","-6.0704000","106.1558000"
"20605324","SMA TERPADU BANI NUR","JL. SERANG PANDEGLANG","Prop. Banten","SMA","-6.2495000","106.1466000"
"20603184","SMAS AL JUMHURIYAH","JL. RAYA KP. MELAYU KM. 09 TELUKNAGA","Prop. Banten","SMA","-6.1001000","106.6353000"
"20603171","SMAS AL HUSNA CURUG","JL. RAYA PLP NO. 4","Prop. Banten","SMA","-6.2586000","106.5604000"
"20605100","SMAN 1 PAMARAYAN","Jl. Jalupang - Pamarayan","Prop. Banten","SMA","-6.2708000","106.2845000"
"20605323","SMA ATTAUFIQIYYAH","JL. SERANG PANDEGLANG KM. 14","Prop. Banten","SMA","-6.2267000","106.1299000"
"69900172","SMA PERADABAN","Komp. Ciolang Jaya","Prop. Banten","SMA","-6.1124000","106.1279000"
"20614035","SMAS ASA PERTIWI","JL. K.H. ASTARI","Prop. Banten","SMA","-6.1021000","106.3528000"
"20613970","SMAN 1 CIKANDE","Jalan Otonom Situterate-Bandung","Prop. Banten","SMA","-6.2124000","106.3449000"
"20603162","SMAS CEMERLANG","JL. NYIMAS MELATI PONDOK KELOR SEP. TIMUR","Prop. Banten","SMA","-6.1126000","106.6294000"
"20606850","SMAN 12 TANGERANG","JL. HOS COKROAMINOTO LARANGAN","Prop. Banten","SMA","-6.2360000","106.7323000"
"20607498","SMAS MALNU PUSAT MENES","JL. Menes-Pulosari Kadu Bangkong Desa Purwaraja Kec. Menes","Prop. Banten","SMA","-6.3783000","105.9144000"
"20616138","SMAS TARAKANITA CITRA RAYA","JL. CITRA RAYA TIMUR 2","Prop. Banten","SMA","-6.2483000","106.5300000"
"20607856","SMA LA TANSA","Lebakgedong Kab. Lebak","Prop. Banten","SMA","-6.3878000","106.1993000"
"20607866","SMAN 1 CIBEBER","JL. WARUNGKADU NO. 49 CIBEBER","Prop. Banten","SMA","-6.8543000","106.3082000"
"20613917","SMAS NURUL HASANAH RANGKASBITUNG","KP. CIHEULANG CIMANGEUNTEUNG RANGKASBITUNG","Prop. Banten","SMA","-6.3656050","106.2966117"
"20600443","SMAS BIDAYATUL HIDAYAH","JL. AMD KOMPLEK PONPES BANI USMAN","Prop. Banten","SMA","-6.2963000","106.1102000"
"20603163","SMAS CENDERAWASIH II","JL,. Cenderawasih Komplek Deplu 74","Prop. Banten","SMA","-6.2505000","106.7474000"
"20606515","SMAS NUSA PUTRA","JL. TEUKU UMAR NO. 12","Prop. Banten","SMA","-6.1956000","106.6188000"
"20614153","SMAS MASYARIQUL ANWAR","JL. GINTUNG NO 5 RT 07/02","Prop. Banten","SMA","-6.1873000","106.4043000"
"20603183","SMAS AL ISTIQOMAH","JL. RAYA PASARKEMIS CILONGOK","Prop. Banten","SMA","-6.1842000","106.5363000"
"20603349","SMAS K ORA ET LABORA BSD","ANGGREK LOKA SEKTOR 2.11 BSD","Prop. Banten","SMA","-6.3058000","106.6746000"
"20615874","SMAS AL HUSNA TIGARAKSA","JL. KH. ABDUL WAHID NO 5","Prop. Banten","SMA","-6.2633633","106.4853767"
"69787002","SMAK PENABUR KOTA TANGERANG","JLN. HONORIS RAYA BLOK J NO 10 TANGERANG","Prop. Banten","SMA","-6.2064000","106.6209000"
"20600464","SMAN 6 PANDEGLANG","JL. PENDIDIKAN NO. 2","Prop. Banten","SMA","-6.3197000","106.1001000"
"20605322","SMAS ASY SYARIF CIRUAS","JL. ASY SYARIF NO. 1","Prop. Banten","SMA","-6.0629000","106.2288000"
"20606551","SMAS AL HUSNA","JL. A. DAMYATI NO. 43-45 TANGERANG RT.6/7","Prop. Banten","SMA","-6.1775000","106.6339000"
"20603371","SMAS PLUS PEMBANGUNAN JAYA","Jl. Taman Makam Bahagia ABRI Bintaro Jaya Sektor IX","Prop. Banten","SMA","-6.2639000","106.6707000"
"20606542","SMAS BUDI LUHUR","JL. RADEN SALEH NO. 999","Prop. Banten","SMA","-6.2194000","106.7066000"
"20613639","SMAS YPA AL HIDAYAH","Jl.Sunan Kudus IV Link.Kubangwelut Kec.Citangkil Kota Cilegon","Prop. Banten","SMA","-6.0127000","105.9936000"
"20603320","SMAS NUSANTARA UNGGUL","JL. PEKAYON KM. 1 PEKAYON, TANGERANG","Prop. Banten","SMA","-6.0751000","106.5493000"
"20622234","SMAS CITRA AL-ALAWIYAH","Jl. Syeikh Nawawi - POLDA Banten Link. Gelam Kel. Banjar Agung Kec. Cipocok Jaya","Prop. Banten","SMA","-6.1296000","106.2063000"
"69759258","SMAS JABAL RACHMAH","KP. PERIUK RT. 02/04","Prop. Banten","SMA","-6.1291000","106.5369000"
"20616158","SMAS MUTIARA BANGSA","JL. KRESEK GANDARIA","Prop. Banten","SMA","-6.1165000","106.4852000"
"69882329","SMA ISLAM TERPADU BAYT AL QUR AN","Jl. Otonom Gorda - Bandung","Prop. Banten","SMA","-6.2038690","106.3178120"
"69759247","SMAS PLUS BAITURRAHMAN","JL. KP. CIPANAS","Prop. Banten","SMA","-6.2145000","105.8538000"
"20606830","SMAN 6 TANGERANG","JL. NYIMAS MELATI NO. 2","Prop. Banten","SMA","-6.1613000","106.6454000"
"20606518","SMAS MUHAMMADIYAH 2","JL. KH. MAULANA HASANUDIN NO. 63","Prop. Banten","SMA","-6.1929000","106.6764000"
"69881544","SMA ISLAM ASSA`ADAH","JL. RAYA PUSPIPTEK KOMPLEK PURI SERPONG I BLOK C","Prop. Banten","SMA","-6.3023750","106.7031560"
"20606548","SMAS AL WASATIYAH","Jl. Masjid Assolihin Dongkal Cipondoh Indah","Prop. Banten","SMA","-6.1819000","106.6894000"
"20613630","SMAS QOTHROTUL FALAH CIKULUR","JL. SAMPAY - CILELES KM. 5 CIKULUR","Prop. Banten","SMA","-6.4238000","106.1735000"
"20613768","SMAN 6 KOTA TANGERANG SELATAN","KOMP. PAMULANG BARAT I","Prop. Banten","SMA","-6.3371000","106.7338000"
"20603314","SMAS MOH. HUSNI THAMRIN","JL. H. S. Nawi No 37","Prop. Banten","SMA","-6.3290000","106.7158000"
"20613541","SMAS AL FURQON","JL. Shangrila Indah No.5 Buaran Asem","Prop. Banten","SMA","-6.0271000","106.5370000"
"20603377","SMAS STELLA MARIS BSD","ARTHA KENCANA KAV.CI/NO.1","Prop. Banten","SMA","-6.3152000","106.6856000"
"20603181","SMAS 1926","PAMULANG PERMAI II NO.1","Prop. Banten","SMA","-6.3353000","106.7191000"
"20605357","SMAS MARDIYUANA KOTA SERANG","JL. KH SYAMUN NO. 3 SERANG","Prop. Banten","SMA","-6.1171000","106.1512000"
"20605092","SMAN 1 PONTANG","JL. KUBANG PUJI","Prop. Banten","SMA","-6.0060000","106.2824000"
"20600440","SMAS ISLAM PAGELARAN","JL. RAYA PAGELARAN KM. 41 CIPUTRI","Prop. Banten","SMA","-6.4295000","105.8499000"
"20603328","SMAS KATOLIK MATER DEI","Komplek Pamulang Permai I","Prop. Banten","SMA","-6.3450000","106.7337000"
"20606856","SMAS YUPPENTEK 1","JL. P. KEMERDEKAAN BABAKAN","Prop. Banten","SMA","-6.1922000","106.6325000"
"69774778","SMAS Nusantara plus","Jl. Tarumanegara Dalam No.1","Prop. Banten","SMA","-6.3094000","106.7712000"
"20615025","SMAS PENABUR BINTARO","Jalan Panglima Polim Kavling A6 No.1, Sektor 7 Bintaro Jaya, Pondok Aren","Prop. Banten","SMA","-6.2738000","106.7143000"
"20607665","SMAS YANMU PANDEGLANG","JL. SYECH ABDUL JABAR","Prop. Banten","SMA","-6.3049000","106.1312000"
"69938658","SMA AL-QONA AH","KAMPUNG. BOJONG","Prop. Banten","SMA","-6.5208247","105.8484911"
"20614415","SMAS NUR EL BANTANY KOTA SRG","JL. RAYA SAYABULU DALUNG SERANG","Prop. Banten","SMA","-6.1384000","106.1521000"
"20613693","SMAS ISLAM AZ ZAMIR","JL LUMBA - LUMBA NO. 3","Prop. Banten","SMA","-6.2306000","106.6746000"
"20601871","SMAN 3 RANGKAS BITUNG","JL. LETNAN MUHARAM NO. 5 RANGKASBITUNG","Prop. Banten","SMA","-6.3581983","106.2477233"
"20606837","SMAS PUSPITA","JL. CISADANE 4 NO. 124","Prop. Banten","SMA","-6.2047000","106.6156000"
"20603326","SMAS PGRI 095 PASAR KEMIS","JL. MAWAR II PERUM BUMI PASAR KEMIS","Prop. Banten","SMA","-6.1704000","106.5382000"
"20600468","SMAN 2 PANDEGLANG","JL. PENDIDIKAN NO. 41","Prop. Banten","SMA","-6.3200000","106.1006000"
"20613625","SMAS ISLAM CIKAL HARAPAN I","Kencana Loka Blok B.09No. 1 Sektor XII.1","Prop. Banten","SMA","-6.3142000","106.6818000"
"69955284","SMA SERUNI PUTIH","Jl. Benda Barat 13 (Ujung) Perum Pamulang II","Prop. Banten","SMA","-6.3446710","106.7156150"
"20606854","SMAS YUPPENTEK 4","JL. P. KEMERDEKAAN I NO. 1","Prop. Banten","SMA","-6.1922000","106.6326000"
"20613528","SMAN 17 KABUPATEN TANGERANG","PERUM LEGOK INDAH","Prop. Banten","SMA","-6.2996000","106.6101000"
"69820649","SMAS EHIPASSIKO SCHOOL ","Jl. Letjen Soetopo Kav.B2 No.1-2 Sektor XIV.4","Prop. Banten","SMA","-6.3038000","106.6871000"
"20607855","SMAS AL FARHAN CIPANAS","JL. RANGKASBITUNG - BOGOR KM. 34 CIPANAS","Prop. Banten","SMA","-6.5387000","106.3862000"
"20603251","SMAN 11 KABUPATEN TANGERANG","JL. KH. HASYIM ASHARI","Prop. Banten","SMA","-6.1180000","106.5778000"
"20622259","SMAS DARUL AMAL","JL. VETERAN SUMURDAON","Prop. Banten","SMA","-6.1224000","106.5155000"
"20606511","SMAS KOSGORO","JL. KOMP. LAP. OLAHRAGA RAWA KAMBING","Prop. Banten","SMA","-6.2123000","106.7155000"
"20613913","SMAN 1 CURUGBITUNG","JL. MAJA-JASINGA KM. 15 CURUGBITUNG","Prop. Banten","SMA","-6.4327000","106.3835000"
"60728843","SMAS ARDANIAH","JLN. PESANTREN KP. PANTOGAN","Prop. Banten","SMA","-6.1247000","106.1267000"
"20605354","SMAN 1 BOJONEGARA","JL. KH. BAKHRI NO. 2","Prop. Banten","SMA","-5.9582000","106.0978000"
"69734019","SMAS AL-ASMANIYAH","JL. DIKLAT PEMDA RT. 03/03","Prop. Banten","SMA","-6.2670960","106.5946540"
"69882328","SMA ISLAM DARUTTAUFIQ","Kp. Tarikolot","Prop. Banten","SMA","-6.1090760","105.9185920"
"20606500","SMAS ISLAM KAFAH UNGGUL","JL. RADEN SALEH NO. 56 KARANG MULIA","Prop. Banten","SMA","-6.2048000","106.7148000"
"20603362","SMAN 10 KABUPATEN TANGERANG","JL. TIPAR RAYA","Prop. Banten","SMA","-6.3181000","106.4834000"
"20606855","SMAS YUPPENTEK 2","JL. RADEN FATAH KM. 1","Prop. Banten","SMA","-6.1919000","106.6323000"
"20615529","SMAS ROECMATOELLAH KOTA SRG","JL. KH AMIN JASUTA BRIMOB SERANG","Prop. Banten","SMA","-6.1159000","106.1432000"
"20603384","SMAN 13 KABUPATEN TANGERANG","Jl. Raya Pasarkemis-Rajeg Km. 03","Prop. Banten","SMA","-6.1467000","106.5224000"
"20605337","SMAS AL HUSEN","JL. KH Abdul Kabier Km.o2","Prop. Banten","SMA","-6.2699000","106.2187000"
"20623131","SMAS ADITYA KARYA","JL. NAGREG RT. 01/09","Prop. Banten","SMA","-6.0892000","106.6135000"
"20613820","SMAS NURUL HIDAYAH","Jl. Raya Cikupa - Pasarkemis","Prop. Banten","SMA","-6.2061000","106.5253000"
"20603369","SMAS YASPITA","Jalan Raya Serpong KM.8 No.22","Prop. Banten","SMA","-6.3330000","106.6935000"
"69756084","SMAN 12 KOTA TANGERANG SELATAN","JL. RAYA CILENGGANG 1 SERPONG","Prop. Banten","SMA","-6.3070000","106.6681000"
"20603268","SMAN 12 KABUPATEN TANGERANG","JL. RAYA KAMPUNG BESAR","Prop. Banten","SMA","-6.0652000","106.6523000"
"20605101","SMAN 1 PADARINCANG","JL. PALKA KM. 30 PADARINCANG","Prop. Banten","SMA","-6.2081000","105.9709000"
"69759246","SMAN 1 KRAGILAN KJ SMAN 1 CIRUAS","JL. SENTUL NYAPAH KM.03","Prop. Banten","SMA","-6.1534000","106.2565000"
"20613793","SMAS NUSANTARA BINUANG","JL. SYEKH CILIWULUNG KM 3 KP. JATI GEDE","Prop. Banten","SMA","-6.1137000","106.3508000"
"69900411","SMA IT ASH-SHIBGOH","JALAN RAYA SERANG KM.12 BITUNG JAYA","Prop. Banten","SMA","-6.2314510","106.5435260"
"20613477","SMAN 2 KOTA TANGERANG SELATAN","Jl. Raya Serpong Puspiptek","Prop. Banten","SMA","-6.3454760","106.6724503"
"20603380","SMAS TRIGUNA UTAMA","JL.IR.H.JUANDA KM2","Prop. Banten","SMA","-6.3057000","106.7568000"
"69899993","SMAS RIYADLUL MUKHLISIEN","JL. RAYA MAUK KM. 14 BEJI KOSAMBI SUKADIRI","Prop. Banten","SMA","-6.0922210","106.5613900"
"20616006","SMAS KUTABUMI","JL. RAYA CADAS KUKUN KM 5","Prop. Banten","SMA","-6.2509000","106.4667000"
"20613804","SMAS AL KHAIRIYAH KELAPIAN","JL.KH SYANWANI KM 6","Prop. Banten","SMA","-6.0351000","106.3141000"
"69945798","SMAN 2 MALINGPING","Kampung Pagenggang Rt 02 Rw 01","Prop. Banten","SMA","-6.7611000","105.9931000"
"69859656","SMAS SIRRUL HIKMAH","JL RAYA TAMAN ADIYASA SOLEAR","Prop. Banten","SMA","-6.2833820","106.4302900"
"20606835","SMAS SANTA PATRICIA","JL. PERUM DUTA GARDENIA BLOK G7 NO. 45","Prop. Banten","SMA","-6.1489000","106.6835000"
"69888887","SMAS LENTERA HARAPAN","JL. ELANG 1 B BINONG PERMAI","Prop. Banten","SMA","-6.2493390","106.5840730"
"20606679","SMAS PGRI 109","JL UNTUNG SUROPATI NO. 14","Prop. Banten","SMA","-6.1942000","106.6176000"
"20615183","SMAS KHARISMA BANGSA","JL. TERBANG LAYANG NO.21","Prop. Banten","SMA","-6.3445000","106.7588000"
"20607785","SMAS KI HAJAR DEWANTORO","JL. KH. HASYIM ASHARI KM 9 PINANG","Prop. Banten","SMA","-6.2191000","106.6865000"
"69938869","SMA PEDULI BANGSA","JL. RAYA MUNJUL KM.03","Prop. Banten","SMA","-6.4987700","105.9581210"
"69943715","SMA AL ADZKAR","Jl. Pinang RT.02 RW.14","Prop. Banten","SMA","-6.3376795","106.7251819"
"20616086","SMAS MATHLA UL FALAH","JL. KYAI ADUNG NO. 1 LEMPUYANG","Prop. Banten","SMA","-6.0413000","106.3362000"
"20613488","SMAS MAULANA YUSUF KOTA SRG","JL. TRIP JAMAKSARI NO. 44 CINANGGUNG SERANG","Prop. Banten","SMA","-6.1141000","106.1727000"
"20600433","SMAS YPP PANDEGLANG","JL. BANK BANTEN NO. 3","Prop. Banten","SMA","-6.2923000","106.1299000"
"20616391","SMAS CENDIKIA ALFALLAH","JL. SALIMAH NO 12","Prop. Banten","SMA","-6.3355000","106.5598000"
"20600467","SMAN 3 PANDEGLANG","JL. PERINTIS KEMERDEKAAN KM. 2 LABUAN","Prop. Banten","SMA","-6.3633000","105.8239000"
"20606295","SMAS AL MUNAWAROH","JL. H. LEMAN PINTU AIR NO. 45 GEREM RAYA","Prop. Banten","SMA","-5.9741000","106.0089000"
"69786331","SMAS DAARUL ISHLAH ISLAMIC","JL. DAARUL ISHLAH SEMENDARAN","Prop. Banten","SMA","-6.0070000","106.0817000"
"20614868","SMAS NURUL FALAH RAJEG","KP. JUNGKEL RT. 06/02","Prop. Banten","SMA","-6.0887000","106.5289000"
"20605104","SMAN 1 CIRUAS","JL. RAYA JAKARTA KM.9,5","Prop. Banten","SMA","-6.1268000","106.2422000"
"20615027","SMAS BINA MACHMUD","KP. KADUKACAPI","Prop. Banten","SMA","-6.2236000","106.0742000"
"20603157","SMAS AL MUBARAK","Jl. Raya Pondok Aren - Jombang No. 15","Prop. Banten","SMA","-6.2666000","106.7054000"
"20606853","SMAN 1 TANGERANG","JL. DAAN MOGOT NO. 50","Prop. Banten","SMA","-6.1699000","106.6332000"
"20615882","SMA BINA INSANI ANYER","JL. JAHA KUBAR","Prop. Banten","SMA","-6.0697000","105.9222000"
"20606298","SMAS AL KHAIRIYAH 1","JL. SUNAN BONANG LINK. PENAUAN KUBANGSARI","Prop. Banten","SMA","-6.0256000","106.0494000"
"20603167","SMAS DAARUSSALAM","KP. BADAK RT 06/01","Prop. Banten","SMA","-6.1660000","106.4997000"
"20606841","SMAS PLUS IBADURRAHMAN","JL. KH. HASYIM ASHARI GG. MESJID KEL. KENANGA","Prop. Banten","SMA","-6.1993000","106.6826000"
"20606848","SMAN 2 TANGERANG","JL. TMP TARUNA","Prop. Banten","SMA","-6.1754000","106.6389000"
"20613968","SMAS DAARUL HIKMAH","JL. SENTUL JONGJING KM. 15","Prop. Banten","SMA","-6.0362000","106.3307000"
"20606544","SMAS BABUS SALAM","JL. MERDEKA RAYA","Prop. Banten","SMA","-6.1829000","106.6212000"
"20600471","SMAN 12 PANDEGLANG","JL. RAYA. MUNCUL KM. 1","Prop. Banten","SMA","-6.5146000","105.9673000"
"20606299","SMAS AL ISHLAH CILEGON","JL. AL ISHLAH NO. 03 JOMBANG WETAN","Prop. Banten","SMA","-6.0085000","106.0373000"
"60726289","SMA BOSOWA AL AZHAR CILEGON","JL. BOULEVARD BLOK B NO.5 TAMAN CILEGON INDAH","Prop. Banten","SMA","-6.0136000","106.0808000"
"20607982","SMAN 1 CIKULUR","JL. RAYA SAMPAY- CILELES KM. 12","Prop. Banten","SMA","-6.4229000","106.1363000"
"20603376","SMAS SANTA URSULA BSD","JLN. LETNAN SUTOPO SEKTOR 1.2 BSD","Prop. Banten","SMA","-6.3021000","106.6837000"
"20623136","SMAS ISLAM TERPADU ALIA TANGERANG","PERUM DASANA INDAH BLOK SO RT. 05/16","Prop. Banten","SMA","-6.2565000","106.5914000"
"20613551","SMAS GLOBAL JAYA","BINTARO JAYA SEKTOR IX","Prop. Banten","SMA","-6.2820000","106.6982000"
"20613865","SMAS YADIKA 10","JL. RAYA SALEMBARAN NO. 26","Prop. Banten","SMA","-6.0755000","106.6835000"
"20605331","SMAS AL MUKHTARIAH","JL. RAYA CIKANDE KRESEK","Prop. Banten","SMA","-6.0955000","106.3274000"
"20605362","SMAS NURUL ISLAM KOTA SERANG","JL. BANTEN NO. 60 KEBAHARAN SERANG","Prop. Banten","SMA","-6.1022000","106.1552000"
"20603352","SMAS MARIA MEDIATRIK","JL. PINUS II NO.1 PONDOK REJEKI","Prop. Banten","SMA","-6.1637000","106.5649000"
"20603347","SMAS KATOLIK RICCI II","JL.UTAMA II NO.1-2","Prop. Banten","SMA","-6.2497000","106.7413000"
"69822821","SMAS ISLAM BANI TAMIM","JALAN KP. ETEK","Prop. Banten","SMA","-6.1644000","106.4928000"
"69883639","SMA KRISTEN MENARA TIRZA","JL. KELAPA GADING BARAT BLOK AJ 11 NO 16","Prop. Banten","SMA","-6.0749560","106.6210710"
"20613531","SMAN 4 CILEGON","JL. KI KAHAL PRINGORI SURALAYA PULOMERAK","Prop. Banten","SMA","-5.9018000","106.0306000"
"20600442","SMAS DAAR EL-FALAH","JL. RAYA CIOMAS KM. 01","Prop. Banten","SMA","-6.3071000","106.0201000"
"20623133","SMAS DAAR EL QOLAM 2","JL. Raya Serang Km. 35","Prop. Banten","SMA","-6.1019000","106.5558000"
"20613822","SMAS SIROJUL ATHFAL","JL. RAYA CANGKUDU CISOKA","Prop. Banten","SMA","-6.2563000","106.4213000"
"20606831","SMAN 5 TANGERANG","JL. CIUJUNG RAYA NO. 3 PERUMNAS 1","Prop. Banten","SMA","-6.2046000","106.6136000"
"20606839","SMAS MITRA BINTARO","KOMPLEK DUTA BINTARO, JL UBUD 2 BLOK G NO 7","Prop. Banten","SMA","-6.2184000","106.6712000"
"20606832","SMAS SYEKH YUSUF","JL. SYEKH YUSUF NO. 20","Prop. Banten","SMA","-6.1785000","106.6308000"
"20607819","SMAN 1 CILELES","JL. SAMPAY GUNUNG KENCANA KM. 25 CILELES LEBAK","Prop. Banten","SMA","-6.4399000","106.0580000"
"20605330","SMAS PLUS AL-MA ARIF","JL. CIKANDE-CARENANG","Prop. Banten","SMA","-6.1854000","106.3766000"
"20606289","SMAN 1 CILEGON","JL. KH. TB. ISMAIL KAV. BLOK F CILEGON","Prop. Banten","SMA","-6.0255000","106.0494000"
"69830370","SMAS AL-MADINAH ISLAMIC CENTER KKMB","Jl. Puspita Raya Blok L1 No. 1A Sektor III2 BSD","Prop. Banten","SMA","-6.2997980","106.6734470"
"20606845","SMAS YP KARYA","JL. KH. HASYIM ASHARI KM 3 CIPONDOH","Prop. Banten","SMA","-6.1832000","106.6576000"
"20606297","SMAS AL KHAIRIYAH 2","JL. PINTU TOL CILEGON BARAT LINK. GUNUNG WATU","Prop. Banten","SMA","-5.9869000","106.0320000"
"20606543","SMAS BINA INSANI","JL. H. MANSYUR NO. 3","Prop. Banten","SMA","-6.2009000","106.6904000"
"20603323","SMAS PGRI 56 CIPUTAT","JL.PENDIDIKAN NO.30","Prop. Banten","SMA","-6.3087000","106.7468000"
"20601881","SMAN 1 BAYAH","JL. RAYA MALINGPING KM. 2,5 BAYAH","Prop. Banten","SMA","-6.9269000","106.2353000"
"20606291","SMAS AL MA ARIF","JL. PABEAN NO. 2 TEGAL BUNDER","Prop. Banten","SMA","-5.9763000","106.0530000"
"20600462","SMAN 8 PANDEGLANG","JL. MANDALAWANGI KM. 7","Prop. Banten","SMA","-6.3318000","106.0512000"
"69882330","SMA PESANTREN UNGGUL AL BAYAN ANYER","Jl. Raya Anyer Karang Bolong","Prop. Banten","SMA","-6.0823470","105.9213570"
"69901925","SMA ISLAM TERPADU BINA INSANI","JL. WARINGINKURUNG KM.04","Prop. Banten","SMA","-6.0601000","106.0651000"
"20605353","SMAN 1 ANYER","JL. Raya Anyer-Sirih KM. 127,600","Prop. Banten","SMA","-6.0607000","105.9046000"
"20600470","SMAN 13 PANDEGLANG","JL. REGO KM. 4.5  CIKENTRUNG","Prop. Banten","SMA","-6.2681000","106.0982000"
"20613998","SMAS IT ALHUSAINY","JL. KP PRIGI LENGKONG WETAN","Prop. Banten","SMA","-6.3295000","106.6797000"
"20606510","SMAS DAARUL MUQORROBIN","JL H. JALI 12 KUNCIRAN JAYA","Prop. Banten","SMA","-6.2011000","106.6757000"
"20606847","SMAN 3 TANGERANG","JL. KH. HASYIM ASHARI NO. 6","Prop. Banten","SMA","-6.2247000","106.7037000"
"20603354","SMAS PGRI 22","JL.PAHLAWAN SERIBU NO. 60","Prop. Banten","SMA","-6.3039000","106.6621000"
"20615885","SMAS AL - IZZAH CIPANAS","KP CIMARKUM","Prop. Banten","SMA","-6.5720000","106.4234000"
"20607854","SMAN 1 WANASALAM","JL. RAYA BINUANGEN KM. 9","Prop. Banten","SMA","-6.7999000","105.9425000"
"69883655","SMAS STELLA MARIS SCHOOL","GADING SERPONG SEKTOR 8A","Prop. Banten","SMA","-6.0844580","106.5959470"
"20613522","SMAS ALLAYINAH","JL. MADRASAH ALLAYYINAH","Prop. Banten","SMA","-6.2450000","106.5815000"
"20607501","SMAN 14 TANGERANG","Jl. Pembangunan I, Darussalam II","Prop. Banten","SMA","-6.1485000","106.6559000"
"69900307","SMAS JAKARTA NANYANG SCHOOL","JL SEKOLAH FORESTA NO. 1 BSD CITY, TANGERANG","Prop. Banten","SMA","-6.2818010","106.6342600"
"20606838","SMAS PRIBADI 2","JL. KAVLING PEMDA I NO. 5 CIBODAS","Prop. Banten","SMA","-6.2111000","106.6167000"
"20603367","SMAN 2 KABUPATEN TANGERANG","JL. PENDIDIKAN NO. 5","Prop. Banten","SMA","-6.0619000","106.5067000"
"20614236","SMAS I T AL FAHMI KOTA SERANG","JL. WR. JAUD KUBANG APU TERONDOL SERANG","Prop. Banten","SMA","-6.0990000","106.1858000"
"20603182","SMAS AL AZHARIYAH","Kp. Sarakan Rt.03/04 Desa Sukasari Kec. Rajeg  Kab. Tangerang-Banten","Prop. Banten","SMA","-6.1171000","106.5609000"
"20614150","SMAN 1 SOBANG","JL. RAYA SOBANG","Prop. Banten","SMA","-6.3941000","106.1797000"
"20601875","SMAN 1 MALINGPING","JL. RAYA BAYAH KM. 4 NO. 39 MALINGPING","Prop. Banten","SMA","-6.8080340","106.0175530"
"20606504","SMAS HARAPAN JAYA","JL. H. MANSYUR NO. 25 GONDRONG","Prop. Banten","SMA","-6.1993000","106.6956000"
"20607821","SMAS PGRI RANGKASBITUNG","JL. DEWI SARTIKA NO. 45 L RANGKASBITUNG","Prop. Banten","SMA","-6.3547050","106.2586533"
"20606545","SMAS AT THAHIRIN","JL. RADEN FATAH KM. 1","Prop. Banten","SMA","-6.2334000","106.7022000"
"20614382","SMAS CANDLE TREE","VILLA MELATI MAS SERPONG","Prop. Banten","SMA","-6.2700000","106.6820000"
"20606516","SMAS MUTIARA BANGSA","JL. PORIS INDAH RAYA NO. 88B","Prop. Banten","SMA","-6.1862000","106.6855000"
"69895442","SMA DARUL AMANAH","KP. MONGPOK","Prop. Banten","SMA","-6.1242000","106.1774000"
"20605339","SMAS AL FURQON KRAGILAN","JL. RAYA SERANG KM.15 KRAGILAN","Prop. Banten","SMA","-6.1377000","106.2941000"
"69895489","SMAS PELITA NUSANTARA","JALAN RAYA SERANG KM 31 RT 002/ RW 004","Prop. Banten","SMA","-6.1690510","106.4478950"
"20606513","SMAS MANBAUL ULUM","JL. KH. KILIN PAP II","Prop. Banten","SMA","-6.1555000","106.6659000"
"20607979","SMAN 6 KOTA SERANG","JL. RAYA PETIR KM.04","Prop. Banten","SMA","-6.1429000","106.1737000"
"20613546","SMAS PGRI TELUKNAGA","JL. RAYA TELUKNAGA KM. 12","Prop. Banten","SMA","-6.0702000","106.6455000"
"20603321","SMAS PARADIGMA","JL. IR. SUTAMI MAUK","Prop. Banten","SMA","-6.0601000","106.5122000"
"20605365","SMAS PGRI KRAGILAN","JL. RAYA JAKARTA KM. 5","Prop. Banten","SMA","-6.1393000","106.2895000"
"20605097","SMAN 1 BAROS","JL. RAYA PANDEGLANG KM 14","Prop. Banten","SMA","-6.2360000","106.1281000"
"20613824","SMAS ATISA DIPAMKARA","JL. VILLA PERMATA KOMP.VIHARA VAJRA BUMI NUSANTARA","Prop. Banten","SMA","-6.2564000","106.4256000"
"20603313","SMAS DHARMA KARYA UT","JL.TALAS II/30","Prop. Banten","SMA","-6.3294000","106.7611000"
"20605364","SMAS PGRI 2 KOTA SERANG","JL. KH FATAH HASAN 17/B SERANG","Prop. Banten","SMA","-6.1251000","106.1683000"
"20613795","SMAN 1 BANDUNG ","JLN. OTONOM MALABAR - CIKANDE KM. 1","Prop. Banten","SMA","-6.2322000","106.3126000"
"20607862","SMAN 1 MUNCANG","JL. RAYA MUNCANG KM. 02 MUNCANG","Prop. Banten","SMA","-6.5373000","106.3068000"
"20606834","SMAS SETIA BHAKTI","JL. KISAMAUN NO. 171","Prop. Banten","SMA","-6.1827000","106.6314000"
"69734140","SMAS TUNAS INDONESIA","JL. RAYA JOMBANG NO.18 BINTARO SEKTOR 9","Prop. Banten","SMA","-6.2852000","106.7021000"
"20605228","SMAN 1 CIKEUSAL","JL. RAYA CILAYANG","Prop. Banten","SMA","-6.2836000","106.2546000"
"20603270","SMAN 4 KOTA TANGERANG SELATAN","JL. WR. SUPRATMAN NO. 1","Prop. Banten","SMA","-6.2877000","106.7452000"
"20601872","SMAN 2 RANGKASBITUNG","JL. SILIWANGI PASIR ONA RANGKASBITUNG","Prop. Banten","SMA","-6.3695000","106.2648000"
"20601879","SMAN 1 CIPANAS","JL. RAYA MUNCANG NO. 44 CIPANAS","Prop. Banten","SMA","-6.5289000","106.3750000"
"20606509","SMAS DHARMA BAKTI","JL.KH. HASYIM ASHARI KM. 9 Gg. Bhakti II Sudimara Pinang","Prop. Banten","SMA","-6.1942000","106.6765000"
"20607877","SMAN 1 PANGGARANGAN","JL. RAYA MALINGPING KM 6,5 PANGGARANGAN","Prop. Banten","SMA","-6.9116000","106.2050000"
"20603324","SMAS PGRI 58 TIGA RAKSA","JL. ARYA WANGSAKARA","Prop. Banten","SMA","-6.2702617","106.4669383"
"20614930","SMAN 1 CIJAKU","JL. RAYA PASARKUPA KM.01 CIJAKU 42395","Prop. Banten","SMA","-6.7029000","106.0663000"
"20600469","SMAN 14 PANDEGLANG","JL. RAYA MAJA CIBIUK KM. 7 BANJAR","Prop. Banten","SMA","-6.3812000","106.1019000"
"20613464","SMAN 24 KABUPATEN TANGERANG","PERUMAHAN PONDOK PERMAI JL. ARWANA RAYA","Prop. Banten","SMA","-6.1521000","106.5728000"
"20615080","SMAS TUNAS BANGSA","JL. PRANCIS KM 12 KOSAMBI","Prop. Banten","SMA","-6.0871000","106.6935000"
"69901913","SMA ISLAM DAARUL FIRDAUS","JL. TAMBAK PAMARAYAN KM. 07","Prop. Banten","SMA","-6.2018000","106.2930000"
"20615184","SMAS EFATA SERPONG","Melati Vista Casa De Verona Blok V 20 Melati Mas Residence","Prop. Banten","SMA","-6.2675000","106.6690000"
"20600451","SMAN 1 PANDEGLANG","JL. RAYA SERANG KM. 3","Prop. Banten","SMA","-6.2833000","106.1167000"
"20613543","SMAN 14 KABUPATEN TANGERANG","Jl. Raya Daon - Perum Pondok Sukatani Permai","Prop. Banten","SMA","-6.1284000","106.4972000"
"20605347","SMAS PRISMA KOTA SERANG","JL. RAYA JAKARTA KM 4 SERANG","Prop. Banten","SMA","-6.1189000","106.1913000"
"20613465","SMAN 19 KABUPATEN TANGERANG","JL. RAYA KRESEK KM. 1,5","Prop. Banten","SMA","-6.1807000","106.4548000"
"20605432","SMAS INFORMATIKA","Jln. Kh. Amin Jasuta No.15 B Kaloran","Prop. Banten","SMA","-6.1168000","106.1448000"
"20613868","SMAN 1 SAJIRA","JL. RAYA CIPANAS KM. 17 SAJIRA LEBAK","Prop. Banten","SMA","-6.4385000","106.3361000"
"20613544","SMAN 21 KABUPATEN TANGERANG","JL. CIRARAB NO. 5 KEC. SUKADIRI","Prop. Banten","SMA","-6.0608000","106.5642000"
"20613627","SMAS AL MULTAZAM","JL. KEDAUNG BARAT TN.MERAH PONDOK JAYA","Prop. Banten","SMA","-6.1203000","106.5914000"
"20615737","SMAS TERPADU PP DAARUL AMANAH","JL. KH. HASYIM ASHARI GG. JAMBU BLOK C","Prop. Banten","SMA","-6.1948000","106.6901000"
"69759180","SMA ISLAM SINAR CENDEKIA","JL. RAYA LENGKONG GUDANG TIMUR NO. 10","Prop. Banten","SMA","-6.2799000","106.6761000"
"20606517","SMAS MUHAMMADIYAH 3","JL. PERINTIS KEMERDEKAAN I NO. 33","Prop. Banten","SMA","-6.1928000","106.6312000"
"20613806","SMAS KATOLIK SAINT JOHN S","KENCANA LOKA RAYA NO.8","Prop. Banten","SMA","-6.3147000","106.6831000"
"20613553","SMAN 10 KOTA TANGERANG SELATAN","JL. RAYA TEGAL ROTAN BINTARO SEKT. 9","Prop. Banten","SMA","-6.2819000","106.7225000"
"20613563","SMAN 11 KOTA TANGERANG SELATAN","JL.SUMATERA I RT. 002 / 06 RAWA LELE","Prop. Banten","SMA","-6.2952000","106.6961000"
"20607980","SMAN 1 CIBADAK","JL. MALABAR PASAR KEONG CIBADAK","Prop. Banten","SMA","-6.3257250","106.2314933"
"20613523","SMAS AL MAMUNIYAH","PASIRGADUNG, CIKUPA","Prop. Banten","SMA","-6.2081000","106.5266000"
"20613552","SMAN 8 KOTA TANGERANG SELATAN","Jl.Cireundeu Raya No.5","Prop. Banten","SMA","-6.3147000","106.7699000"
"20603378","SMAS SUNAN BONANG","PERUM DASANA INDAH BLOK SJ LEGOK","Prop. Banten","SMA","-6.2545000","106.5952000"
"20613548","SMAN 20 KABUPATEN TANGERANG","JL. PAKUHAJI KM. 2 KAB. TANGERANG","Prop. Banten","SMA","-6.0639000","106.5963000"
"20607820","SMAS NURUL MADAANY CIPANAS","JL. CIPANAS KM. 36","Prop. Banten","SMA","-6.5395000","106.3891000"
"69956646","SMA IT NURUDZ DZIKRI","Jalan Ciruas Petir KM.6 Kp.Lebak.","Prop. Banten","SMA","-6.1733000","106.2149000"
"20623135","SMAS ISLAM DAAR ET TOHIRIN","JL. CISOKA - JAYANTI KP. NYOMPOK GABUS RT. 10/04","Prop. Banten","SMA","-6.2447000","106.4051000"
"20603170","SMAS AL FASANAH","KP. ANAMUI RT. 03 RW. 03 DS. SURADITA CISAUK","Prop. Banten","SMA","-6.3525000","106.6518000"
"69881567","SMA TERPADU AL HIDAYAH","Kp. Cibanteng","Prop. Banten","SMA","-6.0841000","105.9892000"
"20603344","SMAS ISLAM NURUL HUDA KEDUNG","JL. SYECH NAWAWI NO. 2","Prop. Banten","SMA","-6.0649000","106.3588000"
"20613603","SMAN 15 KABUPATEN TANGERANG","JL. RAYA KORELET NO. 1","Prop. Banten","SMA","-6.2958000","106.5293000"
"69888648","SMA PRINCES","Jl. Benteng Jaya No. 69 Rt. 004/08","Prop. Banten","SMA","-6.1696000","106.6293000"
"20603374","SMAS RAUDATUL FALLAH JAYANTI","JL. PASIRMUNCANG","Prop. Banten","SMA","-6.2246000","106.3946000"
"20603381","SMAS TUNAS HARAPAN","JL. RAYA BUNAR","Prop. Banten","SMA","-6.1779000","106.4529000"
"20603363","SMAN 16 KABUPATEN TANGERANG","JL. GANDASARI NO. 14 JAYANTI","Prop. Banten","SMA","-6.2166000","106.3863000"
"20606269","SMAN 5 CILEGON","JL. SUNAN BONANG CIGEBLAG","Prop. Banten","SMA","-6.0359000","105.9955000"
"69886196","SMAS ISLAM AL-BINA","JL. CIDAHU ABUYA BANGUN MESJID CADASARI","Prop. Banten","SMA","-6.2887830","106.1606790"
"20613974","SMAS KRISTEN TUNAS BANGSA","JL. KELAPA GADING SELATAN SEKT. 2A BLOK HA 1 NO. 1","Prop. Banten","SMA","-6.2392000","106.6328000"
"20623132","SMAS ADRIA PRATAMA MULYA RIDING SCHOOL","JL. RAYA ARIA WANGSAKARA KP. CIATUY","Prop. Banten","SMA","-6.2877000","106.4817967"
"20603359","SMAN 1 KOTA TANGERANG SELATAN","JL. PENDIDIKAN NO. 49 CIPUTAT","Prop. Banten","SMA","-6.2641000","106.7216000"
"69822823","SMAS MUSTIKA AL MUJANNAH","JL. H. MARIH RT. 02/01","Prop. Banten","SMA","-6.0838000","106.6126000"
"20606552","SMAS AGAPE BK 3","JL KEBON JAHE NO. 2","Prop. Banten","SMA","-6.1751000","106.6308000"
"20614522","SMAS DAARUL QUR AN INTERNASIONAL","JL. TAMRIN KETAPANG CIPONDOH TANGERANG","Prop. Banten","SMA","-6.1841000","106.6903000"
"69816901","SMAN 1 KALANGANYAR","JL. KH.MOH IDRUS KM 3","Prop. Banten","SMA","-6.3838433","106.2259867"
"20613826","SMAS CITRA ISLAMI","JL. CITRA RAYA TIMUR NO. 1 CITRA RAYA","Prop. Banten","SMA","-6.2500000","106.5381000"
"69893966","SMA GLOBAL ISLAMIC SCHOOL 2","Jl. Raya Puspiptek, Buaran - Serpong","Prop. Banten","SMA","-6.3301510","106.6948230"
"20615536","SMAS NURRUROHMAN","JL. RAYA CIRACAS KM.8 SEPANG MASJID","Prop. Banten","SMA","-6.1297000","106.0885000"
"20603322","SMAS PERINTIS SEPATAN","JL. RAYA KPR BTN KUTABUMI","Prop. Banten","SMA","-6.1537000","106.5886000"
"20614079","SMAS NURUL ISLAH","JL. RAYA PETIR CIKEUSAL","Prop. Banten","SMA","-6.2495000","106.1985000"
"20603370","SMAS YASPIH RAJEG","JL.KH. MOH. DAHLAN RAJEG, TANGERANG","Prop. Banten","SMA","-6.0872000","106.5186000"
"20606547","SMAS AN NURMANIYAH","JL.DR. CIPTO MANGUNKUSUMO NO. 62","Prop. Banten","SMA","-6.2249000","106.7132000"
"20603269","SMAN 6 KABUPATEN TANGERANG","JL. ARIA JAYA SENTIKA NO.52","Prop. Banten","SMA","-6.2471117","106.4722733"
"69953395","SMA ISLAM TERPADU DAARUL MUKHTARIN","Jln.Kh.Moh.Dahlan Kp.Nunut Ds.Tanjakan Mekar","Prop. Banten","SMA","-6.1273490","106.5348050"
"20616549","SMAS AL HUSNA","JL. KH. UMAR RENCALANG","Prop. Banten","SMA","-6.3266000","106.7657000"
"20600452","SMAN 10 PANDEGLANG","JL. RAYA. LABUAN KM. 24","Prop. Banten","SMA","-6.3941000","105.9521000"
"20614409","SMAS MUTIARA BANGSA 2","JL. HUSEN SASTRANEGARA NO. 29 BENDA","Prop. Banten","SMA","-6.1422000","106.6845000"
"20603373","SMAS PRIMA NUSANTARA","JL. KRAMAT RAYA KM. 1","Prop. Banten","SMA","-6.1209000","106.5830000"
"20603364","SMAN 5 KABUPATEN TANGERANG","JL. RAYA SALEMBARAN NO. 29","Prop. Banten","SMA","-6.0761000","106.6665000"
"20606507","SMAS UPH COLEGE","Jl. MH Thamrin Boulevard Lippo Karawaci 1100","Prop. Banten","SMA","-6.2359920","106.5924260"
"20603357","SMAS KRISTEN BPK PENABUR GADING SERPONG","JL. KELAPA GADING BARAT RAYA GADING SERPONG","Prop. Banten","SMA","-6.2353000","106.6266000"
"20611160","SMAS TERPADU MATHLAUL ANWAR BOJONG","JL. RAYA SAKETI - MALINGPING KM 10.5","Prop. Banten","SMA","-6.4409000","106.0076000"
"20605341","SMAS AL KHAIRIYAH TANARA","JL. SYEKH NAWAWI TANARA NO. 3 SUKAMANAH","Prop. Banten","SMA","-6.0327000","106.3634000"
"69759162","SMAS IT DARUSSALAM PIPITAN","JLN. CIRUAS-WALANTAKA KM. 2","Prop. Banten","SMA","-6.1466000","106.2323000"
"20603382","SMAS WIPAMA","JL. RAYA SERANG - SUKANEGARA","Prop. Banten","SMA","-6.2169000","106.4989000"
"20607910","SMAS DARURROHMAN WALANTAKA","KP. PASANGGRAHAN WALANTAKA SERANG","Prop. Banten","SMA","-6.1539000","106.2234000"
"20601877","SMAN 1 LEUWIDAMAR","JL. RAYA LEUWIDAMAR KM. 22 LEUWIDAMAR","Prop. Banten","SMA","-6.5139000","106.1960000"
"20622147","SMAS PLUS PERMATA INSANI ISLAMIC SCHOOL","PERUM VILLA PERMATA BLOK G1","Prop. Banten","SMA","-6.1386000","106.5339000"
"20603160","SMAS BETHEL","JL. VILLA TAMAN BANDARA BLOK G IV","Prop. Banten","SMA","-6.0947000","106.6951000"
"69816866","SMAN 2 BAYAH","JL. RAYA CIHASEM BLOK CICAYUR KM 1.5","Prop. Banten","SMA","-6.9372000","106.3176000"
"20603372","SMAS PRAMITA CURUG","JL. KAMPUS PRAMITA","Prop. Banten","SMA","-6.2345000","106.5850000"
"20615474","SMAS NUURUL HUDA CISOKA","JL. RAYA CISOKA KM 2","Prop. Banten","SMA","-6.2629000","106.4187000"
"20614312","SMAS PGRI BOJONEGARA","JL. KH. BAKRI NO. 3 CIRANGGON","Prop. Banten","SMA","-5.9700000","106.0923000"
"69786313","SMAS NUSANTARA ","JL. RAYA CAYUR KM 1","Prop. Banten","SMA","-6.1051250","106.4365270"
"69859757","SMA INSAN RABBANY","Jl. Raya Ciater Sektor I.1 BSD Serpong Tangerang Selatan","Prop. Banten","SMA","-6.3112780","106.6957750"
"20613545","SMAS HIRO","Jl. Raya Tanjung Pasir No. 32","Prop. Banten","SMA","-6.0466000","106.6644000"
"20613976","SMAS PLUS AL - KHAIRIYAH KASEMEN","SAWAH LUHUR KM 7 KASEMEN SERANG","Prop. Banten","SMA","-6.0565000","106.1981000"
"20603159","SMAS BABUSSALAM TELUKNAGA","JL. BABUSSALAM RT.003/05","Prop. Banten","SMA","-6.0887000","106.6422000"
"20613677","SMAS AL KHAIRIYAH 4","Jl. Lingkar Selatan KM 10,8 Link. Kracak","Prop. Banten","SMA","-6.0410000","105.9989000"
"20613788","SMAN 1 KOPO","JL. Cikande-Kopo","Prop. Banten","SMA","-6.3164000","106.3827000"
"20606290","SMAS MUHAMMADIYAH CILEGON","JL. PERINTIS NO. 3 ROKAL CILEGON","Prop. Banten","SMA","-6.0189000","106.0518000"
"69862592","SMAS RIYADHUSSHOLIHIIN","JL. KADUKACANG KM.05","Prop. Banten","SMA","-6.3708830","106.0516650"
"69830448","SMA PELITA BANGSA","Jl. Ketapang 1/23 Pamulang Tangerang Selatan","Prop. Banten","SMA","-6.3476000","106.7339000"
"20605350","SMAS YAPISA KOPO","JALAN GABUS PARAKAN","Prop. Banten","SMA","-6.3304000","106.3757000"
"20605110","SMAN 1 PABUARAN","JL. RAYA BATUKUWUNG","Prop. Banten","SMA","-6.2044000","106.0714000"
"20601874","SMAN 1 RANGKASBITUNG","JL. RT. HARDIWINANGUN NO. 24 RANGKASBITUNG","Prop. Banten","SMA","-6.3578000","106.2491000"
"69757388","SMAS IT RAUDHATUL JANNAH ","Residence Grand Cilegon Link. Cibeber Barat Rt.04 Rw.02","Prop. Banten","SMA","-6.0300000","106.0693000"
"20606505","SMAS HARAPAN BANGSA","JL. Hartono Raya","Prop. Banten","SMA","-6.1991000","106.6407000"
"20605360","SMAS NURUL FALAH PETIR","Jl. Petir Cadasari KM. 1","Prop. Banten","SMA","-6.2376000","106.2073000"
"20606300","SMAS AL AMIN","JL. SUNAN MURIA CIWANDAN","Prop. Banten","SMA","-6.0279000","105.9857000"
"20605356","SMAS PLUS ASSA ADAH","JL. SERANG-PAMARAYAN KM. 25","Prop. Banten","SMA","-6.2399000","106.2593000"
"20613623","SMAS GEMILANG","JL. RAYA PAKU HAJI KM. 1 BUARAN JARAK RT 001 RW 001","Prop. Banten","SMA","-6.0962000","106.5942000"
"20607867","SMAN 1 CILOGRANG","JL. BAYAH CIBARENO KM. 25 CILOGRANG","Prop. Banten","SMA","-6.9301000","106.3689000"
"20606813","SMAN 9 TANGERANG","JL  H. JALI NO. 9","Prop. Banten","SMA","-6.2127000","106.6716000"
"20600453","SMAN 11 PANDEGLANG","JL. RAYA MENES KM. 3.5 SIMPANG TIGA NANGGUNG","Prop. Banten","SMA","-6.3648000","105.8984000"
"20613796","SMAN 1 BINUANG","JL. LANUD GORDA BINUANG KM 7","Prop. Banten","SMA","-6.1197000","106.3382000"
"20615686","SMAS PLUS DOWA AL ISLAMI","JL. DOWA","Prop. Banten","SMA","-5.9943000","106.2700000"
"20603165","SMAS DAARUL ARCHAM RAJEG","JL. RAYA RAJEG NO. 49 MAUK, TANGERANG","Prop. Banten","SMA","-6.0925000","106.5185000"
"20606843","SMAS YADIKA 3","JL. RADEN SALEH NO. 11","Prop. Banten","SMA","-6.2221000","106.7076000"
"20606851","SMAN 11 TANGERANG","JL. GATOT SUBROTO KM. 6-8 JATIUWUNG","Prop. Banten","SMA","-6.2051000","106.5758000"
"69896654","SMA BRITISH SCHOOL JAKARTA","Bintaro Jaya Sektor IX, Jl. Raya Jombang","Prop. Banten","SMA","-6.2832990","106.7043710"
"20603361","SMAN 3 KABUPATEN TANGERANG","JL. RAYA CURUG KM. 2","Prop. Banten","SMA","-6.2379000","106.5621000"
"20600439","SMAS MATHLAUL ANWAR MENES","JL. RAYA LABUAN KM. 28 KB. JERUK","Prop. Banten","SMA","-6.3884000","105.9222000"
"20606501","SMAS ISLAMIC CENTRE","JL. CIUJUNG RAYA NO. 4","Prop. Banten","SMA","-6.2054000","106.6131000"
"69896001","SMA PELITA HARAPAN KARAWACI`","JL BOULEVARD PALEM RAYA 2500 LIPPO KARAWACI","Prop. Banten","SMA","-6.2364270","106.6246050"
"69946232","SMAN 3 CIBEBER","KP. TEGALLUMBU","Prop. Banten","SMA","-6.7982725","106.3887373"
"69787117","SMAS BINA PUTRA","JL. GATOT SUBROTO KEDAUNG BARAT","Prop. Banten","SMA","-6.1185000","106.6266000"
"20616362","SMAS TERPADU AL-QUDWAH","JL. MAULANA HASANUDIN KP. CEMPA RT.01/RW. 01","Prop. Banten","SMA","-6.3557883","106.2352533"
"20603164","SMAS DAAR EL QOLAM","JL. RAYA SERANG KM 35 GINTUNG","Prop. Banten","SMA","-6.1835000","106.3969000"
"20603348","SMAS KEBANGSAAN","JL.RAYA PONDOK AREN","Prop. Banten","SMA","-6.2631000","106.7190000"
"20605109","SMAN 1 MANCAK","JL. RAYA CIBADAK-ANYER","Prop. Banten","SMA","-6.0907000","105.9865000"
"20606523","SMAS MANGGALA","JL. HOS COKROMINOTO GG. H. ILYAS NO. 63","Prop. Banten","SMA","-6.2248000","106.7132000"
"20606502","SMAS ASY SYUKRIYAH","JL. KH. HASYIM ASHARI KM. 3 CIPONDOH","Prop. Banten","SMA","-6.1868000","106.6583000"
"20613811","SMAS TERPADU AL JAUHAROTUNNAQIYYAH","JL. KP. WANAYASA","Prop. Banten","SMA","-6.0372000","106.0992000"
"20613992","SMAS AL KAUTSAR CURUG","JL. RAYA SERANG - PANDEGLANG KM 9 SERANG","Prop. Banten","SMA","-6.1865000","106.1439000"
"20606270","SMAN 3 CILEGON","JL LEBAKAYANG BULAKAN CIBEBER","Prop. Banten","SMA","-6.0650000","106.0473000"
"20603366","SMAN 9 KABUPATEN TANGERANG","Jl. Pasar Baru No. 1 Kronjo","Prop. Banten","SMA","-6.0601000","106.4221000"
"20605366","SMAN 1 CARENANG","JL. WARUNG SALIKUR KM. 4 CARENANG","Prop. Banten","SMA","-6.0491000","106.3386000"
"20601876","SMAN 1 MAJA","JL. KEBON KALAPA NO. 1 MAJA","Prop. Banten","SMA","-6.3382100","106.3919333"
"69947279","SMA ISTAFAD ISLAMIC SCHOOL","JL RAYA MAUK KM. 15","Prop. Banten","SMA","-6.0899047","106.5618527"
"20603353","SMAS PGRI BALARAJA","JL. RAYA SERANG KM. 24,5","Prop. Banten","SMA","-6.1997000","106.4559000"
"20613520","SMAS SANTA LAURENSIA","JL. SUTERA UTAMA NO. 1 ALAM SUTERA","Prop. Banten","SMA","-6.2654000","106.7229000"
"69754032","SMAS INSAN CENDEKIA MADANI","JL. CIATER RAYA (H. AMAT) MARUGA","Prop. Banten","SMA","-6.3202000","106.6982000"
"20603356","SMAS YUPPENTEK 3","JL. RAYA PLP  NO. 47","Prop. Banten","SMA","-6.2838000","106.5547000"
"20603360","SMAN 8 KABUPATEN TANGERANG","JL. SILIWANGI NO. 30 CISOKA","Prop. Banten","SMA","-6.2686000","106.4276000"
"69862660","SMA AL-FATH","JL. SUNAN AMPEL LINK. KUBANG MENYAWAK RT.04/01","Prop. Banten","SMA","-6.0016210","105.9992490"
"69945479","SMAS PLUS DARUL HIKMAH","CICAYUR RT.001 RW.001 CIASUK","Prop. Banten","SMA","-6.3484947","106.6345665"
"69899343","SMA ISLAM TERPADU GRANADA","Jln. Ki Mulud, Kp. Baru Rt. 001/03 Bojong Jaya","Prop. Banten","SMA","-6.2089000","106.6166000"
"20600434","SMAN 17 PANDEGLANG","JL. RAYA CIGEULIS KM. 2","Prop. Banten","SMA","-6.5326000","105.7116000"
"20613794","SMAN 1 GUNUNG SARI","JL. RAYA GUNUNG SARI-ANYER","Prop. Banten","SMA","-6.1544000","106.0580000"
"20616229","SMAN 2 CIBEBER","Kp. SUKAMAJU","Prop. Banten","SMA","-6.6995000","106.3366000"
"20613885","SMAS ISLAM PEMBANGUNAN SAJIRA","Jl.Kopi-Maja Km.01","Prop. Banten","SMA","-6.3953000","106.3229000"
"20603312","SMAN 5 KOTA TANGERANG SELATAN","PURI BINTARO HIJAU BLOK F IV","Prop. Banten","SMA","-6.2498000","106.7090000"
"20613468","SMAS NURUL IMAN","KP. BARU KEC. REJEG, TANGERANG","Prop. Banten","SMA","-6.1136000","106.4845000"
"20613474","SMAS DAAR EL AZHAR RANGKASBITUNG","JL. KOMPLEK PENDIDIKAN","Prop. Banten","SMA","-6.3571750","106.2585883"
"20613447","SMAS MUHAJIRIN","JL. RAYA SERANG KM. 14","Prop. Banten","SMA","-6.2183000","106.5307000"
"20614004","SMAS MENTARI BINTARO","JL.PERIGI BARU","Prop. Banten","SMA","-6.2613000","106.6903000"
"69948427","SMA ERENOS","Jl. Palapa Rt. 003 Rw.18 Parung Benying","Prop. Banten","SMA","-6.3054590","106.7185757"
"20603342","SMAS ISLAM AL-AZHAR BSD","PUSPITA LOKA SEKTOR III.2 BSD","Prop. Banten","SMA","-6.2922000","106.6768000"
"20613472","SMAS DARUL AHSAN","JL. SERANG KM 31","Prop. Banten","SMA","-6.2055000","106.4172000"
"20606499","SMAS PERGURUAN BUDDHI","JL. IMAM BONJOL NO. 41","Prop. Banten","SMA","-6.1866000","106.6175000"
"20601878","SMAN 1 GUNUNG KENCANA","JL. RAYA GUNUNGKENCANA-CIJAKU KM. 3","Prop. Banten","SMA","-6.5593000","106.0844000"
"20607991","SMA ISLAM NURUL FIKRI","JL. PALKA KP. CIHIDEUNG","Prop. Banten","SMA","-6.1998000","105.8988000"
"69944512","SMA MUHAMMADIYAH BOJONGMANIK","JL. LAPANGAN BOJONGMANIK","Prop. Banten","SMA","-6.5586994","105.9053491"
"20607805","SMAN CMBBS","JL. RAYA PANDEGLANG LABUAN KM. 03","Prop. Banten","SMA","-6.3174000","106.0800000"
"20606833","SMAS STRADA ST AQUINO","JL KAPLING SURYA PABUARAN","Prop. Banten","SMA","-6.1804000","106.6194000"
"20616379","SMA SWASTA ANDERSON SCHOOL","Jl. KP. CIATER No.41 RT.03/02","Prop. Banten","SMA","-6.2986000","106.6925000"
"69756416","SMAS WASKITO","JL. RAYA PAMULANG PERMAI II NO.75","Prop. Banten","SMA","-6.3082000","106.7127000"
"20613771","SMAN 28 KABUPATEN TANGERANG","JL. RAYA CISAUK - LAPAN","Prop. Banten","SMA","-6.3366000","106.6368000"
"20600436","SMAS AL BARKAH","JL. KAMELANGAN NO. 1 KM. 2 BABAKAN SOMPOK","Prop. Banten","SMA","-6.3752000","106.0391000"
