"schoolId","schoolName","schoolAddress","province","school_level","lat","long"
"10901411","SMAN 1 SIMPANG RIMBA","JL. BATIN TIKAL SP. RIMBA","Prop. Bangka Belitung","SMA","-2.8006000","106.0344000"
"10900631","SMAN 1 JEBUS","JL. RAYA JEBUS NO. 331","Prop. Bangka Belitung","SMA","-1.7403000","105.4542000"
"69947890","SMA NEGERI 2 PUDING BESAR","JL. RAYA DESA SAING","Prop. Bangka Belitung","SMA","-2.0294208","105.8862158"
"10901135","SMAN 3 PANGKAL PINANG","JL. MENTOK","Prop. Bangka Belitung","SMA","-2.1400770","106.0935300"
"10901371","SMAS BAHRUL ULUM","JL. MATRAS LAMA","Prop. Bangka Belitung","SMA","-1.8177000","106.0939000"
"10901559","SMA N 1 BAKAM","JL. RAYA MENTOK PK. PINANG","Prop. Bangka Belitung","SMA","-1.9517000","105.8367000"
"10901435","SMAN 1 PANGKALAN BARU","JL Green Babel","Prop. Bangka Belitung","SMA","-2.1841000","106.1554000"
"69760809","SMAN 1 PARITTIGA","DESA TELAK","Prop. Bangka Belitung","SMA","-1.6802000","105.5605000"
"10900629","SMAN 1 KELAPA","JL. RAYA KELAPA NO.03","Prop. Bangka Belitung","SMA","-1.8885000","105.6990000"
"10900236","SMAN 1 MERAWANG","JL. BARU SIMPANG SERANDANG","Prop. Bangka Belitung","SMA","-1.9665000","106.0080000"
"10900238","SMAN 1 BELINYU","JL. M. SYAFRI RACHMAN BELINYU","Prop. Bangka Belitung","SMA","-1.6494000","105.7872000"
"10900458","SMAN 2 TANJUNG PANDAN","JL. JEND. SUDIRMAN KM.7 PERAWAS TG. PANDAN","Prop. Bangka Belitung","SMA","-2.7485000","107.6924000"
"69899943","SMA NEGERI 1 PULAU BESAR","Komplek Perkantoran Kota Terpadu Mandiri Kecamatan Pulau Besar","Prop. Bangka Belitung","SMA","-2.8564600","106.1425280"
"10900449","SMAN 1 MEMBALONG","JL AHMAD YANI MEMBALONG","Prop. Bangka Belitung","SMA","-3.1212000","107.6524000"
"10900880","SMAS YPK TOBOALI BANGKA","JL. JEND. SUDIRMAN TOBOALI","Prop. Bangka Belitung","SMA","-3.0099000","106.4573000"
"10901099","SMAS PGRI","JL. KAMPUNG MELAYU No. 301","Prop. Bangka Belitung","SMA","-2.1174830","106.0982230"
"10901104","SMAN 1 PANGKAL PINANG","JL. USMAN AMBON","Prop. Bangka Belitung","SMA","-2.1250330","106.1050420"
"10900450","SMAN 1 SIJUK","JL. MANUNGGAL SIJUK","Prop. Bangka Belitung","SMA","-2.5684000","107.7706000"
"10901098","SMAS MUHAMMADIYAH","JL. KH AHMAD DAHLAN","Prop. Bangka Belitung","SMA","-2.1464450","106.0924520"
"10901465","SMAN 1 RIAU SILIP","JL. RAYA BELINYU","Prop. Bangka Belitung","SMA","-1.7353000","105.8778000"
"10900211","SMAS HARAPAN SUNGAILIAT","JL.CENDRAWASIH SUNGAILIAT","Prop. Bangka Belitung","SMA","-1.8599000","106.1109000"
"10900239","SMAS YPN BELINYU","JL. M. SYAFRI RACHMAN BELINYU","Prop. Bangka Belitung","SMA","-1.6221000","105.8390000"
"10901410","SMAN 1 LEPAR PONGOK","JL. MERDEKA NO. 1","Prop. Bangka Belitung","SMA","-2.9895000","106.7763000"
"10901017","SMAN 1 SIMPANG PESAK","JL. P2D SIMPANG PESAK","Prop. Bangka Belitung","SMA","-3.1138000","107.9608000"
"10901346","SMAN 1 TEMPILANG","JL. RAYA TEMPILANG","Prop. Bangka Belitung","SMA","-2.1061000","105.6591000"
"10900625","SMAS BAKTI PARITTIGA","JL. RAYA KANTOR POS DAN GIRO JEBUS","Prop. Bangka Belitung","SMA","-1.6703000","105.5079000"
"10900633","SMAS PLUS NURUL HUDA","JL. TELKOM BUKIT KATAK TEMPILANG","Prop. Bangka Belitung","SMA","-2.0724000","105.5791000"
"10900628","SMAN 1 MUNTOK","JL. JENDRAL SUDIRMAN NO. 109","Prop. Bangka Belitung","SMA","-2.0424000","105.2733000"
"10900233","SMAN 1 PUDING BESAR","JL. RAYA SUNGAILIAT MENTOK DESA PUDING BESAR 33179","Prop. Bangka Belitung","SMA","-2.0000000","105.9419000"
"10900878","SMAN 1 TOBOALI","JL. PUPUT TOBOALI, KAB. BANGKA SELATAN","Prop. Bangka Belitung","SMA","-3.0076000","106.4746000"
"69830475","SMA Negeri 1 Damar","Jl. Sumatera RT.024 RW. 011","Prop. Bangka Belitung","SMA","-3.0898240","107.9758030"
"10901003","SMAN 1 MANGGAR","JL. JEND. SUDIRMAN MANGGAR","Prop. Bangka Belitung","SMA","-2.8661000","108.2795000"
"10901103","SMAS TUNAS HARAPAN BANGSA","JL. MUSTIKA I NO.32","Prop. Bangka Belitung","SMA","-2.1377270","106.1227750"
"10901134","SMAN 2 PANGKAL PINANG","JL. KALAMAYA","Prop. Bangka Belitung","SMA","-2.1385450","106.1424270"
"10900766","SMAN 1 SUNGAI SELAN","JL. RAYA SUNGAI SELAN","Prop. Bangka Belitung","SMA","-2.3433000","106.0370000"
"10901015","SMAS PERGIB 3 GANTUNG","JL. JAYA GANTUNG","Prop. Bangka Belitung","SMA","-2.9491000","108.1474000"
"69849077","SMAN 2 MENDO BARAT","JL. AMD DESA PENAGAN","Prop. Bangka Belitung","SMA","-2.2664000","105.8200000"
"10900457","SMAS MUHAMMADIYAH TG PANDAN","JL. JEND SUDIRMAN KM. 4 AIR RAYA","Prop. Bangka Belitung","SMA","-2.7031000","107.6329000"
"10900224","SMAS SETIA BUDI","JL. JEND. SUDIRMAN 16 SUNGAILIAT BANGKA","Prop. Bangka Belitung","SMA","-1.8616000","106.1164000"
"10901434","SMAN 1 LUBUK BESAR","JL. RAYA LUBUK BESAR","Prop. Bangka Belitung","SMA","-2.6628000","106.6071000"
"10900212","SMAS YPDB BELINYU","JL. M. SYAFRI RACHMAN BELINYU","Prop. Bangka Belitung","SMA","-1.6501000","105.7879000"
"10900454","SMAS PGRI TANJUNG PANDAN","JL. DR.SUSILO TANJUNGPANDAN","Prop. Bangka Belitung","SMA","-2.7157000","107.7292000"
"10900630","SMAN 1 SP TERITIP","JL. RAYA PK. PINANG - MUNTOK KM. 104","Prop. Bangka Belitung","SMA","-1.9390000","105.3918000"
"10900634","SMAS MARI AYU KELAPA","JL. RAYA KELAPA TIMUR","Prop. Bangka Belitung","SMA","-1.9005000","105.5920000"
"10901153","SMAN 4 PANGKAL PINANG","JL. A.HUNDANI","Prop. Bangka Belitung","SMA","-2.1012250","106.1131230"
"10901018","SMAN 1 GANTUNG","JL. JEND. SUDIRMAN GANTUNG","Prop. Bangka Belitung","SMA","-2.9744000","108.1559000"
"10900235","SMAN 1 PEMALI","JL. DR. SOETOMO AIR DUREN","Prop. Bangka Belitung","SMA","-1.8995000","106.0563000"
"10901412","SMAN 2 TOBOALI","DUSUN SUKAMAJU, TRANS RIAS SP. C","Prop. Bangka Belitung","SMA","-2.9343630","106.4142840"
"10900459","SMAN 1 TANJUNG PANDAN","JL. GATOT SUBROTO TANJUNGPANDAN","Prop. Bangka Belitung","SMA","-2.7092000","107.6912000"
"10901100","SMAS SANTO YOSEF","JL. SOLIHIN","Prop. Bangka Belitung","SMA","-2.1443820","106.0962470"
"10901101","SMAS SWADAYA","jalan GUDANG PADI No.16","Prop. Bangka Belitung","SMA","-2.1321000","106.1182000"
"10901468","SMAN 1 KEP. PONGOK","JL. PADANG BOLA PONGOK","Prop. Bangka Belitung","SMA","-2.8753020","107.0290410"
"10900237","SMAN 1 MENDO BARAT","JL. PAHLAWAN 12","Prop. Bangka Belitung","SMA","-2.1343000","106.0014000"
"10900213","SMAS BAKTI SUNGAI LIAT","JL. KI HAJAR DEWANTARA","Prop. Bangka Belitung","SMA","-1.8589000","106.1199000"
"10900779","SMAN 1 NAMANG","JL. RAYA KOBA KM.21","Prop. Bangka Belitung","SMA","-2.2863000","106.1725000"
"10900209","SMAS MUHAMMADIYAH SUNGAILIAT","JL. CENDRAWASIH IV","Prop. Bangka Belitung","SMA","-1.8771000","106.1117000"
"10900893","SMAS MUHAMMADIYAH TOBOALI","JL. JEND. SUDIRMAN TOBOALI","Prop. Bangka Belitung","SMA","-3.0001650","106.4735400"
"10901409","SMAN 1 AIRGEGAS","JL. DEPAN PUSKESMAS AIRGEGAS","Prop. Bangka Belitung","SMA","-2.7017000","106.3882000"
"10900232","SMAN 1 SUNGAI LIAT","JL. PEMUDA SUNGAILIAT","Prop. Bangka Belitung","SMA","-1.8854000","106.1079000"
"10901019","SMAN 1 KELAPA KAMPIT","JL. BERINGIN II KELAPA KAMPIT","Prop. Bangka Belitung","SMA","-2.6988000","108.1351000"
"10900632","SMAS SINAR JAYA TEMPILANG","JL.PANGLIMA ANGIN TEMPILANG","Prop. Bangka Belitung","SMA","-1.9762000","105.6930000"
"10901097","SMAS DEPATI AMIR","JL. YOS SUDARSO","Prop. Bangka Belitung","SMA","-2.1031440","106.1211130"
"10901357","SMAN 2 SUNGAI SELAN","JL. RAYA SUNGAI SELAN DESA KERETAK","Prop. Bangka Belitung","SMA","-2.3747000","105.8344000"
"10901016","SMAS PERGIB MANGGAR","JL. WISMA RIA II MANGGAR","Prop. Bangka Belitung","SMA","-2.8689000","108.2843000"
"69954754","SMA DIAN HARAPAN BANGKA","JL. SOEKARNO HATTA","Prop. Bangka Belitung","SMA","-2.2095880","106.1483320"
"10900778","SMAN 1 KOBA","JL. RAYA ARUNG DALAM","Prop. Bangka Belitung","SMA","-2.5350000","106.3497000"
"10900879","SMAN 1 PAYUNG","JL. MAYOR SYAFRI RAHMAN","Prop. Bangka Belitung","SMA","-2.5953000","106.1437000"
