"schoolId","schoolName","schoolAddress","province","school_level","lat","long"
"11002071","SMAN 1 SINGKEP BARAT","JL. RAJA ALI HAJI","Prop. Kepulauan Riau","SMA","-.5476000","104.3839000"
"11003223","SMAN 2 MORO","JL.KEMPAS DUSUN NIUR","Prop. Kepulauan Riau","SMA",".8737700","103.7545720"
"11002813","SMAN 2 SENAYANG","JL. PASIR BUGIS","Prop. Kepulauan Riau","SMA",".0707000","104.6483000"
"11001975","SMAN 6 TANJUNG PINANG","JL. RAYA SENGGARANG KM. 23","Prop. Kepulauan Riau","SMA",".9586650","104.4436933"
"69774886","SMAS KALLISTA","KOMP. COSTA RICA, JL. ENGKU PUTRI BATAM CENTER","Prop. Kepulauan Riau","SMA","1.1175000","104.0998000"
"11002194","SMAN 10 BATAM","JL.TRANSBARELANG","Prop. Kepulauan Riau","SMA",".6609000","104.2623000"
"11002044","SMAN 1 JEMAJA","JL. PADANG MELANG","Prop. Kepulauan Riau","SMA","2.9884000","105.7152000"
"11003244","SMAS MAITREYAWIRA","JL.IR SUTAMI","Prop. Kepulauan Riau","SMA",".9109350","104.4577383"
"11002257","SMAN 2 BINTAN","JL. GESEK KM 25 KAWAL","Prop. Kepulauan Riau","SMA",".9794000","104.5836000"
"11000436","SMAN 4 TANJUNG PINANG","JL. PEMUDA","Prop. Kepulauan Riau","SMA",".9019517","104.4631167"
"11002183","SMAS ANANDA","JL. RADEN PATAH BALOI BLOK III, LUBUK BAJA","Prop. Kepulauan Riau","SMA","1.1383000","104.0129000"
"11002048","SMAN 1 SUBI","JL. PENDIDIKAN","Prop. Kepulauan Riau","SMA","2.9194000","108.8134000"
"11000223","SMAN 2 KARIMUN","JL. RAJA OESMAN","Prop. Kepulauan Riau","SMA",".9983000","103.4103000"
"11002499","SMAN 1 BUNGURAN SELATAN","CEMAGA","Prop. Kepulauan Riau","SMA","3.7869000","108.3493000"
"69920630","SMAS PUTRA PERSADA BATAM","JL. MUHAMMAD KAMPUNG MELAYU","Prop. Kepulauan Riau","SMA","1.1707668","104.1001968"
"11002195","SMAN 11 BATAM","JL. RAJA ALI,  NO. 1","Prop. Kepulauan Riau","SMA","1.1201000","103.9605000"
"69950402","SMA MONTE SIENNA","JL. YOS SUDARSO","Prop. Kepulauan Riau","SMA","1.1820989","104.0098368"
"69815387","SMAS PERMATA HARAPAN","Komp.Batu Batam Mas Blok D & E No. 1,2,3 Batam","Prop. Kepulauan Riau","SMA","1.1369000","104.0184000"
"11002043","SMAN 1 BUNGURAN UTARA","JL. H. Ibrahim No 1","Prop. Kepulauan Riau","SMA","4.0173000","108.0464000"
"11002484","SMAN 7 BINTAN","Gin Besar","Prop. Kepulauan Riau","SMA",".7756000","104.7280000"
"69902518","SMAS PERMATA HARAPAN 2 BATAM","Komp. Batu Aji Centre","Prop. Kepulauan Riau","SMA","1.0261391","103.9882198"
"11002042","SMAN 1 BUNGURAN BARAT","JL. PELAJAR NO 2 SEDANAU","Prop. Kepulauan Riau","SMA","3.9378000","108.1135000"
"11002455","SMAN 13 BATAM","TELUK SUNTI","Prop. Kepulauan Riau","SMA",".9759420","103.7716070"
"69859728","SMAN 2 PALMATAK","MUBUR","Prop. Kepulauan Riau","SMA","3.3124590","106.2542340"
"11002204","SMAS KATOLIK YOS SUDARSO","Jalan Dang Merdu no 2","Prop. Kepulauan Riau","SMA","1.0473000","104.0547000"
"69953268","SMA NEGERI 9 BINTAN","JL. Bukit Cermin","Prop. Kepulauan Riau","SMA",".8735224","104.6342247"
"11002070","SMAN 1 SINGKEP","JL. PELAJAR","Prop. Kepulauan Riau","SMA","-.4897000","104.5714000"
"11000241","SMAN 1 KUNDUR","JL. SUNARIO KM 3.5 TG BATU BARAT","Prop. Kepulauan Riau","SMA",".6774030","103.4472980"
"11002031","SMAN 5 KUNDUR","JL. PULAI PASUNG, ALOR PISANG IV, BATU LIMAU","Prop. Kepulauan Riau","SMA",".6360930","103.4814600"
"69943579","SMA ISLAM NABILLAH","Komp. Masjid Amanatul Ummah Taman Dutamas","Prop. Kepulauan Riau","SMA","1.1083832","104.0580271"
"11002202","SMAN 8 BATAM","BENGKONG SADAI, BATU AMPAR","Prop. Kepulauan Riau","SMA","1.1529000","104.0368000"
"69762629","SMAN 1 BUNGURAN TENGAH","JL. PELAJAR NO.2","Prop. Kepulauan Riau","SMA","3.8929000","108.2374000"
"11000224","SMAN 1 MORO","JL. RAJA HAJI","Prop. Kepulauan Riau","SMA",".7632530","103.7064370"
"11001976","SMAS PGRI TPI TIMUR","JL. KIJANG LAMA KM. 7","Prop. Kepulauan Riau","SMA",".9194233","104.4839100"
"11002457","SMAN 14 BATAM","JL. TAMALATEA, TG. SENGKUANG","Prop. Kepulauan Riau","SMA","1.1827000","104.0153000"
"11002046","SMAN 1 PALMATAK","JL M YUSUF","Prop. Kepulauan Riau","SMA","3.3576000","106.2943000"
"11001974","SMAS MUHAMMADIYAH T PINANG","JL. MT. HARYONO 7 Telp.: 0771312227","Prop. Kepulauan Riau","SMA",".9220200","104.4610583"
"11002569","SMAS ADVENT","JL. PROF. DR. HAMKA","Prop. Kepulauan Riau","SMA","1.0428000","103.9895000"
"11000360","SMAN 1 BATAM","JL. R. SOEPRAPTO","Prop. Kepulauan Riau","SMA","1.1144000","103.9507000"
"11002068","SMAN 1 LINGGA UTARA","JL. KUKANG - DUARA, PANCUR","Prop. Kepulauan Riau","SMA","-.0515000","104.5951000"
"11002450","SMAN 2 BUNGURAN BARAT","GUNUNG PUTRI","Prop. Kepulauan Riau","SMA","4.0018000","108.0954000"
"69932323","SMAS BINA NUSANTARA BATAM","Town House Komplek Plamo Garden Blok G4 No. 9-14 Batam Centre","Prop. Kepulauan Riau","SMA","1.1251346","104.0485093"
"69912787","SMAS KRISTEN BASIC BATAM","KAWASAN INDUSTRI N) 1 BATAM","Prop. Kepulauan Riau","SMA","1.1161000","104.0483000"
"11002579","SMAS INTEGRAL HIDAYATULLAH","KP. PASIR INDAH RT.01/16, KEL.KIBING","Prop. Kepulauan Riau","SMA",".9837000","104.0326000"
"60725467","SMAN 4 SENAYANG","JL. PENARAH DESA TAJUR BIRU","Prop. Kepulauan Riau","SMA",".3256000","104.3107000"
"11002047","SMAN 1 SERASAN","JL. PANTAI SISI NO. 2","Prop. Kepulauan Riau","SMA","2.5147000","109.0407000"
"69944369","SMA PELITA UTAMA","Jl. Yos Sudarso Blok A No 4-5","Prop. Kepulauan Riau","SMA","1.1441465","104.0055537"
"11002258","SMAN 6 BINTAN","JL. TENGKU HASAN BIN TENGKU SINDOET NO. 1","Prop. Kepulauan Riau","SMA",".9971000","107.5618000"
"69883589","SMAS TERBUKA STIPAK","KOMP NUSANTARA GOLDEN B3B JL. RAYA ENGKU PUTRI","Prop. Kepulauan Riau","SMA","1.1423300","104.0375250"
"69872144","SMAN 19 BATAM","JL. BRIGJEN KATAMSO","Prop. Kepulauan Riau","SMA","1.0462940","103.9730030"
"11002034","SMAS SANTO YUSUP","JL.SIDOMULYA II","Prop. Kepulauan Riau","SMA","1.0028680","103.4257200"
"11002197","SMAN 3 BATAM","JL. RAJAWALI, KEL. BELIAN","Prop. Kepulauan Riau","SMA","1.1308000","104.1027000"
"11000221","SMAN 2 KUNDUR","JL. HANG TUAH KM. 4 TG. BERLIAN","Prop. Kepulauan Riau","SMA",".7667870","103.4573680"
"69854725","SMA NEGERI 8 BINTAN","Jl. Bathin Daut RT006/RW001","Prop. Kepulauan Riau","SMA",".7798320","104.5477910"
"11002027","SMAN 3 KARIMUN","JL. LETJEND SUPRAPTO SEI. RAYA","Prop. Kepulauan Riau","SMA","1.0364770","103.3554550"
"11002506","SMAN 1 SIANTAN TIMUR","JL. TANJUNG KARANG NO. 1 DESA NYAMUK","Prop. Kepulauan Riau","SMA","3.0675000","106.3482000"
"11001977","SMAS KATOLIK SANTA MARIA","Jl. ANGGREK MERAH BATU KUCING","Prop. Kepulauan Riau","SMA",".9123183","104.4714517"
"11002256","SMAN 5 BINTAN","JL. SAKERA NO. 11","Prop. Kepulauan Riau","SMA","1.1149000","104.2435000"
"60728420","SMAS GLOBE NATIONAL PLUS","JL. SRIWIJAYA NO. 18, KEL. PELITA","Prop. Kepulauan Riau","SMA","1.1413000","104.0270000"
"11002203","SMAN 9 BATAM","KEL. KARAS KEC. GALANG","Prop. Kepulauan Riau","SMA",".6732000","104.2861000"
"11002186","SMAS ISLAM HANG TUAH","JL. RANAI NO. 11, BENGKONG POLISI","Prop. Kepulauan Riau","SMA","1.1632000","104.0205000"
"11002261","SMAS YKPP BINTAN UTARA","JL. CEMPAKA KOMPLEK PERTAMINA","Prop. Kepulauan Riau","SMA","1.0689000","104.2176000"
"69888766","SMA ISLAM AL-AZHAR 13 BINTAN","JL. NUSANTARA KM. 18","Prop. Kepulauan Riau","SMA",".8315166","104.5634780"
"69862668","SMA SWASTA DJUWITA","JL. D.I PANDJAITAN KM.9 KOMP.BINTAN CENTER","Prop. Kepulauan Riau","SMA",".9175633","104.5062583"
"11002026","SMAN 1 DURAI","JL. SERSAN H. IBRAHIM YAKOP DURAI","Prop. Kepulauan Riau","SMA",".5173570","103.6042820"
"11002361","SMAS PELITA NUSANTARA","JL. BASUKI RAHMAT NO. 15","Prop. Kepulauan Riau","SMA",".9071767","104.4623250"
"11000434","SMAN 2 TANJUNG PINANG","Jl. Basuki Rachmat No.4","Prop. Kepulauan Riau","SMA",".9067517","104.4602900"
"11003004","SMAS HARAPAN UTAMA","JL. ROSEDALE SIMPANG FRENGKY","Prop. Kepulauan Riau","SMA","1.1195000","104.0610000"
"11003005","SMAS AL - KAUTSAR","JL.PATIMURA","Prop. Kepulauan Riau","SMA","1.0646000","104.1210000"
"11002051","SMAN 1 PULAU LAUT","Jln. Datuk Kaya Muhammad Dun Kota Baru Kec. Pulau laut","Prop. Kepulauan Riau","SMA","4.0460000","108.3057000"
"11002198","SMAN 4 BATAM","JL. GAJAH MADA, TIBAN LAMA","Prop. Kepulauan Riau","SMA","1.0531000","104.0022000"
"11002255","SMAN 1 BINTAN","JL. KORINDO. KM.21 RT 001 RW 002 KELURAHAN SEI LEKOP KECAMATAN BINTAN TIMUR","Prop. Kepulauan Riau","SMA",".8533000","104.6004000"
"11002045","SMAN 1 MIDAI","JL. RAYA TANJUNG LAMPUNG","Prop. Kepulauan Riau","SMA","3.0115000","107.7709000"
"11000435","SMAN 3 TANJUNG PINANG","JL. TUGU PAHLAWAN","Prop. Kepulauan Riau","SMA",".9204250","104.4465817"
"11002189","SMAS KARTINI","JL. BUDI KEMULIAAN NO. 1, SERAYA","Prop. Kepulauan Riau","SMA","1.1384000","103.9213000"
"11002778","SMAN 1 BUNGURAN TIMUR LAUT","Jl. Wan Lempam","Prop. Kepulauan Riau","SMA","4.0164000","108.3415000"
"11000321","SMAN 1 SIANTAN","JL. BATU TABIR RINTIS DESA TAREMPA SELATAN","Prop. Kepulauan Riau","SMA","3.0958810","105.6514040"
"11002069","SMAN 1 SENAYANG","JL. SAMUDERA KAMPUNG BARU","Prop. Kepulauan Riau","SMA",".1785890","104.5576230"
"11002187","SMAS HARAPAN","KOMP. NAGA JAYA","Prop. Kepulauan Riau","SMA",".9986000","104.0308000"
"11003053","SMAN 1 SERASAN TIMUR","ARUNG AYAM","Prop. Kepulauan Riau","SMA","2.5096000","109.0526000"
"11002032","SMAS DARUL FURQAN","JL. PENDIDIKAN SAWANG LAUT","Prop. Kepulauan Riau","SMA",".7652000","103.3667120"
"11002200","SMAN 6 BATAM","JL.SALO AIR RAJA","Prop. Kepulauan Riau","SMA",".7255000","104.2552000"
"11002199","SMAN 5 BATAM","JL. KAVLING LAMA","Prop. Kepulauan Riau","SMA","1.0179000","103.9537000"
"11002196","SMAN 12 BATAM","Jl.Pantai Indah","Prop. Kepulauan Riau","SMA","1.1347000","103.9947000"
"11002201","SMAN 7 BATAM","JL. KASU BARAT, PULAU KASU","Prop. Kepulauan Riau","SMA","1.0734000","103.8236000"
"11002458","SMAN 15 BATAM","JL.HANG KESTURI","Prop. Kepulauan Riau","SMA","1.1277546","104.1041606"
"69900648","SMAS Bodhi Dharma batam","Komp. Limindo Trade Centre Batam Centre","Prop. Kepulauan Riau","SMA","1.1113000","104.0358000"
"11002033","SMAS MAHA BODHI KARIMUN","JL. BHAKTI BUKIT SENANG","Prop. Kepulauan Riau","SMA",".9971170","103.4318930"
"11002072","SMAN 2 SINGKEP","JL. KARTINI","Prop. Kepulauan Riau","SMA","-.4820000","104.5525000"
"11002025","SMAN 1 BURU","JL. SEI. BURU PANGKALAN BALAI","Prop. Kepulauan Riau","SMA",".9095580","103.4924220"
"11000322","SMAN 1 BUNGURAN TIMUR","JL. PRAMUKA NO. 12 RANAI","Prop. Kepulauan Riau","SMA","3.9377000","108.2847000"
"69915801","SMAN 21 BATAM","Kavlling Danau Indah Kabil","Prop. Kepulauan Riau","SMA","1.0706000","104.1152000"
"60728419","SMAN 17 BATAM","KAVLING BUKIT SEROJA.","Prop. Kepulauan Riau","SMA","1.1285030","104.1217910"
"11000433","SMAN 1 TANJUNG PINANG","JL. DR. SOETOMO","Prop. Kepulauan Riau","SMA",".9195182","104.4479995"
"11002028","SMAN 3 KUNDUR","JL. BESAR SEI. UNGAR","Prop. Kepulauan Riau","SMA",".7074430","103.4820730"
"11002191","SMAS MONDIAL","Pasir Putih-Ocarina Batam Centre","Prop. Kepulauan Riau","SMA","1.1229000","103.9428000"
"11000240","SMAN 1 KARIMUN","JL. R OESMAN KAPLING","Prop. Kepulauan Riau","SMA","1.0066630","103.4230220"
"11002192","SMAS MUHAMMADYAH","JL. PROF. DR. HAMKA NO. 3, TEMBESI, KIBING","Prop. Kepulauan Riau","SMA","1.0364000","104.0906000"
"11003246","SMAN 2 LINGGA","JL. BATIN ENCIK MUHAMMAD SALEH 8","Prop. Kepulauan Riau","SMA","-.3060000","104.8991000"
"11002476","SMAS YEHONALA","KOMP.  RUKO AKU TAHU II C/1-10, SUNGAI PANAS","Prop. Kepulauan Riau","SMA","1.1335000","104.0331000"
"11002030","SMAN 4 KUNDUR","JL. PENDIDKAN LAYANG KOBEL","Prop. Kepulauan Riau","SMA",".7596950","103.3592750"
"11002185","SMAS GLOBAL INDO ASIA","JL. RAYA BATAM CENTRE KAV. SGIA","Prop. Kepulauan Riau","SMA","1.1228000","104.0512000"
"69915799","SMAN 20 BATAM","Jl. Pemuda","Prop. Kepulauan Riau","SMA","1.1129518","104.0309964"
"69950405","SMA IT IMAM SYAFII","Jl. HANG LEKIU NO. 03 BATU BESAR, NONGSA","Prop. Kepulauan Riau","SMA","1.1673463","104.0784842"
"11003243","SMAN 3 LINGGA","DESA PENUBA","Prop. Kepulauan Riau","SMA","-.3018000","104.4729000"
"11002029","SMAN 4 KARIMUN","JL. SEI BATI","Prop. Kepulauan Riau","SMA","1.0405150","103.3842970"
"11002259","SMAN 3 BINTAN","JL. TOK SADEK NO. 3 TEMBELING","Prop. Kepulauan Riau","SMA","1.0108000","104.4702000"
"11002184","SMAS DJUWITA","KOMP. ANGGREK MAS BATAM CENTRE","Prop. Kepulauan Riau","SMA","1.1106000","104.0467000"
"11003247","SMAN 3 SENAYANG","JL. PENDIDIKAN, DESA REJAI","Prop. Kepulauan Riau","SMA",".1735000","104.5308000"
"11002260","SMAN 4 BINTAN","JL. RAYA TANJUNG PINANG - TANJUNG UBAN KM 54","Prop. Kepulauan Riau","SMA","1.1087000","104.2391000"
"11000437","SMAN 5 TANJUNG PINANG","JL. HAJI AGUS SALIM","Prop. Kepulauan Riau","SMA",".9190967","104.4401017"
"11002518","SMAN 6 KUNDUR","JL.MANUNGGAL BUKIT RANGGAM","Prop. Kepulauan Riau","SMA",".8111830","103.5136270"
"11000359","SMAN 2 BATAM","JL. RAYA SEKANAK","Prop. Kepulauan Riau","SMA","1.1440000","103.8902000"
"11002581","SMAS MAITREYAWIRA","KOMP.MAHA VIHARA DUTA MAITREYA, BUKIT BERUNTUNG","Prop. Kepulauan Riau","SMA","1.1283000","104.0333000"
"11002049","SMAN 2 BUNGURAN TIMUR","JL. PATIMURA PERING","Prop. Kepulauan Riau","SMA","3.9910000","108.2631000"
"11002182","SMAS AL - AZHAR","JL. GN. BROMO BALOI INDAH","Prop. Kepulauan Riau","SMA","1.1144000","103.9511000"
"11002050","SMAN 1 PULAU TIGA","TANJUNG BATU","Prop. Kepulauan Riau","SMA","3.6895000","108.1112000"
"60728418","SMAN 16 BATAM","Jl. S. Parman Mangsang Permai RT. 5 RW. 1","Prop. Kepulauan Riau","SMA","1.0303280","104.0497610"
"11003261","SMA TUNAS BARU JIN SEUNG","Kav. Batu Aji Baru Blok C 12 No 3","Prop. Kepulauan Riau","SMA",".7662000","104.2292000"
"11002190","SMAS IMMANUEL","JL.RADEN PATAH","Prop. Kepulauan Riau","SMA","1.0661000","104.0162000"
"69863917","SMAN 18 Batam","Perumahan Taman Cipta Asri","Prop. Kepulauan Riau","SMA","1.0080720","103.9578920"
"11002067","SMAN 1 LINGGA","JL. ISTANA  ROBAT NO. 40","Prop. Kepulauan Riau","SMA","-.2058000","104.6247000"
