"schoolId","schoolName","schoolAddress","province","school_level","lat","long"
"69888392","SMA YPK AITUMIERI","KAMPUNG KAIBI","Prop. Papua Barat","SMA","-3.0035060","134.3709410"
"60400346","SMAS YPK 2","JL. CENDRAWASIH REMU UTARA","Prop. Papua Barat","SMA","-.8845290","131.2887510"
"60403786","SMA NEGERI 8 RAJA AMPAT","JL. MELATI","Prop. Papua Barat","SMA","-1.0500000","131.0666000"
"60403525","SMAN ORANSBARI","JL. GUNUNG WONDIF","Prop. Papua Barat","SMA","-1.3742000","134.2135000"
"60402064","SMAS YPK IMANUEL MANOKWARI","Jl. Pasir Putih Manokwari","Prop. Papua Barat","SMA","-.8715000","134.0976000"
"69879192","SMA NEGERI KAITARO","SARA","Prop. Papua Barat","SMA","-1.9681770","133.1160680"
"60403397","SMAS YPK BETHEL AIMAS KABUPATEN SORONG","JL. OSOK","Prop. Papua Barat","SMA","-.9564517","131.3514750"
"60403663","SMAS YPPK ST ARNOLDUS YANSEN","BINTUNI","Prop. Papua Barat","SMA","-2.0835000","133.6975000"
"69879194","SMA NEGERI KAMUNDAN","Kampung Kalitami Distrik Kamundan","Prop. Papua Barat","SMA","-2.1768690","132.6818890"
"60403914","SMAN MOMIWAREN","MOMIWAREN","Prop. Papua Barat","SMA","-1.5895000","134.1141000"
"69899492","SMA NEGERI 1 FEF","JL WAREF AYIA KAMPUNG WAYO","Prop. Papua Barat","SMA","-.9415000","132.3357000"
"60401776","SMAN 1 TEMINAMBUAN","JL. BRAWIJAYA","Prop. Papua Barat","SMA","-1.4442000","132.0153000"
"60403419","SMAS YPPK ST DON BOSCO FF","JL. M.T. HARYONO FAKFAK","Prop. Papua Barat","SMA","-2.8547000","132.3533000"
"60402072","SMA NEGERI 1 AITINYO","AITINYO","Prop. Papua Barat","SMA","-1.4929000","132.2779000"
"60400132","SMAN 1 PRAFI","Jalan Pendidikan Aimasi","Prop. Papua Barat","SMA","-.8798000","133.8198000"
"60403402","SMA NEGERI 6 KABUPATEN SORONG","JL. TRIKORA","Prop. Papua Barat","SMA","-1.3962000","130.9795000"
"60402065","SMAN AMBERBAKEN","TANJUNG KABAWI","Prop. Papua Barat","SMA","-.5602000","133.1550000"
"69830662","SMA LABSCHOOL STKIP MUH. KABUPATEN SORONG","Jl. KH, Ahmad Dahlan Pulau Arar","Prop. Papua Barat","SMA","-1.0018026","131.2468466"
"60400314","SMAS PAPUA 1","JL BASUKI RAHMAT","Prop. Papua Barat","SMA","-.9137000","131.3315000"
"60401962","SMAS YPK BINTUNI","JL. RAYA BINTUNI","Prop. Papua Barat","SMA","-2.1231000","133.5522000"
"60401552","SMAS YAPIS MANOKWARI","JL. S.  CONDRONEGORO, SH","Prop. Papua Barat","SMA","-.8608000","134.0659000"
"60403921","SMA NEGERI 1 AIFAT","JL. KUMURKEK AYAWASI","Prop. Papua Barat","SMA","-1.4088000","132.4173000"
"60403712","SMAS YPPK AGUSTINUS","JL. RAJAWALI NO.43","Prop. Papua Barat","SMA","-.8846000","131.2895000"
"60403596","SMAN KARAS","KAMP. TANJUNG PURKADI","Prop. Papua Barat","SMA","-3.4731000","132.7591000"
"60401877","SMA NEGERI 2 RAJA AMPAT","JL. KI HAJAR DEWANTARA","Prop. Papua Barat","SMA","-1.8597000","129.7898000"
"60400317","SMAS ISLAM GUPPI","JL. JEND.SUDIRMAN PASAR BARU","Prop. Papua Barat","SMA","-.8846700","131.2687220"
"69900980","SMA Negeri 2","JL. UTARUM AIR MERAH KAIMANA PAPUA BARAT","Prop. Papua Barat","SMA","-3.6597000","133.6958000"
"69830661","SMA NEGERI 10 KABUPATEN SORONG","Jl. Mambruk No. 24","Prop. Papua Barat","SMA","-1.4582290","131.2447950"
"60404141","SMA NEGERI 12 RAJA AMPAT","KAMPUNG FOLLEY","Prop. Papua Barat","SMA","-1.7314000","130.3216000"
"60403661","SMAN MEYADO","Jln.Pasir Putih Meyado","Prop. Papua Barat","SMA","-1.7288000","132.7066000"
"60400108","SMAS BINA TARUNA PAPUA MASNI","JL. POROS SP - 6 , SP - 7","Prop. Papua Barat","SMA","-.7995000","133.7264000"
"60402040","SMAS MUHAMMADIYAH AL-AMIN","JL. MERPATI NO. 17","Prop. Papua Barat","SMA","-.8815000","131.2906000"
"60403581","SMA NEGERI 7 KABUPATEN SORONG","MAYAMUK","Prop. Papua Barat","SMA","-1.0601067","131.2946666"
"60404139","SMA NEGERI 10 RAJA AMPAT","KAMPUNG URBINASOPEN","Prop. Papua Barat","SMA","-.3786460","131.2484620"
"60404128","SMAS YAPIS KAIMANA","JLN. UTARUM AIR MERAH","Prop. Papua Barat","SMA","-3.6546366","133.7247800"
"60401366","SMA NEGERI 2 KABUPATEN SORONG","JL.NANGKa MALAWILI","Prop. Papua Barat","SMA","-.9566517","131.3204046"
"60401125","SMAN 2 FAKFAK","JL. LA TONDE FF","Prop. Papua Barat","SMA","-2.8769000","132.3897000"
"69799877","SMA NEGERI KOKODA","JL. TEGERAI","Prop. Papua Barat","SMA","-2.0622000","132.2691000"
"60400378","SMAN 1 SORONG","JL. D. TOBA NO.2 KOTA SORONG","Prop. Papua Barat","SMA","-.8651000","131.2540000"
"60403662","SMAN TOFOI","TOFOI","Prop. Papua Barat","SMA","-2.6047000","133.2349000"
"60403782","SMA NEGERI 4 RAJA AMPAT","KAMPUNG LILINTA","Prop. Papua Barat","SMA","-2.0481000","130.2709000"
"60401774","SMA NEGERI 1 AYAMARU","JL. MARKUS SALOSSA, KAMP. FRAMU","Prop. Papua Barat","SMA","-1.2427000","132.0676000"
"60402057","SMAS GUPPI RAJA AMPAT","KAMPUNG FAFANLAP","Prop. Papua Barat","SMA","-.2237000","130.8982000"
"60401551","SMAS YABT MANOKWARI","JL. PAHLAWAN","Prop. Papua Barat","SMA","-.8671000","134.0601000"
"69879191","SMAN Saengga","Saengga","Prop. Papua Barat","SMA","-2.6847650","133.4646000"
"60401960","SMAS SANEWESYEN BINTUNI","JL. RAYA  BINTUNI","Prop. Papua Barat","SMA","-2.1216000","133.5388000"
"69856650","SMA Negeri 3 Manokwari","Jalan Trikora Arfai II Kampung Dihara","Prop. Papua Barat","SMA","-.9551850","133.9550830"
"60400315","SMAN 4 SORONG","JL. NOHO NO.2 DUM BARAT","Prop. Papua Barat","SMA","-.8885740","131.2351860"
"60404142","SMA NEGERI 11 RAJA AMPAT","KAMPUNG WARWANAI","Prop. Papua Barat","SMA","-.0401000","131.0521000"
"60403660","SMAN MERDEY","MERDEY","Prop. Papua Barat","SMA","-1.5833000","133.3330000"
"60401959","SMAS MUHAMMADIYAH BINTUNI","JL. RAYA BINTUNI RT. 01 RW. 02","Prop. Papua Barat","SMA","-2.1140000","133.5278000"
"60403473","SMAN 1 WONDAMA","MIEI","Prop. Papua Barat","SMA","-2.8036000","134.5298000"
"69849633","SMA YPP SILOAM KOTA SORONG","JL. JENDERAL SUDIRMAN","Prop. Papua Barat","SMA","-.9099040","131.3393330"
"60402063","SMAS YPPGI MANOKWARI","JL. PAHLAWAN WOSI","Prop. Papua Barat","SMA","-.8635000","134.0541000"
"60403908","SMAS KATOLIK VILLANOVA","JL.INAMBERI","Prop. Papua Barat","SMA","-1.1693000","133.0858000"
"60403784","SMAN 6 RAJA AMPAT","JL. F. AYELO","Prop. Papua Barat","SMA","-.0691000","130.1451000"
"60400313","SMAS PGRI SORONG","JL. DANAU SIDI","Prop. Papua Barat","SMA","-.8568000","131.2491000"
"60403380","SMAN 1 KAIMANA","JL. VETERAN","Prop. Papua Barat","SMA","-3.6635350","133.7650200"
"69935461","SMA Negeri Tembuni","Kampung Tembuni Rt. 01 Rw. 01","Prop. Papua Barat","SMA","-2.0568541","133.2846978"
"60400319","SMAS ADVENT","JL. PERINCI NO. 1","Prop. Papua Barat","SMA","-.8818000","131.2900000"
"60404163","SMA NEGERI 8 KABUPATEN SORONG","JL. POROS MAKBON","Prop. Papua Barat","SMA","-.7500317","131.5320650"
"60403488","SMAN PERSIAPAN BABO","JL. PENDIDIKAN BABO","Prop. Papua Barat","SMA","-2.5333000","133.4418000"
"60401124","SMAN KOKAS","KAMPUNG BARU KOKAS","Prop. Papua Barat","SMA","-2.7016000","132.4387000"
"60401773","SMAS YPK TEMINAMBUAN","JL. BRAWIJAYA","Prop. Papua Barat","SMA","-1.4050000","132.0246000"
"60400136","SMAS YPK OIKUMENE MANOKWARI","JL. MERAPI FANINDI","Prop. Papua Barat","SMA","-.8528000","134.0668000"
"69944064","SMAIT PERADABAN AL IZZAH KOTA SORONG","JL. SUNGAI REMU","Prop. Papua Barat","SMA","-.8798000","131.2980000"
"60403707","SMAN 3 SORONG","JL.  JENDERAL SUDIRMAN NO.49 KOTA SORONG","Prop. Papua Barat","SMA","-.8876000","131.2801000"
"60403787","SMA NEGERI 9 RAJA AMPAT","Jl.Hendrik Mayor No.2 Kampung Dorehkar","Prop. Papua Barat","SMA",".3675000","131.0545000"
"60404175","SMAN NEGRI 1 SAUSAPOR","DESA SAUSAPOR","Prop. Papua Barat","SMA","-1.0089000","132.4376000"
"69879197","SMA NEGERI MAYERGA","MAYERGA","Prop. Papua Barat","SMA","-1.5579000","132.6247000"
"60400139","SMAS ST PAULUS MANOKWARI","JL. SWAVEN PERKEBUNAN","Prop. Papua Barat","SMA","-.8596000","134.0563000"
"60403705","SMAS YPPKK MORIA","JL.BASUKI RAHMAT KM11","Prop. Papua Barat","SMA","-.8966830","131.3203780"
"60401876","SMA NEGERI 1 RAJA AMPAT","JL. FRANS KAISEPO","Prop. Papua Barat","SMA","-.4271183","130.8177800"
"60400318","SMAS AMPERA","JL. R. A. KARTINI","Prop. Papua Barat","SMA","-.8643000","131.2484000"
"69944288","SMA NEGERI 6 MEMBEY","Jalan Poros Membey","Prop. Papua Barat","SMA","-1.3006861","134.0623358"
"60403599","SMA YPPK SEMINARI PETRUS VAN DIEPEN KABUPATEN SORONG","JL. MELATI PERUM. MISI","Prop. Papua Barat","SMA","-.9835277","131.3119951"
"60400133","SMAN 1 MANOKWARI","JL. PALAPA REREMI","Prop. Papua Barat","SMA","-.8133000","133.4849000"
"69883616","SMA NEGERI ANGGI GIDA","KAMPUNG TOMBROK","Prop. Papua Barat","SMA","-1.3459250","133.9059340"
"60402131","SMAS YPPK ST THOMAS AQUINO","JL. LETTU IDRUS KAIMANA","Prop. Papua Barat","SMA","-3.6655183","133.7633183"
"60403781","SMA NEGERI 3 RAJA AMPAT","KAMPUNG DEER","Prop. Papua Barat","SMA","-1.1700000","129.8417000"
"60403426","SMAN WARMARE","DINDEY","Prop. Papua Barat","SMA","-.9712000","133.9444000"
"60404133","SMA OIKUMENE","JL. RAJAWALI","Prop. Papua Barat","SMA","-1.0597000","131.4606000"
"60400131","SMAN 2 MANOKWARI","JL. PERTANIAN WOSI","Prop. Papua Barat","SMA","-.8589000","134.0456000"
"60400377","SMAN 2 SORONG","JL. SUNGAI MARUNI KOTA SORONG","Prop. Papua Barat","SMA","-.8893350","131.3167010"
"60403487","SMA KEGURUAN KABUPATEN SORONG","JL. JENDRAL SUDIRMAN NO. 2","Prop. Papua Barat","SMA","-.8894300","131.2758983"
"60401121","SMAS YPK FAKFAK","JL. NICOLAS KABES FAKFAK","Prop. Papua Barat","SMA","-2.9315000","132.2963000"
"69859759","SMAS YPK SION SIDEY","Sidey Pantai","Prop. Papua Barat","SMA","-.7714120","133.5731240"
"60401549","SMAS ADVENT MANOKWARI","JL. KARYA ABRI","Prop. Papua Barat","SMA","-.8650000","134.0633000"
"60403783","SMA NEGERI 5 RAJA AMPAT","Jln. Pendidikan, No.1","Prop. Papua Barat","SMA","-.0496000","130.9959000"
"60403427","SMAN ANGGI","ANGGI","Prop. Papua Barat","SMA","-1.3734000","133.7417000"
"60403909","SMAN MINYABOUW","JL.MARINUS","Prop. Papua Barat","SMA","-1.1495000","133.7428000"
"60728673","SMAN 2 WINDESI","WINDESI","Prop. Papua Barat","SMA","-2.1345000","134.3527000"
"60401775","SMAN 1 INANWATAN","INANWATAN","Prop. Papua Barat","SMA","-2.1291230","132.1624090"
"60404140","SMA Negeri 14 Raja Ampat","PERUM 200 MOKO","Prop. Papua Barat","SMA","-.4161583","130.8457683"
"60404143","SMA NEGERI 13 RAJA AMPAT","KAMPUNG WEJIM","Prop. Papua Barat","SMA","-1.0813000","130.9810000"
"60401367","SMA NEGERI 1 KABUPATEN SORONG","JL. NUSANTARA NO. 1 MAJARAN","Prop. Papua Barat","SMA","-1.1225050","131.2858933"
"60403645","SMAS YPK 1","JL. MAWAR KLADEMAK 3","Prop. Papua Barat","SMA","-.8809000","131.2729000"
"60403526","SMAS KRISTEN SYALOM TERPADU","JL. TRANS MANOKWARI-BINTUNI","Prop. Papua Barat","SMA","-1.5817000","134.1340000"
"60403403","SMA NEGERI 3 KABUPATEN SORONG","KAMPUNG MEGA","Prop. Papua Barat","SMA","-.6508000","131.9166000"
"60403396","SMA NEGERI 5 KABUPATEN SORONG","KLAMALU","Prop. Papua Barat","SMA","-.9972450","131.3504671"
"60403489","SMAS SWADAYA ARANDAY","KAMPUNG REJOSARI ARANDAY","Prop. Papua Barat","SMA","-1.9636000","133.1152000"
"69822828","SMA NEGERI 9 KABUPATEN SORONG","Jl. Dr. Stepanus Malak","Prop. Papua Barat","SMA","-1.0710000","131.3549000"
"60401365","SMA MUHAMMADIYAH AIMAS KABUPATEN SORONG","MALAWELE","Prop. Papua Barat","SMA","-.9570402","131.3044259"
"60401961","SMAN 1 BINTUNI","Jl. Raya Bintuni, KM. 5 Sibena - Bintuni Barat","Prop. Papua Barat","SMA","-2.0895000","133.4967000"
"60400138","SMAN 1 RANSIKI","JL. S. CONDRONEGORO, SH","Prop. Papua Barat","SMA","-1.5099000","134.1763000"
"60403485","SMA YPK EKLESIA  KABUPATEN SORONG","JL. PENDIDIKAN","Prop. Papua Barat","SMA","-1.2422000","131.2301000"
"69883617","SMA NEGERI SURUREY","SURUREY","Prop. Papua Barat","SMA","-1.4922620","133.7812840"
"60401122","SMAN 1 FAKFAK","JL. KI HAJAR DEWANTARA FF","Prop. Papua Barat","SMA","-2.9197000","132.3569000"
"69899495","SMA NEGERI 3 KEBAR","Jl.Apriri Kampung Manaria","Prop. Papua Barat","SMA","-.8064000","133.0544000"
"69878251","SMA USDATARA KOTA SORONG","JL. ARTERI KM. 10 NO. 08 SORONG UTARA","Prop. Papua Barat","SMA","-1.0038280","131.4372240"
"60403364","SMA NEGERI 4 KABUPATEN SORONG","JL. ADOLON","Prop. Papua Barat","SMA","-1.1341000","131.4773000"
"60403398","SMA GUPPI  SALAWATI KABUPATEN SORONG","Jalan Supriyadi","Prop. Papua Barat","SMA","-1.1861000","131.2467000"
"60403785","SMA NEGERI 7 RAJA AMPAT","KAMPUNG YENANAS","Prop. Papua Barat","SMA","-.8050970","130.6781770"
"60403474","SMAS AVEROS","JL. D. E. OSOK KM 12 MASUK","Prop. Papua Barat","SMA","-.8987000","131.3315000"
"69728512","SMA PGRI  KABUPATEN SORONG","SP 3 MAYAMUK","Prop. Papua Barat","SMA","-1.0298167","131.2923116"
"69787175","SMA NEGERI NENEI","Kampung Nenei","Prop. Papua Barat","SMA","-1.5232000","133.9800000"
"69943853","SMA NEGERI 5 HINGK","Jalan Poros Hingk","Prop. Papua Barat","SMA","-1.2100296","133.9453459"
"60400310","SMAS ABT","JL. NUSA INDAH NO. 27","Prop. Papua Barat","SMA","-.8786000","131.2734000"
